{"type":"FeatureCollection","features":[{"type":"Feature","geometry":{"type":"LineString","coordinates":[[-0.96559,53.39548],[-0.9647,53.3964]]},"properties":{"name":"Main Street","category":"secondary","osm_type":"way","osm_id":"1322355470","ref":"B6045"}},{"type":"Feature","geometry":{"type":"LineString","coordinates":[[-0.9647,53.3964],[-0.96458,53.39656]]},"properties":{"name":"Main Street","category":"secondary","osm_type":"way","osm_id":"1322355471","ref":"B6045"}},{"type":"Feature","geometry":{"type":"LineString","coordinates":[[-0.80311,53.08307],[-0.80303,53.08305]]},"properties":{"name":"North Gate","category":"tertiary","osm_type":"way","osm_id":"1328080063"}},{"type":"Feature","geometry":{"type":"LineString","coordinates":[[-0.79903,53.08561],[-0.79903,53.08532]]},"properties":{"name":"Northern Road","category":"tertiary","osm_type":"way","osm_id":"1328080090"}},{"type":"Feature","geometry":{"type":"LineString","coordinates":[[-0.81891,53.05533],[-0.81841,53.05533],[-0.8184,53.05507],[-0.81883,53.05502],[-0.81891,53.05533]]},"properties":{"name":"Secondary and tertiary roads","category":"tertiary","osm_type":"way","osm_id":"1328463198"}},{"type":"Feature","geometry":{"type":"LineString","coordinates":[[-0.77983,53.04733],[-0.77833,53.04656]]},"properties":{"name":"B6326","category":"secondary","osm_type":"way","osm_id":"1328463211","ref":"B6326"}},{"type":"Feature","geometry":{"type":"LineString","coordinates":[[-0.78006,53.04805],[-0.78008,53.04775]]},"properties":{"name":"B6326","category":"secondary","osm_type":"way","osm_id":"1328463212","ref":"B6326"}},{"type":"Feature","geometry":{"type":"LineString","coordinates":[[-0.77983,53.04733],[-0.78029,53.04743]]},"properties":{"name":"B6326","category":"secondary","osm_type":"way","osm_id":"1328463213","ref":"B6326"}},{"type":"Feature","geometry":{"type":"LineString","coordinates":[[-0.78116,53.04763],[-0.78075,53.04774]]},"properties":{"name":"Staple Lane","category":"tertiary","osm_type":"way","osm_id":"1328463214"}},{"type":"Feature","geometry":{"type":"LineString","coordinates":[[-0.78073,53.04752],[-0.78116,53.04763]]},"properties":{"name":"Staple Lane","category":"tertiary","osm_type":"way","osm_id":"1328463215"}},{"type":"Feature","geometry":{"type":"LineString","coordinates":[[-0.78003,53.04762],[-0.77983,53.04733]]},"properties":{"name":"B6326","category":"secondary","osm_type":"way","osm_id":"1328463216","ref":"B6326"}},{"type":"Feature","geometry":{"type":"LineString","coordinates":[[-0.78046,53.04787],[-0.78006,53.04805]]},"properties":{"name":"B6326","category":"secondary","osm_type":"way","osm_id":"1328463217","ref":"B6326"}},{"type":"Feature","geometry":{"type":"LineString","coordinates":[[-0.78078,53.04761],[-0.78046,53.04787],[-0.78003,53.04767],[-0.78036,53.04742],[-0.78078,53.04761]]},"properties":{"name":"Secondary and tertiary roads","category":"secondary","osm_type":"way","osm_id":"1328463218"}},{"type":"Feature","geometry":{"type":"LineString","coordinates":[[-0.78923,53.04539],[-0.78726,53.04582],[-0.78385,53.04739],[-0.78116,53.04763]]},"properties":{"name":"Staple Lane","category":"tertiary","osm_type":"way","osm_id":"1328463219"}},{"type":"Feature","geometry":{"type":"LineString","coordinates":[[-0.79063,53.04482],[-0.7904,53.04515]]},"properties":{"name":"Staple Lane","category":"tertiary","osm_type":"way","osm_id":"1328463220"}},{"type":"Feature","geometry":{"type":"LineString","coordinates":[[-0.79005,53.04505],[-0.79063,53.04482]]},"properties":{"name":"Staple Lane","category":"tertiary","osm_type":"way","osm_id":"1328463221"}},{"type":"Feature","geometry":{"type":"LineString","coordinates":[[-0.78923,53.04539],[-0.78972,53.04523]]},"properties":{"name":"Staple Lane","category":"tertiary","osm_type":"way","osm_id":"1328463222"}},{"type":"Feature","geometry":{"type":"LineString","coordinates":[[-0.79082,53.04546],[-0.79032,53.04545]]},"properties":{"name":"Middlebeck Way","category":"tertiary","osm_type":"way","osm_id":"1328463223"}},{"type":"Feature","geometry":{"type":"LineString","coordinates":[[-0.78984,53.04544],[-0.78923,53.04539]]},"properties":{"name":"Staple Lane","category":"tertiary","osm_type":"way","osm_id":"1328463224"}},{"type":"Feature","geometry":{"type":"LineString","coordinates":[[-0.79045,53.04524],[-0.79082,53.04546]]},"properties":{"name":"Middlebeck Way","category":"tertiary","osm_type":"way","osm_id":"1328463225"}},{"type":"Feature","geometry":{"type":"LineString","coordinates":[[-0.78983,53.04511],[-0.79035,53.04512],[-0.79032,53.04545],[-0.78978,53.04541],[-0.78983,53.04511]]},"properties":{"name":"Secondary and tertiary roads","category":"tertiary","osm_type":"way","osm_id":"1328463226"}},{"type":"Feature","geometry":{"type":"LineString","coordinates":[[-0.49989,53.26929],[-0.49458,53.26877]]},"properties":{"name":"Deepdale Lane","category":"tertiary","osm_type":"way","osm_id":"1331313024"}},{"type":"Feature","geometry":{"type":"LineString","coordinates":[[-0.98618,53.0182],[-0.98485,53.01751],[-0.98267,53.01759],[-0.97826,53.01566]]},"properties":{"name":"Gonalston Lane","category":"tertiary","osm_type":"way","osm_id":"1331339153"}},{"type":"Feature","geometry":{"type":"LineString","coordinates":[[-0.97826,53.01566],[-0.97813,53.01561]]},"properties":{"name":"Gonalston Lane","category":"tertiary","osm_type":"way","osm_id":"1331339154"}},{"type":"Feature","geometry":{"type":"LineString","coordinates":[[-0.97219,53.01323],[-0.97078,53.01249],[-0.96957,53.01264]]},"properties":{"name":"Gonalston Lane","category":"tertiary","osm_type":"way","osm_id":"1331339267"}},{"type":"Feature","geometry":{"type":"LineString","coordinates":[[-0.9723,53.01327],[-0.97219,53.01323]]},"properties":{"name":"Gonalston Lane","category":"tertiary","osm_type":"way","osm_id":"1331339268"}},{"type":"Feature","geometry":{"type":"LineString","coordinates":[[-0.81377,53.07596],[-0.81364,53.07606]]},"properties":{"name":"Castle Gate","category":"secondary","osm_type":"way","osm_id":"1335849454","ref":"B6166"}},{"type":"Feature","geometry":{"type":"LineString","coordinates":[[-0.78681,53.06016],[-0.78409,53.05574]]},"properties":{"name":"London Road","category":"secondary","osm_type":"way","osm_id":"1335981512","ref":"B6326"}},{"type":"Feature","geometry":{"type":"LineString","coordinates":[[-0.79294,53.07027],[-0.79362,53.07058]]},"properties":{"name":"Barnby Road","category":"tertiary","osm_type":"way","osm_id":"1336066486"}},{"type":"Feature","geometry":{"type":"LineString","coordinates":[[-0.58125,53.05702],[-0.58266,53.05704]]},"properties":{"name":"Sleaford Road","category":"tertiary","osm_type":"way","osm_id":"1339029143"}},{"type":"Feature","geometry":{"type":"LineString","coordinates":[[-0.52214,53.05397],[-0.51149,53.05288],[-0.50406,53.05263],[-0.49379,53.05467]]},"properties":{"name":"Long Lane","category":"tertiary","osm_type":"way","osm_id":"1339045135"}},{"type":"Feature","geometry":{"type":"LineString","coordinates":[[-0.49379,53.05467],[-0.49062,53.05537],[-0.48699,53.05535]]},"properties":{"name":"Long Lane","category":"tertiary","osm_type":"way","osm_id":"1339045136"}},{"type":"Feature","geometry":{"type":"LineString","coordinates":[[-0.76206,53.38739],[-0.7618,53.38744]]},"properties":{"name":"Foxby Lane","category":"tertiary","osm_type":"way","osm_id":"1342260501"}},{"type":"Feature","geometry":{"type":"LineString","coordinates":[[-0.12232,53.20879],[-0.12283,53.20859]]},"properties":{"name":"West Street","category":"tertiary","osm_type":"way","osm_id":"1349024068"}},{"type":"Feature","geometry":{"type":"LineString","coordinates":[[-0.22106,53.15863],[-0.22118,53.15846]]},"properties":{"name":"Monument Road","category":"tertiary","osm_type":"way","osm_id":"1349024072"}},{"type":"Feature","geometry":{"type":"LineString","coordinates":[[-0.22124,53.15859],[-0.22126,53.15863]]},"properties":{"name":"Stixwould Road","category":"tertiary","osm_type":"way","osm_id":"1349024073"}},{"type":"Feature","geometry":{"type":"LineString","coordinates":[[-0.43136,53.02675],[-0.43218,53.0268]]},"properties":{"name":"Lincoln Road","category":"tertiary","osm_type":"way","osm_id":"1349024087"}},{"type":"Feature","geometry":{"type":"LineString","coordinates":[[-0.42605,53.02083],[-0.42598,53.02088]]},"properties":{"name":"Sleaford Road","category":"secondary","osm_type":"way","osm_id":"1349024088","ref":"B1209"}},{"type":"Feature","geometry":{"type":"LineString","coordinates":[[-0.43126,53.16495],[-0.43462,53.16407]]},"properties":{"name":"Wellhead Lane","category":"tertiary","osm_type":"way","osm_id":"1352435582"}},{"type":"Feature","geometry":{"type":"LineString","coordinates":[[-0.43102,53.16501],[-0.43126,53.16495]]},"properties":{"name":"Wellhead Lane","category":"tertiary","osm_type":"way","osm_id":"1352435583"}},{"type":"Feature","geometry":{"type":"LineString","coordinates":[[-0.41522,53.15133],[-0.41493,53.15148]]},"properties":{"name":"Lincoln Road","category":"tertiary","osm_type":"way","osm_id":"1352436126"}},{"type":"Feature","geometry":{"type":"LineString","coordinates":[[-0.41541,53.15121],[-0.41522,53.15133]]},"properties":{"name":"Lincoln Road","category":"tertiary","osm_type":"way","osm_id":"1352436127"}},{"type":"Feature","geometry":{"type":"LineString","coordinates":[[-0.77075,53.40206],[-0.77051,53.4021]]},"properties":{"name":"Spital Terrace","category":"secondary","osm_type":"way","osm_id":"1352436433"}},{"type":"Feature","geometry":{"type":"LineString","coordinates":[[-0.77452,53.4128],[-0.77789,53.41306]]},"properties":{"name":"The Little Belt","category":"tertiary","osm_type":"way","osm_id":"1352526766"}},{"type":"Feature","geometry":{"type":"LineString","coordinates":[[-0.77409,53.41276],[-0.77452,53.4128]]},"properties":{"name":"The Little Belt","category":"tertiary","osm_type":"way","osm_id":"1352526767"}},{"type":"Feature","geometry":{"type":"LineString","coordinates":[[-0.77789,53.41306],[-0.77842,53.4131]]},"properties":{"name":"The Little Belt","category":"tertiary","osm_type":"way","osm_id":"1352526768"}},{"type":"Feature","geometry":{"type":"LineString","coordinates":[[-0.76699,53.4119],[-0.77044,53.41217]]},"properties":{"name":"The Little Belt","category":"tertiary","osm_type":"way","osm_id":"1352526770"}},{"type":"Feature","geometry":{"type":"LineString","coordinates":[[-0.77842,53.4131],[-0.77856,53.41312]]},"properties":{"name":"The Little Belt","category":"tertiary","osm_type":"way","osm_id":"1352526771"}},{"type":"Feature","geometry":{"type":"LineString","coordinates":[[-0.77044,53.41217],[-0.77082,53.41225]]},"properties":{"name":"The Little Belt","category":"tertiary","osm_type":"way","osm_id":"1352526775"}},{"type":"Feature","geometry":{"type":"LineString","coordinates":[[-0.70379,53.43374],[-0.70479,53.43905]]},"properties":{"name":"Station Road","category":"tertiary","osm_type":"way","osm_id":"1352527569"}},{"type":"Feature","geometry":{"type":"LineString","coordinates":[[-0.70479,53.43905],[-0.70485,53.43913]]},"properties":{"name":"Station Road","category":"tertiary","osm_type":"way","osm_id":"1352527570"}},{"type":"Feature","geometry":{"type":"LineString","coordinates":[[-0.58462,53.05901],[-0.58327,53.05862]]},"properties":{"name":"Newark Road","category":"tertiary","osm_type":"way","osm_id":"1358435665"}},{"type":"Feature","geometry":{"type":"LineString","coordinates":[[-0.59994,53.01988],[-0.59974,53.01996]]},"properties":{"name":"Frieston Road","category":"tertiary","osm_type":"way","osm_id":"1358439484"}},{"type":"Feature","geometry":{"type":"LineString","coordinates":[[-0.59944,53.01965],[-0.59971,53.01977]]},"properties":{"name":"High Street","category":"tertiary","osm_type":"way","osm_id":"1358439485"}},{"type":"Feature","geometry":{"type":"LineString","coordinates":[[-0.24315,53.03014],[-0.24474,53.03221]]},"properties":{"name":"Clay Bank","category":"secondary","osm_type":"way","osm_id":"1359338989","ref":"B1395"}},{"type":"Feature","geometry":{"type":"LineString","coordinates":[[-0.25608,53.03274],[-0.2562,53.03402]]},"properties":{"name":"Wood Lane","category":"secondary","osm_type":"way","osm_id":"1359338990","ref":"B1395"}},{"type":"Feature","geometry":{"type":"LineString","coordinates":[[-0.27983,53.04992],[-0.28152,53.05282]]},"properties":{"name":"B1395","category":"secondary","osm_type":"way","osm_id":"1359338991","ref":"B1395"}},{"type":"Feature","geometry":{"type":"LineString","coordinates":[[-0.38632,53.47805],[-0.38917,53.4763]]},"properties":{"name":"Kelsey Road","category":"secondary","osm_type":"way","osm_id":"1365961458","ref":"B1205"}},{"type":"Feature","geometry":{"type":"LineString","coordinates":[[-0.38917,53.4763],[-0.38927,53.47624]]},"properties":{"name":"Kelsey Road","category":"secondary","osm_type":"way","osm_id":"1365961459","ref":"B1205"}},{"type":"Feature","geometry":{"type":"LineString","coordinates":[[-0.38632,53.47805],[-0.38233,53.4751]]},"properties":{"name":"Holton Road","category":"secondary","osm_type":"way","osm_id":"1365961460","ref":"B1434"}},{"type":"Feature","geometry":{"type":"LineString","coordinates":[[-0.38233,53.4751],[-0.38223,53.47503]]},"properties":{"name":"Holton Road","category":"secondary","osm_type":"way","osm_id":"1365961461","ref":"B1434"}},{"type":"Feature","geometry":{"type":"LineString","coordinates":[[-0.38736,53.47886],[-0.38632,53.47805]]},"properties":{"name":"Brigg Road","category":"secondary","osm_type":"way","osm_id":"1365961466","ref":"B1434"}},{"type":"Feature","geometry":{"type":"LineString","coordinates":[[-0.38745,53.47893],[-0.38736,53.47886]]},"properties":{"name":"Brigg Road","category":"secondary","osm_type":"way","osm_id":"1365961467","ref":"B1434"}},{"type":"Feature","geometry":{"type":"LineString","coordinates":[[-0.76873,53.05643],[-0.76861,53.05648]]},"properties":{"name":"Main Street","category":"tertiary","osm_type":"way","osm_id":"1367456738"}},{"type":"Feature","geometry":{"type":"LineString","coordinates":[[-0.8743,53.04133],[-0.87367,53.04186]]},"properties":{"name":"Fosse Road","category":"tertiary","osm_type":"way","osm_id":"1379409872"}},{"type":"Feature","geometry":{"type":"LineString","coordinates":[[-0.64096,53.12738],[-0.64309,53.12375]]},"properties":{"name":"Carlton Road","category":"tertiary","osm_type":"way","osm_id":"1380301218"}},{"type":"Feature","geometry":{"type":"LineString","coordinates":[[-0.81434,53.30223],[-0.81573,53.30064],[-0.82057,53.29968],[-0.82242,53.29855]]},"properties":{"name":"Secondary and tertiary roads","category":"tertiary","osm_type":"way","osm_id":"1382871656"}},{"type":"Feature","geometry":{"type":"LineString","coordinates":[[-0.79703,53.27353],[-0.79688,53.27225]]},"properties":{"name":"Secondary and tertiary roads","category":"tertiary","osm_type":"way","osm_id":"1382871657"}},{"type":"Feature","geometry":{"type":"LineString","coordinates":[[-0.54853,53.23761],[-0.54872,53.23671]]},"properties":{"name":"Yarborough Road","category":"secondary","osm_type":"way","osm_id":"1382871673"}},{"type":"Feature","geometry":{"type":"LineString","coordinates":[[-0.81538,53.30705],[-0.8128,53.30728]]},"properties":{"name":"Green Lane","category":"tertiary","osm_type":"way","osm_id":"1382871674"}},{"type":"Feature","geometry":{"type":"LineString","coordinates":[[-0.8128,53.30728],[-0.81239,53.30731]]},"properties":{"name":"Green Lane","category":"tertiary","osm_type":"way","osm_id":"1382871675"}},{"type":"Feature","geometry":{"type":"LineString","coordinates":[[-0.82329,53.29429],[-0.82372,53.29431]]},"properties":{"name":"Retford Road","category":"tertiary","osm_type":"way","osm_id":"1382871680"}},{"type":"Feature","geometry":{"type":"LineString","coordinates":[[-0.83679,53.29485],[-0.83938,53.29515]]},"properties":{"name":"Retford Road","category":"tertiary","osm_type":"way","osm_id":"1382871681"}},{"type":"Feature","geometry":{"type":"LineString","coordinates":[[-0.83938,53.29515],[-0.83952,53.29518]]},"properties":{"name":"Retford Road","category":"tertiary","osm_type":"way","osm_id":"1382871682"}},{"type":"Feature","geometry":{"type":"LineString","coordinates":[[-0.02065,53.48971],[-0.02181,53.48965]]},"properties":{"name":"Chapel Road","category":"tertiary","osm_type":"way","osm_id":"1384333522"}},{"type":"Feature","geometry":{"type":"LineString","coordinates":[[-0.42566,53.49938],[-0.42505,53.49881],[-0.42549,53.49685]]},"properties":{"name":"Grange Lane","category":"tertiary","osm_type":"way","osm_id":"1385166973"}},{"type":"Feature","geometry":{"type":"LineString","coordinates":[[-0.4756,53.21916],[-0.47561,53.21893]]},"properties":{"name":"Church Hill","category":"tertiary","osm_type":"way","osm_id":"1386146338"}},{"type":"Feature","geometry":{"type":"LineString","coordinates":[[-0.08997,53.12027],[-0.08994,53.1203]]},"properties":{"name":"Fen Lane","category":"tertiary","osm_type":"way","osm_id":"1386551775"}},{"type":"Feature","geometry":{"type":"LineString","coordinates":[[-0.09012,53.12011],[-0.09009,53.12014]]},"properties":{"name":"Fen Lane","category":"tertiary","osm_type":"way","osm_id":"1386551776"}},{"type":"Feature","geometry":{"type":"LineString","coordinates":[[-0.69282,53.3763],[-0.69323,53.3785]]},"properties":{"name":"Common Lane","category":"tertiary","osm_type":"way","osm_id":"1386591492"}},{"type":"Feature","geometry":{"type":"LineString","coordinates":[[-0.69279,53.37621],[-0.69282,53.3763]]},"properties":{"name":"Common Lane","category":"tertiary","osm_type":"way","osm_id":"1386591493"}},{"type":"Feature","geometry":{"type":"LineString","coordinates":[[-0.48398,53.30391],[-0.4829,53.30133]]},"properties":{"name":"Lincoln Road","category":"tertiary","osm_type":"way","osm_id":"1393266177"}},{"type":"Feature","geometry":{"type":"LineString","coordinates":[[-0.66671,53.31768],[-0.66683,53.31711],[-0.66603,53.31634]]},"properties":{"name":"High Street","category":"secondary","osm_type":"way","osm_id":"1408624146","ref":"B1241"}},{"type":"Feature","geometry":{"type":"LineString","coordinates":[[-0.66603,53.31634],[-0.66588,53.31619]]},"properties":{"name":"High Street","category":"secondary","osm_type":"way","osm_id":"1408624147","ref":"B1241"}},{"type":"Feature","geometry":{"type":"LineString","coordinates":[[-0.17887,53.42739],[-0.17941,53.42792]]},"properties":{"name":"Back Lane","category":"tertiary","osm_type":"way","osm_id":"1413257243"}},{"type":"Feature","geometry":{"type":"LineString","coordinates":[[-0.43327,53.23631],[-0.43392,53.2368],[-0.43471,53.23945]]},"properties":{"name":"Reepham Road","category":"tertiary","osm_type":"way","osm_id":"1419110524"}},{"type":"Feature","geometry":{"type":"LineString","coordinates":[[-0.43471,53.23945],[-0.43514,53.24054]]},"properties":{"name":"Reepham Road","category":"tertiary","osm_type":"way","osm_id":"1419110525"}},{"type":"Feature","geometry":{"type":"LineString","coordinates":[[-0.33088,53.10222],[-0.32742,53.1005]]},"properties":{"name":"B1189","category":"secondary","osm_type":"way","osm_id":"1421399911","ref":"B1189"}},{"type":"Feature","geometry":{"type":"LineString","coordinates":[[-0.82598,53.05555],[-0.81966,53.05509]]},"properties":{"name":"Middlebeck Way","category":"tertiary","osm_type":"way","osm_id":"1422593252"}},{"type":"Feature","geometry":{"type":"LineString","coordinates":[[-0.82753,53.05537],[-0.82743,53.05513]]},"properties":{"name":"Hawton Road","category":"tertiary","osm_type":"way","osm_id":"1422593253"}},{"type":"Feature","geometry":{"type":"LineString","coordinates":[[-0.21516,53.2023],[-0.21499,53.20284],[-0.21424,53.20294]]},"properties":{"name":"Main Street","category":"secondary","osm_type":"way","osm_id":"1423867506","ref":"B1190"}},{"type":"Feature","geometry":{"type":"LineString","coordinates":[[-0.21424,53.20294],[-0.21309,53.203],[-0.21294,53.20342]]},"properties":{"name":"Main Street","category":"secondary","osm_type":"way","osm_id":"1423867507","ref":"B1190"}},{"type":"Feature","geometry":{"type":"LineString","coordinates":[[-0.21294,53.20342],[-0.21294,53.20431]]},"properties":{"name":"Main Street","category":"secondary","osm_type":"way","osm_id":"1423868178","ref":"B1190"}},{"type":"Feature","geometry":{"type":"LineString","coordinates":[[-0.21294,53.20431],[-0.21293,53.20451]]},"properties":{"name":"Horncastle Road","category":"secondary","osm_type":"way","osm_id":"1423868651","ref":"B1190"}},{"type":"Feature","geometry":{"type":"LineString","coordinates":[[-0.13135,53.45706],[-0.13069,53.45607]]},"properties":{"name":"Secondary and tertiary roads","category":"tertiary","osm_type":"way","osm_id":"1424378532"}},{"type":"Feature","geometry":{"type":"LineString","coordinates":[[-0.01414,53.35962],[-0.0083,53.36329]]},"properties":{"name":"Horncastle Road","category":"tertiary","osm_type":"way","osm_id":"1424541522"}},{"type":"Feature","geometry":{"type":"LineString","coordinates":[[-0.01013,53.24776],[-0.01133,53.2462]]},"properties":{"name":"Secondary and tertiary roads","category":"tertiary","osm_type":"way","osm_id":"1424547455"}},{"type":"Feature","geometry":{"type":"LineString","coordinates":[[-0.57453,53.33369],[-0.57615,53.33367]]},"properties":{"name":"Ingham Road","category":"tertiary","osm_type":"way","osm_id":"1425405442"}},{"type":"Feature","geometry":{"type":"LineString","coordinates":[[-0.79895,53.27686],[-0.79853,53.27686]]},"properties":{"name":"Main Street","category":"tertiary","osm_type":"way","osm_id":"1429805894"}},{"type":"Feature","geometry":{"type":"LineString","coordinates":[[-0.79766,53.27684],[-0.7967,53.27682]]},"properties":{"name":"Main Street","category":"tertiary","osm_type":"way","osm_id":"1429805895"}},{"type":"Feature","geometry":{"type":"LineString","coordinates":[[-0.62661,53.17689],[-0.62502,53.17671]]},"properties":{"name":"Middle Lane","category":"tertiary","osm_type":"way","osm_id":"1434685226"}},{"type":"Feature","geometry":{"type":"LineString","coordinates":[[-0.54872,53.23671],[-0.54875,53.23659]]},"properties":{"name":"Yarborough Road","category":"secondary","osm_type":"way","osm_id":"1442484366"}},{"type":"Feature","geometry":{"type":"LineString","coordinates":[[-0.33087,53.3675],[-0.32981,53.36488]]},"properties":{"name":"Linwood Road","category":"secondary","osm_type":"way","osm_id":"1442903616","ref":"B1202"}},{"type":"Feature","geometry":{"type":"LineString","coordinates":[[-0.3309,53.36758],[-0.33087,53.3675]]},"properties":{"name":"Linwood Road","category":"secondary","osm_type":"way","osm_id":"1442903617","ref":"B1202"}},{"type":"Feature","geometry":{"type":"LineString","coordinates":[[-0.11916,53.07703],[-0.12151,53.08174]]},"properties":{"name":"Secondary and tertiary roads","category":"tertiary","osm_type":"way","osm_id":"1442917597"}},{"type":"Feature","geometry":{"type":"LineString","coordinates":[[-0.11907,53.07685],[-0.11916,53.07703]]},"properties":{"name":"Secondary and tertiary roads","category":"tertiary","osm_type":"way","osm_id":"1442917598"}},{"type":"Feature","geometry":{"type":"LineString","coordinates":[[-0.075,53.03217],[-0.09106,53.02986]]},"properties":{"name":"Canister Lane","category":"secondary","osm_type":"way","osm_id":"1443036993","ref":"B1184"}},{"type":"Feature","geometry":{"type":"LineString","coordinates":[[-0.07479,53.0322],[-0.075,53.03217]]},"properties":{"name":"Canister Lane","category":"secondary","osm_type":"way","osm_id":"1443036994","ref":"B1184"}},{"type":"Feature","geometry":{"type":"LineString","coordinates":[[-0.31307,53.49466],[-0.31307,53.49487]]},"properties":{"name":"South Street","category":"tertiary","osm_type":"way","osm_id":"1444488169"}},{"type":"Feature","geometry":{"type":"LineString","coordinates":[[-0.29357,53.45921],[-0.28988,53.45432]]},"properties":{"name":"High Street","category":"secondary","osm_type":"way","osm_id":"1444488172","ref":"B1225"}},{"type":"Feature","geometry":{"type":"LineString","coordinates":[[-0.29518,53.46127],[-0.29357,53.45921]]},"properties":{"name":"High Street","category":"secondary","osm_type":"way","osm_id":"1444488173","ref":"B1225"}},{"type":"Feature","geometry":{"type":"LineString","coordinates":[[-0.28967,53.454],[-0.2875,53.45142],[-0.27987,53.44555],[-0.27556,53.43997]]},"properties":{"name":"High Street","category":"secondary","osm_type":"way","osm_id":"1444488186","ref":"B1225"}},{"type":"Feature","geometry":{"type":"LineString","coordinates":[[-0.28988,53.45432],[-0.28967,53.454]]},"properties":{"name":"High Street","category":"secondary","osm_type":"way","osm_id":"1444488187","ref":"B1225"}},{"type":"Feature","geometry":{"type":"LineString","coordinates":[[-0.29741,53.3985],[-0.29458,53.39916]]},"properties":{"name":"Rasen Road","category":"secondary","osm_type":"way","osm_id":"1444488208","ref":"B1203"}},{"type":"Feature","geometry":{"type":"LineString","coordinates":[[-0.30397,53.3969],[-0.29741,53.3985]]},"properties":{"name":"Rasen Road","category":"secondary","osm_type":"way","osm_id":"1444488209","ref":"B1203"}},{"type":"Feature","geometry":{"type":"LineString","coordinates":[[-0.26753,53.42676],[-0.26388,53.42563]]},"properties":{"name":"High Street","category":"secondary","osm_type":"way","osm_id":"1444488238","ref":"B1225"}},{"type":"Feature","geometry":{"type":"LineString","coordinates":[[-0.2696,53.42836],[-0.26753,53.42676]]},"properties":{"name":"High Street","category":"secondary","osm_type":"way","osm_id":"1444488239","ref":"B1225"}},{"type":"Feature","geometry":{"type":"LineString","coordinates":[[-0.18985,53.38694],[-0.19128,53.39308]]},"properties":{"name":"Binbrook Lane","category":"tertiary","osm_type":"way","osm_id":"1444488249"}},{"type":"Feature","geometry":{"type":"LineString","coordinates":[[-0.19128,53.39308],[-0.18433,53.39564]]},"properties":{"name":"Binbrook Lane","category":"tertiary","osm_type":"way","osm_id":"1444488250"}},{"type":"Feature","geometry":{"type":"LineString","coordinates":[[-0.17578,53.4282],[-0.17941,53.42792]]},"properties":{"name":"Secondary and tertiary roads","category":"tertiary","osm_type":"way","osm_id":"1444488252"}},{"type":"Feature","geometry":{"type":"LineString","coordinates":[[-0.18077,53.42901],[-0.18053,53.42909]]},"properties":{"name":"Grimsby Road","category":"secondary","osm_type":"way","osm_id":"1444488253","ref":"B1203"}},{"type":"Feature","geometry":{"type":"LineString","coordinates":[[-0.19991,53.43718],[-0.19447,53.43564],[-0.19085,53.43417]]},"properties":{"name":"Orford Road","category":"tertiary","osm_type":"way","osm_id":"1444488254"}},{"type":"Feature","geometry":{"type":"LineString","coordinates":[[-0.25323,53.46093],[-0.26047,53.47072],[-0.26418,53.47353]]},"properties":{"name":"Caistor Road","category":"tertiary","osm_type":"way","osm_id":"1444488258"}},{"type":"Feature","geometry":{"type":"LineString","coordinates":[[-0.14622,53.32913],[-0.14719,53.32954]]},"properties":{"name":"Main Road","category":"tertiary","osm_type":"way","osm_id":"1444586497"}},{"type":"Feature","geometry":{"type":"LineString","coordinates":[[-0.32438,53.21104],[-0.32443,53.21073]]},"properties":{"name":"Wragby Road","category":"secondary","osm_type":"way","osm_id":"1444649544","ref":"B1202"}},{"type":"Feature","geometry":{"type":"LineString","coordinates":[[-0.43428,53.23481],[-0.4355,53.23496]]},"properties":{"name":"Lincoln Road","category":"tertiary","osm_type":"way","osm_id":"1444652636"}},{"type":"Feature","geometry":{"type":"LineString","coordinates":[[-0.45647,53.23998],[-0.45543,53.24057],[-0.45553,53.24124]]},"properties":{"name":"Croft Lane","category":"tertiary","osm_type":"way","osm_id":"1444652640"}},{"type":"Feature","geometry":{"type":"LineString","coordinates":[[-0.51307,53.25157],[-0.51479,53.25072],[-0.51687,53.25126]]},"properties":{"name":"Wolsey Way","category":"tertiary","osm_type":"way","osm_id":"1444655102"}},{"type":"Feature","geometry":{"type":"LineString","coordinates":[[-0.51726,53.25142],[-0.51742,53.25152]]},"properties":{"name":"Wolsey Way","category":"tertiary","osm_type":"way","osm_id":"1444655104"}},{"type":"Feature","geometry":{"type":"LineString","coordinates":[[-0.52786,53.2425],[-0.5276,53.24272]]},"properties":{"name":"Nettleham Road","category":"tertiary","osm_type":"way","osm_id":"1444655105"}},{"type":"Feature","geometry":{"type":"LineString","coordinates":[[-0.53799,53.24452],[-0.53799,53.24228]]},"properties":{"name":"Newport","category":"tertiary","osm_type":"way","osm_id":"1444655108"}},{"type":"Feature","geometry":{"type":"LineString","coordinates":[[-0.54621,53.21508],[-0.54589,53.21611]]},"properties":{"name":"High Street","category":"tertiary","osm_type":"way","osm_id":"1444661508"}},{"type":"Feature","geometry":{"type":"LineString","coordinates":[[-0.41067,53.00169],[-0.41109,53.00218]]},"properties":{"name":"North Gate","category":"secondary","osm_type":"way","osm_id":"1448247312","ref":"B1518"}},{"type":"Feature","geometry":{"type":"LineString","coordinates":[[-0.4093,53.27607],[-0.40861,53.27578]]},"properties":{"name":"Scothern Lane","category":"tertiary","osm_type":"way","osm_id":"1452324213"}},{"type":"Feature","geometry":{"type":"LineString","coordinates":[[-0.40578,53.1944],[-0.41008,53.19325]]},"properties":{"name":"Plough Hill","category":"secondary","osm_type":"way","osm_id":"1453298985","ref":"B1202"}},{"type":"Feature","geometry":{"type":"LineString","coordinates":[[-0.19114,53.46398],[-0.18457,53.4626],[-0.18268,53.46261]]},"properties":{"name":"Croxby Road","category":"tertiary","osm_type":"way","osm_id":"1456707962"}},{"type":"Feature","geometry":{"type":"LineString","coordinates":[[-0.19547,53.46475],[-0.19114,53.46398]]},"properties":{"name":"Secondary and tertiary roads","category":"tertiary","osm_type":"way","osm_id":"1458019414"}},{"type":"Feature","geometry":{"type":"LineString","coordinates":[[-0.21133,53.46746],[-0.20779,53.46745]]},"properties":{"name":"Secondary and tertiary roads","category":"tertiary","osm_type":"way","osm_id":"1458019415"}},{"type":"Feature","geometry":{"type":"LineString","coordinates":[[-0.99684,53.18174],[-0.99867,53.18305]]},"properties":{"name":"Eakring Road","category":"tertiary","osm_type":"way","osm_id":"1458100162"}},{"type":"Feature","geometry":{"type":"LineString","coordinates":[[-0.99991,53.18696],[-0.99977,53.18714]]},"properties":{"name":"Eakring Road","category":"tertiary","osm_type":"way","osm_id":"1458100163"}},{"type":"Feature","geometry":{"type":"LineString","coordinates":[[-0.67175,53.15427],[-0.67165,53.15445],[-0.67123,53.15441],[-0.67136,53.15416],[-0.67175,53.15427]]},"properties":{"name":"Secondary and tertiary roads","category":"tertiary","osm_type":"way","osm_id":"1462916369"}},{"type":"Feature","geometry":{"type":"LineString","coordinates":[[-0.67137,53.15448],[-0.67077,53.1545]]},"properties":{"name":"Azalea Lane","category":"tertiary","osm_type":"way","osm_id":"1462916370"}},{"type":"Feature","geometry":{"type":"LineString","coordinates":[[-0.67175,53.15427],[-0.67198,53.15469]]},"properties":{"name":"Camp Road","category":"tertiary","osm_type":"way","osm_id":"1462916371"}},{"type":"Feature","geometry":{"type":"LineString","coordinates":[[-0.67136,53.15391],[-0.67164,53.15418]]},"properties":{"name":"Camp Road","category":"tertiary","osm_type":"way","osm_id":"1462916372"}},{"type":"Feature","geometry":{"type":"LineString","coordinates":[[-0.67124,53.15422],[-0.67136,53.15391]]},"properties":{"name":"Camp Road","category":"tertiary","osm_type":"way","osm_id":"1462916373"}},{"type":"Feature","geometry":{"type":"LineString","coordinates":[[-0.67198,53.15469],[-0.67149,53.15449]]},"properties":{"name":"Camp Road","category":"tertiary","osm_type":"way","osm_id":"1462916374"}},{"type":"Feature","geometry":{"type":"LineString","coordinates":[[-0.67077,53.1545],[-0.67119,53.1543]]},"properties":{"name":"Azalea Lane","category":"tertiary","osm_type":"way","osm_id":"1462916375"}},{"type":"Feature","geometry":{"type":"LineString","coordinates":[[-0.66319,53.15661],[-0.66775,53.15645],[-0.66909,53.15588],[-0.66913,53.15535]]},"properties":{"name":"Azalea Lane","category":"tertiary","osm_type":"way","osm_id":"1462942847"}},{"type":"Feature","geometry":{"type":"LineString","coordinates":[[-0.669,53.15514],[-0.66944,53.1547]]},"properties":{"name":"Azalea Lane","category":"tertiary","osm_type":"way","osm_id":"1463526217"}},{"type":"Feature","geometry":{"type":"LineString","coordinates":[[-0.66944,53.1547],[-0.67077,53.1545]]},"properties":{"name":"Azalea Lane","category":"tertiary","osm_type":"way","osm_id":"1463526218"}},{"type":"Feature","geometry":{"type":"LineString","coordinates":[[-0.66913,53.15535],[-0.669,53.15514]]},"properties":{"name":"Azalea Lane","category":"tertiary","osm_type":"way","osm_id":"1463526219"}},{"type":"Feature","geometry":{"type":"LineString","coordinates":[[-0.52082,53.45332],[-0.52118,53.45362]]},"properties":{"name":"Redbourne Road","category":"secondary","osm_type":"way","osm_id":"1464108574","ref":"B1205"}},{"type":"Feature","geometry":{"type":"LineString","coordinates":[[-0.52434,53.45195],[-0.52354,53.45098]]},"properties":{"name":"Cliff Crescent","category":"tertiary","osm_type":"way","osm_id":"1464373394"}},{"type":"Feature","geometry":{"type":"LineString","coordinates":[[-0.82082,53.07107],[-0.82048,53.07113]]},"properties":{"name":"Victoria Street","category":"secondary","osm_type":"way","osm_id":"1470255450","ref":"B6166"}},{"type":"Feature","geometry":{"type":"LineString","coordinates":[[-0.42239,53.17973],[-0.42235,53.17923]]},"properties":{"name":"Nocton Road","category":"secondary","osm_type":"way","osm_id":"1475029271","ref":"B1202"}},{"type":"Feature","geometry":{"type":"LineString","coordinates":[[-0.42235,53.17923],[-0.4223,53.17915]]},"properties":{"name":"Nocton Road","category":"secondary","osm_type":"way","osm_id":"1475029272","ref":"B1202"}},{"type":"Feature","geometry":{"type":"LineString","coordinates":[[-0.79584,53.07631],[-0.79534,53.07626]]},"properties":{"name":"Secondary and tertiary roads","category":"tertiary","osm_type":"way","osm_id":"1476898355"}},{"type":"Feature","geometry":{"type":"LineString","coordinates":[[-0.79574,53.07624],[-0.79624,53.0763]]},"properties":{"name":"Beacon Hill Road","category":"tertiary","osm_type":"way","osm_id":"1476898356"}},{"type":"Feature","geometry":{"type":"LineString","coordinates":[[-0.79624,53.0763],[-0.79584,53.07631]]},"properties":{"name":"Secondary and tertiary roads","category":"tertiary","osm_type":"way","osm_id":"1476898360"}},{"type":"Feature","geometry":{"type":"LineString","coordinates":[[-0.79583,53.07624],[-0.79584,53.07631]]},"properties":{"name":"Northern Road","category":"tertiary","osm_type":"way","osm_id":"1476898361"}},{"type":"Feature","geometry":{"type":"LineString","coordinates":[[-0.79661,53.07632],[-0.79623,53.07634]]},"properties":{"name":"Secondary and tertiary roads","category":"tertiary_link","osm_type":"way","osm_id":"1476898362"}},{"type":"Feature","geometry":{"type":"LineString","coordinates":[[-0.79692,53.07636],[-0.79797,53.07655]]},"properties":{"name":"Sleaford Road","category":"tertiary","osm_type":"way","osm_id":"1476898385"}},{"type":"Feature","geometry":{"type":"LineString","coordinates":[[-0.79534,53.07626],[-0.79574,53.07624]]},"properties":{"name":"Beacon Hill Road","category":"tertiary","osm_type":"way","osm_id":"1476898386"}},{"type":"Feature","geometry":{"type":"LineString","coordinates":[[-0.79584,53.07631],[-0.79632,53.07709]]},"properties":{"name":"Northern Road","category":"tertiary","osm_type":"way","osm_id":"1476906012"}},{"type":"Feature","geometry":{"type":"LineString","coordinates":[[-0.79632,53.07709],[-0.79695,53.07793],[-0.7964,53.07928]]},"properties":{"name":"Northern Road","category":"tertiary","osm_type":"way","osm_id":"1476906013"}},{"type":"Feature","geometry":{"type":"LineString","coordinates":[[-0.79674,53.07981],[-0.79763,53.08133]]},"properties":{"name":"Northern Road","category":"tertiary","osm_type":"way","osm_id":"1476906015"}},{"type":"Feature","geometry":{"type":"LineString","coordinates":[[-0.7964,53.07928],[-0.79674,53.07981]]},"properties":{"name":"Northern Road","category":"tertiary","osm_type":"way","osm_id":"1476906016"}},{"type":"Feature","geometry":{"type":"LineString","coordinates":[[-0.79763,53.08133],[-0.79777,53.08158]]},"properties":{"name":"Northern Road","category":"tertiary","osm_type":"way","osm_id":"1476906022"}},{"type":"Feature","geometry":{"type":"LineString","coordinates":[[-0.79968,53.0849],[-0.79903,53.08532]]},"properties":{"name":"Northern Road","category":"tertiary","osm_type":"way","osm_id":"1476906026"}},{"type":"Feature","geometry":{"type":"LineString","coordinates":[[-0.79903,53.08532],[-0.79916,53.08555]]},"properties":{"name":"Northern Road","category":"tertiary","osm_type":"way","osm_id":"1476906032"}},{"type":"Feature","geometry":{"type":"LineString","coordinates":[[-0.77162,53.07793],[-0.77837,53.0769]]},"properties":{"name":"Beacon Hill Road","category":"tertiary","osm_type":"way","osm_id":"1476972823"}},{"type":"Feature","geometry":{"type":"LineString","coordinates":[[-0.77837,53.0769],[-0.77903,53.07677]]},"properties":{"name":"Beacon Hill Road","category":"tertiary","osm_type":"way","osm_id":"1476972824"}},{"type":"Feature","geometry":{"type":"LineString","coordinates":[[-0.77903,53.07677],[-0.77837,53.0769]]},"properties":{"name":"Beacon Hill Road","category":"tertiary","osm_type":"way","osm_id":"1476972825"}},{"type":"Feature","geometry":{"type":"LineString","coordinates":[[-0.89733,53.05466],[-0.8973,53.05467]]},"properties":{"name":"Main Street","category":"tertiary","osm_type":"way","osm_id":"1477839549"}},{"type":"Feature","geometry":{"type":"LineString","coordinates":[[-0.89073,53.05646],[-0.88953,53.05708]]},"properties":{"name":"Fiskerton Road","category":"tertiary","osm_type":"way","osm_id":"1477842935"}},{"type":"Feature","geometry":{"type":"LineString","coordinates":[[-0.59854,53.17697],[-0.59823,53.177]]},"properties":{"name":"Mill Lane","category":"tertiary","osm_type":"way","osm_id":"1479041417"}},{"type":"Feature","geometry":{"type":"LineString","coordinates":[[-0.59823,53.177],[-0.59841,53.17685]]},"properties":{"name":"Mill Lane","category":"tertiary","osm_type":"way","osm_id":"1479041418"}},{"type":"Feature","geometry":{"type":"LineString","coordinates":[[-0.81308,53.0787],[-0.81297,53.07867]]},"properties":{"name":"Great North Road","category":"secondary","osm_type":"way","osm_id":"1479804313","ref":"B6326"}},{"type":"Feature","geometry":{"type":"LineString","coordinates":[[-0.82159,53.44042],[-0.82132,53.44069]]},"properties":{"name":"Stockwith Road","category":"tertiary","osm_type":"way","osm_id":"1480027788"}},{"type":"Feature","geometry":{"type":"LineString","coordinates":[[-0.81265,53.4433],[-0.81275,53.44327]]},"properties":{"name":"Canal Lane","category":"tertiary","osm_type":"way","osm_id":"1480027789"}},{"type":"Feature","geometry":{"type":"LineString","coordinates":[[-0.83786,53.47957],[-0.8536,53.48079],[-0.85491,53.48124]]},"properties":{"name":"Akeferry Road","category":"tertiary","osm_type":"way","osm_id":"1480038190"}},{"type":"Feature","geometry":{"type":"LineString","coordinates":[[-0.85491,53.48124],[-0.85662,53.48191]]},"properties":{"name":"Akeferry Road","category":"tertiary","osm_type":"way","osm_id":"1480038191"}},{"type":"Feature","geometry":{"type":"LineString","coordinates":[[-0.83432,53.48855],[-0.83719,53.48875]]},"properties":{"name":"High Street","category":"tertiary","osm_type":"way","osm_id":"1480038192"}},{"type":"Feature","geometry":{"type":"LineString","coordinates":[[-0.8341,53.49491],[-0.83763,53.49386]]},"properties":{"name":"The Nooking","category":"secondary","osm_type":"way","osm_id":"1480038193","ref":"B1396"}},{"type":"Feature","geometry":{"type":"LineString","coordinates":[[-0.53035,53.21714],[-0.53018,53.21696]]},"properties":{"name":"Canwick Road","category":"secondary","osm_type":"way","osm_id":"1480105962","ref":"B1188"}},{"type":"Feature","geometry":{"type":"LineString","coordinates":[[-0.53082,53.21748],[-0.53035,53.21714]]},"properties":{"name":"Secondary and tertiary roads","category":"secondary","osm_type":"way","osm_id":"1480105963"}},{"type":"Feature","geometry":{"type":"LineString","coordinates":[[-0.53082,53.21748],[-0.5304,53.21765]]},"properties":{"name":"Secondary and tertiary roads","category":"secondary","osm_type":"way","osm_id":"1480105965"}},{"type":"Feature","geometry":{"type":"LineString","coordinates":[[-0.5304,53.21765],[-0.53082,53.21748]]},"properties":{"name":"Washingborough Road","category":"secondary","osm_type":"way","osm_id":"1480105966","ref":"B1190"}},{"type":"Feature","geometry":{"type":"LineString","coordinates":[[-0.53082,53.21748],[-0.53117,53.21766]]},"properties":{"name":"Canwick Road","category":"secondary","osm_type":"way","osm_id":"1480105969"}},{"type":"Feature","geometry":{"type":"LineString","coordinates":[[-0.53117,53.21766],[-0.53082,53.21748]]},"properties":{"name":"Canwick Road","category":"secondary","osm_type":"way","osm_id":"1480105970"}},{"type":"Feature","geometry":{"type":"LineString","coordinates":[[-0.47133,53.21726],[-0.47089,53.21705]]},"properties":{"name":"Secondary and tertiary roads","category":"tertiary_link","osm_type":"way","osm_id":"1480331891"}},{"type":"Feature","geometry":{"type":"LineString","coordinates":[[-0.81278,53.07536],[-0.81377,53.07596]]},"properties":{"name":"Lombard Street","category":"secondary","osm_type":"way","osm_id":"1481615142","ref":"B6166"}},{"type":"Feature","geometry":{"type":"LineString","coordinates":[[-0.52646,53.14627],[-0.52857,53.14751]]},"properties":{"name":"White Lane","category":"secondary","osm_type":"way","osm_id":"1482812684","ref":"B1178"}},{"type":"Feature","geometry":{"type":"LineString","coordinates":[[-0.52857,53.14751],[-0.53039,53.14768]]},"properties":{"name":"White Lane","category":"secondary","osm_type":"way","osm_id":"1482812685","ref":"B1178"}},{"type":"Feature","geometry":{"type":"LineString","coordinates":[[-0.52403,53.14514],[-0.52646,53.14627]]},"properties":{"name":"Tower Lane","category":"secondary","osm_type":"way","osm_id":"1482812686","ref":"B1178"}},{"type":"Feature","geometry":{"type":"LineString","coordinates":[[-0.52229,53.14519],[-0.52403,53.14514]]},"properties":{"name":"Tower Lane","category":"secondary","osm_type":"way","osm_id":"1482812687","ref":"B1178"}},{"type":"Feature","geometry":{"type":"LineString","coordinates":[[-0.82598,53.05555],[-0.82733,53.05544]]},"properties":{"name":"Middlebeck Way","category":"tertiary","osm_type":"way","osm_id":"1489443910"}},{"type":"Feature","geometry":{"type":"LineString","coordinates":[[-0.81892,53.05507],[-0.81966,53.05509]]},"properties":{"name":"Middlebeck Way","category":"tertiary","osm_type":"way","osm_id":"1489443911"}},{"type":"Feature","geometry":{"type":"LineString","coordinates":[[-0.81966,53.05509],[-0.81897,53.05527]]},"properties":{"name":"Middlebeck Way","category":"tertiary","osm_type":"way","osm_id":"1489443912"}},{"type":"Feature","geometry":{"type":"LineString","coordinates":[[-0.81772,53.0551],[-0.8184,53.05507]]},"properties":{"name":"Middlebeck Way","category":"tertiary","osm_type":"way","osm_id":"1489443914"}},{"type":"Feature","geometry":{"type":"LineString","coordinates":[[-0.53827,53.48275],[-0.53861,53.48444],[-0.53758,53.48579]]},"properties":{"name":"High Street","category":"secondary","osm_type":"way","osm_id":"1490548400","ref":"B1206"}},{"type":"Feature","geometry":{"type":"LineString","coordinates":[[-0.66438,53.02635],[-0.65787,53.02559],[-0.6557,53.02497]]},"properties":{"name":"Stubton Road","category":"tertiary","osm_type":"way","osm_id":"1493725177"}},{"type":"Feature","geometry":{"type":"LineString","coordinates":[[-0.6645,53.02638],[-0.66438,53.02635]]},"properties":{"name":"Stubton Road","category":"tertiary","osm_type":"way","osm_id":"1493725178"}},{"type":"Feature","geometry":{"type":"LineString","coordinates":[[-0.52973,53.19927],[-0.52938,53.19936]]},"properties":{"name":"Canwick Avenue","category":"secondary","osm_type":"way","osm_id":"1499244660","ref":"B1131"}},{"type":"Feature","geometry":{"type":"LineString","coordinates":[[-0.52909,53.19927],[-0.52933,53.19928],[-0.52931,53.19944],[-0.52907,53.19943],[-0.52909,53.19927]]},"properties":{"name":"Canwick Avenue","category":"secondary","osm_type":"way","osm_id":"1499244661"}},{"type":"Feature","geometry":{"type":"LineString","coordinates":[[-0.836,53.05632],[-0.83893,53.05663]]},"properties":{"name":"Middlebeck Way","category":"tertiary","osm_type":"way","osm_id":"1505011536"}},{"type":"Feature","geometry":{"type":"LineString","coordinates":[[-0.83529,53.05622],[-0.836,53.05632]]},"properties":{"name":"Middlebeck Way","category":"tertiary","osm_type":"way","osm_id":"1505011537"}},{"type":"Feature","geometry":{"type":"LineString","coordinates":[[-0.14428,53.14402],[-0.1443,53.14407]]},"properties":{"name":"Main Street","category":"tertiary","osm_type":"way","osm_id":"1505667670"}},{"type":"Feature","geometry":{"type":"LineString","coordinates":[[-0.17147,53.11046],[-0.17185,53.11174],[-0.17034,53.11512],[-0.16458,53.12038],[-0.16261,53.12305]]},"properties":{"name":"Kirby Lane","category":"tertiary","osm_type":"way","osm_id":"1505667676"}},{"type":"Feature","geometry":{"type":"LineString","coordinates":[[-0.04539,53.2634],[-0.04125,53.26495],[-0.0408,53.26678],[-0.03877,53.26868]]},"properties":{"name":"Lowfield Lane","category":"tertiary","osm_type":"way","osm_id":"1509787571"}},{"type":"Feature","geometry":{"type":"LineString","coordinates":[[-0.83893,53.05663],[-0.84014,53.05646]]},"properties":{"name":"Middlebeck Way","category":"tertiary","osm_type":"way","osm_id":"1519971152"}},{"type":"Feature","geometry":{"type":"LineString","coordinates":[[-0.84012,53.05675],[-0.83893,53.05663]]},"properties":{"name":"Middlebeck Way","category":"tertiary","osm_type":"way","osm_id":"1519971153"}},{"type":"Feature","geometry":{"type":"LineString","coordinates":[[-0.82734,53.0557],[-0.82598,53.05555]]},"properties":{"name":"Middlebeck Way","category":"tertiary","osm_type":"way","osm_id":"1519971154"}},{"type":"Feature","geometry":{"type":"LineString","coordinates":[[-0.81841,53.05533],[-0.81772,53.0551]]},"properties":{"name":"Middlebeck Way","category":"tertiary","osm_type":"way","osm_id":"1519971155"}},{"type":"Feature","geometry":{"type":"LineString","coordinates":[[-0.82776,53.05539],[-0.82874,53.05544]]},"properties":{"name":"Middlebeck Way","category":"tertiary","osm_type":"way","osm_id":"1519971156"}},{"type":"Feature","geometry":{"type":"LineString","coordinates":[[-0.82874,53.05544],[-0.82793,53.05557]]},"properties":{"name":"Middlebeck Way","category":"tertiary","osm_type":"way","osm_id":"1519971157"}},{"type":"Feature","geometry":{"type":"LineString","coordinates":[[-0.61733,53.20028],[-0.61847,53.20016]]},"properties":{"name":"Whisby Road","category":"tertiary","osm_type":"way","osm_id":"1524760677"}},{"type":"Feature","geometry":{"type":"LineString","coordinates":[[-0.52907,53.19943],[-0.52871,53.19943]]},"properties":{"name":"Canwick Avenue","category":"secondary","osm_type":"way","osm_id":"1532194325","ref":"B1131"}},{"type":"Feature","geometry":{"type":"LineString","coordinates":[[-0.52871,53.19943],[-0.52902,53.19934]]},"properties":{"name":"Canwick Avenue","category":"secondary","osm_type":"way","osm_id":"1532194326","ref":"B1131"}},{"type":"Feature","geometry":{"type":"LineString","coordinates":[[-0.52973,53.19927],[-0.53035,53.19916]]},"properties":{"name":"Canwick Avenue","category":"secondary","osm_type":"way","osm_id":"1532194327","ref":"B1131"}},{"type":"Feature","geometry":{"type":"LineString","coordinates":[[-0.52933,53.19928],[-0.52973,53.19927]]},"properties":{"name":"Canwick Avenue","category":"secondary","osm_type":"way","osm_id":"1532194328","ref":"B1131"}},{"type":"Feature","geometry":{"type":"LineString","coordinates":[[-0.47714,53.01772],[-0.47626,53.02495]]},"properties":{"name":"Rauceby Lane","category":"tertiary","osm_type":"way","osm_id":"1535775928"}},{"type":"Feature","geometry":{"type":"LineString","coordinates":[[-0.76928,53.49877],[-0.77052,53.4944]]},"properties":{"name":"North Street","category":"tertiary","osm_type":"way","osm_id":"1536971964"}},{"type":"Feature","geometry":{"type":"LineString","coordinates":[[-0.21297,53.08849],[-0.21536,53.08964]]},"properties":{"name":"Dogdyke Bank","category":"tertiary","osm_type":"way","osm_id":"1542854832"}},{"type":"Feature","geometry":{"type":"LineString","coordinates":[[-0.39867,53.12974],[-0.39832,53.13066]]},"properties":{"name":"Village Street","category":"tertiary","osm_type":"way","osm_id":"1548851073"}},{"type":"Feature","geometry":{"type":"LineString","coordinates":[[-0.52693,53.1028],[-0.52696,53.10264]]},"properties":{"name":"Pottergate Road","category":"tertiary","osm_type":"way","osm_id":"1550426056"}},{"type":"Feature","geometry":{"type":"LineString","coordinates":[[-0.52721,53.10287],[-0.52747,53.10291]]},"properties":{"name":"Pottergate Road","category":"tertiary","osm_type":"way","osm_id":"1550426057"}},{"type":"Feature","geometry":{"type":"LineString","coordinates":[[-0.52721,53.10287],[-0.52734,53.10299]]},"properties":{"name":"Pottergate Road","category":"tertiary","osm_type":"way","osm_id":"1550426058"}},{"type":"Feature","geometry":{"type":"LineString","coordinates":[[-0.76978,53.03145],[-0.76993,53.03115]]},"properties":{"name":"Great North Road","category":"secondary","osm_type":"way","osm_id":"1559104018","ref":"B6326"}},{"type":"Feature","geometry":{"type":"LineString","coordinates":[[-0.76993,53.03115],[-0.76997,53.03107]]},"properties":{"name":"Great North Road","category":"secondary","osm_type":"way","osm_id":"1559104095","ref":"B6326"}},{"type":"Feature","geometry":{"type":"LineString","coordinates":[[-0.78052,53.05188],[-0.78039,53.0518]]},"properties":{"name":"London Road","category":"secondary","osm_type":"way","osm_id":"1559115568","ref":"B6326"}},{"type":"Feature","geometry":{"type":"LineString","coordinates":[[-0.78385,53.05515],[-0.78376,53.05472]]},"properties":{"name":"London Road","category":"secondary","osm_type":"way","osm_id":"1559121330","ref":"B6326"}},{"type":"Feature","geometry":{"type":"LineString","coordinates":[[-0.78394,53.05541],[-0.78385,53.05515]]},"properties":{"name":"London Road","category":"secondary","osm_type":"way","osm_id":"1559121331","ref":"B6326"}},{"type":"Feature","geometry":{"type":"LineString","coordinates":[[-0.78409,53.05574],[-0.78399,53.05552]]},"properties":{"name":"London Road","category":"secondary","osm_type":"way","osm_id":"1559121334","ref":"B6326"}},{"type":"Feature","geometry":{"type":"LineString","coordinates":[[-0.78399,53.05552],[-0.78394,53.05541]]},"properties":{"name":"London Road","category":"secondary","osm_type":"way","osm_id":"1559121335","ref":"B6326"}},{"type":"Feature","geometry":{"type":"LineString","coordinates":[[-0.78688,53.06026],[-0.78681,53.06016]]},"properties":{"name":"London Road","category":"secondary","osm_type":"way","osm_id":"1559121342","ref":"B6326"}}]}