{"type":"FeatureCollection","features":[{"type":"Feature","geometry":{"type":"LineString","coordinates":[[-0.15693,51.10677],[-0.15697,51.10673]]},"properties":{"name":"Secondary and tertiary roads","category":"tertiary","osm_type":"way","osm_id":"1497229715"}},{"type":"Feature","geometry":{"type":"LineString","coordinates":[[-0.14128,51.49183],[-0.14149,51.49177]]},"properties":{"name":"Warwick Way","category":"tertiary","osm_type":"way","osm_id":"1497361054","operator":"City of Westminster"}},{"type":"Feature","geometry":{"type":"LineString","coordinates":[[-0.12894,51.49287],[-0.12888,51.49205]]},"properties":{"name":"Herrick Street","category":"secondary","osm_type":"way","osm_id":"1497466651","ref":"B326"}},{"type":"Feature","geometry":{"type":"LineString","coordinates":[[-0.74901,51.31847],[-0.74864,51.31823]]},"properties":{"name":"Frimley Road","category":"secondary","osm_type":"way","osm_id":"1497542053","ref":"B3411"}},{"type":"Feature","geometry":{"type":"LineString","coordinates":[[-0.05947,51.49246],[-0.05921,51.4925]]},"properties":{"name":"Southwark Park Road","category":"tertiary","osm_type":"way","osm_id":"1497948566"}},{"type":"Feature","geometry":{"type":"LineString","coordinates":[[-0.52223,51.38012],[-0.52208,51.38014]]},"properties":{"name":"Holloway Hill","category":"secondary","osm_type":"way","osm_id":"1498238012","ref":"B386"}},{"type":"Feature","geometry":{"type":"LineString","coordinates":[[-0.98312,51.45506],[-0.98288,51.45504]]},"properties":{"name":"Oxford Road","category":"tertiary","osm_type":"way","osm_id":"1498419724"}},{"type":"Feature","geometry":{"type":"LineString","coordinates":[[-0.98246,51.45502],[-0.98232,51.45501]]},"properties":{"name":"Oxford Road","category":"tertiary","osm_type":"way","osm_id":"1498419734"}},{"type":"Feature","geometry":{"type":"LineString","coordinates":[[-0.98232,51.45501],[-0.98102,51.45501]]},"properties":{"name":"Oxford Road","category":"tertiary","osm_type":"way","osm_id":"1498419741"}},{"type":"Feature","geometry":{"type":"LineString","coordinates":[[-0.98102,51.45501],[-0.98079,51.45501]]},"properties":{"name":"Oxford Road","category":"tertiary","osm_type":"way","osm_id":"1498419744"}},{"type":"Feature","geometry":{"type":"LineString","coordinates":[[-0.99776,51.45191],[-0.99819,51.45189]]},"properties":{"name":"Tilehurst Road","category":"tertiary","osm_type":"way","osm_id":"1498771297"}},{"type":"Feature","geometry":{"type":"LineString","coordinates":[[-0.13464,51.05874],[-0.13572,51.06122]]},"properties":{"name":"London Road","category":"secondary","osm_type":"way","osm_id":"1500345438","ref":"B2036"}},{"type":"Feature","geometry":{"type":"LineString","coordinates":[[-0.13674,51.06249],[-0.13683,51.06271]]},"properties":{"name":"London Road","category":"secondary","osm_type":"way","osm_id":"1500345439","ref":"B2036"}},{"type":"Feature","geometry":{"type":"LineString","coordinates":[[-0.1328,51.06027],[-0.13572,51.06122]]},"properties":{"name":"Haywards Heath Road","category":"tertiary","osm_type":"way","osm_id":"1500345445"}},{"type":"Feature","geometry":{"type":"LineString","coordinates":[[-0.36728,51.45164],[-0.36708,51.45092]]},"properties":{"name":"Hospital Bridge Road","category":"secondary","osm_type":"way","osm_id":"1501315728","ref":"B358"}},{"type":"Feature","geometry":{"type":"LineString","coordinates":[[-0.36702,51.45068],[-0.36684,51.45001]]},"properties":{"name":"Hospital Bridge Road","category":"secondary","osm_type":"way","osm_id":"1501315729","ref":"B358"}},{"type":"Feature","geometry":{"type":"LineString","coordinates":[[-0.85898,51.34868],[-0.85771,51.34857],[-0.85669,51.34799]]},"properties":{"name":"Reading Road","category":"secondary","osm_type":"way","osm_id":"1503716450","ref":"B3272"}},{"type":"Feature","geometry":{"type":"LineString","coordinates":[[-0.85669,51.34799],[-0.85626,51.34754]]},"properties":{"name":"Reading Road","category":"secondary","osm_type":"way","osm_id":"1503716454","ref":"B3272"}},{"type":"Feature","geometry":{"type":"LineString","coordinates":[[-0.20999,51.23802],[-0.21014,51.238]]},"properties":{"name":"Secondary and tertiary roads","category":"tertiary","osm_type":"way","osm_id":"1504433427"}},{"type":"Feature","geometry":{"type":"LineString","coordinates":[[-0.18251,51.47497],[-0.1832,51.47571]]},"properties":{"name":"Harbour Avenue","category":"tertiary","osm_type":"way","osm_id":"1505815660"}},{"type":"Feature","geometry":{"type":"LineString","coordinates":[[-0.1832,51.47571],[-0.1836,51.47638]]},"properties":{"name":"Harbour Avenue","category":"tertiary","osm_type":"way","osm_id":"1505818752"}},{"type":"Feature","geometry":{"type":"LineString","coordinates":[[-0.71524,51.08898],[-0.71495,51.08866]]},"properties":{"name":"Lower Street","category":"secondary","osm_type":"way","osm_id":"1506772685","ref":"B2131"}},{"type":"Feature","geometry":{"type":"LineString","coordinates":[[-0.66636,51.03617],[-0.66652,51.03622]]},"properties":{"name":"Dial Green Lane","category":"tertiary","osm_type":"way","osm_id":"1506772701"}},{"type":"Feature","geometry":{"type":"LineString","coordinates":[[-0.66542,51.03498],[-0.66636,51.03617]]},"properties":{"name":"The Green","category":"tertiary","osm_type":"way","osm_id":"1506772702"}},{"type":"Feature","geometry":{"type":"LineString","coordinates":[[-0.66636,51.03617],[-0.66545,51.03622]]},"properties":{"name":"The Green","category":"tertiary","osm_type":"way","osm_id":"1506772714"}},{"type":"Feature","geometry":{"type":"LineString","coordinates":[[-0.14704,51.13882],[-0.14697,51.1386]]},"properties":{"name":"Secondary and tertiary roads","category":"secondary","osm_type":"way","osm_id":"1507625148"}},{"type":"Feature","geometry":{"type":"LineString","coordinates":[[-0.14716,51.1388],[-0.1475,51.13891]]},"properties":{"name":"Secondary and tertiary roads","category":"tertiary","osm_type":"way","osm_id":"1507625149"}},{"type":"Feature","geometry":{"type":"LineString","coordinates":[[-0.14716,51.1388],[-0.14717,51.13882]]},"properties":{"name":"Balcombe Road","category":"secondary","osm_type":"way","osm_id":"1507625150","ref":"B2036"}},{"type":"Feature","geometry":{"type":"LineString","coordinates":[[-0.14711,51.13902],[-0.14705,51.13887]]},"properties":{"name":"Secondary and tertiary roads","category":"secondary","osm_type":"way","osm_id":"1507625151"}},{"type":"Feature","geometry":{"type":"LineString","coordinates":[[-0.33829,51.23743],[-0.33804,51.2366]]},"properties":{"name":"Ranmore Road","category":"tertiary","osm_type":"way","osm_id":"1510506000"}},{"type":"Feature","geometry":{"type":"LineString","coordinates":[[-0.33857,51.23775],[-0.33831,51.23748]]},"properties":{"name":"Ranmore Road","category":"tertiary","osm_type":"way","osm_id":"1510506002"}},{"type":"Feature","geometry":{"type":"LineString","coordinates":[[-0.35587,51.33959],[-0.35565,51.33964]]},"properties":{"name":"Fairoak Lane","category":"secondary","osm_type":"way","osm_id":"1512868300","ref":"B280"}},{"type":"Feature","geometry":{"type":"LineString","coordinates":[[-0.93351,51.47873],[-0.93429,51.47908]]},"properties":{"name":"Dunsden Way","category":"tertiary","osm_type":"way","osm_id":"1514605960"}},{"type":"Feature","geometry":{"type":"LineString","coordinates":[[-0.93429,51.47908],[-0.93462,51.47937]]},"properties":{"name":"Dunsden Way","category":"tertiary","osm_type":"way","osm_id":"1514605961"}},{"type":"Feature","geometry":{"type":"LineString","coordinates":[[-0.94172,51.47508],[-0.9416,51.4752]]},"properties":{"name":"Secondary and tertiary roads","category":"tertiary_link","osm_type":"way","osm_id":"1514605962"}},{"type":"Feature","geometry":{"type":"LineString","coordinates":[[-0.9331,51.47875],[-0.93281,51.47885]]},"properties":{"name":"Dunsden Way","category":"tertiary","osm_type":"way","osm_id":"1514639521"}},{"type":"Feature","geometry":{"type":"LineString","coordinates":[[-0.93204,51.47881],[-0.9322,51.47881]]},"properties":{"name":"Playhatch Road","category":"secondary","osm_type":"way","osm_id":"1514645555","ref":"B478"}},{"type":"Feature","geometry":{"type":"LineString","coordinates":[[-0.93281,51.47872],[-0.9331,51.47875]]},"properties":{"name":"Dunsden Way","category":"tertiary","osm_type":"way","osm_id":"1514645558"}},{"type":"Feature","geometry":{"type":"LineString","coordinates":[[-0.9322,51.47881],[-0.93249,51.47872]]},"properties":{"name":"Playhatch Road","category":"secondary","osm_type":"way","osm_id":"1514645559","ref":"B478"}},{"type":"Feature","geometry":{"type":"LineString","coordinates":[[-0.93462,51.47937],[-0.93585,51.48105]]},"properties":{"name":"Dunsden Way","category":"tertiary","osm_type":"way","osm_id":"1514645561"}},{"type":"Feature","geometry":{"type":"LineString","coordinates":[[-0.92017,51.47852],[-0.9204,51.47865]]},"properties":{"name":"Playhatch Road","category":"secondary","osm_type":"way","osm_id":"1514653690","ref":"B478"}},{"type":"Feature","geometry":{"type":"LineString","coordinates":[[-0.9199,51.47856],[-0.91969,51.47845]]},"properties":{"name":"Playhatch Road","category":"secondary","osm_type":"way","osm_id":"1514653691","ref":"B478"}},{"type":"Feature","geometry":{"type":"LineString","coordinates":[[-0.9204,51.47865],[-0.92011,51.47862]]},"properties":{"name":"Playhatch Road","category":"secondary","osm_type":"way","osm_id":"1514653692","ref":"B478"}},{"type":"Feature","geometry":{"type":"LineString","coordinates":[[-0.91969,51.47845],[-0.91996,51.47848]]},"properties":{"name":"Playhatch Road","category":"secondary","osm_type":"way","osm_id":"1514653693","ref":"B478"}},{"type":"Feature","geometry":{"type":"LineString","coordinates":[[-0.76852,51.24834],[-0.76866,51.24832]]},"properties":{"name":"Queens Road","category":"secondary","osm_type":"way","osm_id":"1514782397","ref":"B3008"}},{"type":"Feature","geometry":{"type":"LineString","coordinates":[[-0.46062,51.40714],[-0.46071,51.40712]]},"properties":{"name":"Secondary and tertiary roads","category":"tertiary","osm_type":"way","osm_id":"1514812374"}},{"type":"Feature","geometry":{"type":"LineString","coordinates":[[-0.46046,51.40717],[-0.46062,51.40714]]},"properties":{"name":"Secondary and tertiary roads","category":"tertiary","osm_type":"way","osm_id":"1514812375"}},{"type":"Feature","geometry":{"type":"LineString","coordinates":[[-0.46071,51.40712],[-0.46087,51.40707]]},"properties":{"name":"Secondary and tertiary roads","category":"tertiary","osm_type":"way","osm_id":"1514812376"}},{"type":"Feature","geometry":{"type":"LineString","coordinates":[[-0.94178,51.47546],[-0.94162,51.47524]]},"properties":{"name":"Caversham Park Road","category":"tertiary","osm_type":"way","osm_id":"1514904467"}},{"type":"Feature","geometry":{"type":"LineString","coordinates":[[-0.94182,51.47552],[-0.94178,51.47546]]},"properties":{"name":"Caversham Park Road","category":"tertiary","osm_type":"way","osm_id":"1514904468"}},{"type":"Feature","geometry":{"type":"LineString","coordinates":[[-0.47938,51.30564],[-0.47936,51.30568]]},"properties":{"name":"Portsmouth Road","category":"secondary","osm_type":"way","osm_id":"1514954088","ref":"B2215"}},{"type":"Feature","geometry":{"type":"LineString","coordinates":[[-0.47744,51.30536],[-0.47743,51.30534]]},"properties":{"name":"Ockham Road North","category":"secondary","osm_type":"way","osm_id":"1515707345","ref":"B2039"}},{"type":"Feature","geometry":{"type":"LineString","coordinates":[[-0.47876,51.3058],[-0.47889,51.30585]]},"properties":{"name":"Secondary and tertiary roads","category":"secondary","osm_type":"way","osm_id":"1515707353"}},{"type":"Feature","geometry":{"type":"LineString","coordinates":[[-0.47835,51.30563],[-0.47876,51.3058]]},"properties":{"name":"Secondary and tertiary roads","category":"secondary","osm_type":"way","osm_id":"1515707354"}},{"type":"Feature","geometry":{"type":"LineString","coordinates":[[-0.47839,51.30669],[-0.47783,51.30667]]},"properties":{"name":"Secondary and tertiary roads","category":"secondary","osm_type":"way","osm_id":"1515707355"}},{"type":"Feature","geometry":{"type":"LineString","coordinates":[[-0.47783,51.30667],[-0.47743,51.30649]]},"properties":{"name":"Secondary and tertiary roads","category":"secondary","osm_type":"way","osm_id":"1515707356"}},{"type":"Feature","geometry":{"type":"LineString","coordinates":[[-0.61189,51.48223],[-0.61192,51.48221]]},"properties":{"name":"Charles Street","category":"tertiary","osm_type":"way","osm_id":"1515715812"}},{"type":"Feature","geometry":{"type":"LineString","coordinates":[[-0.46075,51.40714],[-0.46075,51.40717]]},"properties":{"name":"Squire's Bridge Road","category":"tertiary","osm_type":"way","osm_id":"1516252358"}},{"type":"Feature","geometry":{"type":"LineString","coordinates":[[-0.46071,51.40712],[-0.46075,51.40714]]},"properties":{"name":"Secondary and tertiary roads","category":"tertiary","osm_type":"way","osm_id":"1516252360"}},{"type":"Feature","geometry":{"type":"LineString","coordinates":[[-0.46063,51.40717],[-0.46062,51.40714]]},"properties":{"name":"Secondary and tertiary roads","category":"tertiary","osm_type":"way","osm_id":"1516252361"}},{"type":"Feature","geometry":{"type":"LineString","coordinates":[[-0.46087,51.40707],[-0.46075,51.40714]]},"properties":{"name":"Squire's Bridge Road","category":"tertiary","osm_type":"way","osm_id":"1516252362"}},{"type":"Feature","geometry":{"type":"LineString","coordinates":[[-0.46063,51.40717],[-0.46046,51.40717]]},"properties":{"name":"Squire's Bridge Road","category":"tertiary","osm_type":"way","osm_id":"1516252363"}},{"type":"Feature","geometry":{"type":"LineString","coordinates":[[-0.46067,51.40719],[-0.46063,51.40717]]},"properties":{"name":"Squire's Bridge Road","category":"tertiary","osm_type":"way","osm_id":"1516252364"}},{"type":"Feature","geometry":{"type":"LineString","coordinates":[[-0.46075,51.40717],[-0.46067,51.40719]]},"properties":{"name":"Squire's Bridge Road","category":"tertiary","osm_type":"way","osm_id":"1516252365"}},{"type":"Feature","geometry":{"type":"LineString","coordinates":[[-0.16213,51.17057],[-0.162,51.17029]]},"properties":{"name":"Victoria Road","category":"tertiary","osm_type":"way","osm_id":"1517433073"}},{"type":"Feature","geometry":{"type":"LineString","coordinates":[[-0.19764,51.08382],[-0.19765,51.08385]]},"properties":{"name":"Secondary and tertiary roads","category":"tertiary","osm_type":"way","osm_id":"1518565496"}},{"type":"Feature","geometry":{"type":"LineString","coordinates":[[-0.15964,51.17509],[-0.15916,51.17432]]},"properties":{"name":"Balcombe Road","category":"secondary","osm_type":"way","osm_id":"1523620373","ref":"B2036"}},{"type":"Feature","geometry":{"type":"LineString","coordinates":[[-0.15911,51.17423],[-0.15889,51.17384]]},"properties":{"name":"Balcombe Road","category":"secondary","osm_type":"way","osm_id":"1523620374","ref":"B2036"}},{"type":"Feature","geometry":{"type":"LineString","coordinates":[[-0.17,51.12949],[-0.16981,51.12884]]},"properties":{"name":"Gatwick Road","category":"tertiary","osm_type":"way","osm_id":"1524707393"}},{"type":"Feature","geometry":{"type":"LineString","coordinates":[[-0.16444,51.13857],[-0.16415,51.14073]]},"properties":{"name":"Gatwick Road","category":"tertiary","osm_type":"way","osm_id":"1524707395"}},{"type":"Feature","geometry":{"type":"LineString","coordinates":[[-0.16459,51.13804],[-0.16444,51.13857]]},"properties":{"name":"Gatwick Road","category":"tertiary","osm_type":"way","osm_id":"1524707396"}},{"type":"Feature","geometry":{"type":"LineString","coordinates":[[-0.20716,51.12793],[-0.20676,51.12754]]},"properties":{"name":"Ifield Avenue","category":"tertiary","osm_type":"way","osm_id":"1525137079"}},{"type":"Feature","geometry":{"type":"LineString","coordinates":[[-0.8105,51.40361],[-0.80881,51.40384]]},"properties":{"name":"South Wokingham Distibutor Road","category":"tertiary","osm_type":"way","osm_id":"1525696568"}},{"type":"Feature","geometry":{"type":"LineString","coordinates":[[-0.00987,51.45594],[-0.00963,51.45512]]},"properties":{"name":"Hither Green Lane","category":"tertiary","osm_type":"way","osm_id":"1525938027"}},{"type":"Feature","geometry":{"type":"LineString","coordinates":[[-0.16511,51.17223],[-0.16439,51.17201]]},"properties":{"name":"Victoria Road","category":"tertiary","osm_type":"way","osm_id":"1527338729"}},{"type":"Feature","geometry":{"type":"LineString","coordinates":[[-0.47951,51.3054],[-0.47944,51.30555]]},"properties":{"name":"Portsmouth Road","category":"secondary","osm_type":"way","osm_id":"1527561918","ref":"B2215"}},{"type":"Feature","geometry":{"type":"LineString","coordinates":[[-0.0716,51.48868],[-0.07054,51.4885]]},"properties":{"name":"Rolls Road","category":"secondary","osm_type":"way","osm_id":"1528454369","ref":"B204"}},{"type":"Feature","geometry":{"type":"LineString","coordinates":[[-0.28065,51.39784],[-0.28373,51.39779]]},"properties":{"name":"Surbiton Hill Park","category":"tertiary","osm_type":"way","osm_id":"1530599476"}},{"type":"Feature","geometry":{"type":"LineString","coordinates":[[-0.28373,51.39779],[-0.28387,51.39777]]},"properties":{"name":"Surbiton Hill Park","category":"tertiary","osm_type":"way","osm_id":"1530599477"}},{"type":"Feature","geometry":{"type":"LineString","coordinates":[[-0.29512,51.39499],[-0.29567,51.3948]]},"properties":{"name":"Surbiton Hill Park","category":"tertiary","osm_type":"way","osm_id":"1530599479"}},{"type":"Feature","geometry":{"type":"LineString","coordinates":[[-0.29582,51.39475],[-0.29593,51.39472]]},"properties":{"name":"Surbiton Hill Park","category":"tertiary","osm_type":"way","osm_id":"1530599480"}},{"type":"Feature","geometry":{"type":"LineString","coordinates":[[-0.29434,51.40441],[-0.29444,51.40304]]},"properties":{"name":"Villiers Road","category":"tertiary","osm_type":"way","osm_id":"1530648171"}},{"type":"Feature","geometry":{"type":"LineString","coordinates":[[-0.41076,51.44398],[-0.40959,51.44363]]},"properties":{"name":"Browells Lane","category":"tertiary","osm_type":"way","osm_id":"1530757635"}},{"type":"Feature","geometry":{"type":"LineString","coordinates":[[-0.41076,51.44398],[-0.41125,51.44411]]},"properties":{"name":"Browells Lane","category":"tertiary","osm_type":"way","osm_id":"1530757636"}},{"type":"Feature","geometry":{"type":"LineString","coordinates":[[-0.41121,51.44418],[-0.4111,51.44414]]},"properties":{"name":"Browells Lane","category":"tertiary","osm_type":"way","osm_id":"1530757637"}},{"type":"Feature","geometry":{"type":"LineString","coordinates":[[-0.47305,51.34555],[-0.47303,51.34573]]},"properties":{"name":"Sopwith Drive","category":"tertiary","osm_type":"way","osm_id":"1530895297"}},{"type":"Feature","geometry":{"type":"LineString","coordinates":[[-0.47303,51.34573],[-0.47258,51.3471]]},"properties":{"name":"Sopwith Drive","category":"tertiary","osm_type":"way","osm_id":"1530895298"}},{"type":"Feature","geometry":{"type":"LineString","coordinates":[[-0.14629,51.15234],[-0.1447,51.15011]]},"properties":{"name":"Balcombe Road","category":"secondary","osm_type":"way","osm_id":"1531330972","ref":"B2036"}},{"type":"Feature","geometry":{"type":"LineString","coordinates":[[-0.15412,51.16612],[-0.15363,51.16529]]},"properties":{"name":"Balcombe Road","category":"secondary","osm_type":"way","osm_id":"1531330973","ref":"B2036"}},{"type":"Feature","geometry":{"type":"LineString","coordinates":[[-0.44979,51.48043],[-0.45002,51.4805]]},"properties":{"name":"Secondary and tertiary roads","category":"tertiary","osm_type":"way","osm_id":"1532391312"}},{"type":"Feature","geometry":{"type":"LineString","coordinates":[[-0.45183,51.47951],[-0.45031,51.47953]]},"properties":{"name":"Northern Perimeter Road West","category":"tertiary","osm_type":"way","osm_id":"1532391313"}},{"type":"Feature","geometry":{"type":"LineString","coordinates":[[-0.45108,51.47941],[-0.45389,51.47972]]},"properties":{"name":"Northern Perimeter Road West","category":"tertiary","osm_type":"way","osm_id":"1532391314"}},{"type":"Feature","geometry":{"type":"LineString","coordinates":[[-0.45713,51.48008],[-0.45513,51.48005]]},"properties":{"name":"Northern Perimeter Road West","category":"tertiary","osm_type":"way","osm_id":"1532391315"}},{"type":"Feature","geometry":{"type":"LineString","coordinates":[[-0.47106,51.47998],[-0.47001,51.47998]]},"properties":{"name":"Northern Perimeter Road (West)","category":"tertiary","osm_type":"way","osm_id":"1532391316"}},{"type":"Feature","geometry":{"type":"LineString","coordinates":[[-0.47001,51.47998],[-0.46898,51.47999]]},"properties":{"name":"Northern Perimeter Road (West)","category":"tertiary","osm_type":"way","osm_id":"1532391317"}},{"type":"Feature","geometry":{"type":"LineString","coordinates":[[-0.4756,51.47996],[-0.47429,51.47995]]},"properties":{"name":"Northern Perimeter Road (West)","category":"tertiary","osm_type":"way","osm_id":"1532391318"}},{"type":"Feature","geometry":{"type":"LineString","coordinates":[[-0.26666,51.46439],[-0.26674,51.46436]]},"properties":{"name":"Sheen Lane","category":"secondary_link","osm_type":"way","osm_id":"1533221293","ref":"B351"}},{"type":"Feature","geometry":{"type":"LineString","coordinates":[[-0.2662,51.4648],[-0.26632,51.46471]]},"properties":{"name":"Sheen Lane","category":"secondary_link","osm_type":"way","osm_id":"1533221301","ref":"B351"}},{"type":"Feature","geometry":{"type":"LineString","coordinates":[[-0.80749,51.40763],[-0.80781,51.40769]]},"properties":{"name":"William Heelas Way","category":"tertiary","osm_type":"way","osm_id":"1533867360"}},{"type":"Feature","geometry":{"type":"LineString","coordinates":[[-0.80749,51.40763],[-0.80731,51.40759]]},"properties":{"name":"William Heelas Way","category":"tertiary","osm_type":"way","osm_id":"1533867361"}},{"type":"Feature","geometry":{"type":"LineString","coordinates":[[-0.80799,51.40771],[-0.80781,51.40769]]},"properties":{"name":"William Heelas Way","category":"tertiary","osm_type":"way","osm_id":"1533867362"}},{"type":"Feature","geometry":{"type":"LineString","coordinates":[[-0.8105,51.40361],[-0.81113,51.40335]]},"properties":{"name":"South Wokingham Distibutor Road","category":"tertiary","osm_type":"way","osm_id":"1533867363"}},{"type":"Feature","geometry":{"type":"LineString","coordinates":[[-0.81106,51.40363],[-0.8105,51.40361]]},"properties":{"name":"South Wokingham Distibutor Road","category":"tertiary","osm_type":"way","osm_id":"1533867364"}},{"type":"Feature","geometry":{"type":"LineString","coordinates":[[-0.81113,51.40335],[-0.81106,51.40363]]},"properties":{"name":"SWDR Link Road","category":"tertiary","osm_type":"way","osm_id":"1533867365"}},{"type":"Feature","geometry":{"type":"LineString","coordinates":[[-0.81466,51.40112],[-0.81421,51.40124]]},"properties":{"name":"SWDR Link Road","category":"tertiary","osm_type":"way","osm_id":"1533867366"}},{"type":"Feature","geometry":{"type":"LineString","coordinates":[[-0.81421,51.40124],[-0.81458,51.40105]]},"properties":{"name":"SWDR Link Road","category":"tertiary","osm_type":"way","osm_id":"1533867367"}},{"type":"Feature","geometry":{"type":"LineString","coordinates":[[-0.40604,51.47099],[-0.40596,51.47095]]},"properties":{"name":"Green Lane","category":"tertiary","osm_type":"way","osm_id":"1533892384"}},{"type":"Feature","geometry":{"type":"LineString","coordinates":[[-0.40552,51.47054],[-0.40577,51.47076]]},"properties":{"name":"Green Lane","category":"tertiary","osm_type":"way","osm_id":"1533892387"}},{"type":"Feature","geometry":{"type":"LineString","coordinates":[[-0.40577,51.47076],[-0.40611,51.47092]]},"properties":{"name":"Green Lane","category":"tertiary","osm_type":"way","osm_id":"1533892388"}},{"type":"Feature","geometry":{"type":"LineString","coordinates":[[-0.09495,51.43817],[-0.09489,51.43803]]},"properties":{"name":"Rosendale Road","category":"tertiary","osm_type":"way","osm_id":"1534448336"}},{"type":"Feature","geometry":{"type":"LineString","coordinates":[[-0.09566,51.43967],[-0.09495,51.43817]]},"properties":{"name":"Rosendale Road","category":"tertiary","osm_type":"way","osm_id":"1534448337"}},{"type":"Feature","geometry":{"type":"LineString","coordinates":[[-0.28208,51.35027],[-0.28198,51.35034]]},"properties":{"name":"Horton Lane","category":"tertiary","osm_type":"way","osm_id":"1536095880"}},{"type":"Feature","geometry":{"type":"LineString","coordinates":[[-0.28267,51.3499],[-0.28271,51.34997]]},"properties":{"name":"Secondary and tertiary roads","category":"tertiary","osm_type":"way","osm_id":"1536095901"}},{"type":"Feature","geometry":{"type":"LineString","coordinates":[[-0.28243,51.34983],[-0.28267,51.3499]]},"properties":{"name":"Secondary and tertiary roads","category":"tertiary","osm_type":"way","osm_id":"1536095902"}},{"type":"Feature","geometry":{"type":"LineString","coordinates":[[-0.28257,51.35014],[-0.28244,51.35016]]},"properties":{"name":"Secondary and tertiary roads","category":"tertiary","osm_type":"way","osm_id":"1536095903"}},{"type":"Feature","geometry":{"type":"LineString","coordinates":[[-0.28271,51.34997],[-0.28257,51.35014]]},"properties":{"name":"Secondary and tertiary roads","category":"tertiary","osm_type":"way","osm_id":"1536095904"}},{"type":"Feature","geometry":{"type":"LineString","coordinates":[[-0.56881,51.33355],[-0.56867,51.33358]]},"properties":{"name":"Littlewick Road","category":"tertiary","osm_type":"way","osm_id":"1536583803"}},{"type":"Feature","geometry":{"type":"LineString","coordinates":[[-0.58156,51.323],[-0.58167,51.3231]]},"properties":{"name":"Sythwood","category":"tertiary","osm_type":"way","osm_id":"1536583804"}},{"type":"Feature","geometry":{"type":"LineString","coordinates":[[-0.58642,51.32237],[-0.58652,51.32147]]},"properties":{"name":"Sythwood","category":"tertiary","osm_type":"way","osm_id":"1536583805"}},{"type":"Feature","geometry":{"type":"LineString","coordinates":[[-0.79996,51.16933],[-0.8006,51.16871]]},"properties":{"name":"Pitt Lane","category":"tertiary","osm_type":"way","osm_id":"1537514412"}},{"type":"Feature","geometry":{"type":"LineString","coordinates":[[-0.90519,51.46827],[-0.90597,51.469]]},"properties":{"name":"Pound Lane","category":"tertiary","osm_type":"way","osm_id":"1537560936"}},{"type":"Feature","geometry":{"type":"LineString","coordinates":[[-0.01987,51.34722],[-0.02012,51.34705]]},"properties":{"name":"King Henry's Drive","category":"tertiary","osm_type":"way","osm_id":"1540011448"}},{"type":"Feature","geometry":{"type":"LineString","coordinates":[[-0.02022,51.34713],[-0.01987,51.34722]]},"properties":{"name":"King Henry's Drive","category":"tertiary","osm_type":"way","osm_id":"1540011449"}},{"type":"Feature","geometry":{"type":"LineString","coordinates":[[-0.0141,51.34844],[-0.01349,51.34843]]},"properties":{"name":"King Henry's Drive","category":"tertiary","osm_type":"way","osm_id":"1540011456"}},{"type":"Feature","geometry":{"type":"LineString","coordinates":[[-0.01349,51.34843],[-0.01112,51.34819]]},"properties":{"name":"King Henry's Drive","category":"tertiary","osm_type":"way","osm_id":"1540011457"}},{"type":"Feature","geometry":{"type":"LineString","coordinates":[[-0.95615,51.49092],[-0.95588,51.49115]]},"properties":{"name":"Kiln Road","category":"tertiary","osm_type":"way","osm_id":"1540778987"}},{"type":"Feature","geometry":{"type":"LineString","coordinates":[[-0.94373,51.49247],[-0.94529,51.49231],[-0.947,51.49163]]},"properties":{"name":"Church Lane","category":"tertiary","osm_type":"way","osm_id":"1540779122"}},{"type":"Feature","geometry":{"type":"LineString","coordinates":[[-0.93712,51.48812],[-0.93789,51.48889]]},"properties":{"name":"Church Lane","category":"tertiary","osm_type":"way","osm_id":"1540779252"}},{"type":"Feature","geometry":{"type":"LineString","coordinates":[[-0.9372,51.48781],[-0.93712,51.48812]]},"properties":{"name":"Dunsden Way","category":"tertiary","osm_type":"way","osm_id":"1540779255"}},{"type":"Feature","geometry":{"type":"LineString","coordinates":[[-0.93705,51.48692],[-0.9372,51.48781]]},"properties":{"name":"Dunsden Way","category":"tertiary","osm_type":"way","osm_id":"1540779256"}},{"type":"Feature","geometry":{"type":"LineString","coordinates":[[-0.947,51.49163],[-0.94727,51.49155]]},"properties":{"name":"Church Lane","category":"tertiary","osm_type":"way","osm_id":"1540798595"}},{"type":"Feature","geometry":{"type":"LineString","coordinates":[[-0.1456,51.28232],[-0.14351,51.28116],[-0.13823,51.28032]]},"properties":{"name":"Dean Lane","category":"tertiary","osm_type":"way","osm_id":"1540841289"}},{"type":"Feature","geometry":{"type":"LineString","coordinates":[[-0.1457,51.28245],[-0.1456,51.28232]]},"properties":{"name":"Dean Lane","category":"tertiary","osm_type":"way","osm_id":"1540841494"}},{"type":"Feature","geometry":{"type":"LineString","coordinates":[[-0.14947,51.2733],[-0.14928,51.27331]]},"properties":{"name":"Shepherd's Hill","category":"secondary","osm_type":"way","osm_id":"1540842180","ref":"B2031"}},{"type":"Feature","geometry":{"type":"LineString","coordinates":[[-0.14411,51.2736],[-0.14374,51.2737]]},"properties":{"name":"Shepherd's Hill","category":"secondary","osm_type":"way","osm_id":"1540842181","ref":"B2031"}},{"type":"Feature","geometry":{"type":"LineString","coordinates":[[-0.50807,51.28459],[-0.50859,51.28448]]},"properties":{"name":"Portsmouth Road","category":"secondary","osm_type":"way","osm_id":"1544556801"}},{"type":"Feature","geometry":{"type":"LineString","coordinates":[[-0.50783,51.28511],[-0.50781,51.28485]]},"properties":{"name":"Portsmouth Road","category":"secondary","osm_type":"way","osm_id":"1544556802"}},{"type":"Feature","geometry":{"type":"LineString","coordinates":[[-0.50783,51.28511],[-0.50758,51.28533]]},"properties":{"name":"Portsmouth Road","category":"secondary","osm_type":"way","osm_id":"1544556803","ref":"B2215"}},{"type":"Feature","geometry":{"type":"LineString","coordinates":[[-0.50859,51.28448],[-0.50821,51.28469]]},"properties":{"name":"Portsmouth Road","category":"secondary","osm_type":"way","osm_id":"1544556804","ref":"B2215"}},{"type":"Feature","geometry":{"type":"LineString","coordinates":[[-0.82274,51.36643],[-0.8225,51.36647]]},"properties":{"name":"Wellingtonia Avenue","category":"secondary","osm_type":"way","osm_id":"1544822626","ref":"B3348"}},{"type":"Feature","geometry":{"type":"LineString","coordinates":[[-0.718,51.25568],[-0.71442,51.25435]]},"properties":{"name":"Ash Hill Road","category":"secondary","osm_type":"way","osm_id":"1544896713","ref":"B3411"}},{"type":"Feature","geometry":{"type":"LineString","coordinates":[[-0.04534,51.36969],[-0.0443,51.36931]]},"properties":{"name":"Shirley Church Road","category":"tertiary","osm_type":"way","osm_id":"1545391908"}},{"type":"Feature","geometry":{"type":"LineString","coordinates":[[-0.04382,51.36904],[-0.04208,51.36808]]},"properties":{"name":"Shirley Church Road","category":"tertiary","osm_type":"way","osm_id":"1545431557"}},{"type":"Feature","geometry":{"type":"LineString","coordinates":[[-0.0443,51.36931],[-0.04382,51.36904]]},"properties":{"name":"Shirley Church Road","category":"tertiary","osm_type":"way","osm_id":"1545431558"}},{"type":"Feature","geometry":{"type":"LineString","coordinates":[[-0.8273,51.18471],[-0.82507,51.18419]]},"properties":{"name":"Fullers Road","category":"tertiary","osm_type":"way","osm_id":"1546608502"}},{"type":"Feature","geometry":{"type":"LineString","coordinates":[[-0.47547,51.444],[-0.47522,51.44383]]},"properties":{"name":"Town Lane","category":"secondary","osm_type":"way","osm_id":"1546637153","ref":"B378"}},{"type":"Feature","geometry":{"type":"LineString","coordinates":[[-0.50807,51.28459],[-0.50821,51.28469]]},"properties":{"name":"Portsmouth Road","category":"secondary","osm_type":"way","osm_id":"1546806895"}},{"type":"Feature","geometry":{"type":"LineString","coordinates":[[-0.50807,51.28487],[-0.50781,51.28485]]},"properties":{"name":"Portsmouth Road","category":"secondary","osm_type":"way","osm_id":"1546806896"}},{"type":"Feature","geometry":{"type":"LineString","coordinates":[[-0.07681,51.28203],[-0.07569,51.28118],[-0.0753,51.27993]]},"properties":{"name":"B2030","category":"secondary","osm_type":"way","osm_id":"1547038978","ref":"B2030"}},{"type":"Feature","geometry":{"type":"LineString","coordinates":[[-0.07924,51.28194],[-0.07884,51.28192]]},"properties":{"name":"Church Hill","category":"secondary","osm_type":"way","osm_id":"1547043940","ref":"B2030"}},{"type":"Feature","geometry":{"type":"LineString","coordinates":[[-0.07893,51.28435],[-0.07889,51.28424]]},"properties":{"name":"Croydon Road","category":"secondary","osm_type":"way","osm_id":"1547043941","ref":"B2208"}},{"type":"Feature","geometry":{"type":"LineString","coordinates":[[-0.12919,51.27938],[-0.12696,51.27909]]},"properties":{"name":"Rook Lane","category":"secondary","osm_type":"way","osm_id":"1547151271","ref":"B2031"}},{"type":"Feature","geometry":{"type":"LineString","coordinates":[[-0.07889,51.28424],[-0.07849,51.28372]]},"properties":{"name":"Croydon Road","category":"secondary","osm_type":"way","osm_id":"1547254980","ref":"B2208"}},{"type":"Feature","geometry":{"type":"LineString","coordinates":[[-0.0753,51.27993],[-0.07526,51.27973]]},"properties":{"name":"B2030","category":"secondary","osm_type":"way","osm_id":"1547254981","ref":"B2030"}},{"type":"Feature","geometry":{"type":"LineString","coordinates":[[-0.09994,51.26866],[-0.10078,51.26754]]},"properties":{"name":"Stanstead Road","category":"tertiary","osm_type":"way","osm_id":"1547254989"}},{"type":"Feature","geometry":{"type":"LineString","coordinates":[[-0.10883,51.29624],[-0.11411,51.29794]]},"properties":{"name":"Coulsdon Road","category":"secondary","osm_type":"way","osm_id":"1547254999","ref":"B2030"}},{"type":"Feature","geometry":{"type":"LineString","coordinates":[[-0.08655,51.29209],[-0.08575,51.28947]]},"properties":{"name":"Whyteleafe Road","category":"tertiary","osm_type":"way","osm_id":"1547255000"}},{"type":"Feature","geometry":{"type":"LineString","coordinates":[[-0.08655,51.29209],[-0.08519,51.29251],[-0.08236,51.29219]]},"properties":{"name":"Burntwood Lane","category":"tertiary","osm_type":"way","osm_id":"1547255001"}},{"type":"Feature","geometry":{"type":"LineString","coordinates":[[-0.08236,51.29219],[-0.08103,51.29212]]},"properties":{"name":"Burntwood Lane","category":"tertiary","osm_type":"way","osm_id":"1547255002"}},{"type":"Feature","geometry":{"type":"LineString","coordinates":[[-0.0772,51.29176],[-0.08073,51.28802],[-0.08139,51.28625]]},"properties":{"name":"Stafford Road","category":"tertiary","osm_type":"way","osm_id":"1547255005"}},{"type":"Feature","geometry":{"type":"LineString","coordinates":[[-0.07716,51.29179],[-0.0772,51.29176]]},"properties":{"name":"Stafford Road","category":"tertiary","osm_type":"way","osm_id":"1547255006"}},{"type":"Feature","geometry":{"type":"LineString","coordinates":[[-0.07093,51.29724],[-0.07198,51.294],[-0.07529,51.29089]]},"properties":{"name":"Croydon Road","category":"secondary","osm_type":"way","osm_id":"1547255007","ref":"B2208"}},{"type":"Feature","geometry":{"type":"LineString","coordinates":[[-0.14423,51.14973],[-0.1442,51.14972]]},"properties":{"name":"Balcome Road Roundabout","category":"secondary","osm_type":"way","osm_id":"1547405324"}},{"type":"Feature","geometry":{"type":"LineString","coordinates":[[-0.14411,51.14958],[-0.14413,51.14956]]},"properties":{"name":"Balcome Road Roundabout","category":"secondary","osm_type":"way","osm_id":"1547405325"}},{"type":"Feature","geometry":{"type":"LineString","coordinates":[[-0.1441,51.14959],[-0.14411,51.14958]]},"properties":{"name":"Balcome Road Roundabout","category":"secondary","osm_type":"way","osm_id":"1547405326"}},{"type":"Feature","geometry":{"type":"LineString","coordinates":[[-0.18667,51.16432],[-0.18682,51.16431]]},"properties":{"name":"Charlwood Road","category":"tertiary","osm_type":"way","osm_id":"1547742511"}},{"type":"Feature","geometry":{"type":"LineString","coordinates":[[-0.59952,51.20445],[-0.59945,51.20453]]},"properties":{"name":"Furze Lane","category":"tertiary","osm_type":"way","osm_id":"1547759369"}},{"type":"Feature","geometry":{"type":"LineString","coordinates":[[-0.5996,51.20435],[-0.59952,51.20445]]},"properties":{"name":"Furze Lane","category":"tertiary","osm_type":"way","osm_id":"1547759370"}},{"type":"Feature","geometry":{"type":"LineString","coordinates":[[-0.2239,51.29284],[-0.22416,51.29283]]},"properties":{"name":"Tadworth Street","category":"secondary","osm_type":"way","osm_id":"1548682864","ref":"B2220"}},{"type":"Feature","geometry":{"type":"LineString","coordinates":[[-0.8114,51.15777],[-0.812,51.15788]]},"properties":{"name":"The Street","category":"tertiary","osm_type":"way","osm_id":"1549054094"}},{"type":"Feature","geometry":{"type":"LineString","coordinates":[[-0.1034,51.00596],[-0.10336,51.00595]]},"properties":{"name":"Commercial Square","category":"secondary","osm_type":"way","osm_id":"1549575669"}},{"type":"Feature","geometry":{"type":"LineString","coordinates":[[-0.30068,51.09105],[-0.30073,51.09103]]},"properties":{"name":"Secondary and tertiary roads","category":"tertiary","osm_type":"way","osm_id":"1549577127"}},{"type":"Feature","geometry":{"type":"LineString","coordinates":[[-0.40473,51.43074],[-0.40482,51.43088]]},"properties":{"name":"Secondary and tertiary roads","category":"tertiary","osm_type":"way","osm_id":"1549645776"}},{"type":"Feature","geometry":{"type":"LineString","coordinates":[[-0.40482,51.43088],[-0.40463,51.43077]]},"properties":{"name":"Felthambrook Way","category":"tertiary","osm_type":"way","osm_id":"1549645777"}},{"type":"Feature","geometry":{"type":"LineString","coordinates":[[-0.16392,51.45347],[-0.1638,51.4535]]},"properties":{"name":"Broomwood Road","category":"secondary","osm_type":"way","osm_id":"1550185209","ref":"B229"}},{"type":"Feature","geometry":{"type":"LineString","coordinates":[[-0.16345,51.45356],[-0.1634,51.45357]]},"properties":{"name":"Broomwood Road","category":"tertiary","osm_type":"way","osm_id":"1550185210"}},{"type":"Feature","geometry":{"type":"LineString","coordinates":[[-0.17369,51.44104],[-0.17195,51.44162]]},"properties":{"name":"Burntwood Lane","category":"secondary","osm_type":"way","osm_id":"1550191193","ref":"B229"}},{"type":"Feature","geometry":{"type":"LineString","coordinates":[[-0.18597,51.43554],[-0.18588,51.43558]]},"properties":{"name":"Burntwood Lane","category":"secondary","osm_type":"way","osm_id":"1550237434","ref":"B229"}},{"type":"Feature","geometry":{"type":"LineString","coordinates":[[-0.18015,51.4384],[-0.1799,51.43852]]},"properties":{"name":"Burntwood Lane","category":"secondary","osm_type":"way","osm_id":"1550237435","ref":"B229"}},{"type":"Feature","geometry":{"type":"LineString","coordinates":[[-0.18029,51.43834],[-0.18015,51.4384]]},"properties":{"name":"Burntwood Lane","category":"secondary","osm_type":"way","osm_id":"1550237436","ref":"B229"}},{"type":"Feature","geometry":{"type":"LineString","coordinates":[[-0.1803,51.43833],[-0.18029,51.43834]]},"properties":{"name":"Burntwood Lane","category":"secondary","osm_type":"way","osm_id":"1550237437","ref":"B229"}},{"type":"Feature","geometry":{"type":"LineString","coordinates":[[-0.1799,51.43852],[-0.17987,51.43854]]},"properties":{"name":"Burntwood Lane","category":"secondary","osm_type":"way","osm_id":"1550237439","ref":"B229"}},{"type":"Feature","geometry":{"type":"LineString","coordinates":[[-0.17987,51.43854],[-0.17984,51.43856]]},"properties":{"name":"Burntwood Lane","category":"secondary","osm_type":"way","osm_id":"1550237440","ref":"B229"}},{"type":"Feature","geometry":{"type":"LineString","coordinates":[[-0.17846,51.43934],[-0.17841,51.43937]]},"properties":{"name":"Burntwood Lane","category":"secondary","osm_type":"way","osm_id":"1550237443","ref":"B229"}},{"type":"Feature","geometry":{"type":"LineString","coordinates":[[-0.17767,51.43966],[-0.17757,51.4397]]},"properties":{"name":"Burntwood Lane","category":"secondary","osm_type":"way","osm_id":"1550241263","ref":"B229"}},{"type":"Feature","geometry":{"type":"LineString","coordinates":[[-0.17736,51.43979],[-0.17718,51.43984]]},"properties":{"name":"Burntwood Lane","category":"secondary","osm_type":"way","osm_id":"1550241264","ref":"B229"}},{"type":"Feature","geometry":{"type":"LineString","coordinates":[[-0.17793,51.43953],[-0.17783,51.43958]]},"properties":{"name":"Burntwood Lane","category":"secondary","osm_type":"way","osm_id":"1550241265","ref":"B229"}},{"type":"Feature","geometry":{"type":"LineString","coordinates":[[-0.17678,51.43999],[-0.17659,51.44007]]},"properties":{"name":"Burntwood Lane","category":"secondary","osm_type":"way","osm_id":"1550241271","ref":"B229"}},{"type":"Feature","geometry":{"type":"LineString","coordinates":[[-0.17604,51.44028],[-0.17578,51.44036]]},"properties":{"name":"Burntwood Lane","category":"secondary","osm_type":"way","osm_id":"1550241272","ref":"B229"}},{"type":"Feature","geometry":{"type":"LineString","coordinates":[[-0.17578,51.44036],[-0.17486,51.44066]]},"properties":{"name":"Burntwood Lane","category":"secondary","osm_type":"way","osm_id":"1550241273","ref":"B229"}},{"type":"Feature","geometry":{"type":"LineString","coordinates":[[-0.17486,51.44066],[-0.17468,51.44071]]},"properties":{"name":"Burntwood Lane","category":"secondary","osm_type":"way","osm_id":"1550241274","ref":"B229"}},{"type":"Feature","geometry":{"type":"LineString","coordinates":[[-0.17463,51.44073],[-0.17441,51.4408]]},"properties":{"name":"Burntwood Lane","category":"secondary","osm_type":"way","osm_id":"1550241275","ref":"B229"}},{"type":"Feature","geometry":{"type":"LineString","coordinates":[[-0.17468,51.44071],[-0.17463,51.44073]]},"properties":{"name":"Burntwood Lane","category":"secondary","osm_type":"way","osm_id":"1550241276","ref":"B229"}},{"type":"Feature","geometry":{"type":"LineString","coordinates":[[-0.17379,51.44101],[-0.17369,51.44104]]},"properties":{"name":"Burntwood Lane","category":"secondary","osm_type":"way","osm_id":"1550241277","ref":"B229"}},{"type":"Feature","geometry":{"type":"LineString","coordinates":[[-0.17387,51.44098],[-0.17379,51.44101]]},"properties":{"name":"Burntwood Lane","category":"secondary","osm_type":"way","osm_id":"1550241278","ref":"B229"}},{"type":"Feature","geometry":{"type":"LineString","coordinates":[[-0.17195,51.44162],[-0.17187,51.44165]]},"properties":{"name":"Burntwood Lane","category":"secondary","osm_type":"way","osm_id":"1550241279","ref":"B229"}},{"type":"Feature","geometry":{"type":"LineString","coordinates":[[-0.17156,51.44176],[-0.17151,51.44177]]},"properties":{"name":"Burntwood Lane","category":"secondary","osm_type":"way","osm_id":"1550241280","ref":"B229"}},{"type":"Feature","geometry":{"type":"LineString","coordinates":[[-0.17151,51.44177],[-0.17133,51.44184]]},"properties":{"name":"Burntwood Lane","category":"secondary","osm_type":"way","osm_id":"1550241281","ref":"B229"}},{"type":"Feature","geometry":{"type":"LineString","coordinates":[[-0.17065,51.44216],[-0.17062,51.44218]]},"properties":{"name":"Burntwood Lane","category":"secondary","osm_type":"way","osm_id":"1550241283","ref":"B229"}},{"type":"Feature","geometry":{"type":"LineString","coordinates":[[-0.17093,51.442],[-0.17082,51.44206]]},"properties":{"name":"Burntwood Lane","category":"secondary","osm_type":"way","osm_id":"1550241284","ref":"B229"}},{"type":"Feature","geometry":{"type":"LineString","coordinates":[[-0.17055,51.44222],[-0.17042,51.44232]]},"properties":{"name":"Burntwood Lane","category":"secondary","osm_type":"way","osm_id":"1550246067","ref":"B229"}},{"type":"Feature","geometry":{"type":"LineString","coordinates":[[-0.29484,51.40161],[-0.29487,51.40152]]},"properties":{"name":"Villiers Avenue","category":"tertiary","osm_type":"way","osm_id":"1550472293"}},{"type":"Feature","geometry":{"type":"LineString","coordinates":[[-0.29498,51.40123],[-0.295,51.40118]]},"properties":{"name":"Villiers Avenue","category":"tertiary","osm_type":"way","osm_id":"1550472294"}},{"type":"Feature","geometry":{"type":"LineString","coordinates":[[-0.29493,51.40136],[-0.29498,51.40123]]},"properties":{"name":"Villiers Avenue","category":"tertiary","osm_type":"way","osm_id":"1550472295"}},{"type":"Feature","geometry":{"type":"LineString","coordinates":[[-0.75506,51.32776],[-0.75505,51.32766]]},"properties":{"name":"Frimley Road","category":"secondary","osm_type":"way","osm_id":"1550534318","ref":"B3411"}},{"type":"Feature","geometry":{"type":"LineString","coordinates":[[-0.7565,51.33061],[-0.75645,51.33055]]},"properties":{"name":"Frimley Road","category":"secondary","osm_type":"way","osm_id":"1550540163","ref":"B3411"}},{"type":"Feature","geometry":{"type":"LineString","coordinates":[[-0.75645,51.33055],[-0.75643,51.33052]]},"properties":{"name":"Frimley Road","category":"secondary","osm_type":"way","osm_id":"1550540164","ref":"B3411"}},{"type":"Feature","geometry":{"type":"LineString","coordinates":[[-0.69478,51.36001],[-0.69493,51.36002]]},"properties":{"name":"Church Road","category":"tertiary","osm_type":"way","osm_id":"1551101392"}},{"type":"Feature","geometry":{"type":"LineString","coordinates":[[-0.77062,51.24936],[-0.77063,51.24938]]},"properties":{"name":"Lime Street Roundabout","category":"secondary","osm_type":"way","osm_id":"1551242833"}},{"type":"Feature","geometry":{"type":"LineString","coordinates":[[-0.74775,51.27678],[-0.7476,51.27679]]},"properties":{"name":"Queens Road","category":"tertiary","osm_type":"way","osm_id":"1551601731"}},{"type":"Feature","geometry":{"type":"LineString","coordinates":[[-0.74626,51.27693],[-0.74513,51.27704]]},"properties":{"name":"Queens Road","category":"tertiary","osm_type":"way","osm_id":"1551601732"}},{"type":"Feature","geometry":{"type":"LineString","coordinates":[[-0.74948,51.2766],[-0.748,51.27675]]},"properties":{"name":"Queens Road","category":"tertiary","osm_type":"way","osm_id":"1551601733"}},{"type":"Feature","geometry":{"type":"LineString","coordinates":[[-0.74653,51.2769],[-0.74626,51.27693]]},"properties":{"name":"Queens Road","category":"tertiary","osm_type":"way","osm_id":"1551601734"}},{"type":"Feature","geometry":{"type":"LineString","coordinates":[[-0.74733,51.27682],[-0.74653,51.2769]]},"properties":{"name":"Queens Road","category":"tertiary","osm_type":"way","osm_id":"1551601735"}},{"type":"Feature","geometry":{"type":"LineString","coordinates":[[-0.748,51.27675],[-0.74775,51.27678]]},"properties":{"name":"Queens Road","category":"tertiary","osm_type":"way","osm_id":"1551601736"}},{"type":"Feature","geometry":{"type":"LineString","coordinates":[[-0.7476,51.27679],[-0.74733,51.27682]]},"properties":{"name":"Queens Road","category":"tertiary","osm_type":"way","osm_id":"1551601737"}},{"type":"Feature","geometry":{"type":"LineString","coordinates":[[-0.25341,51.32312],[-0.25314,51.32281]]},"properties":{"name":"Burgh Heath Road","category":"secondary","osm_type":"way","osm_id":"1552698571","ref":"B284"}},{"type":"Feature","geometry":{"type":"LineString","coordinates":[[-0.69732,51.35774],[-0.69719,51.35767]]},"properties":{"name":"Yaverland Drive","category":"tertiary","osm_type":"way","osm_id":"1552950748"}},{"type":"Feature","geometry":{"type":"LineString","coordinates":[[-0.69148,51.36367],[-0.69158,51.36371]]},"properties":{"name":"Bridge Road","category":"secondary","osm_type":"way","osm_id":"1552981185","ref":"B3029"}},{"type":"Feature","geometry":{"type":"LineString","coordinates":[[-0.69107,51.3631],[-0.69098,51.36274]]},"properties":{"name":"Bridge Road","category":"secondary","osm_type":"way","osm_id":"1552981187","ref":"B3029"}},{"type":"Feature","geometry":{"type":"LineString","coordinates":[[-0.69152,51.36378],[-0.69133,51.3637]]},"properties":{"name":"Bridge Road","category":"secondary","osm_type":"way","osm_id":"1553011830","ref":"B3029"}},{"type":"Feature","geometry":{"type":"LineString","coordinates":[[-0.08139,51.28625],[-0.08081,51.28418]]},"properties":{"name":"Stafford Road","category":"tertiary","osm_type":"way","osm_id":"1553306073"}},{"type":"Feature","geometry":{"type":"LineString","coordinates":[[-0.07967,51.28071],[-0.07936,51.28089]]},"properties":{"name":"Harestone Valley Road","category":"tertiary","osm_type":"way","osm_id":"1553306074"}},{"type":"Feature","geometry":{"type":"LineString","coordinates":[[-0.0938,51.48233],[-0.09449,51.48232]]},"properties":{"name":"Albany Road","category":"secondary","osm_type":"way","osm_id":"1553498175","ref":"B214"}},{"type":"Feature","geometry":{"type":"LineString","coordinates":[[-0.08996,51.48284],[-0.09205,51.48254]]},"properties":{"name":"Albany Road","category":"secondary","osm_type":"way","osm_id":"1553498176","ref":"B214"}},{"type":"Feature","geometry":{"type":"LineString","coordinates":[[-0.73895,51.25808],[-0.73876,51.25816]]},"properties":{"name":"Gasworks Bridge","category":"tertiary","osm_type":"way","osm_id":"1553508713"}},{"type":"Feature","geometry":{"type":"LineString","coordinates":[[-0.35676,51.07116],[-0.35798,51.07125]]},"properties":{"name":"Old Guildford Road","category":"tertiary","osm_type":"way","osm_id":"1553566268"}},{"type":"Feature","geometry":{"type":"LineString","coordinates":[[-0.23714,51.31212],[-0.23737,51.31211]]},"properties":{"name":"Shawley Way","category":"tertiary","osm_type":"way","osm_id":"1554375389"}},{"type":"Feature","geometry":{"type":"LineString","coordinates":[[-0.90375,51.03711],[-0.90372,51.03695]]},"properties":{"name":"Secondary and tertiary roads","category":"tertiary","osm_type":"way","osm_id":"1554377128"}},{"type":"Feature","geometry":{"type":"LineString","coordinates":[[-0.15828,51.49265],[-0.15797,51.49269]]},"properties":{"name":"Symons Street","category":"tertiary","osm_type":"way","osm_id":"1554775012"}},{"type":"Feature","geometry":{"type":"LineString","coordinates":[[-0.16903,51.49354],[-0.16891,51.49352]]},"properties":{"name":"Sloane Avenue","category":"tertiary","osm_type":"way","osm_id":"1554775040"}},{"type":"Feature","geometry":{"type":"LineString","coordinates":[[-0.16891,51.49352],[-0.16775,51.49307]]},"properties":{"name":"Sloane Avenue","category":"tertiary","osm_type":"way","osm_id":"1554775041"}},{"type":"Feature","geometry":{"type":"LineString","coordinates":[[-0.16757,51.48388],[-0.16753,51.48382]]},"properties":{"name":"Oakley Street","category":"secondary","osm_type":"way","osm_id":"1554775063","ref":"B304"}},{"type":"Feature","geometry":{"type":"LineString","coordinates":[[-0.21465,51.36482],[-0.21489,51.36489]]},"properties":{"name":"Church Hill Road","category":"tertiary","osm_type":"way","osm_id":"1554827607"}},{"type":"Feature","geometry":{"type":"LineString","coordinates":[[-0.13559,51.49737],[-0.13561,51.49694]]},"properties":{"name":"Artillery Row","category":"secondary","osm_type":"way","osm_id":"1554849753","ref":"B323"}},{"type":"Feature","geometry":{"type":"LineString","coordinates":[[-0.13563,51.4975],[-0.13559,51.49737]]},"properties":{"name":"Artillery Row","category":"secondary","osm_type":"way","osm_id":"1554849754","ref":"B323"}},{"type":"Feature","geometry":{"type":"LineString","coordinates":[[-0.73302,51.22593],[-0.73303,51.22606]]},"properties":{"name":"The Street","category":"tertiary","osm_type":"way","osm_id":"1554875378"}},{"type":"Feature","geometry":{"type":"LineString","coordinates":[[-0.12905,51.49115],[-0.12842,51.49191]]},"properties":{"name":"John Islip Street","category":"secondary","osm_type":"way","osm_id":"1555095025","ref":"B326"}},{"type":"Feature","geometry":{"type":"LineString","coordinates":[[-0.12921,51.49095],[-0.12905,51.49115]]},"properties":{"name":"John Islip Street","category":"secondary","osm_type":"way","osm_id":"1555095026","ref":"B326"}},{"type":"Feature","geometry":{"type":"LineString","coordinates":[[-0.12902,51.49485],[-0.129,51.49473]]},"properties":{"name":"Marsham Street","category":"secondary","osm_type":"way","osm_id":"1555095031","ref":"B326"}},{"type":"Feature","geometry":{"type":"LineString","coordinates":[[-0.129,51.49466],[-0.12897,51.49394]]},"properties":{"name":"Marsham Street","category":"secondary","osm_type":"way","osm_id":"1555095032","ref":"B326"}},{"type":"Feature","geometry":{"type":"LineString","coordinates":[[-0.03776,51.48767],[-0.03754,51.48784]]},"properties":{"name":"Oxestalls Road","category":"tertiary","osm_type":"way","osm_id":"1556575624"}},{"type":"Feature","geometry":{"type":"LineString","coordinates":[[-0.03754,51.48784],[-0.03725,51.48809]]},"properties":{"name":"Oxestalls Road","category":"tertiary","osm_type":"way","osm_id":"1556575625"}},{"type":"Feature","geometry":{"type":"LineString","coordinates":[[-0.0597,51.49529],[-0.05989,51.49555]]},"properties":{"name":"Southwark Park Road","category":"tertiary","osm_type":"way","osm_id":"1556766794"}},{"type":"Feature","geometry":{"type":"LineString","coordinates":[[-0.05989,51.49555],[-0.05994,51.49565]]},"properties":{"name":"Southwark Park Road","category":"tertiary","osm_type":"way","osm_id":"1556766795"}},{"type":"Feature","geometry":{"type":"LineString","coordinates":[[-0.05822,51.49446],[-0.05836,51.49452]]},"properties":{"name":"Southwark Park Road","category":"tertiary","osm_type":"way","osm_id":"1556766796"}},{"type":"Feature","geometry":{"type":"LineString","coordinates":[[-0.05776,51.49424],[-0.05822,51.49446]]},"properties":{"name":"Southwark Park Road","category":"tertiary","osm_type":"way","osm_id":"1556766799"}},{"type":"Feature","geometry":{"type":"LineString","coordinates":[[-0.35508,51.47053],[-0.35509,51.47079]]},"properties":{"name":"Kingsley Road","category":"tertiary","osm_type":"way","osm_id":"1557420113"}},{"type":"Feature","geometry":{"type":"LineString","coordinates":[[-0.35509,51.47079],[-0.35513,51.47087]]},"properties":{"name":"Kingsley Road","category":"tertiary","osm_type":"way","osm_id":"1557420116"}},{"type":"Feature","geometry":{"type":"LineString","coordinates":[[-0.35499,51.47048],[-0.35508,51.47053]]},"properties":{"name":"High Street","category":"tertiary","osm_type":"way","osm_id":"1557420118"}},{"type":"Feature","geometry":{"type":"LineString","coordinates":[[-0.35509,51.47079],[-0.35499,51.47068]]},"properties":{"name":"Kingsley Road","category":"tertiary","osm_type":"way","osm_id":"1557420119"}},{"type":"Feature","geometry":{"type":"LineString","coordinates":[[-0.35497,51.47056],[-0.35499,51.47048]]},"properties":{"name":"Kingsley Road","category":"tertiary","osm_type":"way","osm_id":"1557420120"}},{"type":"Feature","geometry":{"type":"LineString","coordinates":[[-0.95031,51.34225],[-0.94999,51.34195]]},"properties":{"name":"B3011","category":"secondary","osm_type":"way","osm_id":"1557958772","ref":"B3011"}},{"type":"Feature","geometry":{"type":"LineString","coordinates":[[-0.00482,51.12391],[-0.00435,51.12399]]},"properties":{"name":"High Street","category":"tertiary","osm_type":"way","osm_id":"1558160748"}},{"type":"Feature","geometry":{"type":"LineString","coordinates":[[-0.01161,51.12682],[-0.01202,51.1269]]},"properties":{"name":"London Road","category":"tertiary","osm_type":"way","osm_id":"1558160749"}},{"type":"Feature","geometry":{"type":"LineString","coordinates":[[-0.01191,51.12714],[-0.01158,51.12697]]},"properties":{"name":"London Road","category":"tertiary","osm_type":"way","osm_id":"1558160750"}},{"type":"Feature","geometry":{"type":"LineString","coordinates":[[-0.33961,51.47513],[-0.33958,51.47505]]},"properties":{"name":"The Grove","category":"tertiary","osm_type":"way","osm_id":"1558724998"}},{"type":"Feature","geometry":{"type":"LineString","coordinates":[[-0.5366,51.30275],[-0.53639,51.30344]]},"properties":{"name":"Old Woking Road","category":"secondary","osm_type":"way","osm_id":"1559288060","ref":"B382"}}]}