{"type":"FeatureCollection","features":[{"type":"Feature","geometry":{"type":"LineString","coordinates":[[-0.97026,54.58455],[-0.97057,54.58416]]},"properties":{"name":"Saltburn Bank","category":"tertiary","osm_type":"way","osm_id":"4686552"}},{"type":"Feature","geometry":{"type":"LineString","coordinates":[[-0.97063,54.58403],[-0.97065,54.58345]]},"properties":{"name":"The Zetland","category":"tertiary","osm_type":"way","osm_id":"4686553"}},{"type":"Feature","geometry":{"type":"LineString","coordinates":[[-0.94452,54.57404],[-0.94159,54.57449],[-0.93906,54.57066],[-0.93673,54.56886]]},"properties":{"name":"Saltburn Road","category":"tertiary","osm_type":"way","osm_id":"4874436"}},{"type":"Feature","geometry":{"type":"LineString","coordinates":[[-0.89044,54.55438],[-0.89092,54.55366],[-0.89208,54.55319]]},"properties":{"name":"Station Road","category":"secondary","osm_type":"way","osm_id":"4874597","ref":"B1366"}},{"type":"Feature","geometry":{"type":"LineString","coordinates":[[-0.81653,54.50619],[-0.80293,54.51157],[-0.78692,54.51349],[-0.78433,54.51354],[-0.77776,54.51241],[-0.77134,54.51201],[-0.76284,54.50994],[-0.75694,54.50899],[-0.75604,54.50927]]},"properties":{"name":"High Street","category":"secondary","osm_type":"way","osm_id":"17363652","ref":"B1266"}},{"type":"Feature","geometry":{"type":"LineString","coordinates":[[-0.98817,54.56065],[-0.98718,54.56039],[-0.98371,54.56092]]},"properties":{"name":"High Street","category":"tertiary","osm_type":"way","osm_id":"23058282"}},{"type":"Feature","geometry":{"type":"LineString","coordinates":[[-0.76578,54.52384],[-0.76304,54.52717],[-0.75946,54.5302]]},"properties":{"name":"Ellerby Lane","category":"tertiary","osm_type":"way","osm_id":"24998630"}},{"type":"Feature","geometry":{"type":"LineString","coordinates":[[-0.96763,54.58503],[-0.96649,54.58431]]},"properties":{"name":"Saltburn Bank","category":"tertiary","osm_type":"way","osm_id":"25021280"}},{"type":"Feature","geometry":{"type":"LineString","coordinates":[[-0.97567,54.56241],[-0.97426,54.56927]]},"properties":{"name":"Saltburn Lane","category":"tertiary","osm_type":"way","osm_id":"25023352"}},{"type":"Feature","geometry":{"type":"LineString","coordinates":[[-0.95221,54.56045],[-0.95478,54.5586]]},"properties":{"name":"Vaughan Street","category":"tertiary","osm_type":"way","osm_id":"25066233"}},{"type":"Feature","geometry":{"type":"LineString","coordinates":[[-0.9316,54.56896],[-0.93054,54.56705],[-0.93036,54.56533]]},"properties":{"name":"Secondary and tertiary roads","category":"tertiary","osm_type":"way","osm_id":"25066644"}},{"type":"Feature","geometry":{"type":"LineString","coordinates":[[-0.98817,54.56065],[-0.98825,54.56019]]},"properties":{"name":"Green Road","category":"tertiary","osm_type":"way","osm_id":"25067686"}},{"type":"Feature","geometry":{"type":"LineString","coordinates":[[-0.93673,54.56886],[-0.93945,54.56682]]},"properties":{"name":"High Street","category":"tertiary","osm_type":"way","osm_id":"26995886"}},{"type":"Feature","geometry":{"type":"LineString","coordinates":[[-0.97994,54.57801],[-0.98123,54.57689],[-0.98392,54.57618]]},"properties":{"name":"Guisborough Road","category":"tertiary","osm_type":"way","osm_id":"28407387"}},{"type":"Feature","geometry":{"type":"LineString","coordinates":[[-0.9063,54.56321],[-0.90615,54.56324]]},"properties":{"name":"Wesley Terrace","category":"tertiary","osm_type":"way","osm_id":"37978561"}},{"type":"Feature","geometry":{"type":"LineString","coordinates":[[-0.88433,54.56606],[-0.89055,54.56727],[-0.89318,54.56851],[-0.8943,54.56985],[-0.89563,54.57015],[-0.89644,54.57097]]},"properties":{"name":"Skinningrove Bank Road","category":"tertiary","osm_type":"way","osm_id":"47985821"}},{"type":"Feature","geometry":{"type":"LineString","coordinates":[[-0.88517,54.55365],[-0.88537,54.55492]]},"properties":{"name":"North Road","category":"tertiary","osm_type":"way","osm_id":"47985823"}},{"type":"Feature","geometry":{"type":"LineString","coordinates":[[-0.88462,54.56552],[-0.88218,54.56507],[-0.87792,54.56346],[-0.87022,54.56321]]},"properties":{"name":"Secondary and tertiary roads","category":"tertiary","osm_type":"way","osm_id":"47985824"}},{"type":"Feature","geometry":{"type":"LineString","coordinates":[[-0.87022,54.56321],[-0.87359,54.56182],[-0.87486,54.55892],[-0.87955,54.55727],[-0.88232,54.5557]]},"properties":{"name":"Micklow Lane","category":"tertiary","osm_type":"way","osm_id":"47985825"}},{"type":"Feature","geometry":{"type":"LineString","coordinates":[[-0.98127,54.54252],[-0.98427,54.53886],[-0.99346,54.53148],[-0.99779,54.53067],[-1.00044,54.5309]]},"properties":{"name":"Margrove Road","category":"tertiary","osm_type":"way","osm_id":"48637884"}},{"type":"Feature","geometry":{"type":"LineString","coordinates":[[-0.95844,54.53782],[-0.95635,54.53712]]},"properties":{"name":"High Street","category":"tertiary","osm_type":"way","osm_id":"48638467"}},{"type":"Feature","geometry":{"type":"LineString","coordinates":[[-0.98825,54.56019],[-0.98754,54.5604]]},"properties":{"name":"High Street","category":"tertiary","osm_type":"way","osm_id":"48646197"}},{"type":"Feature","geometry":{"type":"LineString","coordinates":[[-0.96907,54.58572],[-0.96928,54.58558]]},"properties":{"name":"Saltburn Road","category":"tertiary","osm_type":"way","osm_id":"51076932"}},{"type":"Feature","geometry":{"type":"LineString","coordinates":[[-0.96926,54.58542],[-0.96934,54.58501],[-0.96998,54.58534],[-0.97026,54.58455]]},"properties":{"name":"Saltburn Bank","category":"tertiary","osm_type":"way","osm_id":"51076934"}},{"type":"Feature","geometry":{"type":"LineString","coordinates":[[-0.89084,54.55372],[-0.89016,54.55334]]},"properties":{"name":"Rosecroft Lane","category":"tertiary","osm_type":"way","osm_id":"52090034"}},{"type":"Feature","geometry":{"type":"LineString","coordinates":[[-0.97994,54.57801],[-0.98103,54.57965]]},"properties":{"name":"Marske Mill Lane","category":"tertiary","osm_type":"way","osm_id":"53330087"}},{"type":"Feature","geometry":{"type":"LineString","coordinates":[[-0.94766,54.57502],[-0.94493,54.57416]]},"properties":{"name":"Saltburn Road","category":"tertiary","osm_type":"way","osm_id":"56640578"}},{"type":"Feature","geometry":{"type":"LineString","coordinates":[[-0.95454,54.57976],[-0.95249,54.57923],[-0.94962,54.57604],[-0.94766,54.57502]]},"properties":{"name":"Saltburn Road","category":"tertiary","osm_type":"way","osm_id":"56640579"}},{"type":"Feature","geometry":{"type":"LineString","coordinates":[[-0.96517,54.58467],[-0.96438,54.58257],[-0.9609,54.58198],[-0.95773,54.57973],[-0.95454,54.57976]]},"properties":{"name":"Saltburn Road","category":"tertiary","osm_type":"way","osm_id":"56640580"}},{"type":"Feature","geometry":{"type":"LineString","coordinates":[[-0.96907,54.58572],[-0.96844,54.5854]]},"properties":{"name":"Saltburn Road","category":"tertiary","osm_type":"way","osm_id":"56640581"}},{"type":"Feature","geometry":{"type":"LineString","coordinates":[[-0.89802,54.56906],[-0.89762,54.56933]]},"properties":{"name":"Stone Row","category":"tertiary","osm_type":"way","osm_id":"56660486"}},{"type":"Feature","geometry":{"type":"LineString","coordinates":[[-0.93036,54.56533],[-0.9296,54.56401]]},"properties":{"name":"Kilton Lane","category":"tertiary","osm_type":"way","osm_id":"56660502"}},{"type":"Feature","geometry":{"type":"LineString","coordinates":[[-0.88537,54.55492],[-0.88539,54.5551]]},"properties":{"name":"North Road","category":"tertiary","osm_type":"way","osm_id":"56670851"}},{"type":"Feature","geometry":{"type":"LineString","coordinates":[[-0.97266,54.55897],[-0.97221,54.55712],[-0.96976,54.55579]]},"properties":{"name":"Stanghow Road","category":"tertiary","osm_type":"way","osm_id":"56671595"}},{"type":"Feature","geometry":{"type":"LineString","coordinates":[[-0.87022,54.56321],[-0.85973,54.56298]]},"properties":{"name":"Secondary and tertiary roads","category":"tertiary","osm_type":"way","osm_id":"57015001"}},{"type":"Feature","geometry":{"type":"LineString","coordinates":[[-0.88567,54.55788],[-0.88579,54.55851]]},"properties":{"name":"Seymour Hill Terrace","category":"tertiary","osm_type":"way","osm_id":"57015007"}},{"type":"Feature","geometry":{"type":"LineString","coordinates":[[-0.89016,54.55334],[-0.89004,54.55326]]},"properties":{"name":"Rosecroft Lane","category":"tertiary","osm_type":"way","osm_id":"57035264"}},{"type":"Feature","geometry":{"type":"LineString","coordinates":[[-0.89004,54.55326],[-0.89148,54.55231],[-0.89163,54.55171]]},"properties":{"name":"Rosecroft Lane","category":"tertiary","osm_type":"way","osm_id":"57035270"}},{"type":"Feature","geometry":{"type":"LineString","coordinates":[[-0.90583,54.56333],[-0.9046,54.56422]]},"properties":{"name":"Wesley Terrace","category":"tertiary","osm_type":"way","osm_id":"57035291"}},{"type":"Feature","geometry":{"type":"LineString","coordinates":[[-0.89244,54.55305],[-0.8936,54.55183],[-0.89523,54.55234],[-0.89778,54.55237]]},"properties":{"name":"Liverton Road","category":"secondary","osm_type":"way","osm_id":"57035297","ref":"B1366"}},{"type":"Feature","geometry":{"type":"LineString","coordinates":[[-0.89208,54.55319],[-0.89244,54.55305]]},"properties":{"name":"Station Road","category":"secondary","osm_type":"way","osm_id":"57035298","ref":"B1366"}},{"type":"Feature","geometry":{"type":"LineString","coordinates":[[-0.899,54.56872],[-0.89882,54.56912]]},"properties":{"name":"Stone Row","category":"tertiary","osm_type":"way","osm_id":"57035307"}},{"type":"Feature","geometry":{"type":"LineString","coordinates":[[-0.90127,54.56325],[-0.90134,54.56306]]},"properties":{"name":"Mill Lane","category":"tertiary","osm_type":"way","osm_id":"57035310"}},{"type":"Feature","geometry":{"type":"LineString","coordinates":[[-0.90134,54.56306],[-0.90175,54.56158]]},"properties":{"name":"Mill Lane","category":"tertiary","osm_type":"way","osm_id":"57035311"}},{"type":"Feature","geometry":{"type":"LineString","coordinates":[[-0.90067,54.56457],[-0.901,54.56422]]},"properties":{"name":"Mill Lane","category":"tertiary","osm_type":"way","osm_id":"57035312"}},{"type":"Feature","geometry":{"type":"LineString","coordinates":[[-0.90058,54.5647],[-0.90067,54.56457]]},"properties":{"name":"Mill Lane","category":"tertiary","osm_type":"way","osm_id":"57035313"}},{"type":"Feature","geometry":{"type":"LineString","coordinates":[[-0.89644,54.57097],[-0.8969,54.57098]]},"properties":{"name":"Skinningrove Bank Road","category":"tertiary","osm_type":"way","osm_id":"57035314"}},{"type":"Feature","geometry":{"type":"LineString","coordinates":[[-0.98103,54.57965],[-0.98172,54.58092]]},"properties":{"name":"Marske Mill Lane","category":"tertiary","osm_type":"way","osm_id":"58402061"}},{"type":"Feature","geometry":{"type":"LineString","coordinates":[[-0.97124,54.58289],[-0.9735,54.58246]]},"properties":{"name":"Windsor Road","category":"tertiary","osm_type":"way","osm_id":"58402062"}},{"type":"Feature","geometry":{"type":"LineString","coordinates":[[-0.96774,54.58505],[-0.96561,54.58515],[-0.96519,54.58471]]},"properties":{"name":"Saltburn Road","category":"tertiary","osm_type":"way","osm_id":"60753184"}},{"type":"Feature","geometry":{"type":"LineString","coordinates":[[-0.96844,54.5854],[-0.968,54.58517]]},"properties":{"name":"Saltburn Road","category":"tertiary","osm_type":"way","osm_id":"60753186"}},{"type":"Feature","geometry":{"type":"LineString","coordinates":[[-0.98825,54.56019],[-0.9881,54.55912]]},"properties":{"name":"Green Road","category":"tertiary","osm_type":"way","osm_id":"61047361"}},{"type":"Feature","geometry":{"type":"LineString","coordinates":[[-0.92001,54.56704],[-0.91949,54.56699]]},"properties":{"name":"Brotton Road","category":"tertiary","osm_type":"way","osm_id":"66454242"}},{"type":"Feature","geometry":{"type":"LineString","coordinates":[[-0.91969,54.56683],[-0.92001,54.56704]]},"properties":{"name":"Brotton Road","category":"tertiary","osm_type":"way","osm_id":"66454247"}},{"type":"Feature","geometry":{"type":"LineString","coordinates":[[-0.90615,54.56324],[-0.90583,54.56333]]},"properties":{"name":"Wesley Terrace","category":"tertiary","osm_type":"way","osm_id":"66598200"}},{"type":"Feature","geometry":{"type":"LineString","coordinates":[[-0.75432,54.5088],[-0.75663,54.50898]]},"properties":{"name":"High Street","category":"secondary","osm_type":"way","osm_id":"74989842","ref":"B1266"}},{"type":"Feature","geometry":{"type":"LineString","coordinates":[[-0.96818,54.53998],[-0.96451,54.53964],[-0.95844,54.53782]]},"properties":{"name":"High Street","category":"tertiary","osm_type":"way","osm_id":"97948597"}},{"type":"Feature","geometry":{"type":"LineString","coordinates":[[-0.96296,54.55004],[-0.96121,54.54832],[-0.95987,54.54413],[-0.95732,54.54171],[-0.95703,54.54034]]},"properties":{"name":"Stanghow Road","category":"tertiary","osm_type":"way","osm_id":"97948601"}},{"type":"Feature","geometry":{"type":"LineString","coordinates":[[-0.98048,54.54211],[-0.97779,54.54103],[-0.97709,54.54021],[-0.96818,54.53998]]},"properties":{"name":"Lingdale Road","category":"tertiary","osm_type":"way","osm_id":"97948627"}},{"type":"Feature","geometry":{"type":"LineString","coordinates":[[-0.95703,54.54034],[-0.95844,54.53782]]},"properties":{"name":"Stanghow Road","category":"tertiary","osm_type":"way","osm_id":"97948659"}},{"type":"Feature","geometry":{"type":"LineString","coordinates":[[-0.93651,54.51566],[-0.93649,54.51526]]},"properties":{"name":"Freebrough Road","category":"tertiary","osm_type":"way","osm_id":"97951398"}},{"type":"Feature","geometry":{"type":"LineString","coordinates":[[-0.9644,54.50717],[-0.95966,54.51569]]},"properties":{"name":"Smeathorns Road","category":"tertiary","osm_type":"way","osm_id":"97951416"}},{"type":"Feature","geometry":{"type":"LineString","coordinates":[[-0.96636,54.58419],[-0.96679,54.584]]},"properties":{"name":"Saltburn Bank","category":"tertiary","osm_type":"way","osm_id":"98004803"}},{"type":"Feature","geometry":{"type":"LineString","coordinates":[[-0.97842,54.58153],[-0.98172,54.58092]]},"properties":{"name":"Marske Road","category":"tertiary","osm_type":"way","osm_id":"98004815"}},{"type":"Feature","geometry":{"type":"LineString","coordinates":[[-0.96649,54.58431],[-0.96636,54.58419]]},"properties":{"name":"Saltburn Lane","category":"tertiary","osm_type":"way","osm_id":"98004818"}},{"type":"Feature","geometry":{"type":"LineString","coordinates":[[-0.98392,54.57618],[-0.98578,54.57586]]},"properties":{"name":"Hob Hill Lane","category":"tertiary","osm_type":"way","osm_id":"98004833"}},{"type":"Feature","geometry":{"type":"LineString","coordinates":[[-0.83709,54.56147],[-0.83468,54.56124],[-0.83136,54.56016],[-0.82882,54.55987],[-0.82268,54.55824]]},"properties":{"name":"Boulby Bank","category":"tertiary","osm_type":"way","osm_id":"98611713"}},{"type":"Feature","geometry":{"type":"LineString","coordinates":[[-0.75872,54.53404],[-0.76659,54.5369],[-0.76934,54.53747]]},"properties":{"name":"Runswick Lane","category":"tertiary","osm_type":"way","osm_id":"98621912"}},{"type":"Feature","geometry":{"type":"LineString","coordinates":[[-0.75527,54.53407],[-0.75872,54.53404]]},"properties":{"name":"Hinderwell Lane","category":"tertiary","osm_type":"way","osm_id":"98621925"}},{"type":"Feature","geometry":{"type":"LineString","coordinates":[[-0.89712,54.57059],[-0.89724,54.57034]]},"properties":{"name":"Beach Road","category":"tertiary","osm_type":"way","osm_id":"98729992"}},{"type":"Feature","geometry":{"type":"LineString","coordinates":[[-0.9015,54.55193],[-0.90174,54.54981]]},"properties":{"name":"Cleveland Street","category":"secondary","osm_type":"way","osm_id":"98729993","ref":"B1366"}},{"type":"Feature","geometry":{"type":"LineString","coordinates":[[-0.89173,54.55152],[-0.89139,54.54634],[-0.89006,54.54454]]},"properties":{"name":"Rosecroft Lane","category":"tertiary","osm_type":"way","osm_id":"98729995"}},{"type":"Feature","geometry":{"type":"LineString","coordinates":[[-0.88579,54.55851],[-0.88595,54.56266]]},"properties":{"name":"Hummersea Lane","category":"tertiary","osm_type":"way","osm_id":"98729996"}},{"type":"Feature","geometry":{"type":"LineString","coordinates":[[-0.90174,54.54981],[-0.902,54.54895]]},"properties":{"name":"Liverton Road","category":"secondary","osm_type":"way","osm_id":"98729997","ref":"B1366"}},{"type":"Feature","geometry":{"type":"LineString","coordinates":[[-0.88232,54.5557],[-0.88309,54.55524],[-0.88537,54.55492]]},"properties":{"name":"Cleveland Street","category":"tertiary","osm_type":"way","osm_id":"98730003"}},{"type":"Feature","geometry":{"type":"LineString","coordinates":[[-0.89163,54.55171],[-0.89173,54.55152]]},"properties":{"name":"Rosecroft Lane","category":"tertiary","osm_type":"way","osm_id":"98730016"}},{"type":"Feature","geometry":{"type":"LineString","coordinates":[[-0.88539,54.5551],[-0.88567,54.55788]]},"properties":{"name":"Seymour Hill Terrace","category":"tertiary","osm_type":"way","osm_id":"98730020"}},{"type":"Feature","geometry":{"type":"LineString","coordinates":[[-0.8969,54.57098],[-0.89712,54.57059]]},"properties":{"name":"Beach Road","category":"tertiary","osm_type":"way","osm_id":"98730023"}},{"type":"Feature","geometry":{"type":"LineString","coordinates":[[-0.89463,54.54079],[-0.89578,54.53794],[-0.89708,54.53705],[-0.89998,54.5367]]},"properties":{"name":"Rosecroft Lane","category":"tertiary","osm_type":"way","osm_id":"98730027"}},{"type":"Feature","geometry":{"type":"LineString","coordinates":[[-0.90239,54.56561],[-0.90169,54.56603],[-0.90063,54.56884],[-0.90006,54.56928],[-0.8997,54.56876],[-0.899,54.56872]]},"properties":{"name":"Grove Road","category":"tertiary","osm_type":"way","osm_id":"98730028"}},{"type":"Feature","geometry":{"type":"LineString","coordinates":[[-0.89724,54.57034],[-0.89727,54.5703]]},"properties":{"name":"Beach Road","category":"tertiary","osm_type":"way","osm_id":"98730032"}},{"type":"Feature","geometry":{"type":"LineString","coordinates":[[-0.89778,54.55237],[-0.9015,54.55193]]},"properties":{"name":"Liverton Terrace","category":"secondary","osm_type":"way","osm_id":"98730038","ref":"B1366"}},{"type":"Feature","geometry":{"type":"LineString","coordinates":[[-0.89006,54.54454],[-0.89393,54.5418],[-0.89463,54.54079]]},"properties":{"name":"Waytail Slack","category":"tertiary","osm_type":"way","osm_id":"98730058"}},{"type":"Feature","geometry":{"type":"LineString","coordinates":[[-0.9019,54.53358],[-0.91661,54.53173],[-0.91714,54.53112],[-0.91676,54.53058],[-0.91794,54.53052],[-0.91948,54.52964]]},"properties":{"name":"Moorsholm Lane","category":"tertiary","osm_type":"way","osm_id":"98748276"}},{"type":"Feature","geometry":{"type":"LineString","coordinates":[[-0.92206,54.52602],[-0.92709,54.52542],[-0.93299,54.52354],[-0.93662,54.52302]]},"properties":{"name":"Long Lane","category":"tertiary","osm_type":"way","osm_id":"98748278"}},{"type":"Feature","geometry":{"type":"LineString","coordinates":[[-0.93662,54.52302],[-0.937,54.52182],[-0.93643,54.51948]]},"properties":{"name":"High Street","category":"tertiary","osm_type":"way","osm_id":"98748286"}},{"type":"Feature","geometry":{"type":"LineString","coordinates":[[-0.91958,54.5295],[-0.92206,54.52602]]},"properties":{"name":"Liverton Mill Bank","category":"tertiary","osm_type":"way","osm_id":"98748338"}},{"type":"Feature","geometry":{"type":"LineString","coordinates":[[-0.93673,54.56886],[-0.9316,54.56896]]},"properties":{"name":"High Street","category":"tertiary","osm_type":"way","osm_id":"99714923"}},{"type":"Feature","geometry":{"type":"LineString","coordinates":[[-0.95842,54.55733],[-0.9595,54.55727]]},"properties":{"name":"Holmbeck Road","category":"tertiary","osm_type":"way","osm_id":"100978407"}},{"type":"Feature","geometry":{"type":"LineString","coordinates":[[-0.97037,54.55977],[-0.97135,54.56013]]},"properties":{"name":"Secondary and tertiary roads","category":"tertiary","osm_type":"way","osm_id":"100978418"}},{"type":"Feature","geometry":{"type":"LineString","coordinates":[[-0.98602,54.55585],[-0.98588,54.55572]]},"properties":{"name":"Boosbeck Road","category":"tertiary","osm_type":"way","osm_id":"100978434"}},{"type":"Feature","geometry":{"type":"LineString","coordinates":[[-0.96563,54.55861],[-0.97027,54.55973]]},"properties":{"name":"Low Stanghow Road","category":"tertiary","osm_type":"way","osm_id":"100978440"}},{"type":"Feature","geometry":{"type":"LineString","coordinates":[[-0.95478,54.5586],[-0.95842,54.55733]]},"properties":{"name":"Vaughan Street","category":"tertiary","osm_type":"way","osm_id":"100978443"}},{"type":"Feature","geometry":{"type":"LineString","coordinates":[[-0.98331,54.54566],[-0.98293,54.5448]]},"properties":{"name":"Secondary and tertiary roads","category":"tertiary","osm_type":"way","osm_id":"100978453"}},{"type":"Feature","geometry":{"type":"LineString","coordinates":[[-0.899,54.56872],[-0.89901,54.56726]]},"properties":{"name":"New Company Row","category":"tertiary","osm_type":"way","osm_id":"102149759"}},{"type":"Feature","geometry":{"type":"LineString","coordinates":[[-0.90175,54.56158],[-0.90291,54.56073]]},"properties":{"name":"Skinningrove Road","category":"tertiary","osm_type":"way","osm_id":"102149761"}},{"type":"Feature","geometry":{"type":"LineString","coordinates":[[-0.89913,54.56622],[-0.90058,54.5647]]},"properties":{"name":"Mill Lane","category":"tertiary","osm_type":"way","osm_id":"102149794"}},{"type":"Feature","geometry":{"type":"LineString","coordinates":[[-0.9685,54.55454],[-0.96737,54.55272],[-0.96412,54.55124],[-0.96296,54.55004]]},"properties":{"name":"Secondary and tertiary roads","category":"tertiary","osm_type":"way","osm_id":"104503045"}},{"type":"Feature","geometry":{"type":"LineString","coordinates":[[-0.98419,54.55419],[-0.98335,54.55111]]},"properties":{"name":"Boosbeck Road","category":"tertiary","osm_type":"way","osm_id":"104503047"}},{"type":"Feature","geometry":{"type":"LineString","coordinates":[[-0.96976,54.55579],[-0.96855,54.55463]]},"properties":{"name":"Secondary and tertiary roads","category":"tertiary","osm_type":"way","osm_id":"104503051"}},{"type":"Feature","geometry":{"type":"LineString","coordinates":[[-0.98458,54.55453],[-0.98419,54.55419]]},"properties":{"name":"Boosbeck Road","category":"tertiary","osm_type":"way","osm_id":"104503054"}},{"type":"Feature","geometry":{"type":"LineString","coordinates":[[-0.85011,54.5629],[-0.84673,54.56309],[-0.84376,54.56282],[-0.83709,54.56147]]},"properties":{"name":"Secondary and tertiary roads","category":"tertiary","osm_type":"way","osm_id":"107556451"}},{"type":"Feature","geometry":{"type":"LineString","coordinates":[[-0.8581,54.5629],[-0.8561,54.56243],[-0.85011,54.5629]]},"properties":{"name":"Upton Hill","category":"tertiary","osm_type":"way","osm_id":"107556473"}},{"type":"Feature","geometry":{"type":"LineString","coordinates":[[-0.97102,54.58311],[-0.97124,54.58289]]},"properties":{"name":"Balmoral Terrace","category":"tertiary","osm_type":"way","osm_id":"141821826"}},{"type":"Feature","geometry":{"type":"LineString","coordinates":[[-0.97082,54.58346],[-0.97069,54.58405]]},"properties":{"name":"The Zetland","category":"tertiary","osm_type":"way","osm_id":"141821830"}},{"type":"Feature","geometry":{"type":"LineString","coordinates":[[-0.9316,54.56896],[-0.92849,54.56912],[-0.92595,54.56877]]},"properties":{"name":"Brotton Road","category":"tertiary","osm_type":"way","osm_id":"145171357"}},{"type":"Feature","geometry":{"type":"LineString","coordinates":[[-0.94072,54.56644],[-0.94118,54.56629]]},"properties":{"name":"High Street","category":"tertiary","osm_type":"way","osm_id":"145171359"}},{"type":"Feature","geometry":{"type":"LineString","coordinates":[[-0.94118,54.56629],[-0.94572,54.56518]]},"properties":{"name":"Skelton Road","category":"tertiary","osm_type":"way","osm_id":"145171364"}},{"type":"Feature","geometry":{"type":"LineString","coordinates":[[-0.90027,54.52889],[-0.89608,54.52201]]},"properties":{"name":"Liverton Road","category":"secondary","osm_type":"way","osm_id":"149118994","ref":"B1366"}},{"type":"Feature","geometry":{"type":"LineString","coordinates":[[-0.89608,54.52201],[-0.89248,54.51495],[-0.88698,54.50151],[-0.88608,54.50075]]},"properties":{"name":"Liverton Road","category":"secondary","osm_type":"way","osm_id":"149118995","ref":"B1366"}},{"type":"Feature","geometry":{"type":"LineString","coordinates":[[-0.93945,54.56682],[-0.93986,54.56671]]},"properties":{"name":"High Street","category":"tertiary","osm_type":"way","osm_id":"162127726"}},{"type":"Feature","geometry":{"type":"LineString","coordinates":[[-0.98293,54.5448],[-0.98218,54.54307],[-0.98127,54.54252]]},"properties":{"name":"High Street","category":"tertiary","osm_type":"way","osm_id":"162127737"}},{"type":"Feature","geometry":{"type":"LineString","coordinates":[[-0.96855,54.55463],[-0.9685,54.55454]]},"properties":{"name":"Secondary and tertiary roads","category":"tertiary","osm_type":"way","osm_id":"162130117"}},{"type":"Feature","geometry":{"type":"LineString","coordinates":[[-0.9595,54.55727],[-0.96563,54.55861]]},"properties":{"name":"Holmbeck Road","category":"tertiary","osm_type":"way","osm_id":"162130118"}},{"type":"Feature","geometry":{"type":"LineString","coordinates":[[-0.901,54.56422],[-0.90127,54.56325]]},"properties":{"name":"Mill Lane","category":"tertiary","osm_type":"way","osm_id":"162134220"}},{"type":"Feature","geometry":{"type":"LineString","coordinates":[[-0.88595,54.56266],[-0.88433,54.56606]]},"properties":{"name":"Hummersea Lane","category":"tertiary","osm_type":"way","osm_id":"162134224"}},{"type":"Feature","geometry":{"type":"LineString","coordinates":[[-0.98344,54.55075],[-0.98511,54.54761],[-0.98479,54.54707]]},"properties":{"name":"Boosbeck Road","category":"tertiary","osm_type":"way","osm_id":"162135916"}},{"type":"Feature","geometry":{"type":"LineString","coordinates":[[-0.98335,54.55111],[-0.98344,54.55075]]},"properties":{"name":"Boosbeck Road","category":"tertiary","osm_type":"way","osm_id":"162135919"}},{"type":"Feature","geometry":{"type":"LineString","coordinates":[[-0.93986,54.56671],[-0.94072,54.56644]]},"properties":{"name":"High Street","category":"tertiary","osm_type":"way","osm_id":"184293332"}},{"type":"Feature","geometry":{"type":"LineString","coordinates":[[-0.75946,54.5302],[-0.75527,54.53407]]},"properties":{"name":"Ellerby Lane","category":"tertiary","osm_type":"way","osm_id":"216881341"}},{"type":"Feature","geometry":{"type":"LineString","coordinates":[[-0.76934,54.53747],[-0.77354,54.53797]]},"properties":{"name":"Runswick Lane","category":"tertiary","osm_type":"way","osm_id":"216881346"}},{"type":"Feature","geometry":{"type":"LineString","coordinates":[[-0.96755,54.58192],[-0.96631,54.57949]]},"properties":{"name":"Saltburn Lane","category":"tertiary","osm_type":"way","osm_id":"219751525"}},{"type":"Feature","geometry":{"type":"LineString","coordinates":[[-0.9735,54.58246],[-0.97842,54.58153]]},"properties":{"name":"Windsor Road","category":"tertiary","osm_type":"way","osm_id":"223515579"}},{"type":"Feature","geometry":{"type":"LineString","coordinates":[[-0.98172,54.58092],[-0.98539,54.58096]]},"properties":{"name":"Marske Road","category":"tertiary","osm_type":"way","osm_id":"223515580"}},{"type":"Feature","geometry":{"type":"LineString","coordinates":[[-0.99007,54.58111],[-0.99377,54.58228]]},"properties":{"name":"Marske Road","category":"tertiary","osm_type":"way","osm_id":"223515884"}},{"type":"Feature","geometry":{"type":"LineString","coordinates":[[-0.98539,54.58096],[-0.99007,54.58111]]},"properties":{"name":"Marske Road","category":"tertiary","osm_type":"way","osm_id":"223515885"}},{"type":"Feature","geometry":{"type":"LineString","coordinates":[[-0.93643,54.51948],[-0.93651,54.51566]]},"properties":{"name":"High Street","category":"tertiary","osm_type":"way","osm_id":"223836385"}},{"type":"Feature","geometry":{"type":"LineString","coordinates":[[-0.95844,54.53782],[-0.96078,54.5342],[-0.96031,54.5313],[-0.96153,54.52747],[-0.96379,54.52502]]},"properties":{"name":"Stanghow Road","category":"tertiary","osm_type":"way","osm_id":"223836387"}},{"type":"Feature","geometry":{"type":"LineString","coordinates":[[-0.902,54.54895],[-0.90313,54.54428],[-0.89998,54.5367],[-0.90127,54.53566],[-0.9019,54.53369],[-0.90027,54.52889]]},"properties":{"name":"Liverton Road","category":"secondary","osm_type":"way","osm_id":"223836412","ref":"B1366"}},{"type":"Feature","geometry":{"type":"LineString","coordinates":[[-0.98127,54.54252],[-0.98048,54.54211]]},"properties":{"name":"High Street","category":"tertiary","osm_type":"way","osm_id":"223836416"}},{"type":"Feature","geometry":{"type":"LineString","coordinates":[[-0.90368,54.56518],[-0.90239,54.56561]]},"properties":{"name":"Mount Pleasant","category":"tertiary","osm_type":"way","osm_id":"232230165"}},{"type":"Feature","geometry":{"type":"LineString","coordinates":[[-0.89762,54.56933],[-0.89727,54.5703]]},"properties":{"name":"Beach Road","category":"tertiary","osm_type":"way","osm_id":"232230166"}},{"type":"Feature","geometry":{"type":"LineString","coordinates":[[-0.99377,54.58228],[-0.99856,54.58283]]},"properties":{"name":"Marske Road","category":"tertiary","osm_type":"way","osm_id":"354587238"}},{"type":"Feature","geometry":{"type":"LineString","coordinates":[[-0.94493,54.57416],[-0.94452,54.57404]]},"properties":{"name":"Saltburn Road","category":"tertiary","osm_type":"way","osm_id":"354588427"}},{"type":"Feature","geometry":{"type":"LineString","coordinates":[[-0.94582,54.56427],[-0.94876,54.5629],[-0.94948,54.56203]]},"properties":{"name":"Skelton Road","category":"tertiary","osm_type":"way","osm_id":"354590126"}},{"type":"Feature","geometry":{"type":"LineString","coordinates":[[-0.98578,54.57586],[-0.99331,54.57382],[-1.00687,54.57149]]},"properties":{"name":"Hob Hill Lane","category":"tertiary","osm_type":"way","osm_id":"354590677"}},{"type":"Feature","geometry":{"type":"LineString","coordinates":[[-0.96631,54.57949],[-0.96485,54.57714],[-0.96557,54.57666],[-0.96559,54.57521],[-0.96671,54.57443],[-0.96942,54.57363],[-0.97183,54.57115],[-0.97379,54.56999]]},"properties":{"name":"Saltburn Lane","category":"tertiary","osm_type":"way","osm_id":"355136720"}},{"type":"Feature","geometry":{"type":"LineString","coordinates":[[-0.96679,54.584],[-0.96796,54.58377],[-0.96755,54.58192]]},"properties":{"name":"Saltburn Bank","category":"tertiary","osm_type":"way","osm_id":"355136721"}},{"type":"Feature","geometry":{"type":"LineString","coordinates":[[-0.92595,54.56877],[-0.92001,54.56704]]},"properties":{"name":"Brotton Road","category":"tertiary","osm_type":"way","osm_id":"355141406"}},{"type":"Feature","geometry":{"type":"LineString","coordinates":[[-0.96519,54.58471],[-0.96517,54.58467]]},"properties":{"name":"Saltburn Road","category":"tertiary","osm_type":"way","osm_id":"363079826"}},{"type":"Feature","geometry":{"type":"LineString","coordinates":[[-0.96627,54.4967],[-0.9644,54.50717]]},"properties":{"name":"Secondary and tertiary roads","category":"tertiary","osm_type":"way","osm_id":"428553477"}},{"type":"Feature","geometry":{"type":"LineString","coordinates":[[-0.9046,54.56422],[-0.90368,54.56518]]},"properties":{"name":"Beach Road","category":"tertiary","osm_type":"way","osm_id":"568068851"}},{"type":"Feature","geometry":{"type":"LineString","coordinates":[[-0.91948,54.52964],[-0.91958,54.5295]]},"properties":{"name":"Mill Bridge","category":"tertiary","osm_type":"way","osm_id":"579035104"}},{"type":"Feature","geometry":{"type":"LineString","coordinates":[[-0.97426,54.56927],[-0.97435,54.56954]]},"properties":{"name":"Saltburn Lane","category":"tertiary","osm_type":"way","osm_id":"590843816"}},{"type":"Feature","geometry":{"type":"LineString","coordinates":[[-0.974,54.56949],[-0.97426,54.56927]]},"properties":{"name":"Saltburn Lane","category":"tertiary","osm_type":"way","osm_id":"590843817"}},{"type":"Feature","geometry":{"type":"LineString","coordinates":[[-0.97379,54.56999],[-0.97387,54.56978]]},"properties":{"name":"Saltburn Lane","category":"tertiary","osm_type":"way","osm_id":"590843820"}},{"type":"Feature","geometry":{"type":"LineString","coordinates":[[-0.97414,54.56984],[-0.97379,54.56999]]},"properties":{"name":"Saltburn Lane","category":"tertiary","osm_type":"way","osm_id":"590843821"}},{"type":"Feature","geometry":{"type":"LineString","coordinates":[[-0.98588,54.55572],[-0.98458,54.55453]]},"properties":{"name":"Boosbeck Road","category":"tertiary","osm_type":"way","osm_id":"841502389"}},{"type":"Feature","geometry":{"type":"LineString","coordinates":[[-0.98634,54.55619],[-0.98609,54.55592]]},"properties":{"name":"Green Road","category":"tertiary","osm_type":"way","osm_id":"841502391"}},{"type":"Feature","geometry":{"type":"LineString","coordinates":[[-0.98609,54.55592],[-0.98602,54.55585]]},"properties":{"name":"Green Road","category":"tertiary","osm_type":"way","osm_id":"841502394"}},{"type":"Feature","geometry":{"type":"LineString","coordinates":[[-0.9866,54.55651],[-0.98634,54.55619]]},"properties":{"name":"Green Road","category":"tertiary","osm_type":"way","osm_id":"841503079"}},{"type":"Feature","geometry":{"type":"LineString","coordinates":[[-0.98371,54.56092],[-0.98106,54.56145],[-0.97596,54.56178]]},"properties":{"name":"High Street","category":"tertiary","osm_type":"way","osm_id":"841504486"}},{"type":"Feature","geometry":{"type":"LineString","coordinates":[[-0.9881,54.55912],[-0.98796,54.55868]]},"properties":{"name":"Green Road","category":"tertiary","osm_type":"way","osm_id":"841507562"}},{"type":"Feature","geometry":{"type":"LineString","coordinates":[[-0.98796,54.55868],[-0.98816,54.55803]]},"properties":{"name":"Green Road","category":"tertiary","osm_type":"way","osm_id":"841507563"}},{"type":"Feature","geometry":{"type":"LineString","coordinates":[[-0.98816,54.55803],[-0.9866,54.55651]]},"properties":{"name":"Green Road","category":"tertiary","osm_type":"way","osm_id":"841507564"}},{"type":"Feature","geometry":{"type":"LineString","coordinates":[[-0.98468,54.54701],[-0.98331,54.54566]]},"properties":{"name":"Boosbeck Road","category":"tertiary","osm_type":"way","osm_id":"841509219"}},{"type":"Feature","geometry":{"type":"LineString","coordinates":[[-0.98479,54.54707],[-0.98468,54.54701]]},"properties":{"name":"Boosbeck Road","category":"tertiary","osm_type":"way","osm_id":"841509220"}},{"type":"Feature","geometry":{"type":"LineString","coordinates":[[-0.97351,54.56077],[-0.97596,54.56178]]},"properties":{"name":"High Street","category":"tertiary","osm_type":"way","osm_id":"875104386"}},{"type":"Feature","geometry":{"type":"LineString","coordinates":[[-0.97135,54.56013],[-0.97159,54.56021]]},"properties":{"name":"Secondary and tertiary roads","category":"tertiary","osm_type":"way","osm_id":"875104387"}},{"type":"Feature","geometry":{"type":"LineString","coordinates":[[-0.97102,54.58311],[-0.97082,54.58346]]},"properties":{"name":"Balmoral Terrace","category":"tertiary","osm_type":"way","osm_id":"901721809"}},{"type":"Feature","geometry":{"type":"LineString","coordinates":[[-0.97065,54.58345],[-0.97102,54.58311]]},"properties":{"name":"Balmoral Terrace","category":"tertiary","osm_type":"way","osm_id":"901721810"}},{"type":"Feature","geometry":{"type":"LineString","coordinates":[[-0.97059,54.58414],[-0.97063,54.58403]]},"properties":{"name":"Saltburn Bank","category":"tertiary","osm_type":"way","osm_id":"901721811"}},{"type":"Feature","geometry":{"type":"LineString","coordinates":[[-0.97069,54.58405],[-0.97059,54.58414]]},"properties":{"name":"Saltburn Bank","category":"tertiary","osm_type":"way","osm_id":"901721812"}},{"type":"Feature","geometry":{"type":"LineString","coordinates":[[-0.93644,54.51396],[-0.93627,54.51168],[-0.93459,54.50726]]},"properties":{"name":"Freebrough Road","category":"tertiary","osm_type":"way","osm_id":"1030957747"}},{"type":"Feature","geometry":{"type":"LineString","coordinates":[[-0.93649,54.51526],[-0.93644,54.51396]]},"properties":{"name":"Freebrough Road","category":"tertiary","osm_type":"way","osm_id":"1030958107"}},{"type":"Feature","geometry":{"type":"LineString","coordinates":[[-0.94572,54.56518],[-0.94576,54.56445]]},"properties":{"name":"Skelton Road","category":"tertiary","osm_type":"way","osm_id":"1069381726"}},{"type":"Feature","geometry":{"type":"LineString","coordinates":[[-0.94576,54.56445],[-0.94582,54.56427]]},"properties":{"name":"Skelton Road","category":"tertiary","osm_type":"way","osm_id":"1069381727"}},{"type":"Feature","geometry":{"type":"LineString","coordinates":[[-0.94959,54.56193],[-0.95174,54.56069]]},"properties":{"name":"Skelton Road","category":"tertiary","osm_type":"way","osm_id":"1069381728"}},{"type":"Feature","geometry":{"type":"LineString","coordinates":[[-0.94948,54.56203],[-0.94959,54.56193]]},"properties":{"name":"Skelton Road","category":"tertiary","osm_type":"way","osm_id":"1069381729"}},{"type":"Feature","geometry":{"type":"LineString","coordinates":[[-0.96928,54.58558],[-0.96926,54.58542]]},"properties":{"name":"Saltburn Road","category":"tertiary","osm_type":"way","osm_id":"1125196653"}},{"type":"Feature","geometry":{"type":"LineString","coordinates":[[-0.95966,54.51569],[-0.9593,54.51625]]},"properties":{"name":"Smeathorns Road","category":"tertiary","osm_type":"way","osm_id":"1210333126"}},{"type":"Feature","geometry":{"type":"LineString","coordinates":[[-0.99856,54.58283],[-0.99987,54.58279]]},"properties":{"name":"Marske Road","category":"tertiary","osm_type":"way","osm_id":"1317041195"}},{"type":"Feature","geometry":{"type":"LineString","coordinates":[[-0.89866,54.56914],[-0.89802,54.56906]]},"properties":{"name":"Stone Row","category":"tertiary","osm_type":"way","osm_id":"1376324360"}},{"type":"Feature","geometry":{"type":"LineString","coordinates":[[-0.97159,54.56021],[-0.97351,54.56077]]},"properties":{"name":"High Street","category":"tertiary","osm_type":"way","osm_id":"1376324361"}},{"type":"Feature","geometry":{"type":"LineString","coordinates":[[-0.97027,54.55973],[-0.97037,54.55977]]},"properties":{"name":"Low Stanghow Road","category":"tertiary","osm_type":"way","osm_id":"1376324362"}},{"type":"Feature","geometry":{"type":"LineString","coordinates":[[-0.97596,54.56178],[-0.97567,54.56241]]},"properties":{"name":"Saltburn Lane","category":"tertiary","osm_type":"way","osm_id":"1376324364"}},{"type":"Feature","geometry":{"type":"LineString","coordinates":[[-0.97351,54.56077],[-0.97266,54.55897]]},"properties":{"name":"Stanghow Road","category":"tertiary","osm_type":"way","osm_id":"1380431074"}},{"type":"Feature","geometry":{"type":"LineString","coordinates":[[-0.97057,54.58416],[-0.97059,54.58414]]},"properties":{"name":"Saltburn Bank","category":"tertiary","osm_type":"way","osm_id":"1385618266"}},{"type":"Feature","geometry":{"type":"LineString","coordinates":[[-0.96379,54.52502],[-0.96644,54.52334],[-0.9674,54.51906]]},"properties":{"name":"Stanghow Road","category":"tertiary","osm_type":"way","osm_id":"1392591116"}},{"type":"Feature","geometry":{"type":"LineString","coordinates":[[-0.968,54.58517],[-0.96774,54.58505]]},"properties":{"name":"Saltburn Road","category":"tertiary","osm_type":"way","osm_id":"1521037438"}},{"type":"Feature","geometry":{"type":"LineString","coordinates":[[-0.8595,54.56298],[-0.8581,54.5629]]},"properties":{"name":"Secondary and tertiary roads","category":"tertiary","osm_type":"way","osm_id":"1540369724"}},{"type":"Feature","geometry":{"type":"LineString","coordinates":[[-0.85973,54.56298],[-0.8595,54.56298]]},"properties":{"name":"Secondary and tertiary roads","category":"tertiary","osm_type":"way","osm_id":"1540369725"}},{"type":"Feature","geometry":{"type":"LineString","coordinates":[[-0.89882,54.56912],[-0.89866,54.56914]]},"properties":{"name":"Stone Row","category":"tertiary","osm_type":"way","osm_id":"1540369729"}},{"type":"Feature","geometry":{"type":"LineString","coordinates":[[-0.89901,54.56726],[-0.89913,54.56622]]},"properties":{"name":"Mill Lane","category":"tertiary","osm_type":"way","osm_id":"1540369730"}}]}