{"type":"FeatureCollection","features":[{"type":"Feature","geometry":{"type":"LineString","coordinates":[[-1.71236,55.00605],[-1.71222,55.00587]]},"properties":{"name":"Stamfordham Road","category":"secondary","osm_type":"way","osm_id":"1162333161","ref":"B6324"}},{"type":"Feature","geometry":{"type":"LineString","coordinates":[[-1.71256,55.00593],[-1.71282,55.00577]]},"properties":{"name":"North Walbottle Road","category":"tertiary","osm_type":"way","osm_id":"1162333162"}},{"type":"Feature","geometry":{"type":"LineString","coordinates":[[-1.71282,55.00577],[-1.71278,55.00601]]},"properties":{"name":"North Walbottle Road","category":"tertiary","osm_type":"way","osm_id":"1162333163"}},{"type":"Feature","geometry":{"type":"LineString","coordinates":[[-1.71308,55.00625],[-1.71267,55.00618]]},"properties":{"name":"Stamfordham Road","category":"secondary","osm_type":"way","osm_id":"1162333164","ref":"B6324"}},{"type":"Feature","geometry":{"type":"LineString","coordinates":[[-1.71281,55.00606],[-1.71308,55.00625]]},"properties":{"name":"Stamfordham Road","category":"secondary","osm_type":"way","osm_id":"1162333165","ref":"B6324"}},{"type":"Feature","geometry":{"type":"LineString","coordinates":[[-1.71287,55.00572],[-1.71419,55.00476],[-1.71623,55.00415]]},"properties":{"name":"North Walbottle Road","category":"tertiary","osm_type":"way","osm_id":"1162333167"}},{"type":"Feature","geometry":{"type":"LineString","coordinates":[[-1.68479,55.01125],[-1.68458,55.01141]]},"properties":{"name":"Newbiggin Lane","category":"tertiary","osm_type":"way","osm_id":"1162333169"}},{"type":"Feature","geometry":{"type":"LineString","coordinates":[[-1.6844,55.01131],[-1.68479,55.01125]]},"properties":{"name":"Newbiggin Lane","category":"tertiary","osm_type":"way","osm_id":"1162333188"}},{"type":"Feature","geometry":{"type":"LineString","coordinates":[[-1.71977,55.00889],[-1.7214,55.00947]]},"properties":{"name":"Stamfordham Road","category":"secondary","osm_type":"way","osm_id":"1162333199","ref":"B6324"}},{"type":"Feature","geometry":{"type":"LineString","coordinates":[[-1.72244,55.00983],[-1.7214,55.00947]]},"properties":{"name":"Stamfordham Road","category":"secondary","osm_type":"way","osm_id":"1162333200","ref":"B6324"}},{"type":"Feature","geometry":{"type":"LineString","coordinates":[[-1.7214,55.00947],[-1.72244,55.00983]]},"properties":{"name":"Stamfordham Road","category":"secondary","osm_type":"way","osm_id":"1162333201","ref":"B6324"}},{"type":"Feature","geometry":{"type":"LineString","coordinates":[[-1.7193,55.00889],[-1.71896,55.00905]]},"properties":{"name":"Secondary and tertiary roads","category":"tertiary","osm_type":"way","osm_id":"1162333213"}},{"type":"Feature","geometry":{"type":"LineString","coordinates":[[-1.71896,55.00905],[-1.71907,55.00883]]},"properties":{"name":"Secondary and tertiary roads","category":"tertiary","osm_type":"way","osm_id":"1162333214"}},{"type":"Feature","geometry":{"type":"LineString","coordinates":[[-1.7186,55.01232],[-1.71821,55.01308],[-1.71626,55.01366]]},"properties":{"name":"Secondary and tertiary roads","category":"tertiary","osm_type":"way","osm_id":"1162333218"}},{"type":"Feature","geometry":{"type":"LineString","coordinates":[[-1.68299,55.01182],[-1.68273,55.01199]]},"properties":{"name":"Secondary and tertiary roads","category":"tertiary","osm_type":"way","osm_id":"1162333236"}},{"type":"Feature","geometry":{"type":"LineString","coordinates":[[-1.68262,55.01184],[-1.68299,55.01182]]},"properties":{"name":"Secondary and tertiary roads","category":"tertiary","osm_type":"way","osm_id":"1162333237"}},{"type":"Feature","geometry":{"type":"LineString","coordinates":[[-1.68306,55.0118],[-1.68299,55.01182]]},"properties":{"name":"Secondary and tertiary roads","category":"tertiary","osm_type":"way","osm_id":"1162333238"}},{"type":"Feature","geometry":{"type":"LineString","coordinates":[[-1.68205,55.01207],[-1.68232,55.01194]]},"properties":{"name":"Station Road","category":"tertiary","osm_type":"way","osm_id":"1162333239"}},{"type":"Feature","geometry":{"type":"LineString","coordinates":[[-1.68246,55.01206],[-1.68205,55.01207]]},"properties":{"name":"Station Road","category":"tertiary","osm_type":"way","osm_id":"1162333240"}},{"type":"Feature","geometry":{"type":"LineString","coordinates":[[-1.71835,55.01124],[-1.71855,55.01203]]},"properties":{"name":"Musgrove Drive","category":"tertiary","osm_type":"way","osm_id":"1169603267"}},{"type":"Feature","geometry":{"type":"LineString","coordinates":[[-1.71821,55.01038],[-1.71835,55.01124]]},"properties":{"name":"Musgrove Drive","category":"tertiary","osm_type":"way","osm_id":"1169603268"}},{"type":"Feature","geometry":{"type":"LineString","coordinates":[[-1.57841,55.05594],[-1.57852,55.05767]]},"properties":{"name":"Front Street","category":"secondary","osm_type":"way","osm_id":"1190901440","ref":"B1505"}},{"type":"Feature","geometry":{"type":"LineString","coordinates":[[-1.57852,55.05767],[-1.5785,55.05775]]},"properties":{"name":"Front Street","category":"secondary","osm_type":"way","osm_id":"1190901441","ref":"B1505"}},{"type":"Feature","geometry":{"type":"LineString","coordinates":[[-1.58574,55.05621],[-1.58187,55.05651],[-1.58039,55.05595]]},"properties":{"name":"Fern Drive","category":"tertiary","osm_type":"way","osm_id":"1190901442"}},{"type":"Feature","geometry":{"type":"LineString","coordinates":[[-1.58584,55.05622],[-1.58574,55.05621]]},"properties":{"name":"Fern Drive","category":"tertiary","osm_type":"way","osm_id":"1190901443"}},{"type":"Feature","geometry":{"type":"LineString","coordinates":[[-1.51748,55.0042],[-1.51746,55.00429]]},"properties":{"name":"St Peter's Road","category":"tertiary","osm_type":"way","osm_id":"1191697342"}},{"type":"Feature","geometry":{"type":"LineString","coordinates":[[-1.56825,55.14024],[-1.56813,55.1403]]},"properties":{"name":"Station Road","category":"tertiary","osm_type":"way","osm_id":"1191939547"}},{"type":"Feature","geometry":{"type":"LineString","coordinates":[[-1.56748,55.13446],[-1.56693,55.13464]]},"properties":{"name":"B1311","category":"secondary","osm_type":"way","osm_id":"1191941142","ref":"B1311"}},{"type":"Feature","geometry":{"type":"LineString","coordinates":[[-1.57833,55.05513],[-1.57826,55.05537]]},"properties":{"name":"Burradon Road","category":"secondary","osm_type":"way","osm_id":"1191945852","ref":"B1505"}},{"type":"Feature","geometry":{"type":"LineString","coordinates":[[-1.57826,55.05537],[-1.57806,55.05517]]},"properties":{"name":"Burradon Road","category":"secondary","osm_type":"way","osm_id":"1191945853","ref":"B1505"}},{"type":"Feature","geometry":{"type":"LineString","coordinates":[[-1.66054,55.03494],[-1.66202,55.03428]]},"properties":{"name":"Primrose Lane","category":"tertiary","osm_type":"way","osm_id":"1197978613"}},{"type":"Feature","geometry":{"type":"LineString","coordinates":[[-1.58885,55.04912],[-1.58682,55.04833]]},"properties":{"name":"Weetslade Road","category":"tertiary","osm_type":"way","osm_id":"1202817912"}},{"type":"Feature","geometry":{"type":"LineString","coordinates":[[-1.58149,55.0474],[-1.57887,55.04705]]},"properties":{"name":"Weetslade Road","category":"tertiary","osm_type":"way","osm_id":"1202817913"}},{"type":"Feature","geometry":{"type":"LineString","coordinates":[[-1.82371,55.46702],[-1.8253,55.46785],[-1.8291,55.46875]]},"properties":{"name":"B6346","category":"secondary","osm_type":"way","osm_id":"1209616102","ref":"B6346"}},{"type":"Feature","geometry":{"type":"LineString","coordinates":[[-1.8291,55.46875],[-1.82924,55.46878]]},"properties":{"name":"B6346","category":"secondary","osm_type":"way","osm_id":"1209616103","ref":"B6346"}},{"type":"Feature","geometry":{"type":"LineString","coordinates":[[-1.64078,55.17656],[-1.6404,55.17642]]},"properties":{"name":"Secondary and tertiary roads","category":"tertiary","osm_type":"way","osm_id":"1210692324"}},{"type":"Feature","geometry":{"type":"LineString","coordinates":[[-1.71329,55.41874],[-1.71545,55.41945]]},"properties":{"name":"Canongate","category":"secondary","osm_type":"way","osm_id":"1210966446","ref":"B6346"}},{"type":"Feature","geometry":{"type":"LineString","coordinates":[[-1.53406,55.00228],[-1.53371,55.00309]]},"properties":{"name":"Secondary and tertiary roads","category":"tertiary","osm_type":"way","osm_id":"1211474315"}},{"type":"Feature","geometry":{"type":"LineString","coordinates":[[-1.5342,55.00195],[-1.53406,55.00228]]},"properties":{"name":"Secondary and tertiary roads","category":"tertiary","osm_type":"way","osm_id":"1211474316"}},{"type":"Feature","geometry":{"type":"LineString","coordinates":[[-1.49938,55.01493],[-1.49915,55.01524]]},"properties":{"name":"Middle Engine Lane","category":"tertiary","osm_type":"way","osm_id":"1212825843"}},{"type":"Feature","geometry":{"type":"LineString","coordinates":[[-1.78476,55.28293],[-1.78694,55.28193],[-1.78926,55.28187]]},"properties":{"name":"B6344","category":"secondary","osm_type":"way","osm_id":"1213323648","ref":"B6344"}},{"type":"Feature","geometry":{"type":"LineString","coordinates":[[-1.78926,55.28187],[-1.79273,55.28308],[-1.7974,55.28404],[-1.80271,55.28419]]},"properties":{"name":"B6344","category":"secondary","osm_type":"way","osm_id":"1213323649","ref":"B6344"}},{"type":"Feature","geometry":{"type":"LineString","coordinates":[[-1.7322,55.44337],[-1.7345,55.4439],[-1.74106,55.44426],[-1.74524,55.44525]]},"properties":{"name":"B6346","category":"secondary","osm_type":"way","osm_id":"1216052452","ref":"B6346"}},{"type":"Feature","geometry":{"type":"LineString","coordinates":[[-1.74524,55.44525],[-1.74535,55.44531]]},"properties":{"name":"B6346","category":"secondary","osm_type":"way","osm_id":"1216052453","ref":"B6346"}},{"type":"Feature","geometry":{"type":"LineString","coordinates":[[-1.42531,55.01832],[-1.42532,55.01849]]},"properties":{"name":"Percy Park Road","category":"tertiary","osm_type":"way","osm_id":"1221041468"}},{"type":"Feature","geometry":{"type":"LineString","coordinates":[[-1.56693,55.13464],[-1.56602,55.13481]]},"properties":{"name":"B1311","category":"secondary","osm_type":"way","osm_id":"1222554253","ref":"B1311"}},{"type":"Feature","geometry":{"type":"LineString","coordinates":[[-1.59549,55.08741],[-1.5959,55.08738]]},"properties":{"name":"Station Road","category":"secondary","osm_type":"way","osm_id":"1227598213","ref":"B1326"}},{"type":"Feature","geometry":{"type":"LineString","coordinates":[[-1.57944,55.08819],[-1.5787,55.08808]]},"properties":{"name":"Cumbrian Road","category":"secondary","osm_type":"way","osm_id":"1234778562","ref":"B1326"}},{"type":"Feature","geometry":{"type":"LineString","coordinates":[[-1.58017,55.08828],[-1.57944,55.08819]]},"properties":{"name":"Cumbrian Road","category":"secondary","osm_type":"way","osm_id":"1234778563","ref":"B1326"}},{"type":"Feature","geometry":{"type":"LineString","coordinates":[[-1.58035,55.08813],[-1.58086,55.08833]]},"properties":{"name":"Cumbrian Road","category":"secondary","osm_type":"way","osm_id":"1234778564","ref":"B1326"}},{"type":"Feature","geometry":{"type":"LineString","coordinates":[[-1.58009,55.08813],[-1.58034,55.08812],[-1.58033,55.08826],[-1.58009,55.08825],[-1.58009,55.08813]]},"properties":{"name":"B1326","category":"secondary","osm_type":"way","osm_id":"1234778566","ref":"B1326"}},{"type":"Feature","geometry":{"type":"LineString","coordinates":[[-1.58086,55.08833],[-1.58033,55.08826]]},"properties":{"name":"Cumbrian Road","category":"secondary","osm_type":"way","osm_id":"1234778567","ref":"B1326"}},{"type":"Feature","geometry":{"type":"LineString","coordinates":[[-1.57944,55.08819],[-1.58009,55.08813]]},"properties":{"name":"Cumbrian Road","category":"secondary","osm_type":"way","osm_id":"1234778568","ref":"B1326"}},{"type":"Feature","geometry":{"type":"LineString","coordinates":[[-1.538,55.15581],[-1.54345,55.15612]]},"properties":{"name":"Secondary and tertiary roads","category":"tertiary","osm_type":"way","osm_id":"1235657132"}},{"type":"Feature","geometry":{"type":"LineString","coordinates":[[-1.67996,55.01593],[-1.68157,55.01668]]},"properties":{"name":"Ponteland Road","category":"secondary","osm_type":"way","osm_id":"1235677082","ref":"B6918"}},{"type":"Feature","geometry":{"type":"LineString","coordinates":[[-1.79134,55.21221],[-1.79004,55.21263],[-1.78832,55.21394],[-1.78619,55.21727],[-1.78364,55.21791]]},"properties":{"name":"Secondary and tertiary roads","category":"tertiary","osm_type":"way","osm_id":"1236326234"}},{"type":"Feature","geometry":{"type":"LineString","coordinates":[[-1.57997,55.1648],[-1.57977,55.16476]]},"properties":{"name":"Ashington Drive","category":"tertiary","osm_type":"way","osm_id":"1245953139"}},{"type":"Feature","geometry":{"type":"LineString","coordinates":[[-1.57986,55.16472],[-1.57997,55.1648]]},"properties":{"name":"Ashington Drive","category":"tertiary","osm_type":"way","osm_id":"1245953141"}},{"type":"Feature","geometry":{"type":"LineString","coordinates":[[-1.47262,55.07329],[-1.47133,55.07431]]},"properties":{"name":"Hartley Lane","category":"secondary","osm_type":"way","osm_id":"1254221295","ref":"B1325"}},{"type":"Feature","geometry":{"type":"LineString","coordinates":[[-1.90225,55.43964],[-1.9032,55.44075]]},"properties":{"name":"High Powburn","category":"tertiary","osm_type":"way","osm_id":"1257179986"}},{"type":"Feature","geometry":{"type":"LineString","coordinates":[[-1.8921,55.42602],[-1.89274,55.42884],[-1.89511,55.43134],[-1.89925,55.43806]]},"properties":{"name":"High Powburn","category":"tertiary","osm_type":"way","osm_id":"1257179987"}},{"type":"Feature","geometry":{"type":"LineString","coordinates":[[-1.88528,55.42399],[-1.8774,55.42421]]},"properties":{"name":"The Causeway","category":"tertiary","osm_type":"way","osm_id":"1257179988"}},{"type":"Feature","geometry":{"type":"LineString","coordinates":[[-1.47556,55.00249],[-1.4756,55.00275]]},"properties":{"name":"Norham Road","category":"tertiary","osm_type":"way","osm_id":"1260910726"}},{"type":"Feature","geometry":{"type":"LineString","coordinates":[[-1.4756,55.00275],[-1.4753,55.00257]]},"properties":{"name":"Norham Road","category":"tertiary","osm_type":"way","osm_id":"1260910727"}},{"type":"Feature","geometry":{"type":"LineString","coordinates":[[-1.47462,55.00219],[-1.47506,55.00221]]},"properties":{"name":"Waterville Road","category":"tertiary","osm_type":"way","osm_id":"1260910728"}},{"type":"Feature","geometry":{"type":"LineString","coordinates":[[-1.47491,55.00236],[-1.47462,55.00219]]},"properties":{"name":"Waterville Road","category":"tertiary","osm_type":"way","osm_id":"1260910729"}},{"type":"Feature","geometry":{"type":"LineString","coordinates":[[-1.47545,55.002],[-1.47547,55.00219]]},"properties":{"name":"Secondary and tertiary roads","category":"tertiary","osm_type":"way","osm_id":"1260910730"}},{"type":"Feature","geometry":{"type":"LineString","coordinates":[[-1.47525,55.00216],[-1.47545,55.002]]},"properties":{"name":"Secondary and tertiary roads","category":"tertiary","osm_type":"way","osm_id":"1260910731"}},{"type":"Feature","geometry":{"type":"LineString","coordinates":[[-1.5425,55.0405],[-1.54222,55.04061]]},"properties":{"name":"Killingworth Lane","category":"secondary","osm_type":"way","osm_id":"1262727288","ref":"B1317"}},{"type":"Feature","geometry":{"type":"LineString","coordinates":[[-1.52716,55.03299],[-1.53082,55.03482]]},"properties":{"name":"Hotspur North","category":"tertiary","osm_type":"way","osm_id":"1262727290"}},{"type":"Feature","geometry":{"type":"LineString","coordinates":[[-1.52526,55.03362],[-1.52652,55.03306]]},"properties":{"name":"Hotspur North","category":"tertiary","osm_type":"way","osm_id":"1262727304"}},{"type":"Feature","geometry":{"type":"LineString","coordinates":[[-1.52652,55.03306],[-1.52716,55.03299]]},"properties":{"name":"Hotspur North","category":"tertiary","osm_type":"way","osm_id":"1262727305"}},{"type":"Feature","geometry":{"type":"LineString","coordinates":[[-1.67898,55.00102],[-1.67844,55.00111]]},"properties":{"name":"Etal Lane","category":"tertiary","osm_type":"way","osm_id":"1263666987"}},{"type":"Feature","geometry":{"type":"LineString","coordinates":[[-1.6784,55.00099],[-1.67898,55.00102]]},"properties":{"name":"Etal Lane","category":"tertiary","osm_type":"way","osm_id":"1263666988"}},{"type":"Feature","geometry":{"type":"LineString","coordinates":[[-1.67749,55.00123],[-1.67811,55.00107]]},"properties":{"name":"Etal Lane","category":"tertiary","osm_type":"way","osm_id":"1263666989"}},{"type":"Feature","geometry":{"type":"LineString","coordinates":[[-1.67819,55.00115],[-1.67749,55.00123]]},"properties":{"name":"Etal Lane","category":"tertiary","osm_type":"way","osm_id":"1263666990"}},{"type":"Feature","geometry":{"type":"LineString","coordinates":[[-1.62633,55.05587],[-1.62618,55.05522]]},"properties":{"name":"Bridge Street","category":"secondary","osm_type":"way","osm_id":"1264337146","ref":"B1318"}},{"type":"Feature","geometry":{"type":"LineString","coordinates":[[-1.62617,55.05517],[-1.62617,55.05515]]},"properties":{"name":"Bridge Street","category":"secondary","osm_type":"way","osm_id":"1264337147","ref":"B1318"}},{"type":"Feature","geometry":{"type":"LineString","coordinates":[[-1.6033,55.05685],[-1.60291,55.05689]]},"properties":{"name":"Dudley Lane","category":"secondary","osm_type":"way","osm_id":"1264337153","ref":"B1321"}},{"type":"Feature","geometry":{"type":"LineString","coordinates":[[-1.59662,55.05705],[-1.59613,55.05695]]},"properties":{"name":"Weetslade Road","category":"secondary","osm_type":"way","osm_id":"1264337154","ref":"B1321"}},{"type":"Feature","geometry":{"type":"LineString","coordinates":[[-1.5785,55.05775],[-1.57847,55.05994]]},"properties":{"name":"Front Street","category":"secondary","osm_type":"way","osm_id":"1264337155","ref":"B1505"}},{"type":"Feature","geometry":{"type":"LineString","coordinates":[[-1.57897,55.05592],[-1.57841,55.05594]]},"properties":{"name":"Fern Drive","category":"tertiary","osm_type":"way","osm_id":"1264337156"}},{"type":"Feature","geometry":{"type":"LineString","coordinates":[[-1.57859,55.05494],[-1.58436,55.05396]]},"properties":{"name":"Fordley Bypass","category":"secondary","osm_type":"way","osm_id":"1264337158","ref":"B1321"}},{"type":"Feature","geometry":{"type":"LineString","coordinates":[[-1.59381,55.0547],[-1.59312,55.05425]]},"properties":{"name":"Weetslade Road","category":"secondary","osm_type":"way","osm_id":"1264337159","ref":"B1319"}},{"type":"Feature","geometry":{"type":"LineString","coordinates":[[-1.59226,55.04829],[-1.59418,55.04749],[-1.59399,55.04457]]},"properties":{"name":"Great Lime Road","category":"secondary","osm_type":"way","osm_id":"1264337160","ref":"B1319"}},{"type":"Feature","geometry":{"type":"LineString","coordinates":[[-1.53734,55.04336],[-1.53503,55.04359]]},"properties":{"name":"B1322","category":"secondary","osm_type":"way","osm_id":"1264350258","ref":"B1322"}},{"type":"Feature","geometry":{"type":"LineString","coordinates":[[-1.52339,55.04428],[-1.52132,55.04525]]},"properties":{"name":"Church Road","category":"tertiary","osm_type":"way","osm_id":"1264350259"}},{"type":"Feature","geometry":{"type":"LineString","coordinates":[[-1.49828,55.04411],[-1.49816,55.04403]]},"properties":{"name":"Garden Terrace","category":"tertiary","osm_type":"way","osm_id":"1264350269"}},{"type":"Feature","geometry":{"type":"LineString","coordinates":[[-1.51403,55.05036],[-1.5121,55.04869],[-1.51135,55.04662]]},"properties":{"name":"Secondary and tertiary roads","category":"tertiary","osm_type":"way","osm_id":"1264350270"}},{"type":"Feature","geometry":{"type":"LineString","coordinates":[[-1.52943,55.04381],[-1.5277,55.04393]]},"properties":{"name":"Church Road","category":"tertiary","osm_type":"way","osm_id":"1264350271"}},{"type":"Feature","geometry":{"type":"LineString","coordinates":[[-1.46618,55.00272],[-1.4682,55.00268]]},"properties":{"name":"Waterville Road","category":"tertiary","osm_type":"way","osm_id":"1268873110"}},{"type":"Feature","geometry":{"type":"LineString","coordinates":[[-1.46031,55.00354],[-1.46085,55.00329]]},"properties":{"name":"Waterville Road","category":"tertiary","osm_type":"way","osm_id":"1268873111"}},{"type":"Feature","geometry":{"type":"LineString","coordinates":[[-1.5605,55.02613],[-1.56073,55.02633]]},"properties":{"name":"Secondary and tertiary roads","category":"secondary_link","osm_type":"way","osm_id":"1271771487"}},{"type":"Feature","geometry":{"type":"LineString","coordinates":[[-1.66813,55.01105],[-1.66802,55.01121]]},"properties":{"name":"Brunton Lane","category":"tertiary","osm_type":"way","osm_id":"1277760484"}},{"type":"Feature","geometry":{"type":"LineString","coordinates":[[-1.66802,55.01121],[-1.66788,55.01147]]},"properties":{"name":"Brunton Lane","category":"tertiary","osm_type":"way","osm_id":"1277760485"}},{"type":"Feature","geometry":{"type":"LineString","coordinates":[[-1.61992,55.00227],[-1.61954,55.0014]]},"properties":{"name":"High Street","category":"secondary","osm_type":"way","osm_id":"1278790214","ref":"B1318"}},{"type":"Feature","geometry":{"type":"LineString","coordinates":[[-1.64167,55.18419],[-1.64374,55.18301]]},"properties":{"name":"Butcher's Lane","category":"tertiary","osm_type":"way","osm_id":"1279678702"}},{"type":"Feature","geometry":{"type":"LineString","coordinates":[[-1.6667,55.0132],[-1.66652,55.01294]]},"properties":{"name":"Brunton Lane","category":"tertiary","osm_type":"way","osm_id":"1279716771"}},{"type":"Feature","geometry":{"type":"LineString","coordinates":[[-1.5371,55.20947],[-1.53821,55.2101]]},"properties":{"name":"Park Road","category":"tertiary","osm_type":"way","osm_id":"1279777781"}},{"type":"Feature","geometry":{"type":"LineString","coordinates":[[-1.68752,55.15152],[-1.68777,55.1518]]},"properties":{"name":"B1337","category":"secondary","osm_type":"way","osm_id":"1279789320","ref":"B1337"}},{"type":"Feature","geometry":{"type":"LineString","coordinates":[[-1.44225,55.04486],[-1.44245,55.04498]]},"properties":{"name":"Promenade","category":"tertiary","osm_type":"way","osm_id":"1279904344"}},{"type":"Feature","geometry":{"type":"LineString","coordinates":[[-1.44245,55.04498],[-1.44303,55.04539]]},"properties":{"name":"Promenade","category":"tertiary","osm_type":"way","osm_id":"1279904355"}},{"type":"Feature","geometry":{"type":"LineString","coordinates":[[-1.63123,55.0298],[-1.63179,55.02987]]},"properties":{"name":"Brunton Lane","category":"tertiary","osm_type":"way","osm_id":"1280981919"}},{"type":"Feature","geometry":{"type":"LineString","coordinates":[[-1.48264,55.02443],[-1.48192,55.02437]]},"properties":{"name":"New York Road","category":"tertiary","osm_type":"way","osm_id":"1284682238"}},{"type":"Feature","geometry":{"type":"LineString","coordinates":[[-1.60501,55.47012],[-1.60489,55.47017]]},"properties":{"name":"Windyside Hill","category":"tertiary","osm_type":"way","osm_id":"1286369299"}},{"type":"Feature","geometry":{"type":"LineString","coordinates":[[-1.60509,55.47009],[-1.60501,55.47012]]},"properties":{"name":"Windyside Hill","category":"tertiary","osm_type":"way","osm_id":"1286369300"}},{"type":"Feature","geometry":{"type":"LineString","coordinates":[[-1.67229,55.36812],[-1.66701,55.36737],[-1.66425,55.36617],[-1.66196,55.36679]]},"properties":{"name":"Secondary and tertiary roads","category":"tertiary","osm_type":"way","osm_id":"1288253432"}},{"type":"Feature","geometry":{"type":"LineString","coordinates":[[-1.70343,55.03033],[-1.70504,55.03128]]},"properties":{"name":"Ponteland Road","category":"secondary","osm_type":"way","osm_id":"1289451424","ref":"B6918"}},{"type":"Feature","geometry":{"type":"LineString","coordinates":[[-1.94734,55.11681],[-1.94322,55.1118],[-1.94002,55.10959],[-1.93872,55.10754]]},"properties":{"name":"Secondary and tertiary roads","category":"tertiary","osm_type":"way","osm_id":"1289452795"}},{"type":"Feature","geometry":{"type":"LineString","coordinates":[[-1.94666,55.11983],[-1.94671,55.1176]]},"properties":{"name":"Silver Hill","category":"tertiary","osm_type":"way","osm_id":"1289452796"}},{"type":"Feature","geometry":{"type":"LineString","coordinates":[[-1.58325,55.4191],[-1.58187,55.42001]]},"properties":{"name":"Secondary and tertiary roads","category":"tertiary","osm_type":"way","osm_id":"1290646337"}},{"type":"Feature","geometry":{"type":"LineString","coordinates":[[-1.53996,55.23535],[-1.53891,55.23535]]},"properties":{"name":"Secondary and tertiary roads","category":"tertiary","osm_type":"way","osm_id":"1290646360"}},{"type":"Feature","geometry":{"type":"LineString","coordinates":[[-1.71603,55.04492],[-1.71536,55.0459],[-1.71204,55.04658],[-1.70936,55.04768]]},"properties":{"name":"Prestwick Road","category":"tertiary","osm_type":"way","osm_id":"1293009852"}},{"type":"Feature","geometry":{"type":"LineString","coordinates":[[-1.54911,55.14665],[-1.54939,55.14634]]},"properties":{"name":"Brock Lane","category":"tertiary","osm_type":"way","osm_id":"1302232958"}},{"type":"Feature","geometry":{"type":"LineString","coordinates":[[-1.61302,55.38882],[-1.61289,55.3896]]},"properties":{"name":"Northumberland Street","category":"tertiary","osm_type":"way","osm_id":"1302515815"}},{"type":"Feature","geometry":{"type":"LineString","coordinates":[[-1.51441,55.03053],[-1.51423,55.03063]]},"properties":{"name":"New York Road","category":"secondary","osm_type":"way","osm_id":"1303993801","ref":"B1322"}},{"type":"Feature","geometry":{"type":"LineString","coordinates":[[-1.51318,55.03182],[-1.51387,55.03082]]},"properties":{"name":"New York Road","category":"secondary","osm_type":"way","osm_id":"1303993802","ref":"B1322"}},{"type":"Feature","geometry":{"type":"LineString","coordinates":[[-1.7147,55.03663],[-1.71418,55.03644]]},"properties":{"name":"Ponteland Road","category":"secondary","osm_type":"way","osm_id":"1308620781","ref":"B6918"}},{"type":"Feature","geometry":{"type":"LineString","coordinates":[[-1.71418,55.03644],[-1.71479,55.03642]]},"properties":{"name":"Ponteland Road","category":"secondary","osm_type":"way","osm_id":"1308620782","ref":"B6918"}},{"type":"Feature","geometry":{"type":"LineString","coordinates":[[-1.71389,55.03641],[-1.71418,55.03644]]},"properties":{"name":"Ponteland Road","category":"secondary","osm_type":"way","osm_id":"1308620783","ref":"B6918"}},{"type":"Feature","geometry":{"type":"LineString","coordinates":[[-1.71334,55.03631],[-1.71389,55.03641]]},"properties":{"name":"Ponteland Road","category":"secondary","osm_type":"way","osm_id":"1308620784","ref":"B6918"}},{"type":"Feature","geometry":{"type":"LineString","coordinates":[[-1.70452,55.02813],[-1.70461,55.02814]]},"properties":{"name":"Callerton Lane","category":"tertiary","osm_type":"way","osm_id":"1308622801"}},{"type":"Feature","geometry":{"type":"LineString","coordinates":[[-1.75715,55.00304],[-1.757,55.0036]]},"properties":{"name":"Ponteland Road","category":"secondary","osm_type":"way","osm_id":"1308624849","ref":"B6323"}},{"type":"Feature","geometry":{"type":"LineString","coordinates":[[-1.75682,55.00363],[-1.75659,55.00309]]},"properties":{"name":"Ponteland Road","category":"secondary","osm_type":"way","osm_id":"1308624850","ref":"B6323"}},{"type":"Feature","geometry":{"type":"LineString","coordinates":[[-1.66592,55.11454],[-1.66545,55.11472]]},"properties":{"name":"Secondary and tertiary roads","category":"tertiary","osm_type":"way","osm_id":"1308628672"}},{"type":"Feature","geometry":{"type":"LineString","coordinates":[[-1.66754,55.11362],[-1.66778,55.11333]]},"properties":{"name":"Secondary and tertiary roads","category":"tertiary","osm_type":"way","osm_id":"1308628673"}},{"type":"Feature","geometry":{"type":"LineString","coordinates":[[-1.66778,55.11333],[-1.66783,55.11365]]},"properties":{"name":"Secondary and tertiary roads","category":"tertiary","osm_type":"way","osm_id":"1308628674"}},{"type":"Feature","geometry":{"type":"LineString","coordinates":[[-1.70287,55.41227],[-1.70004,55.41075],[-1.6942,55.40864]]},"properties":{"name":"Bondgate Without","category":"secondary","osm_type":"way","osm_id":"1311017908","ref":"B6346"}},{"type":"Feature","geometry":{"type":"LineString","coordinates":[[-1.51233,55.13563],[-1.51225,55.13546]]},"properties":{"name":"Secondary and tertiary roads","category":"tertiary","osm_type":"way","osm_id":"1312170144"}},{"type":"Feature","geometry":{"type":"LineString","coordinates":[[-1.84588,55.28439],[-1.84542,55.28473]]},"properties":{"name":"Secondary and tertiary roads","category":"tertiary","osm_type":"way","osm_id":"1312789270"}},{"type":"Feature","geometry":{"type":"LineString","coordinates":[[-1.84627,55.28435],[-1.84588,55.28439]]},"properties":{"name":"Secondary and tertiary roads","category":"tertiary","osm_type":"way","osm_id":"1312789271"}},{"type":"Feature","geometry":{"type":"LineString","coordinates":[[-1.53447,55.02345],[-1.53416,55.02338]]},"properties":{"name":"Great Lime Road","category":"secondary","osm_type":"way","osm_id":"1314299735","ref":"B1505"}},{"type":"Feature","geometry":{"type":"LineString","coordinates":[[-1.54997,55.04718],[-1.54996,55.04612],[-1.54905,55.04548],[-1.54648,55.04538],[-1.5407,55.04436]]},"properties":{"name":"Backworth Lane","category":"secondary","osm_type":"way","osm_id":"1315248959","ref":"B1322"}},{"type":"Feature","geometry":{"type":"LineString","coordinates":[[-1.58652,55.08731],[-1.58657,55.08712]]},"properties":{"name":"Cumbrian Road","category":"secondary","osm_type":"way","osm_id":"1315261052","ref":"B1326"}},{"type":"Feature","geometry":{"type":"LineString","coordinates":[[-1.55768,55.03194],[-1.56179,55.03232]]},"properties":{"name":"West Lane","category":"tertiary","osm_type":"way","osm_id":"1315278221"}},{"type":"Feature","geometry":{"type":"LineString","coordinates":[[-1.56179,55.03232],[-1.56381,55.03256]]},"properties":{"name":"West Lane","category":"tertiary","osm_type":"way","osm_id":"1315278222"}},{"type":"Feature","geometry":{"type":"LineString","coordinates":[[-1.56485,55.03351],[-1.56403,55.03333]]},"properties":{"name":"East Bailey","category":"tertiary","osm_type":"way","osm_id":"1315278225"}},{"type":"Feature","geometry":{"type":"LineString","coordinates":[[-1.565,55.03355],[-1.56485,55.03351]]},"properties":{"name":"East Bailey","category":"tertiary","osm_type":"way","osm_id":"1315278226"}},{"type":"Feature","geometry":{"type":"LineString","coordinates":[[-1.57113,55.0274],[-1.57421,55.02779]]},"properties":{"name":"Great Lime Road","category":"secondary","osm_type":"way","osm_id":"1315278230","ref":"B1505"}},{"type":"Feature","geometry":{"type":"LineString","coordinates":[[-1.60163,55.00656],[-1.60078,55.00545]]},"properties":{"name":"Freeman Road","category":"tertiary","osm_type":"way","osm_id":"1315278239"}},{"type":"Feature","geometry":{"type":"LineString","coordinates":[[-1.453,55.04606],[-1.45273,55.04574]]},"properties":{"name":"Ilfracombe Gardens","category":"tertiary","osm_type":"way","osm_id":"1320971548"}},{"type":"Feature","geometry":{"type":"LineString","coordinates":[[-1.50418,55.01193],[-1.50422,55.01202]]},"properties":{"name":"Middle Engine Lane","category":"tertiary","osm_type":"way","osm_id":"1322938298"}},{"type":"Feature","geometry":{"type":"LineString","coordinates":[[-1.44941,55.01039],[-1.44892,55.01005]]},"properties":{"name":"Bedford Terrace","category":"secondary","osm_type":"way","osm_id":"1325270055","ref":"B143"}},{"type":"Feature","geometry":{"type":"LineString","coordinates":[[-1.71439,55.18075],[-1.71337,55.18022]]},"properties":{"name":"Secondary and tertiary roads","category":"tertiary","osm_type":"way","osm_id":"1328283166"}},{"type":"Feature","geometry":{"type":"LineString","coordinates":[[-1.71337,55.18022],[-1.71277,55.17992]]},"properties":{"name":"Secondary and tertiary roads","category":"tertiary","osm_type":"way","osm_id":"1328283167"}},{"type":"Feature","geometry":{"type":"LineString","coordinates":[[-1.68177,55.13679],[-1.68184,55.1369]]},"properties":{"name":"B1337","category":"secondary","osm_type":"way","osm_id":"1329741599","ref":"B1337"}},{"type":"Feature","geometry":{"type":"LineString","coordinates":[[-1.69193,55.39862],[-1.69136,55.39773]]},"properties":{"name":"Secondary and tertiary roads","category":"tertiary","osm_type":"way","osm_id":"1330297770"}},{"type":"Feature","geometry":{"type":"LineString","coordinates":[[-1.54342,55.1869],[-1.54315,55.18702]]},"properties":{"name":"Secondary and tertiary roads","category":"tertiary","osm_type":"way","osm_id":"1333465089"}},{"type":"Feature","geometry":{"type":"LineString","coordinates":[[-1.44602,55.01144],[-1.44595,55.01136]]},"properties":{"name":"Upper Norfolk Street","category":"secondary","osm_type":"way","osm_id":"1333615839","ref":"A187"}},{"type":"Feature","geometry":{"type":"LineString","coordinates":[[-1.68815,55.15225],[-1.68799,55.1521]]},"properties":{"name":"B1337","category":"secondary","osm_type":"way","osm_id":"1342227650","ref":"B1337"}},{"type":"Feature","geometry":{"type":"LineString","coordinates":[[-1.64779,55.03317],[-1.64713,55.03316]]},"properties":{"name":"Great Parkway","category":"tertiary","osm_type":"way","osm_id":"1342230872"}},{"type":"Feature","geometry":{"type":"LineString","coordinates":[[-1.59427,55.08457],[-1.59436,55.08437]]},"properties":{"name":"Forum Way","category":"tertiary","osm_type":"way","osm_id":"1342520134"}},{"type":"Feature","geometry":{"type":"LineString","coordinates":[[-1.57829,55.05496],[-1.57859,55.05494]]},"properties":{"name":"Fordley Bypass","category":"secondary","osm_type":"way","osm_id":"1342520606","ref":"B1321"}},{"type":"Feature","geometry":{"type":"LineString","coordinates":[[-1.5935,55.04002],[-1.59311,55.03987]]},"properties":{"name":"Great Lime Road","category":"secondary","osm_type":"way","osm_id":"1342521972","ref":"B1319"}},{"type":"Feature","geometry":{"type":"LineString","coordinates":[[-1.51966,55.03197],[-1.52014,55.03177]]},"properties":{"name":"Earsdon Road","category":"tertiary","osm_type":"way","osm_id":"1342522642"}},{"type":"Feature","geometry":{"type":"LineString","coordinates":[[-1.66294,55.03218],[-1.6615,55.03258]]},"properties":{"name":"Great Parkway","category":"tertiary","osm_type":"way","osm_id":"1342534224"}},{"type":"Feature","geometry":{"type":"LineString","coordinates":[[-1.68786,55.15195],[-1.68777,55.1518]]},"properties":{"name":"B1337","category":"secondary","osm_type":"way","osm_id":"1342537575","ref":"B1337"}},{"type":"Feature","geometry":{"type":"LineString","coordinates":[[-1.50495,55.12814],[-1.50472,55.12804]]},"properties":{"name":"B1329","category":"secondary","osm_type":"way","osm_id":"1342539181","ref":"B1329"}},{"type":"Feature","geometry":{"type":"LineString","coordinates":[[-1.64586,55.03293],[-1.6466,55.0329]]},"properties":{"name":"Great Parkway","category":"tertiary","osm_type":"way","osm_id":"1342540246"}},{"type":"Feature","geometry":{"type":"LineString","coordinates":[[-1.64716,55.03251],[-1.64713,55.03286]]},"properties":{"name":"Secondary and tertiary roads","category":"tertiary","osm_type":"way","osm_id":"1342541633"}},{"type":"Feature","geometry":{"type":"LineString","coordinates":[[-1.71742,55.04001],[-1.71751,55.03965]]},"properties":{"name":"Prestwick Road","category":"tertiary","osm_type":"way","osm_id":"1342542120"}},{"type":"Feature","geometry":{"type":"LineString","coordinates":[[-1.61907,55.4279],[-1.61837,55.42802]]},"properties":{"name":"South End","category":"secondary","osm_type":"way","osm_id":"1342556433","ref":"B1339"}},{"type":"Feature","geometry":{"type":"LineString","coordinates":[[-1.66638,55.02248],[-1.66634,55.02227]]},"properties":{"name":"Brunton Lane","category":"tertiary","osm_type":"way","osm_id":"1342560849"}},{"type":"Feature","geometry":{"type":"LineString","coordinates":[[-1.63079,55.30895],[-1.63027,55.307],[-1.63095,55.30072],[-1.63019,55.29977],[-1.62795,55.2987],[-1.62659,55.29292],[-1.62843,55.28994],[-1.62888,55.28776]]},"properties":{"name":"Secondary and tertiary roads","category":"tertiary","osm_type":"way","osm_id":"1342561082"}},{"type":"Feature","geometry":{"type":"LineString","coordinates":[[-1.70979,55.29676],[-1.70982,55.29682]]},"properties":{"name":"Riverside","category":"secondary","osm_type":"way","osm_id":"1342590197","ref":"B6345"}},{"type":"Feature","geometry":{"type":"LineString","coordinates":[[-1.66698,55.11402],[-1.66736,55.11376]]},"properties":{"name":"Secondary and tertiary roads","category":"tertiary","osm_type":"way","osm_id":"1342590216"}},{"type":"Feature","geometry":{"type":"LineString","coordinates":[[-1.57875,55.31974],[-1.57812,55.31951]]},"properties":{"name":"Secondary and tertiary roads","category":"tertiary","osm_type":"way","osm_id":"1343220649"}},{"type":"Feature","geometry":{"type":"LineString","coordinates":[[-1.56821,55.09773],[-1.56815,55.09777]]},"properties":{"name":"B1505","category":"secondary_link","osm_type":"way","osm_id":"1344039392","ref":"B1505"}},{"type":"Feature","geometry":{"type":"LineString","coordinates":[[-1.53205,55.00301],[-1.53371,55.00309]]},"properties":{"name":"Battle Hill Drive","category":"tertiary","osm_type":"way","osm_id":"1347370594"}},{"type":"Feature","geometry":{"type":"LineString","coordinates":[[-1.53068,55.00295],[-1.53062,55.00313]]},"properties":{"name":"Secondary and tertiary roads","category":"tertiary","osm_type":"way","osm_id":"1347370595"}},{"type":"Feature","geometry":{"type":"LineString","coordinates":[[-1.53068,55.00295],[-1.53089,55.00294]]},"properties":{"name":"Battle Hill Drive","category":"tertiary","osm_type":"way","osm_id":"1347370596"}},{"type":"Feature","geometry":{"type":"LineString","coordinates":[[-1.53089,55.00294],[-1.53185,55.003]]},"properties":{"name":"Battle Hill Drive","category":"tertiary","osm_type":"way","osm_id":"1347373526"}},{"type":"Feature","geometry":{"type":"LineString","coordinates":[[-1.53059,55.00285],[-1.53068,55.00295]]},"properties":{"name":"Secondary and tertiary roads","category":"tertiary","osm_type":"way","osm_id":"1347373527"}},{"type":"Feature","geometry":{"type":"LineString","coordinates":[[-1.61971,55.00675],[-1.61985,55.00624]]},"properties":{"name":"High Street","category":"secondary","osm_type":"way","osm_id":"1354741538","ref":"B1318"}},{"type":"Feature","geometry":{"type":"LineString","coordinates":[[-1.62,55.00246],[-1.61992,55.00227]]},"properties":{"name":"High Street","category":"secondary","osm_type":"way","osm_id":"1354741539","ref":"B1318"}},{"type":"Feature","geometry":{"type":"LineString","coordinates":[[-1.6087,55.29146],[-1.6074,55.29173]]},"properties":{"name":"Secondary and tertiary roads","category":"tertiary","osm_type":"way","osm_id":"1363972499"}},{"type":"Feature","geometry":{"type":"LineString","coordinates":[[-1.57136,55.1456],[-1.57147,55.14586]]},"properties":{"name":"Stakeford Road","category":"tertiary","osm_type":"way","osm_id":"1363972502"}},{"type":"Feature","geometry":{"type":"LineString","coordinates":[[-1.72898,55.3431],[-1.72959,55.34094],[-1.72768,55.33878]]},"properties":{"name":"Secondary and tertiary roads","category":"tertiary","osm_type":"way","osm_id":"1363972503"}},{"type":"Feature","geometry":{"type":"LineString","coordinates":[[-1.58319,55.02855],[-1.58273,55.02859]]},"properties":{"name":"Great Lime Road","category":"secondary","osm_type":"way","osm_id":"1367984541","ref":"B1505"}},{"type":"Feature","geometry":{"type":"LineString","coordinates":[[-1.42641,55.00524],[-1.42395,55.00392]]},"properties":{"name":"River Drive","category":"secondary","osm_type":"way","osm_id":"1368806032","ref":"B1344"}},{"type":"Feature","geometry":{"type":"LineString","coordinates":[[-1.56743,55.01507],[-1.56741,55.015]]},"properties":{"name":"Station Road","category":"secondary","osm_type":"way","osm_id":"1373343141","ref":"B1317"}},{"type":"Feature","geometry":{"type":"LineString","coordinates":[[-1.5705,55.035],[-1.57181,55.03503]]},"properties":{"name":"West Bailey","category":"tertiary","osm_type":"way","osm_id":"1375632877"}},{"type":"Feature","geometry":{"type":"LineString","coordinates":[[-1.89911,55.30548],[-1.8977,55.30467]]},"properties":{"name":"B6342","category":"secondary","osm_type":"way","osm_id":"1378274449","ref":"B6342"}},{"type":"Feature","geometry":{"type":"LineString","coordinates":[[-1.96139,55.16428],[-1.96447,55.16921]]},"properties":{"name":"B6342","category":"secondary","osm_type":"way","osm_id":"1378278424","ref":"B6342"}},{"type":"Feature","geometry":{"type":"LineString","coordinates":[[-1.95823,55.15644],[-1.96139,55.16428]]},"properties":{"name":"B6342","category":"secondary","osm_type":"way","osm_id":"1378278697","ref":"B6342"}},{"type":"Feature","geometry":{"type":"LineString","coordinates":[[-1.57115,55.03144],[-1.5687,55.03393]]},"properties":{"name":"Southgate","category":"tertiary","osm_type":"way","osm_id":"1379097755"}},{"type":"Feature","geometry":{"type":"LineString","coordinates":[[-1.50951,55.02715],[-1.50947,55.02689]]},"properties":{"name":"Secondary and tertiary roads","category":"tertiary","osm_type":"way","osm_id":"1385655223"}},{"type":"Feature","geometry":{"type":"LineString","coordinates":[[-1.50965,55.02675],[-1.50966,55.02692]]},"properties":{"name":"The Silverlink North","category":"tertiary","osm_type":"way","osm_id":"1386320990"}},{"type":"Feature","geometry":{"type":"LineString","coordinates":[[-1.50947,55.02689],[-1.50965,55.02675]]},"properties":{"name":"The Silverlink North","category":"tertiary","osm_type":"way","osm_id":"1386320991"}},{"type":"Feature","geometry":{"type":"LineString","coordinates":[[-1.50969,55.02725],[-1.50951,55.02715]]},"properties":{"name":"The Silverlink North","category":"tertiary","osm_type":"way","osm_id":"1386320992"}},{"type":"Feature","geometry":{"type":"LineString","coordinates":[[-1.50968,55.02711],[-1.50969,55.02725]]},"properties":{"name":"The Silverlink North","category":"tertiary","osm_type":"way","osm_id":"1386320993"}},{"type":"Feature","geometry":{"type":"LineString","coordinates":[[-1.50966,55.02692],[-1.50968,55.02711]]},"properties":{"name":"Secondary and tertiary roads","category":"tertiary","osm_type":"way","osm_id":"1386320996"}},{"type":"Feature","geometry":{"type":"LineString","coordinates":[[-1.50947,55.02689],[-1.50966,55.02692]]},"properties":{"name":"Secondary and tertiary roads","category":"tertiary","osm_type":"way","osm_id":"1386320997"}},{"type":"Feature","geometry":{"type":"LineString","coordinates":[[-1.50968,55.02711],[-1.50951,55.02715]]},"properties":{"name":"Secondary and tertiary roads","category":"tertiary","osm_type":"way","osm_id":"1386320998"}},{"type":"Feature","geometry":{"type":"LineString","coordinates":[[-1.58674,55.08705],[-1.58737,55.08709]]},"properties":{"name":"Station Road","category":"secondary","osm_type":"way","osm_id":"1386637252","ref":"B1326"}},{"type":"Feature","geometry":{"type":"LineString","coordinates":[[-1.58737,55.08709],[-1.58674,55.08712]]},"properties":{"name":"Station Road","category":"secondary","osm_type":"way","osm_id":"1386637253","ref":"B1326"}},{"type":"Feature","geometry":{"type":"LineString","coordinates":[[-1.59479,55.05586],[-1.59482,55.05585]]},"properties":{"name":"Market Street","category":"secondary","osm_type":"way","osm_id":"1389012506","ref":"B1319"}},{"type":"Feature","geometry":{"type":"LineString","coordinates":[[-1.61704,55.10069],[-1.61761,55.10071]]},"properties":{"name":"Nelson Way","category":"tertiary","osm_type":"way","osm_id":"1389418915"}},{"type":"Feature","geometry":{"type":"LineString","coordinates":[[-1.61761,55.10071],[-1.61704,55.10069]]},"properties":{"name":"Nelson Way","category":"tertiary","osm_type":"way","osm_id":"1389418916"}},{"type":"Feature","geometry":{"type":"LineString","coordinates":[[-1.6224,55.03936],[-1.62218,55.03995]]},"properties":{"name":"Secondary and tertiary roads","category":"secondary_link","osm_type":"way","osm_id":"1393983181"}},{"type":"Feature","geometry":{"type":"LineString","coordinates":[[-1.62204,55.03996],[-1.62179,55.03968]]},"properties":{"name":"Great North Road","category":"secondary_link","osm_type":"way","osm_id":"1393983182","ref":"B1318"}},{"type":"Feature","geometry":{"type":"LineString","coordinates":[[-1.55997,55.02646],[-1.55972,55.02627]]},"properties":{"name":"Secondary and tertiary roads","category":"secondary_link","osm_type":"way","osm_id":"1408931929"}},{"type":"Feature","geometry":{"type":"LineString","coordinates":[[-1.6441,55.01367],[-1.64413,55.01413]]},"properties":{"name":"Fawdon Lane","category":"tertiary","osm_type":"way","osm_id":"1409335606"}},{"type":"Feature","geometry":{"type":"LineString","coordinates":[[-1.52696,55.10253],[-1.52718,55.10227]]},"properties":{"name":"B1523","category":"secondary","osm_type":"way","osm_id":"1416109687","ref":"B1523"}},{"type":"Feature","geometry":{"type":"LineString","coordinates":[[-1.50544,55.12742],[-1.50563,55.12763]]},"properties":{"name":"Percy Street","category":"tertiary","osm_type":"way","osm_id":"1424752965"}},{"type":"Feature","geometry":{"type":"LineString","coordinates":[[-1.62266,55.3402],[-1.62422,55.33756]]},"properties":{"name":"Morwick Road","category":"tertiary","osm_type":"way","osm_id":"1431455631"}},{"type":"Feature","geometry":{"type":"LineString","coordinates":[[-1.61744,55.34175],[-1.62147,55.3407]]},"properties":{"name":"Morwick Road","category":"tertiary","osm_type":"way","osm_id":"1431455632"}},{"type":"Feature","geometry":{"type":"LineString","coordinates":[[-1.60981,55.34309],[-1.61029,55.34286]]},"properties":{"name":"Morwick Road","category":"tertiary","osm_type":"way","osm_id":"1431455633"}},{"type":"Feature","geometry":{"type":"LineString","coordinates":[[-1.65451,55.30542],[-1.65318,55.30688]]},"properties":{"name":"B6345","category":"secondary","osm_type":"way","osm_id":"1431807591","ref":"B6345"}},{"type":"Feature","geometry":{"type":"LineString","coordinates":[[-1.65307,55.30699],[-1.65175,55.30805]]},"properties":{"name":"B6345","category":"secondary","osm_type":"way","osm_id":"1431807592","ref":"B6345"}},{"type":"Feature","geometry":{"type":"LineString","coordinates":[[-1.6501,55.30986],[-1.6484,55.31008]]},"properties":{"name":"B6345","category":"secondary","osm_type":"way","osm_id":"1431807593","ref":"B6345"}},{"type":"Feature","geometry":{"type":"LineString","coordinates":[[-1.64051,55.31097],[-1.63613,55.31093],[-1.63106,55.31022]]},"properties":{"name":"B6345","category":"secondary","osm_type":"way","osm_id":"1431807595","ref":"B6345"}},{"type":"Feature","geometry":{"type":"LineString","coordinates":[[-1.63106,55.31022],[-1.63079,55.30895]]},"properties":{"name":"Secondary and tertiary roads","category":"tertiary","osm_type":"way","osm_id":"1431809271"}},{"type":"Feature","geometry":{"type":"LineString","coordinates":[[-1.66255,55.26342],[-1.66025,55.259]]},"properties":{"name":"Secondary and tertiary roads","category":"tertiary","osm_type":"way","osm_id":"1432115339"}},{"type":"Feature","geometry":{"type":"LineString","coordinates":[[-1.725,55.33042],[-1.72431,55.33043]]},"properties":{"name":"Secondary and tertiary roads","category":"tertiary","osm_type":"way","osm_id":"1432732950"}},{"type":"Feature","geometry":{"type":"LineString","coordinates":[[-1.54807,55.12989],[-1.54808,55.12996]]},"properties":{"name":"Tynedale Drive","category":"tertiary","osm_type":"way","osm_id":"1433430120"}},{"type":"Feature","geometry":{"type":"LineString","coordinates":[[-1.70312,55.00256],[-1.70281,55.00294]]},"properties":{"name":"Hillhead Road","category":"tertiary","osm_type":"way","osm_id":"1444970756"}},{"type":"Feature","geometry":{"type":"LineString","coordinates":[[-1.70599,54.99913],[-1.70387,55.00168]]},"properties":{"name":"Secondary and tertiary roads","category":"tertiary","osm_type":"way","osm_id":"1444970757"}},{"type":"Feature","geometry":{"type":"LineString","coordinates":[[-1.70387,55.00168],[-1.70312,55.00256]]},"properties":{"name":"Secondary and tertiary roads","category":"tertiary","osm_type":"way","osm_id":"1444970758"}},{"type":"Feature","geometry":{"type":"LineString","coordinates":[[-1.69558,55.0004],[-1.69803,55.00145]]},"properties":{"name":"Stamfordham Road","category":"secondary","osm_type":"way","osm_id":"1444970824","ref":"B6324"}},{"type":"Feature","geometry":{"type":"LineString","coordinates":[[-1.69495,55.00025],[-1.69465,55.00049]]},"properties":{"name":"Newbiggin Lane","category":"tertiary","osm_type":"way","osm_id":"1444970830"}},{"type":"Feature","geometry":{"type":"LineString","coordinates":[[-1.69508,55.00017],[-1.69558,55.0004]]},"properties":{"name":"Stamfordham Road","category":"secondary","osm_type":"way","osm_id":"1444970831","ref":"B6324"}},{"type":"Feature","geometry":{"type":"LineString","coordinates":[[-1.69465,55.00049],[-1.69485,55.00022]]},"properties":{"name":"Newbiggin Lane","category":"tertiary","osm_type":"way","osm_id":"1444970834"}},{"type":"Feature","geometry":{"type":"LineString","coordinates":[[-1.69487,55.00013],[-1.69503,55.00013],[-1.69505,55.00022],[-1.69488,55.00024],[-1.69487,55.00013]]},"properties":{"name":"Secondary and tertiary roads","category":"secondary","osm_type":"way","osm_id":"1444970835"}},{"type":"Feature","geometry":{"type":"LineString","coordinates":[[-1.69558,55.0004],[-1.695,55.00024]]},"properties":{"name":"Stamfordham Road","category":"secondary","osm_type":"way","osm_id":"1444970836"}},{"type":"Feature","geometry":{"type":"LineString","coordinates":[[-1.69475,55.00034],[-1.69471,55.00011]]},"properties":{"name":"Secondary and tertiary roads","category":"tertiary","osm_type":"way","osm_id":"1444970837"}},{"type":"Feature","geometry":{"type":"LineString","coordinates":[[-1.95909,55.1586],[-1.96232,55.15809]]},"properties":{"name":"Secondary and tertiary roads","category":"tertiary","osm_type":"way","osm_id":"1451790238"}},{"type":"Feature","geometry":{"type":"LineString","coordinates":[[-1.96232,55.15809],[-1.96399,55.15783]]},"properties":{"name":"Secondary and tertiary roads","category":"tertiary","osm_type":"way","osm_id":"1451790239"}},{"type":"Feature","geometry":{"type":"LineString","coordinates":[[-1.50181,55.01892],[-1.50171,55.01887]]},"properties":{"name":"Cobalt Park Way","category":"tertiary","osm_type":"way","osm_id":"1455907844"}},{"type":"Feature","geometry":{"type":"LineString","coordinates":[[-1.50104,55.01836],[-1.501,55.0183]]},"properties":{"name":"Cobalt Park Way","category":"tertiary","osm_type":"way","osm_id":"1455907845"}},{"type":"Feature","geometry":{"type":"LineString","coordinates":[[-1.51132,55.11914],[-1.51157,55.11887]]},"properties":{"name":"Plessey Road","category":"secondary","osm_type":"way","osm_id":"1465287632","ref":"B1327"}},{"type":"Feature","geometry":{"type":"LineString","coordinates":[[-1.51167,55.11891],[-1.51132,55.11914]]},"properties":{"name":"Plessey Road","category":"secondary","osm_type":"way","osm_id":"1465287633","ref":"B1327"}},{"type":"Feature","geometry":{"type":"LineString","coordinates":[[-1.66347,55.03264],[-1.66308,55.03221]]},"properties":{"name":"Primrose Lane","category":"tertiary","osm_type":"way","osm_id":"1472923862"}},{"type":"Feature","geometry":{"type":"LineString","coordinates":[[-1.72795,55.00194],[-1.72793,55.00225]]},"properties":{"name":"North Walbottle Road","category":"tertiary","osm_type":"way","osm_id":"1486854375"}},{"type":"Feature","geometry":{"type":"LineString","coordinates":[[-1.72798,55.00152],[-1.72814,55.00141],[-1.72839,55.0015],[-1.72821,55.00164],[-1.72798,55.00152]]},"properties":{"name":"North Walbottle Road","category":"tertiary","osm_type":"way","osm_id":"1486854376"}},{"type":"Feature","geometry":{"type":"LineString","coordinates":[[-1.72795,55.00194],[-1.72803,55.0016]]},"properties":{"name":"North Walbottle Road","category":"tertiary","osm_type":"way","osm_id":"1486854377"}},{"type":"Feature","geometry":{"type":"LineString","coordinates":[[-1.72827,55.00163],[-1.72795,55.00194]]},"properties":{"name":"North Walbottle Road","category":"tertiary","osm_type":"way","osm_id":"1486854378"}},{"type":"Feature","geometry":{"type":"LineString","coordinates":[[-1.72806,55.00114],[-1.72827,55.00142]]},"properties":{"name":"North Walbottle Road","category":"tertiary","osm_type":"way","osm_id":"1486854379"}},{"type":"Feature","geometry":{"type":"LineString","coordinates":[[-1.72803,55.00145],[-1.72806,55.00114]]},"properties":{"name":"North Walbottle Road","category":"tertiary","osm_type":"way","osm_id":"1486854380"}},{"type":"Feature","geometry":{"type":"LineString","coordinates":[[-1.42395,55.00392],[-1.42297,55.00342]]},"properties":{"name":"Sea Road","category":"secondary","osm_type":"way","osm_id":"1489198836","ref":"B1344"}},{"type":"Feature","geometry":{"type":"LineString","coordinates":[[-1.53674,55.14486],[-1.53699,55.14486]]},"properties":{"name":"Brock Lane","category":"tertiary","osm_type":"way","osm_id":"1490876217"}},{"type":"Feature","geometry":{"type":"LineString","coordinates":[[-1.46034,55.04224],[-1.45988,55.04253]]},"properties":{"name":"Front Street","category":"tertiary","osm_type":"way","osm_id":"1507873412"}},{"type":"Feature","geometry":{"type":"LineString","coordinates":[[-1.89834,55.16054],[-1.89862,55.16046]]},"properties":{"name":"Secondary and tertiary roads","category":"tertiary","osm_type":"way","osm_id":"1520836219"}},{"type":"Feature","geometry":{"type":"LineString","coordinates":[[-1.89862,55.16046],[-1.90305,55.16026],[-1.90747,55.16071],[-1.91104,55.16016],[-1.91721,55.16034],[-1.92195,55.15969]]},"properties":{"name":"Secondary and tertiary roads","category":"tertiary","osm_type":"way","osm_id":"1520836220"}},{"type":"Feature","geometry":{"type":"LineString","coordinates":[[-1.54472,55.03772],[-1.54487,55.03742]]},"properties":{"name":"Secondary and tertiary roads","category":"secondary","osm_type":"way","osm_id":"1530722819"}},{"type":"Feature","geometry":{"type":"LineString","coordinates":[[-1.54514,55.03777],[-1.54486,55.03797]]},"properties":{"name":"Secondary and tertiary roads","category":"secondary","osm_type":"way","osm_id":"1530722825"}},{"type":"Feature","geometry":{"type":"LineString","coordinates":[[-1.54481,55.03797],[-1.54472,55.03772]]},"properties":{"name":"Secondary and tertiary roads","category":"secondary","osm_type":"way","osm_id":"1530722826"}},{"type":"Feature","geometry":{"type":"LineString","coordinates":[[-1.54517,55.03718],[-1.54525,55.03747]]},"properties":{"name":"Secondary and tertiary roads","category":"secondary","osm_type":"way","osm_id":"1530722827"}},{"type":"Feature","geometry":{"type":"LineString","coordinates":[[-1.54487,55.03742],[-1.54517,55.03718]]},"properties":{"name":"Secondary and tertiary roads","category":"secondary","osm_type":"way","osm_id":"1530722828"}},{"type":"Feature","geometry":{"type":"LineString","coordinates":[[-1.54525,55.03747],[-1.54514,55.03777]]},"properties":{"name":"Secondary and tertiary roads","category":"secondary","osm_type":"way","osm_id":"1530722854"}},{"type":"Feature","geometry":{"type":"LineString","coordinates":[[-1.54514,55.03777],[-1.54472,55.03772]]},"properties":{"name":"Secondary and tertiary roads","category":"secondary","osm_type":"way","osm_id":"1530722855"}},{"type":"Feature","geometry":{"type":"LineString","coordinates":[[-1.54487,55.03742],[-1.54525,55.03747]]},"properties":{"name":"Secondary and tertiary roads","category":"secondary","osm_type":"way","osm_id":"1530722856"}},{"type":"Feature","geometry":{"type":"LineString","coordinates":[[-1.54526,55.037],[-1.54517,55.03718]]},"properties":{"name":"Killingworth Lane","category":"secondary","osm_type":"way","osm_id":"1530722858","ref":"B1317"}},{"type":"Feature","geometry":{"type":"LineString","coordinates":[[-1.5448,55.03805],[-1.54481,55.03797]]},"properties":{"name":"Secondary and tertiary roads","category":"secondary","osm_type":"way","osm_id":"1530722860"}},{"type":"Feature","geometry":{"type":"LineString","coordinates":[[-1.54486,55.03797],[-1.5448,55.03805]]},"properties":{"name":"Secondary and tertiary roads","category":"secondary","osm_type":"way","osm_id":"1530722861"}},{"type":"Feature","geometry":{"type":"LineString","coordinates":[[-1.65318,55.30688],[-1.65307,55.30699]]},"properties":{"name":"B6345","category":"secondary","osm_type":"way","osm_id":"1540085155","ref":"B6345"}},{"type":"Feature","geometry":{"type":"LineString","coordinates":[[-1.71855,55.01203],[-1.7186,55.01232]]},"properties":{"name":"Musgrove Drive","category":"tertiary","osm_type":"way","osm_id":"1545857794"}},{"type":"Feature","geometry":{"type":"LineString","coordinates":[[-1.43148,55.0006],[-1.43027,54.99957]]},"properties":{"name":"Coston Drive","category":"secondary","osm_type":"way","osm_id":"1548353189","ref":"B1302"}},{"type":"Feature","geometry":{"type":"LineString","coordinates":[[-1.61013,55.47095],[-1.60767,55.46908]]},"properties":{"name":"Secondary and tertiary roads","category":"tertiary","osm_type":"way","osm_id":"1550086239"}},{"type":"Feature","geometry":{"type":"LineString","coordinates":[[-1.63552,55.49546],[-1.63562,55.49503]]},"properties":{"name":"B1339","category":"secondary","osm_type":"way","osm_id":"1550086240","ref":"B1339"}},{"type":"Feature","geometry":{"type":"LineString","coordinates":[[-1.66233,55.0217],[-1.66233,55.02186]]},"properties":{"name":"Secondary and tertiary roads","category":"tertiary","osm_type":"way","osm_id":"1551433619"}},{"type":"Feature","geometry":{"type":"LineString","coordinates":[[-1.66178,55.02159],[-1.66233,55.0217]]},"properties":{"name":"Secondary and tertiary roads","category":"tertiary","osm_type":"way","osm_id":"1551433620"}},{"type":"Feature","geometry":{"type":"LineString","coordinates":[[-1.66161,55.02172],[-1.66178,55.02159]]},"properties":{"name":"Secondary and tertiary roads","category":"tertiary","osm_type":"way","osm_id":"1551433621"}},{"type":"Feature","geometry":{"type":"LineString","coordinates":[[-1.89423,55.31723],[-1.89659,55.31856]]},"properties":{"name":"B6341","category":"secondary","osm_type":"way","osm_id":"1551540109","ref":"B6341"}},{"type":"Feature","geometry":{"type":"LineString","coordinates":[[-1.80271,55.28419],[-1.80423,55.28392],[-1.81084,55.28422],[-1.8123,55.28492],[-1.81514,55.28531],[-1.81946,55.2879],[-1.82492,55.2873],[-1.83031,55.28829]]},"properties":{"name":"B6344","category":"secondary","osm_type":"way","osm_id":"1551540110","ref":"B6344"}},{"type":"Feature","geometry":{"type":"LineString","coordinates":[[-1.53672,55.14495],[-1.53674,55.14486]]},"properties":{"name":"Brock Lane","category":"tertiary","osm_type":"way","osm_id":"1551648647"}},{"type":"Feature","geometry":{"type":"LineString","coordinates":[[-1.53699,55.14486],[-1.53699,55.14495]]},"properties":{"name":"Brock Lane","category":"tertiary","osm_type":"way","osm_id":"1551648648"}},{"type":"Feature","geometry":{"type":"LineString","coordinates":[[-1.70919,55.41247],[-1.70893,55.41256]]},"properties":{"name":"Clayport Street","category":"secondary","osm_type":"way","osm_id":"1552380502"}},{"type":"Feature","geometry":{"type":"LineString","coordinates":[[-1.70919,55.41247],[-1.70942,55.41267]]},"properties":{"name":"Lagny Street","category":"secondary","osm_type":"way","osm_id":"1552380503","ref":"B6341"}},{"type":"Feature","geometry":{"type":"LineString","coordinates":[[-1.70893,55.41256],[-1.70857,55.41267]]},"properties":{"name":"Clayport Street","category":"secondary","osm_type":"way","osm_id":"1552380504"}},{"type":"Feature","geometry":{"type":"LineString","coordinates":[[-1.57891,55.06656],[-1.57933,55.06631]]},"properties":{"name":"B1505","category":"secondary","osm_type":"way","osm_id":"1553368272","ref":"B1505"}},{"type":"Feature","geometry":{"type":"LineString","coordinates":[[-1.57891,55.06656],[-1.57876,55.06608]]},"properties":{"name":"B1505","category":"secondary","osm_type":"way","osm_id":"1553368273","ref":"B1505"}}]}