{"type":"FeatureCollection","features":[{"type":"Feature","geometry":{"type":"LineString","coordinates":[[-1.87447,55.67786],[-1.87547,55.67771]]},"properties":{"name":"Holy Island Road","category":"tertiary","osm_type":"way","osm_id":"4701196"}},{"type":"Feature","geometry":{"type":"LineString","coordinates":[[-1.71744,55.60751],[-1.71436,55.60776]]},"properties":{"name":"Church Street","category":"secondary","osm_type":"way","osm_id":"22755734","ref":"B1340"}},{"type":"Feature","geometry":{"type":"LineString","coordinates":[[-1.97137,55.55863],[-1.97176,55.55877]]},"properties":{"name":"Secondary and tertiary roads","category":"tertiary","osm_type":"way","osm_id":"23972508"}},{"type":"Feature","geometry":{"type":"LineString","coordinates":[[-1.65485,55.58062],[-1.66388,55.5771],[-1.66784,55.57633]]},"properties":{"name":"Main Street","category":"tertiary","osm_type":"way","osm_id":"25567749"}},{"type":"Feature","geometry":{"type":"LineString","coordinates":[[-1.6674,55.58591],[-1.66897,55.58487],[-1.6681,55.57861]]},"properties":{"name":"Broad Road","category":"tertiary","osm_type":"way","osm_id":"25567755"}},{"type":"Feature","geometry":{"type":"LineString","coordinates":[[-1.69684,55.49727],[-1.69484,55.51314]]},"properties":{"name":"Secondary and tertiary roads","category":"tertiary","osm_type":"way","osm_id":"26594940"}},{"type":"Feature","geometry":{"type":"LineString","coordinates":[[-1.69484,55.51314],[-1.69662,55.51327],[-1.70293,55.52015],[-1.70513,55.52025],[-1.7069,55.52204],[-1.7077,55.52488],[-1.70721,55.52704],[-1.70776,55.52909],[-1.7066,55.53418]]},"properties":{"name":"Secondary and tertiary roads","category":"tertiary","osm_type":"way","osm_id":"26594941"}},{"type":"Feature","geometry":{"type":"LineString","coordinates":[[-1.65204,55.50551],[-1.65891,55.50298]]},"properties":{"name":"B1340","category":"secondary","osm_type":"way","osm_id":"26684740","ref":"B1340"}},{"type":"Feature","geometry":{"type":"LineString","coordinates":[[-1.65891,55.50298],[-1.66273,55.50148]]},"properties":{"name":"B1340","category":"secondary","osm_type":"way","osm_id":"26684742","ref":"B1340"}},{"type":"Feature","geometry":{"type":"LineString","coordinates":[[-1.65891,55.50298],[-1.67549,55.51063],[-1.67898,55.51162]]},"properties":{"name":"Secondary and tertiary roads","category":"tertiary","osm_type":"way","osm_id":"26684803"}},{"type":"Feature","geometry":{"type":"LineString","coordinates":[[-1.69645,55.51316],[-1.69924,55.51308],[-1.70184,55.5125],[-1.7049,55.51276]]},"properties":{"name":"Secondary and tertiary roads","category":"tertiary","osm_type":"way","osm_id":"26684821"}},{"type":"Feature","geometry":{"type":"LineString","coordinates":[[-1.6709,55.57367],[-1.66972,55.57241],[-1.67718,55.56968],[-1.67738,55.5686],[-1.6825,55.56739],[-1.68039,55.5634]]},"properties":{"name":"Secondary and tertiary roads","category":"tertiary","osm_type":"way","osm_id":"26685032"}},{"type":"Feature","geometry":{"type":"LineString","coordinates":[[-1.65485,55.58062],[-1.65,55.5785],[-1.64896,55.57738]]},"properties":{"name":"King Street","category":"secondary","osm_type":"way","osm_id":"26685261","ref":"B1340"}},{"type":"Feature","geometry":{"type":"LineString","coordinates":[[-1.65335,55.58182],[-1.65359,55.58192]]},"properties":{"name":"B1340","category":"secondary","osm_type":"way","osm_id":"27545566","ref":"B1340"}},{"type":"Feature","geometry":{"type":"LineString","coordinates":[[-1.81361,55.59525],[-1.81428,55.59513]]},"properties":{"name":"B1342","category":"secondary","osm_type":"way","osm_id":"27546684","ref":"B1342"}},{"type":"Feature","geometry":{"type":"LineString","coordinates":[[-1.82897,55.59857],[-1.82878,55.59966]]},"properties":{"name":"Church Street","category":"tertiary","osm_type":"way","osm_id":"27648283"}},{"type":"Feature","geometry":{"type":"LineString","coordinates":[[-1.99493,55.74117],[-1.99504,55.74185],[-1.99428,55.74207],[-1.98829,55.74263],[-1.98121,55.73965],[-1.97988,55.73818]]},"properties":{"name":"Secondary and tertiary roads","category":"tertiary","osm_type":"way","osm_id":"28334372"}},{"type":"Feature","geometry":{"type":"LineString","coordinates":[[-1.99105,55.73639],[-1.99025,55.73523]]},"properties":{"name":"Secondary and tertiary roads","category":"tertiary","osm_type":"way","osm_id":"28334375"}},{"type":"Feature","geometry":{"type":"LineString","coordinates":[[-1.95412,55.69228],[-1.95475,55.69173]]},"properties":{"name":"Secondary and tertiary roads","category":"tertiary","osm_type":"way","osm_id":"28335267"}},{"type":"Feature","geometry":{"type":"LineString","coordinates":[[-1.99907,55.6962],[-1.98754,55.69534],[-1.98179,55.69598],[-1.97368,55.69493]]},"properties":{"name":"Secondary and tertiary roads","category":"tertiary","osm_type":"way","osm_id":"28335420"}},{"type":"Feature","geometry":{"type":"LineString","coordinates":[[-1.97226,55.68553],[-1.95992,55.68474],[-1.95894,55.68407],[-1.95372,55.68414]]},"properties":{"name":"Secondary and tertiary roads","category":"tertiary","osm_type":"way","osm_id":"28335421"}},{"type":"Feature","geometry":{"type":"LineString","coordinates":[[-1.95366,55.68546],[-1.95342,55.67766],[-1.95115,55.67363],[-1.94902,55.67237]]},"properties":{"name":"Secondary and tertiary roads","category":"tertiary","osm_type":"way","osm_id":"28335422"}},{"type":"Feature","geometry":{"type":"LineString","coordinates":[[-1.92925,55.67841],[-1.94041,55.67523],[-1.9435,55.67377],[-1.94902,55.67237]]},"properties":{"name":"Secondary and tertiary roads","category":"tertiary","osm_type":"way","osm_id":"28335584"}},{"type":"Feature","geometry":{"type":"LineString","coordinates":[[-1.94902,55.67237],[-1.95357,55.6683],[-1.95213,55.66556]]},"properties":{"name":"Secondary and tertiary roads","category":"tertiary","osm_type":"way","osm_id":"28335585"}},{"type":"Feature","geometry":{"type":"LineString","coordinates":[[-1.96198,55.55646],[-1.94333,55.55814],[-1.94109,55.55915],[-1.93837,55.55878]]},"properties":{"name":"B6349","category":"secondary","osm_type":"way","osm_id":"28354462","ref":"B6349"}},{"type":"Feature","geometry":{"type":"LineString","coordinates":[[-1.67982,55.57972],[-1.67032,55.57791],[-1.66801,55.57786]]},"properties":{"name":"Secondary and tertiary roads","category":"tertiary","osm_type":"way","osm_id":"28354824"}},{"type":"Feature","geometry":{"type":"LineString","coordinates":[[-1.78624,55.5943],[-1.78988,55.59184]]},"properties":{"name":"Secondary and tertiary roads","category":"tertiary","osm_type":"way","osm_id":"28354852"}},{"type":"Feature","geometry":{"type":"LineString","coordinates":[[-1.99815,55.55122],[-1.99838,55.54447]]},"properties":{"name":"Secondary and tertiary roads","category":"tertiary","osm_type":"way","osm_id":"28749696"}},{"type":"Feature","geometry":{"type":"LineString","coordinates":[[-1.95629,55.54855],[-1.9457,55.53874],[-1.94551,55.53519],[-1.94624,55.53253],[-1.94538,55.5314],[-1.94526,55.52939],[-1.94302,55.52682],[-1.94172,55.5238],[-1.94165,55.52207],[-1.94596,55.52106],[-1.95179,55.51751],[-1.95278,55.51637],[-1.95912,55.51409]]},"properties":{"name":"Secondary and tertiary roads","category":"tertiary","osm_type":"way","osm_id":"28749699"}},{"type":"Feature","geometry":{"type":"LineString","coordinates":[[-1.9457,55.53874],[-1.9294,55.54252],[-1.92161,55.54506],[-1.91767,55.5471]]},"properties":{"name":"Secondary and tertiary roads","category":"tertiary","osm_type":"way","osm_id":"28749700"}},{"type":"Feature","geometry":{"type":"LineString","coordinates":[[-1.86988,55.55345],[-1.86974,55.55897],[-1.86284,55.56342],[-1.85722,55.56588],[-1.85346,55.56874],[-1.84759,55.57833],[-1.84595,55.58156],[-1.84519,55.58666],[-1.84671,55.59285]]},"properties":{"name":"Secondary and tertiary roads","category":"tertiary","osm_type":"way","osm_id":"28749923"}},{"type":"Feature","geometry":{"type":"LineString","coordinates":[[-1.97155,55.50737],[-1.96572,55.50916],[-1.96221,55.51077],[-1.95931,55.51131]]},"properties":{"name":"Secondary and tertiary roads","category":"tertiary","osm_type":"way","osm_id":"28749924"}},{"type":"Feature","geometry":{"type":"LineString","coordinates":[[-1.80641,55.58172],[-1.8165,55.57752],[-1.81762,55.57611]]},"properties":{"name":"Secondary and tertiary roads","category":"tertiary","osm_type":"way","osm_id":"28802184"}},{"type":"Feature","geometry":{"type":"LineString","coordinates":[[-1.84907,55.55831],[-1.84369,55.56126],[-1.83767,55.56352],[-1.83427,55.5669],[-1.83131,55.56754],[-1.83037,55.56974],[-1.8302,55.57329],[-1.82015,55.57646],[-1.81286,55.5753],[-1.8122,55.57448],[-1.81,55.57464],[-1.80534,55.57018]]},"properties":{"name":"Secondary and tertiary roads","category":"tertiary","osm_type":"way","osm_id":"28802186"}},{"type":"Feature","geometry":{"type":"LineString","coordinates":[[-1.7049,55.57109],[-1.70608,55.56689],[-1.70543,55.56571],[-1.7083,55.56515],[-1.70811,55.56433],[-1.71418,55.56131]]},"properties":{"name":"Secondary and tertiary roads","category":"tertiary","osm_type":"way","osm_id":"28802329"}},{"type":"Feature","geometry":{"type":"LineString","coordinates":[[-1.76328,55.56809],[-1.76077,55.56615],[-1.766,55.56397],[-1.76761,55.56264],[-1.77129,55.56096],[-1.7807,55.55308],[-1.78476,55.55113]]},"properties":{"name":"Secondary and tertiary roads","category":"tertiary","osm_type":"way","osm_id":"28803303"}},{"type":"Feature","geometry":{"type":"LineString","coordinates":[[-1.7868,55.54884],[-1.78496,55.5488]]},"properties":{"name":"Secondary and tertiary roads","category":"tertiary","osm_type":"way","osm_id":"28803305"}},{"type":"Feature","geometry":{"type":"LineString","coordinates":[[-1.64806,55.55401],[-1.64701,55.55333],[-1.63963,55.55538],[-1.6373,55.55557]]},"properties":{"name":"Swinhoe Road","category":"tertiary","osm_type":"way","osm_id":"28803442"}},{"type":"Feature","geometry":{"type":"LineString","coordinates":[[-1.63508,55.55928],[-1.63465,55.55915]]},"properties":{"name":"Harbour Road","category":"tertiary","osm_type":"way","osm_id":"28803443"}},{"type":"Feature","geometry":{"type":"LineString","coordinates":[[-1.63825,55.55643],[-1.63975,55.5572]]},"properties":{"name":"The Wynding","category":"tertiary","osm_type":"way","osm_id":"28803444"}},{"type":"Feature","geometry":{"type":"LineString","coordinates":[[-1.66507,55.54964],[-1.66517,55.5496]]},"properties":{"name":"B1340","category":"secondary","osm_type":"way","osm_id":"28803445","ref":"B1340"}},{"type":"Feature","geometry":{"type":"LineString","coordinates":[[-1.73059,55.52472],[-1.72877,55.52521],[-1.72553,55.52248],[-1.72508,55.52027]]},"properties":{"name":"Secondary and tertiary roads","category":"tertiary","osm_type":"way","osm_id":"28803544"}},{"type":"Feature","geometry":{"type":"LineString","coordinates":[[-1.72508,55.52027],[-1.72049,55.52176],[-1.71499,55.52115]]},"properties":{"name":"Secondary and tertiary roads","category":"tertiary","osm_type":"way","osm_id":"28803664"}},{"type":"Feature","geometry":{"type":"LineString","coordinates":[[-1.72215,55.52146],[-1.72143,55.51975],[-1.71983,55.51833],[-1.71719,55.51639],[-1.71565,55.51587],[-1.71468,55.51359],[-1.71461,55.51162],[-1.71181,55.51022]]},"properties":{"name":"Secondary and tertiary roads","category":"tertiary","osm_type":"way","osm_id":"28803665"}},{"type":"Feature","geometry":{"type":"LineString","coordinates":[[-1.7049,55.51276],[-1.70661,55.51283],[-1.70923,55.5122],[-1.71455,55.50845],[-1.72,55.50702],[-1.72456,55.50628],[-1.732,55.51093]]},"properties":{"name":"Secondary and tertiary roads","category":"tertiary","osm_type":"way","osm_id":"28803666"}},{"type":"Feature","geometry":{"type":"LineString","coordinates":[[-1.64494,55.5134],[-1.63123,55.51776],[-1.62934,55.5193]]},"properties":{"name":"Secondary and tertiary roads","category":"tertiary","osm_type":"way","osm_id":"28803901"}},{"type":"Feature","geometry":{"type":"LineString","coordinates":[[-1.62934,55.5193],[-1.62781,55.52027],[-1.62693,55.52018],[-1.62254,55.517]]},"properties":{"name":"Secondary and tertiary roads","category":"tertiary","osm_type":"way","osm_id":"28803902"}},{"type":"Feature","geometry":{"type":"LineString","coordinates":[[-1.83001,55.60219],[-1.82375,55.60386],[-1.82114,55.6054]]},"properties":{"name":"Cragmill Road","category":"tertiary","osm_type":"way","osm_id":"28805358"}},{"type":"Feature","geometry":{"type":"LineString","coordinates":[[-1.75855,55.60791],[-1.75501,55.6089]]},"properties":{"name":"B1342","category":"secondary","osm_type":"way","osm_id":"28979726","ref":"B1342"}},{"type":"Feature","geometry":{"type":"LineString","coordinates":[[-1.63441,55.55747],[-1.63825,55.55643]]},"properties":{"name":"The Haven","category":"tertiary","osm_type":"way","osm_id":"29326476"}},{"type":"Feature","geometry":{"type":"LineString","coordinates":[[-1.63441,55.55747],[-1.63341,55.55875]]},"properties":{"name":"The Haven","category":"tertiary","osm_type":"way","osm_id":"29326519"}},{"type":"Feature","geometry":{"type":"LineString","coordinates":[[-1.65485,55.58062],[-1.65348,55.58175]]},"properties":{"name":"Main Street","category":"secondary","osm_type":"way","osm_id":"32491318","ref":"B1340"}},{"type":"Feature","geometry":{"type":"LineString","coordinates":[[-1.79418,55.59048],[-1.79452,55.59033]]},"properties":{"name":"Secondary and tertiary roads","category":"tertiary","osm_type":"way","osm_id":"32491439"}},{"type":"Feature","geometry":{"type":"LineString","coordinates":[[-1.79452,55.59033],[-1.79673,55.58864],[-1.80003,55.58713],[-1.80805,55.58435]]},"properties":{"name":"Secondary and tertiary roads","category":"tertiary","osm_type":"way","osm_id":"32491440"}},{"type":"Feature","geometry":{"type":"LineString","coordinates":[[-1.99607,55.74145],[-1.99456,55.741]]},"properties":{"name":"Secondary and tertiary roads","category":"tertiary","osm_type":"way","osm_id":"32985721"}},{"type":"Feature","geometry":{"type":"LineString","coordinates":[[-1.97988,55.73818],[-1.97953,55.73547],[-1.98626,55.73617]]},"properties":{"name":"Secondary and tertiary roads","category":"tertiary","osm_type":"way","osm_id":"32985722"}},{"type":"Feature","geometry":{"type":"LineString","coordinates":[[-1.63481,55.56006],[-1.63427,55.55976]]},"properties":{"name":"Harbour Road","category":"tertiary","osm_type":"way","osm_id":"33058676"}},{"type":"Feature","geometry":{"type":"LineString","coordinates":[[-1.66801,55.57786],[-1.66784,55.57633]]},"properties":{"name":"Broad Road","category":"tertiary","osm_type":"way","osm_id":"33993939"}},{"type":"Feature","geometry":{"type":"LineString","coordinates":[[-1.67982,55.57972],[-1.68116,55.57915],[-1.68447,55.5787]]},"properties":{"name":"Secondary and tertiary roads","category":"tertiary","osm_type":"way","osm_id":"33994017"}},{"type":"Feature","geometry":{"type":"LineString","coordinates":[[-1.68447,55.5787],[-1.68947,55.57789],[-1.70123,55.57371],[-1.7049,55.57109]]},"properties":{"name":"Secondary and tertiary roads","category":"tertiary","osm_type":"way","osm_id":"33994019"}},{"type":"Feature","geometry":{"type":"LineString","coordinates":[[-1.71714,55.60657],[-1.71456,55.60773]]},"properties":{"name":"Front Street","category":"secondary","osm_type":"way","osm_id":"33994048","ref":"B1341"}},{"type":"Feature","geometry":{"type":"LineString","coordinates":[[-1.77325,55.59582],[-1.77388,55.59673]]},"properties":{"name":"B1342","category":"secondary","osm_type":"way","osm_id":"33994071","ref":"B1342"}},{"type":"Feature","geometry":{"type":"LineString","coordinates":[[-1.77388,55.59673],[-1.77165,55.59871],[-1.77114,55.60183]]},"properties":{"name":"B1342","category":"secondary","osm_type":"way","osm_id":"33994075","ref":"B1342"}},{"type":"Feature","geometry":{"type":"LineString","coordinates":[[-1.78203,55.60572],[-1.77284,55.60485],[-1.77104,55.60334]]},"properties":{"name":"Secondary and tertiary roads","category":"tertiary","osm_type":"way","osm_id":"33994096"}},{"type":"Feature","geometry":{"type":"LineString","coordinates":[[-1.83001,55.60219],[-1.83578,55.60955],[-1.83904,55.61214]]},"properties":{"name":"North Bank","category":"tertiary","osm_type":"way","osm_id":"33994108"}},{"type":"Feature","geometry":{"type":"LineString","coordinates":[[-1.84842,55.62193],[-1.84847,55.62198]]},"properties":{"name":"Secondary and tertiary roads","category":"tertiary","osm_type":"way","osm_id":"33994109"}},{"type":"Feature","geometry":{"type":"LineString","coordinates":[[-1.89668,55.65427],[-1.89286,55.65442]]},"properties":{"name":"B6353","category":"secondary","osm_type":"way","osm_id":"33994138","ref":"B6353"}},{"type":"Feature","geometry":{"type":"LineString","coordinates":[[-1.90073,55.65495],[-1.89668,55.65427]]},"properties":{"name":"B6353","category":"secondary","osm_type":"way","osm_id":"33994141","ref":"B6353"}},{"type":"Feature","geometry":{"type":"LineString","coordinates":[[-1.87547,55.67771],[-1.88555,55.67658],[-1.8935,55.6768],[-1.89469,55.67765],[-1.90223,55.6778],[-1.90999,55.67661],[-1.9169,55.67206]]},"properties":{"name":"Holy Island Road","category":"tertiary","osm_type":"way","osm_id":"33994254"}},{"type":"Feature","geometry":{"type":"LineString","coordinates":[[-1.9169,55.67206],[-1.91707,55.67197]]},"properties":{"name":"Holy Island Road","category":"tertiary","osm_type":"way","osm_id":"33994266"}},{"type":"Feature","geometry":{"type":"LineString","coordinates":[[-1.9118,55.52811],[-1.90849,55.52819],[-1.90422,55.5275],[-1.90275,55.52832]]},"properties":{"name":"Secondary and tertiary roads","category":"tertiary","osm_type":"way","osm_id":"39498500"}},{"type":"Feature","geometry":{"type":"LineString","coordinates":[[-1.95113,55.66492],[-1.94975,55.66484],[-1.94834,55.66426],[-1.944,55.66498],[-1.93623,55.66557],[-1.93316,55.66705],[-1.92636,55.66917],[-1.92024,55.6704],[-1.91707,55.67197]]},"properties":{"name":"Secondary and tertiary roads","category":"tertiary","osm_type":"way","osm_id":"40158147"}},{"type":"Feature","geometry":{"type":"LineString","coordinates":[[-1.71977,55.55918],[-1.7283,55.55515],[-1.73063,55.5534],[-1.73395,55.55213]]},"properties":{"name":"Secondary and tertiary roads","category":"tertiary","osm_type":"way","osm_id":"40451253"}},{"type":"Feature","geometry":{"type":"LineString","coordinates":[[-1.71418,55.56131],[-1.71977,55.55918]]},"properties":{"name":"Secondary and tertiary roads","category":"tertiary","osm_type":"way","osm_id":"40451254"}},{"type":"Feature","geometry":{"type":"LineString","coordinates":[[-1.66784,55.57633],[-1.67026,55.575],[-1.6709,55.57367]]},"properties":{"name":"Main Street","category":"tertiary","osm_type":"way","osm_id":"42263071"}},{"type":"Feature","geometry":{"type":"LineString","coordinates":[[-1.66338,55.54258],[-1.65704,55.53627],[-1.65754,55.53292],[-1.65964,55.53246],[-1.66136,55.53144],[-1.65898,55.53022],[-1.65719,55.52761],[-1.64866,55.51988],[-1.64887,55.51865],[-1.64476,55.51315]]},"properties":{"name":"B1340","category":"secondary","osm_type":"way","osm_id":"42263072","ref":"B1340"}},{"type":"Feature","geometry":{"type":"LineString","coordinates":[[-1.64476,55.51315],[-1.65204,55.50551]]},"properties":{"name":"Lamberts's Lane","category":"secondary","osm_type":"way","osm_id":"42263073","ref":"B1340"}},{"type":"Feature","geometry":{"type":"LineString","coordinates":[[-1.73059,55.52472],[-1.73214,55.52425],[-1.73369,55.52284],[-1.73211,55.51931],[-1.73371,55.51579],[-1.73176,55.51254],[-1.732,55.51093]]},"properties":{"name":"Secondary and tertiary roads","category":"tertiary","osm_type":"way","osm_id":"42263078"}},{"type":"Feature","geometry":{"type":"LineString","coordinates":[[-1.72508,55.52027],[-1.72744,55.51783],[-1.72832,55.51582],[-1.73056,55.51367],[-1.73211,55.5133]]},"properties":{"name":"Secondary and tertiary roads","category":"tertiary","osm_type":"way","osm_id":"42263079"}},{"type":"Feature","geometry":{"type":"LineString","coordinates":[[-1.80162,55.67512],[-1.80189,55.67591],[-1.80378,55.67626]]},"properties":{"name":"Chare Ends","category":"tertiary","osm_type":"way","osm_id":"46100568"}},{"type":"Feature","geometry":{"type":"LineString","coordinates":[[-1.69338,55.54776],[-1.69513,55.55009],[-1.69458,55.5517],[-1.69064,55.55386],[-1.688,55.556],[-1.68549,55.55692],[-1.68666,55.55867],[-1.68359,55.56215],[-1.6805,55.56329]]},"properties":{"name":"Secondary and tertiary roads","category":"tertiary","osm_type":"way","osm_id":"49328736"}},{"type":"Feature","geometry":{"type":"LineString","coordinates":[[-1.67898,55.51162],[-1.67914,55.51169]]},"properties":{"name":"Allansford Bridge","category":"tertiary","osm_type":"way","osm_id":"49328738"}},{"type":"Feature","geometry":{"type":"LineString","coordinates":[[-1.67914,55.51169],[-1.68052,55.51234],[-1.68212,55.51528],[-1.69484,55.51314]]},"properties":{"name":"Secondary and tertiary roads","category":"tertiary","osm_type":"way","osm_id":"49328739"}},{"type":"Feature","geometry":{"type":"LineString","coordinates":[[-1.70337,55.53807],[-1.69942,55.53941],[-1.69342,55.54047],[-1.69246,55.54096]]},"properties":{"name":"Secondary and tertiary roads","category":"tertiary","osm_type":"way","osm_id":"49328740"}},{"type":"Feature","geometry":{"type":"LineString","coordinates":[[-1.7066,55.53418],[-1.70637,55.53613],[-1.70337,55.53807]]},"properties":{"name":"Secondary and tertiary roads","category":"tertiary","osm_type":"way","osm_id":"49328741"}},{"type":"Feature","geometry":{"type":"LineString","coordinates":[[-1.81979,55.60562],[-1.82021,55.60543]]},"properties":{"name":"Secondary and tertiary roads","category":"tertiary","osm_type":"way","osm_id":"49328742"}},{"type":"Feature","geometry":{"type":"LineString","coordinates":[[-1.82114,55.6054],[-1.82056,55.6057]]},"properties":{"name":"Cragmill Road","category":"tertiary","osm_type":"way","osm_id":"49328743"}},{"type":"Feature","geometry":{"type":"LineString","coordinates":[[-1.92354,55.5201],[-1.92303,55.52024]]},"properties":{"name":"Secondary and tertiary roads","category":"tertiary","osm_type":"way","osm_id":"54158048"}},{"type":"Feature","geometry":{"type":"LineString","coordinates":[[-1.92303,55.52024],[-1.91266,55.52315]]},"properties":{"name":"Secondary and tertiary roads","category":"tertiary","osm_type":"way","osm_id":"54158050"}},{"type":"Feature","geometry":{"type":"LineString","coordinates":[[-1.95475,55.69173],[-1.95466,55.69158]]},"properties":{"name":"Secondary and tertiary roads","category":"tertiary","osm_type":"way","osm_id":"68643679"}},{"type":"Feature","geometry":{"type":"LineString","coordinates":[[-1.95466,55.69158],[-1.95366,55.68546],[-1.94105,55.68631]]},"properties":{"name":"Secondary and tertiary roads","category":"tertiary","osm_type":"way","osm_id":"68643707"}},{"type":"Feature","geometry":{"type":"LineString","coordinates":[[-1.98799,55.73044],[-1.98767,55.73062]]},"properties":{"name":"Secondary and tertiary roads","category":"tertiary","osm_type":"way","osm_id":"68930972"}},{"type":"Feature","geometry":{"type":"LineString","coordinates":[[-1.93732,55.61368],[-1.93371,55.60833],[-1.93297,55.60007],[-1.93066,55.59896],[-1.92965,55.59791],[-1.9289,55.59674],[-1.93009,55.59515],[-1.92349,55.58891]]},"properties":{"name":"Secondary and tertiary roads","category":"tertiary","osm_type":"way","osm_id":"70585453"}},{"type":"Feature","geometry":{"type":"LineString","coordinates":[[-1.9457,55.64271],[-1.94615,55.63622],[-1.94067,55.63198],[-1.9395,55.62712],[-1.9408,55.62321],[-1.93755,55.62163],[-1.93654,55.61919],[-1.93725,55.61788],[-1.93732,55.61368]]},"properties":{"name":"Secondary and tertiary roads","category":"tertiary","osm_type":"way","osm_id":"70585461"}},{"type":"Feature","geometry":{"type":"LineString","coordinates":[[-1.64497,55.51281],[-1.64454,55.5128]]},"properties":{"name":"B1339","category":"secondary","osm_type":"way","osm_id":"70707521","ref":"B1339"}},{"type":"Feature","geometry":{"type":"LineString","coordinates":[[-1.85054,55.68128],[-1.85506,55.68065]]},"properties":{"name":"Lindisfarne Causeway","category":"tertiary","osm_type":"way","osm_id":"79577445","website":"https://holyislandcrossingtimes.northumberland.gov.uk/"}},{"type":"Feature","geometry":{"type":"LineString","coordinates":[[-1.65583,55.58313],[-1.65359,55.58192]]},"properties":{"name":"Seafield Road","category":"secondary","osm_type":"way","osm_id":"100610888","ref":"B1340"}},{"type":"Feature","geometry":{"type":"LineString","coordinates":[[-1.64863,55.57245],[-1.64856,55.57234]]},"properties":{"name":"Annstead Bridge","category":"secondary","osm_type":"way","osm_id":"100719855","ref":"B1340"}},{"type":"Feature","geometry":{"type":"LineString","coordinates":[[-1.64856,55.57234],[-1.64415,55.56848],[-1.64222,55.56588],[-1.63738,55.5635],[-1.63567,55.56158]]},"properties":{"name":"B1340","category":"secondary","osm_type":"way","osm_id":"100719904","ref":"B1340"}},{"type":"Feature","geometry":{"type":"LineString","coordinates":[[-1.90532,55.55006],[-1.90458,55.54995]]},"properties":{"name":"B6348","category":"secondary","osm_type":"way","osm_id":"101415905","ref":"B6348"}},{"type":"Feature","geometry":{"type":"LineString","coordinates":[[-1.9128,55.54333],[-1.91272,55.54293]]},"properties":{"name":"Secondary and tertiary roads","category":"tertiary","osm_type":"way","osm_id":"101415912"}},{"type":"Feature","geometry":{"type":"LineString","coordinates":[[-1.90807,55.56213],[-1.90689,55.56085],[-1.90933,55.55686],[-1.91148,55.55494],[-1.91139,55.55141],[-1.91341,55.54975],[-1.91269,55.549]]},"properties":{"name":"Secondary and tertiary roads","category":"tertiary","osm_type":"way","osm_id":"101415917"}},{"type":"Feature","geometry":{"type":"LineString","coordinates":[[-1.90833,55.56236],[-1.90807,55.56213]]},"properties":{"name":"Secondary and tertiary roads","category":"tertiary","osm_type":"way","osm_id":"101415946"}},{"type":"Feature","geometry":{"type":"LineString","coordinates":[[-1.89278,55.55119],[-1.88762,55.55189],[-1.8852,55.55265],[-1.87878,55.55132],[-1.87423,55.55279],[-1.8583,55.5551],[-1.84907,55.55831],[-1.8422,55.55935]]},"properties":{"name":"B6348","category":"secondary","osm_type":"way","osm_id":"101415949","ref":"B6348"}},{"type":"Feature","geometry":{"type":"LineString","coordinates":[[-1.91272,55.54293],[-1.9115,55.54002],[-1.91187,55.53365],[-1.91122,55.53094],[-1.91264,55.52422],[-1.91256,55.52135],[-1.90621,55.51451],[-1.90825,55.51294],[-1.90856,55.51214],[-1.90615,55.5063],[-1.90389,55.50404],[-1.90385,55.50098],[-1.9046,55.49901],[-1.90149,55.4928],[-1.90079,55.49181],[-1.89834,55.49059],[-1.89657,55.4876],[-1.89255,55.48511],[-1.88943,55.48395],[-1.88731,55.48225],[-1.88543,55.48145],[-1.87636,55.47913]]},"properties":{"name":"Secondary and tertiary roads","category":"tertiary","osm_type":"way","osm_id":"101416007"}},{"type":"Feature","geometry":{"type":"LineString","coordinates":[[-1.91927,55.5478],[-1.9167,55.54785],[-1.91269,55.549],[-1.90831,55.54954]]},"properties":{"name":"New Road","category":"secondary","osm_type":"way","osm_id":"101416012","ref":"B6348"}},{"type":"Feature","geometry":{"type":"LineString","coordinates":[[-1.73446,55.55196],[-1.74525,55.54904],[-1.75007,55.54927],[-1.76135,55.54746],[-1.76678,55.54612],[-1.77167,55.54341],[-1.7762,55.54202],[-1.77733,55.54067],[-1.78068,55.53956]]},"properties":{"name":"Secondary and tertiary roads","category":"tertiary","osm_type":"way","osm_id":"106970491"}},{"type":"Feature","geometry":{"type":"LineString","coordinates":[[-1.73395,55.55213],[-1.73446,55.55196]]},"properties":{"name":"Secondary and tertiary roads","category":"tertiary","osm_type":"way","osm_id":"106970494"}},{"type":"Feature","geometry":{"type":"LineString","coordinates":[[-1.64895,55.57348],[-1.64871,55.5726]]},"properties":{"name":"B1340","category":"secondary","osm_type":"way","osm_id":"122600599","ref":"B1340"}},{"type":"Feature","geometry":{"type":"LineString","coordinates":[[-1.68806,55.60023],[-1.68117,55.59798],[-1.67867,55.59512]]},"properties":{"name":"B1340","category":"secondary","osm_type":"way","osm_id":"122600600","ref":"B1340"}},{"type":"Feature","geometry":{"type":"LineString","coordinates":[[-1.71257,55.60826],[-1.71091,55.60821]]},"properties":{"name":"B1340","category":"secondary","osm_type":"way","osm_id":"122600602","ref":"B1340"}},{"type":"Feature","geometry":{"type":"LineString","coordinates":[[-1.80044,55.59574],[-1.79385,55.59539],[-1.78347,55.59415],[-1.77325,55.59582]]},"properties":{"name":"B1342","category":"secondary","osm_type":"way","osm_id":"122600603","ref":"B1342"}},{"type":"Feature","geometry":{"type":"LineString","coordinates":[[-1.71436,55.60776],[-1.71346,55.608]]},"properties":{"name":"Front Street","category":"secondary","osm_type":"way","osm_id":"122600615","ref":"B1340"}},{"type":"Feature","geometry":{"type":"LineString","coordinates":[[-1.81503,55.59555],[-1.81436,55.59567]]},"properties":{"name":"B1342","category":"secondary","osm_type":"way","osm_id":"122600616","ref":"B1342"}},{"type":"Feature","geometry":{"type":"LineString","coordinates":[[-1.70658,55.606],[-1.70237,55.60539],[-1.69709,55.60359]]},"properties":{"name":"Links Road","category":"secondary","osm_type":"way","osm_id":"122600620","ref":"B1340"}},{"type":"Feature","geometry":{"type":"LineString","coordinates":[[-1.63356,55.55699],[-1.63292,55.55845]]},"properties":{"name":"Longstone Crescent","category":"tertiary","osm_type":"way","osm_id":"122600621"}},{"type":"Feature","geometry":{"type":"LineString","coordinates":[[-1.73282,55.59403],[-1.7263,55.5982],[-1.72156,55.60281]]},"properties":{"name":"Lucker Road","category":"secondary","osm_type":"way","osm_id":"122600622","ref":"B1341"}},{"type":"Feature","geometry":{"type":"LineString","coordinates":[[-1.6373,55.55557],[-1.63412,55.5565]]},"properties":{"name":"Meadow Lane","category":"tertiary","osm_type":"way","osm_id":"122600626"}},{"type":"Feature","geometry":{"type":"LineString","coordinates":[[-1.82878,55.59966],[-1.83001,55.60219]]},"properties":{"name":"North Bank","category":"tertiary","osm_type":"way","osm_id":"122600627"}},{"type":"Feature","geometry":{"type":"LineString","coordinates":[[-1.72534,55.60706],[-1.72347,55.60708]]},"properties":{"name":"Radcliffe Road","category":"secondary","osm_type":"way","osm_id":"122600630","ref":"B1342"}},{"type":"Feature","geometry":{"type":"LineString","coordinates":[[-1.8125,55.5957],[-1.8043,55.59653],[-1.80321,55.59639],[-1.80193,55.59562],[-1.80044,55.59574]]},"properties":{"name":"Station Road","category":"secondary","osm_type":"way","osm_id":"122600633","ref":"B1342"}},{"type":"Feature","geometry":{"type":"LineString","coordinates":[[-1.83314,55.59768],[-1.83039,55.59832]]},"properties":{"name":"West Street","category":"secondary","osm_type":"way","osm_id":"122600638","ref":"B6349"}},{"type":"Feature","geometry":{"type":"LineString","coordinates":[[-1.83904,55.61214],[-1.84167,55.61414],[-1.84537,55.61894],[-1.84842,55.62193]]},"properties":{"name":"Secondary and tertiary roads","category":"tertiary","osm_type":"way","osm_id":"122600641"}},{"type":"Feature","geometry":{"type":"LineString","coordinates":[[-1.99838,55.54447],[-1.99874,55.54442]]},"properties":{"name":"Brewery Road","category":"tertiary","osm_type":"way","osm_id":"124797817"}},{"type":"Feature","geometry":{"type":"LineString","coordinates":[[-2.0072,55.54845],[-1.98705,55.55492],[-1.98222,55.55608],[-1.97805,55.55596],[-1.97364,55.55725],[-1.97155,55.55852]]},"properties":{"name":"B6348","category":"secondary","osm_type":"way","osm_id":"124799828","ref":"B6348"}},{"type":"Feature","geometry":{"type":"LineString","coordinates":[[-1.97073,55.65199],[-1.95989,55.65413],[-1.93803,55.65971],[-1.9311,55.66037],[-1.92849,55.66009],[-1.9206,55.65708],[-1.91372,55.65516],[-1.90264,55.65498]]},"properties":{"name":"B6353","category":"secondary","osm_type":"way","osm_id":"124803620","ref":"B6353"}},{"type":"Feature","geometry":{"type":"LineString","coordinates":[[-1.99781,55.65072],[-1.99221,55.64945],[-1.98514,55.64948]]},"properties":{"name":"B6353","category":"secondary","osm_type":"way","osm_id":"124803623","ref":"B6353"}},{"type":"Feature","geometry":{"type":"LineString","coordinates":[[-1.80497,55.67646],[-1.80726,55.6792],[-1.8089,55.68026],[-1.81704,55.68255],[-1.82254,55.6826],[-1.8317,55.68361],[-1.83442,55.68328],[-1.84185,55.68132],[-1.84559,55.68107],[-1.85054,55.68128]]},"properties":{"name":"Lindisfarne Causeway","category":"tertiary","osm_type":"way","osm_id":"128132188"}},{"type":"Feature","geometry":{"type":"LineString","coordinates":[[-1.93837,55.55878],[-1.93798,55.55893]]},"properties":{"name":"Fowberry Bridge","category":"secondary","osm_type":"way","osm_id":"128217205","ref":"B6349"}},{"type":"Feature","geometry":{"type":"LineString","coordinates":[[-1.93798,55.55893],[-1.93599,55.56003],[-1.92435,55.56421],[-1.91773,55.56615],[-1.90795,55.56755],[-1.90666,55.56718],[-1.90589,55.56797],[-1.90068,55.56917],[-1.89534,55.5717],[-1.89049,55.5732],[-1.88745,55.57598],[-1.88852,55.57826],[-1.88802,55.58001],[-1.88616,55.58222],[-1.88167,55.5855],[-1.88096,55.58675]]},"properties":{"name":"B6349","category":"secondary","osm_type":"way","osm_id":"128217206","ref":"B6349"}},{"type":"Feature","geometry":{"type":"LineString","coordinates":[[-1.62922,55.5199],[-1.62873,55.51976]]},"properties":{"name":"Secondary and tertiary roads","category":"tertiary","osm_type":"way","osm_id":"130590641"}},{"type":"Feature","geometry":{"type":"LineString","coordinates":[[-1.9238,55.58877],[-1.91991,55.57515],[-1.9121,55.56774],[-1.90966,55.56325],[-1.90833,55.56236]]},"properties":{"name":"Secondary and tertiary roads","category":"tertiary","osm_type":"way","osm_id":"131636007"}},{"type":"Feature","geometry":{"type":"LineString","coordinates":[[-1.97676,55.56107],[-1.97955,55.56081],[-1.98356,55.56154],[-1.98786,55.56486],[-1.98897,55.56656],[-2.00268,55.57295]]},"properties":{"name":"Secondary and tertiary roads","category":"tertiary","osm_type":"way","osm_id":"131636021"}},{"type":"Feature","geometry":{"type":"LineString","coordinates":[[-1.76721,55.60315],[-1.76647,55.60384],[-1.76437,55.6043],[-1.7628,55.60521]]},"properties":{"name":"B1342","category":"secondary","osm_type":"way","osm_id":"135032706","ref":"B1342"}},{"type":"Feature","geometry":{"type":"LineString","coordinates":[[-1.7694,55.60266],[-1.76899,55.6026]]},"properties":{"name":"B1342","category":"secondary","osm_type":"way","osm_id":"135032713","ref":"B1342"}},{"type":"Feature","geometry":{"type":"LineString","coordinates":[[-1.95926,55.51178],[-1.95912,55.51409]]},"properties":{"name":"Secondary and tertiary roads","category":"tertiary","osm_type":"way","osm_id":"141275531"}},{"type":"Feature","geometry":{"type":"LineString","coordinates":[[-1.95931,55.51131],[-1.95927,55.51147]]},"properties":{"name":"Secondary and tertiary roads","category":"tertiary","osm_type":"way","osm_id":"141275532"}},{"type":"Feature","geometry":{"type":"LineString","coordinates":[[-1.95927,55.51147],[-1.95926,55.51178]]},"properties":{"name":"Secondary and tertiary roads","category":"tertiary","osm_type":"way","osm_id":"141275533"}},{"type":"Feature","geometry":{"type":"LineString","coordinates":[[-2.00032,55.70297],[-1.99925,55.70526],[-1.99824,55.70581]]},"properties":{"name":"B6525","category":"secondary","osm_type":"way","osm_id":"141623740","ref":"B6525"}},{"type":"Feature","geometry":{"type":"LineString","coordinates":[[-1.95113,55.66492],[-1.94741,55.65869],[-1.94721,55.65737]]},"properties":{"name":"Secondary and tertiary roads","category":"tertiary","osm_type":"way","osm_id":"141801476"}},{"type":"Feature","geometry":{"type":"LineString","coordinates":[[-1.86183,55.63458],[-1.85363,55.63506]]},"properties":{"name":"Secondary and tertiary roads","category":"tertiary","osm_type":"way","osm_id":"143383344"}},{"type":"Feature","geometry":{"type":"LineString","coordinates":[[-1.88096,55.58675],[-1.87917,55.58753],[-1.87645,55.58767],[-1.87022,55.58924],[-1.8457,55.59302],[-1.83507,55.59692]]},"properties":{"name":"B6349","category":"secondary","osm_type":"way","osm_id":"143384401","ref":"B6349"}},{"type":"Feature","geometry":{"type":"LineString","coordinates":[[-1.75501,55.6089],[-1.74928,55.61025],[-1.74698,55.61032],[-1.73904,55.60711],[-1.73719,55.6067]]},"properties":{"name":"B1342","category":"secondary","osm_type":"way","osm_id":"143384545","ref":"B1342"}},{"type":"Feature","geometry":{"type":"LineString","coordinates":[[-1.74206,55.58873],[-1.73415,55.5937],[-1.73282,55.59403]]},"properties":{"name":"B1341","category":"secondary","osm_type":"way","osm_id":"143386302","ref":"B1341"}},{"type":"Feature","geometry":{"type":"LineString","coordinates":[[-1.7577,55.57258],[-1.75736,55.5727]]},"properties":{"name":"B1341","category":"secondary","osm_type":"way","osm_id":"143386305","ref":"B1341"}},{"type":"Feature","geometry":{"type":"LineString","coordinates":[[-1.75736,55.5727],[-1.75434,55.57374],[-1.75259,55.57506],[-1.74907,55.57666],[-1.74754,55.57799],[-1.7473,55.57983],[-1.74622,55.58171],[-1.74434,55.58337],[-1.74179,55.58439],[-1.7433,55.58796],[-1.74206,55.58873]]},"properties":{"name":"B1341","category":"secondary","osm_type":"way","osm_id":"143386306","ref":"B1341"}},{"type":"Feature","geometry":{"type":"LineString","coordinates":[[-1.82461,55.59585],[-1.82812,55.59706],[-1.82897,55.59857]]},"properties":{"name":"High Street","category":"secondary","osm_type":"way","osm_id":"143387749","ref":"B6349"}},{"type":"Feature","geometry":{"type":"LineString","coordinates":[[-1.9167,55.54785],[-1.91628,55.54738]]},"properties":{"name":"Secondary and tertiary roads","category":"tertiary","osm_type":"way","osm_id":"143389417"}},{"type":"Feature","geometry":{"type":"LineString","coordinates":[[-1.97137,55.55863],[-1.96759,55.56085],[-1.96622,55.56074],[-1.96351,55.55869],[-1.95738,55.54939],[-1.95629,55.54855],[-1.94083,55.548],[-1.93699,55.54751],[-1.93138,55.54786],[-1.92266,55.54748],[-1.91927,55.5478]]},"properties":{"name":"B6348","category":"secondary","osm_type":"way","osm_id":"143391644","ref":"B6348"}},{"type":"Feature","geometry":{"type":"LineString","coordinates":[[-1.97176,55.55877],[-1.97327,55.55926]]},"properties":{"name":"Secondary and tertiary roads","category":"tertiary","osm_type":"way","osm_id":"143391647"}},{"type":"Feature","geometry":{"type":"LineString","coordinates":[[-1.97327,55.55926],[-1.97566,55.56004],[-1.97676,55.56107]]},"properties":{"name":"Secondary and tertiary roads","category":"tertiary","osm_type":"way","osm_id":"143391649"}},{"type":"Feature","geometry":{"type":"LineString","coordinates":[[-1.63594,55.49662],[-1.63841,55.49631],[-1.64101,55.49801],[-1.64423,55.5032],[-1.65204,55.50551]]},"properties":{"name":"Station Road","category":"tertiary","osm_type":"way","osm_id":"143407272"}},{"type":"Feature","geometry":{"type":"LineString","coordinates":[[-1.64476,55.51315],[-1.64454,55.5128]]},"properties":{"name":"B1339","category":"secondary","osm_type":"way","osm_id":"143407621","ref":"B1339"}},{"type":"Feature","geometry":{"type":"LineString","coordinates":[[-1.90264,55.65498],[-1.90073,55.65495]]},"properties":{"name":"B6353","category":"secondary","osm_type":"way","osm_id":"146346711","ref":"B6353"}},{"type":"Feature","geometry":{"type":"LineString","coordinates":[[-1.71499,55.52115],[-1.71465,55.5212]]},"properties":{"name":"Black Bridge","category":"tertiary","osm_type":"way","osm_id":"148610652"}},{"type":"Feature","geometry":{"type":"LineString","coordinates":[[-1.71465,55.5212],[-1.71273,55.52193],[-1.71233,55.52267],[-1.70733,55.52356]]},"properties":{"name":"Secondary and tertiary roads","category":"tertiary","osm_type":"way","osm_id":"148610671"}},{"type":"Feature","geometry":{"type":"LineString","coordinates":[[-1.81979,55.60562],[-1.81877,55.60685],[-1.81546,55.60894],[-1.8127,55.60898]]},"properties":{"name":"Secondary and tertiary roads","category":"tertiary","osm_type":"way","osm_id":"152015868"}},{"type":"Feature","geometry":{"type":"LineString","coordinates":[[-1.99128,55.61991],[-1.98699,55.62493],[-1.99044,55.6315],[-1.99058,55.63555],[-1.99533,55.64425],[-1.99903,55.64819],[-1.99909,55.65048],[-1.99773,55.65076],[-1.99761,55.65207],[-1.99623,55.65277],[-1.99563,55.6575],[-1.99628,55.66052],[-2.0003,55.66846],[-2.00271,55.68085],[-2.002,55.68634],[-1.99907,55.6962]]},"properties":{"name":"B6525","category":"secondary","osm_type":"way","osm_id":"164330304","ref":"B6525"}},{"type":"Feature","geometry":{"type":"LineString","coordinates":[[-1.99143,55.61977],[-1.99128,55.61991]]},"properties":{"name":"Doddington North Moor Bridge","category":"secondary","osm_type":"way","osm_id":"164330305","ref":"B6525"}},{"type":"Feature","geometry":{"type":"LineString","coordinates":[[-1.8722,55.67832],[-1.87447,55.67786]]},"properties":{"name":"Lindisfarne Causeway","category":"tertiary","osm_type":"way","osm_id":"177021004"}},{"type":"Feature","geometry":{"type":"LineString","coordinates":[[-1.97368,55.69493],[-1.97551,55.69165],[-1.97233,55.6876],[-1.97226,55.68553]]},"properties":{"name":"Secondary and tertiary roads","category":"tertiary","osm_type":"way","osm_id":"199859168"}},{"type":"Feature","geometry":{"type":"LineString","coordinates":[[-1.94166,55.52205],[-1.93681,55.52079],[-1.93531,55.51966]]},"properties":{"name":"Secondary and tertiary roads","category":"tertiary","osm_type":"way","osm_id":"202120885"}},{"type":"Feature","geometry":{"type":"LineString","coordinates":[[-1.9956,55.70734],[-1.99497,55.71187],[-1.98325,55.72317]]},"properties":{"name":"B6525","category":"secondary","osm_type":"way","osm_id":"207229089","ref":"B6525"}},{"type":"Feature","geometry":{"type":"LineString","coordinates":[[-1.99567,55.70719],[-1.9956,55.70734]]},"properties":{"name":"B6525","category":"secondary","osm_type":"way","osm_id":"207229090","ref":"B6525"}},{"type":"Feature","geometry":{"type":"LineString","coordinates":[[-1.71532,55.60763],[-1.71528,55.60745]]},"properties":{"name":"Secondary and tertiary roads","category":"secondary_link","osm_type":"way","osm_id":"218148042"}},{"type":"Feature","geometry":{"type":"LineString","coordinates":[[-1.84847,55.62198],[-1.85014,55.62359]]},"properties":{"name":"Secondary and tertiary roads","category":"tertiary","osm_type":"way","osm_id":"220048624"}},{"type":"Feature","geometry":{"type":"LineString","coordinates":[[-2.00334,55.58845],[-2.00209,55.59117],[-2.0029,55.59614],[-2.00102,55.60615],[-1.99906,55.61259],[-1.99799,55.61423],[-1.99143,55.61977]]},"properties":{"name":"B6525","category":"secondary","osm_type":"way","osm_id":"230150556","ref":"B6525"}},{"type":"Feature","geometry":{"type":"LineString","coordinates":[[-1.78559,55.56612],[-1.78399,55.56679],[-1.77721,55.56819],[-1.7718,55.56751],[-1.77121,55.56832]]},"properties":{"name":"B1341","category":"secondary","osm_type":"way","osm_id":"239263638","ref":"B1341"}},{"type":"Feature","geometry":{"type":"LineString","coordinates":[[-1.79199,55.56418],[-1.79152,55.56384]]},"properties":{"name":"Secondary and tertiary roads","category":"secondary_link","osm_type":"way","osm_id":"239263643"}},{"type":"Feature","geometry":{"type":"LineString","coordinates":[[-1.81435,55.59559],[-1.81402,55.59527]]},"properties":{"name":"Secondary and tertiary roads","category":"secondary_link","osm_type":"way","osm_id":"239317111"}},{"type":"Feature","geometry":{"type":"LineString","coordinates":[[-1.81429,55.59522],[-1.81462,55.59555]]},"properties":{"name":"Secondary and tertiary roads","category":"secondary_link","osm_type":"way","osm_id":"239317112"}},{"type":"Feature","geometry":{"type":"LineString","coordinates":[[-1.81361,55.59525],[-1.8125,55.5957]]},"properties":{"name":"B1342","category":"secondary","osm_type":"way","osm_id":"239317113","ref":"B1342"}},{"type":"Feature","geometry":{"type":"LineString","coordinates":[[-1.81429,55.59522],[-1.81361,55.59525]]},"properties":{"name":"B1342","category":"secondary","osm_type":"way","osm_id":"239317114","ref":"B1342"}},{"type":"Feature","geometry":{"type":"LineString","coordinates":[[-1.81503,55.59555],[-1.82212,55.59428]]},"properties":{"name":"B1342","category":"secondary","osm_type":"way","osm_id":"239317115","ref":"B1342"}},{"type":"Feature","geometry":{"type":"LineString","coordinates":[[-1.81435,55.59559],[-1.81503,55.59555]]},"properties":{"name":"B1342","category":"secondary","osm_type":"way","osm_id":"239317116","ref":"B1342"}},{"type":"Feature","geometry":{"type":"LineString","coordinates":[[-1.89286,55.65442],[-1.8902,55.65468]]},"properties":{"name":"B6353","category":"secondary","osm_type":"way","osm_id":"239317117","ref":"B6353"}},{"type":"Feature","geometry":{"type":"LineString","coordinates":[[-1.94015,55.68631],[-1.94075,55.68632]]},"properties":{"name":"Secondary and tertiary roads","category":"tertiary_link","osm_type":"way","osm_id":"239420804"}},{"type":"Feature","geometry":{"type":"LineString","coordinates":[[-1.94105,55.68631],[-1.94069,55.68654]]},"properties":{"name":"Secondary and tertiary roads","category":"tertiary","osm_type":"way","osm_id":"239420805"}},{"type":"Feature","geometry":{"type":"LineString","coordinates":[[-1.94055,55.68648],[-1.94105,55.68631]]},"properties":{"name":"Secondary and tertiary roads","category":"tertiary","osm_type":"way","osm_id":"239420806"}},{"type":"Feature","geometry":{"type":"LineString","coordinates":[[-1.74118,55.51219],[-1.73942,55.51252],[-1.73402,55.51242],[-1.73211,55.5133]]},"properties":{"name":"Secondary and tertiary roads","category":"tertiary","osm_type":"way","osm_id":"239563423"}},{"type":"Feature","geometry":{"type":"LineString","coordinates":[[-1.90831,55.54954],[-1.90532,55.55006]]},"properties":{"name":"New Road","category":"secondary","osm_type":"way","osm_id":"276297313","ref":"B6348"}},{"type":"Feature","geometry":{"type":"LineString","coordinates":[[-1.98514,55.64948],[-1.9814,55.64988],[-1.97073,55.65199]]},"properties":{"name":"Main Street","category":"secondary","osm_type":"way","osm_id":"345545699","ref":"B6353"}},{"type":"Feature","geometry":{"type":"LineString","coordinates":[[-1.83015,55.59835],[-1.82897,55.59857]]},"properties":{"name":"West Street","category":"secondary","osm_type":"way","osm_id":"420826008","ref":"B6349"}},{"type":"Feature","geometry":{"type":"LineString","coordinates":[[-1.83039,55.59832],[-1.83015,55.59835]]},"properties":{"name":"West Street","category":"secondary","osm_type":"way","osm_id":"420826009","ref":"B6349"}},{"type":"Feature","geometry":{"type":"LineString","coordinates":[[-1.6334,55.55895],[-1.63337,55.55874]]},"properties":{"name":"Harbour Road","category":"tertiary","osm_type":"way","osm_id":"421066876"}},{"type":"Feature","geometry":{"type":"LineString","coordinates":[[-1.63283,55.55849],[-1.62994,55.55723],[-1.62886,55.55612],[-1.6285,55.5546],[-1.6272,55.55347]]},"properties":{"name":"Harbour Road","category":"tertiary","osm_type":"way","osm_id":"421066879"}},{"type":"Feature","geometry":{"type":"LineString","coordinates":[[-1.93452,55.51816],[-1.92939,55.51832],[-1.92354,55.5201]]},"properties":{"name":"Secondary and tertiary roads","category":"tertiary","osm_type":"way","osm_id":"528682161"}},{"type":"Feature","geometry":{"type":"LineString","coordinates":[[-1.93531,55.51966],[-1.93452,55.51816]]},"properties":{"name":"Secondary and tertiary roads","category":"tertiary","osm_type":"way","osm_id":"528682165"}},{"type":"Feature","geometry":{"type":"LineString","coordinates":[[-1.64221,55.55619],[-1.6443,55.55537]]},"properties":{"name":"B1340","category":"secondary","osm_type":"way","osm_id":"546933596","ref":"B1340"}},{"type":"Feature","geometry":{"type":"LineString","coordinates":[[-1.63481,55.56006],[-1.63539,55.55907],[-1.63975,55.5572]]},"properties":{"name":"B1340","category":"secondary","osm_type":"way","osm_id":"546933597","ref":"B1340"}},{"type":"Feature","geometry":{"type":"LineString","coordinates":[[-1.6489,55.57511],[-1.64895,55.57348]]},"properties":{"name":"King Street","category":"secondary","osm_type":"way","osm_id":"546933598","ref":"B1340"}},{"type":"Feature","geometry":{"type":"LineString","coordinates":[[-1.6674,55.58591],[-1.66064,55.58481],[-1.65774,55.58386]]},"properties":{"name":"B1340","category":"secondary","osm_type":"way","osm_id":"546933599","ref":"B1340"}},{"type":"Feature","geometry":{"type":"LineString","coordinates":[[-1.69709,55.60359],[-1.68806,55.60023]]},"properties":{"name":"Links Road","category":"secondary","osm_type":"way","osm_id":"546933600","ref":"B1340"}},{"type":"Feature","geometry":{"type":"LineString","coordinates":[[-1.67216,55.54853],[-1.67884,55.54721],[-1.68599,55.54519],[-1.68567,55.54406],[-1.69246,55.54096]]},"properties":{"name":"Secondary and tertiary roads","category":"tertiary","osm_type":"way","osm_id":"587329557"}},{"type":"Feature","geometry":{"type":"LineString","coordinates":[[-1.71916,55.60484],[-1.71714,55.60657]]},"properties":{"name":"Lucker Road","category":"secondary","osm_type":"way","osm_id":"587329562","ref":"B1341"}},{"type":"Feature","geometry":{"type":"LineString","coordinates":[[-1.99808,55.70586],[-1.99567,55.70719]]},"properties":{"name":"B6525","category":"secondary","osm_type":"way","osm_id":"641148060","ref":"B6525"}},{"type":"Feature","geometry":{"type":"LineString","coordinates":[[-1.99824,55.70581],[-1.99808,55.70586]]},"properties":{"name":"B6525","category":"secondary","osm_type":"way","osm_id":"641148061","ref":"B6525"}},{"type":"Feature","geometry":{"type":"LineString","coordinates":[[-1.99907,55.6962],[-1.99875,55.69878]]},"properties":{"name":"Bride's Brae","category":"secondary","osm_type":"way","osm_id":"653935762","ref":"B6525"}},{"type":"Feature","geometry":{"type":"LineString","coordinates":[[-1.81224,55.62066],[-1.81257,55.61797],[-1.81577,55.61255],[-1.8127,55.60898]]},"properties":{"name":"Secondary and tertiary roads","category":"tertiary","osm_type":"way","osm_id":"654668274"}},{"type":"Feature","geometry":{"type":"LineString","coordinates":[[-1.81224,55.62085],[-1.81224,55.62066]]},"properties":{"name":"Secondary and tertiary roads","category":"tertiary","osm_type":"way","osm_id":"654668275"}},{"type":"Feature","geometry":{"type":"LineString","coordinates":[[-1.66336,55.54272],[-1.66338,55.54258]]},"properties":{"name":"B1340","category":"secondary","osm_type":"way","osm_id":"661667803","ref":"B1340"}},{"type":"Feature","geometry":{"type":"LineString","coordinates":[[-1.66517,55.5496],[-1.66336,55.54272]]},"properties":{"name":"B1340","category":"secondary","osm_type":"way","osm_id":"661667804","ref":"B1340"}},{"type":"Feature","geometry":{"type":"LineString","coordinates":[[-1.91628,55.54738],[-1.91337,55.54508],[-1.9128,55.54333]]},"properties":{"name":"Secondary and tertiary roads","category":"tertiary","osm_type":"way","osm_id":"699977408"}},{"type":"Feature","geometry":{"type":"LineString","coordinates":[[-1.91767,55.5471],[-1.91658,55.54767]]},"properties":{"name":"Secondary and tertiary roads","category":"tertiary","osm_type":"way","osm_id":"699977409"}},{"type":"Feature","geometry":{"type":"LineString","coordinates":[[-1.64454,55.5128],[-1.64171,55.50808],[-1.64175,55.5067],[-1.63852,55.50374],[-1.63755,55.50124]]},"properties":{"name":"B1339","category":"secondary","osm_type":"way","osm_id":"724553091","ref":"B1339"}},{"type":"Feature","geometry":{"type":"LineString","coordinates":[[-1.66517,55.5496],[-1.67216,55.54853]]},"properties":{"name":"Secondary and tertiary roads","category":"tertiary","osm_type":"way","osm_id":"724553092"}},{"type":"Feature","geometry":{"type":"LineString","coordinates":[[-1.68039,55.5634],[-1.6805,55.56329]]},"properties":{"name":"Secondary and tertiary roads","category":"tertiary","osm_type":"way","osm_id":"724553093"}},{"type":"Feature","geometry":{"type":"LineString","coordinates":[[-1.72347,55.60708],[-1.71744,55.60751]]},"properties":{"name":"Radcliffe Road","category":"secondary","osm_type":"way","osm_id":"724553096","ref":"B1342"}},{"type":"Feature","geometry":{"type":"LineString","coordinates":[[-1.73719,55.6067],[-1.7257,55.60705]]},"properties":{"name":"B1342","category":"secondary","osm_type":"way","osm_id":"724553097","ref":"B1342"}},{"type":"Feature","geometry":{"type":"LineString","coordinates":[[-1.7707,55.60298],[-1.7694,55.60266]]},"properties":{"name":"B1342","category":"secondary","osm_type":"way","osm_id":"724553101","ref":"B1342"}},{"type":"Feature","geometry":{"type":"LineString","coordinates":[[-1.8127,55.60898],[-1.81088,55.60832],[-1.8061,55.6085],[-1.8028,55.60741],[-1.79878,55.60689],[-1.78878,55.60669],[-1.78203,55.60572]]},"properties":{"name":"Secondary and tertiary roads","category":"tertiary","osm_type":"way","osm_id":"724553102"}},{"type":"Feature","geometry":{"type":"LineString","coordinates":[[-1.85363,55.63506],[-1.84793,55.63477],[-1.84046,55.63209],[-1.83721,55.63179],[-1.83208,55.62938],[-1.81789,55.62551],[-1.81694,55.62414],[-1.81256,55.62299],[-1.81224,55.62085]]},"properties":{"name":"Secondary and tertiary roads","category":"tertiary","osm_type":"way","osm_id":"724553103"}},{"type":"Feature","geometry":{"type":"LineString","coordinates":[[-1.63427,55.55976],[-1.6334,55.55895]]},"properties":{"name":"Harbour Road","category":"tertiary","osm_type":"way","osm_id":"741838711"}},{"type":"Feature","geometry":{"type":"LineString","coordinates":[[-1.63567,55.56158],[-1.63481,55.56006]]},"properties":{"name":"B1340","category":"secondary","osm_type":"way","osm_id":"741838712","ref":"B1340"}},{"type":"Feature","geometry":{"type":"LineString","coordinates":[[-1.98897,55.73306],[-1.98767,55.73062]]},"properties":{"name":"Secondary and tertiary roads","category":"tertiary","osm_type":"way","osm_id":"839721136"}},{"type":"Feature","geometry":{"type":"LineString","coordinates":[[-1.99025,55.73523],[-1.98897,55.73306]]},"properties":{"name":"Secondary and tertiary roads","category":"tertiary","osm_type":"way","osm_id":"839721138"}},{"type":"Feature","geometry":{"type":"LineString","coordinates":[[-1.99456,55.741],[-1.99105,55.73639]]},"properties":{"name":"Secondary and tertiary roads","category":"tertiary","osm_type":"way","osm_id":"839721139"}},{"type":"Feature","geometry":{"type":"LineString","coordinates":[[-1.6681,55.57861],[-1.66801,55.57786]]},"properties":{"name":"Broad Road","category":"tertiary","osm_type":"way","osm_id":"839721140"}},{"type":"Feature","geometry":{"type":"LineString","coordinates":[[-1.6443,55.55537],[-1.65673,55.55093],[-1.66507,55.54964]]},"properties":{"name":"B1340","category":"secondary","osm_type":"way","osm_id":"865940286","ref":"B1340"}},{"type":"Feature","geometry":{"type":"LineString","coordinates":[[-1.74118,55.51219],[-1.74152,55.51227]]},"properties":{"name":"Secondary and tertiary roads","category":"tertiary","osm_type":"way","osm_id":"873108606"}},{"type":"Feature","geometry":{"type":"LineString","coordinates":[[-1.74132,55.51196],[-1.74118,55.51219]]},"properties":{"name":"Secondary and tertiary roads","category":"tertiary","osm_type":"way","osm_id":"873108607"}},{"type":"Feature","geometry":{"type":"LineString","coordinates":[[-1.97155,55.55852],[-1.97137,55.55863]]},"properties":{"name":"B6348","category":"secondary","osm_type":"way","osm_id":"966661547","ref":"B6348"}},{"type":"Feature","geometry":{"type":"LineString","coordinates":[[-1.987,55.73615],[-1.99105,55.73639]]},"properties":{"name":"Secondary and tertiary roads","category":"tertiary","osm_type":"way","osm_id":"971987403"}},{"type":"Feature","geometry":{"type":"LineString","coordinates":[[-1.98626,55.73617],[-1.98663,55.73616]]},"properties":{"name":"Secondary and tertiary roads","category":"tertiary","osm_type":"way","osm_id":"971987404"}},{"type":"Feature","geometry":{"type":"LineString","coordinates":[[-1.98663,55.73616],[-1.987,55.73615]]},"properties":{"name":"Secondary and tertiary roads","category":"tertiary","osm_type":"way","osm_id":"973519059"}},{"type":"Feature","geometry":{"type":"LineString","coordinates":[[-1.78769,55.55428],[-1.78863,55.55427]]},"properties":{"name":"Secondary and tertiary roads","category":"tertiary","osm_type":"way","osm_id":"979710825"}},{"type":"Feature","geometry":{"type":"LineString","coordinates":[[-1.78496,55.5488],[-1.78434,55.55049],[-1.78769,55.55428]]},"properties":{"name":"Secondary and tertiary roads","category":"tertiary","osm_type":"way","osm_id":"979710826"}},{"type":"Feature","geometry":{"type":"LineString","coordinates":[[-1.85014,55.62359],[-1.84976,55.62413]]},"properties":{"name":"Secondary and tertiary roads","category":"tertiary","osm_type":"way","osm_id":"979710863"}},{"type":"Feature","geometry":{"type":"LineString","coordinates":[[-1.95213,55.66556],[-1.95113,55.66492]]},"properties":{"name":"Secondary and tertiary roads","category":"tertiary","osm_type":"way","osm_id":"988849589"}},{"type":"Feature","geometry":{"type":"LineString","coordinates":[[-1.9238,55.58877],[-1.92349,55.58891]]},"properties":{"name":"Secondary and tertiary roads","category":"tertiary","osm_type":"way","osm_id":"991689578"}},{"type":"Feature","geometry":{"type":"LineString","coordinates":[[-1.78992,55.59176],[-1.79418,55.59048]]},"properties":{"name":"Secondary and tertiary roads","category":"tertiary","osm_type":"way","osm_id":"1007297547"}},{"type":"Feature","geometry":{"type":"LineString","coordinates":[[-1.78988,55.59184],[-1.78992,55.59176]]},"properties":{"name":"Secondary and tertiary roads","category":"tertiary","osm_type":"way","osm_id":"1007297548"}},{"type":"Feature","geometry":{"type":"LineString","coordinates":[[-1.71346,55.608],[-1.71257,55.60826]]},"properties":{"name":"B1340","category":"secondary","osm_type":"way","osm_id":"1290650454","ref":"B1340"}},{"type":"Feature","geometry":{"type":"LineString","coordinates":[[-1.71091,55.60821],[-1.70658,55.606]]},"properties":{"name":"Links Road","category":"secondary","osm_type":"way","osm_id":"1290650455","ref":"B1340"}},{"type":"Feature","geometry":{"type":"LineString","coordinates":[[-1.66998,55.58796],[-1.66767,55.58611]]},"properties":{"name":"B1340","category":"secondary","osm_type":"way","osm_id":"1290650457","ref":"B1340"}},{"type":"Feature","geometry":{"type":"LineString","coordinates":[[-1.67003,55.58801],[-1.66998,55.58796]]},"properties":{"name":"B1340","category":"secondary","osm_type":"way","osm_id":"1290650458","ref":"B1340"}},{"type":"Feature","geometry":{"type":"LineString","coordinates":[[-1.65774,55.58386],[-1.65583,55.58313]]},"properties":{"name":"Seafield Road","category":"secondary","osm_type":"way","osm_id":"1290650462","ref":"B1340"}},{"type":"Feature","geometry":{"type":"LineString","coordinates":[[-1.65359,55.58192],[-1.65335,55.58182]]},"properties":{"name":"B1340","category":"secondary","osm_type":"way","osm_id":"1290650463","ref":"B1340"}},{"type":"Feature","geometry":{"type":"LineString","coordinates":[[-1.64896,55.57738],[-1.6489,55.57511]]},"properties":{"name":"King Street","category":"secondary","osm_type":"way","osm_id":"1290650466","ref":"B1340"}},{"type":"Feature","geometry":{"type":"LineString","coordinates":[[-1.63309,55.55862],[-1.63283,55.55849]]},"properties":{"name":"Harbour Road","category":"tertiary","osm_type":"way","osm_id":"1290650473"}},{"type":"Feature","geometry":{"type":"LineString","coordinates":[[-1.63465,55.55915],[-1.63341,55.55875]]},"properties":{"name":"Harbour Road","category":"tertiary","osm_type":"way","osm_id":"1290650474"}},{"type":"Feature","geometry":{"type":"LineString","coordinates":[[-1.63292,55.55845],[-1.63283,55.55849]]},"properties":{"name":"Longstone Crescent","category":"tertiary","osm_type":"way","osm_id":"1290650476"}},{"type":"Feature","geometry":{"type":"LineString","coordinates":[[-1.61982,55.51472],[-1.61942,55.51434]]},"properties":{"name":"Secondary and tertiary roads","category":"tertiary","osm_type":"way","osm_id":"1290650482"}},{"type":"Feature","geometry":{"type":"LineString","coordinates":[[-1.83507,55.59692],[-1.83314,55.59768]]},"properties":{"name":"West Street","category":"secondary","osm_type":"way","osm_id":"1290654265","ref":"B6349"}},{"type":"Feature","geometry":{"type":"LineString","coordinates":[[-1.82212,55.59428],[-1.82461,55.59585]]},"properties":{"name":"High Street","category":"secondary","osm_type":"way","osm_id":"1290654266","ref":"B6349"}},{"type":"Feature","geometry":{"type":"LineString","coordinates":[[-1.76899,55.6026],[-1.76798,55.60258],[-1.76721,55.60315]]},"properties":{"name":"B1342","category":"secondary","osm_type":"way","osm_id":"1290654272","ref":"B1342"}},{"type":"Feature","geometry":{"type":"LineString","coordinates":[[-1.7628,55.60521],[-1.75855,55.60791]]},"properties":{"name":"B1342","category":"secondary","osm_type":"way","osm_id":"1290654273","ref":"B1342"}},{"type":"Feature","geometry":{"type":"LineString","coordinates":[[-1.69246,55.54096],[-1.69618,55.54322],[-1.69759,55.54492],[-1.69577,55.54669],[-1.69343,55.54769]]},"properties":{"name":"Secondary and tertiary roads","category":"tertiary","osm_type":"way","osm_id":"1298347071"}},{"type":"Feature","geometry":{"type":"LineString","coordinates":[[-1.69343,55.54769],[-1.69338,55.54776]]},"properties":{"name":"Secondary and tertiary roads","category":"tertiary","osm_type":"way","osm_id":"1298347072"}},{"type":"Feature","geometry":{"type":"LineString","coordinates":[[-1.63412,55.5565],[-1.63356,55.55699]]},"properties":{"name":"Meadow Lane","category":"tertiary","osm_type":"way","osm_id":"1300844260"}},{"type":"Feature","geometry":{"type":"LineString","coordinates":[[-1.62254,55.517],[-1.61982,55.51472]]},"properties":{"name":"Secondary and tertiary roads","category":"tertiary","osm_type":"way","osm_id":"1301802823"}},{"type":"Feature","geometry":{"type":"LineString","coordinates":[[-1.80378,55.67626],[-1.80497,55.67646]]},"properties":{"name":"Chare Ends","category":"tertiary","osm_type":"way","osm_id":"1518479232"}},{"type":"Feature","geometry":{"type":"LineString","coordinates":[[-1.77104,55.60334],[-1.7707,55.60298]]},"properties":{"name":"Secondary and tertiary roads","category":"tertiary","osm_type":"way","osm_id":"1518479254"}},{"type":"Feature","geometry":{"type":"LineString","coordinates":[[-1.77106,55.60223],[-1.7707,55.60298]]},"properties":{"name":"B1342","category":"secondary","osm_type":"way","osm_id":"1518479256","ref":"B1342"}},{"type":"Feature","geometry":{"type":"LineString","coordinates":[[-1.77114,55.60183],[-1.77106,55.60223]]},"properties":{"name":"B1342","category":"secondary","osm_type":"way","osm_id":"1518479257","ref":"B1342"}},{"type":"Feature","geometry":{"type":"LineString","coordinates":[[-1.67867,55.59512],[-1.67792,55.59452]]},"properties":{"name":"B1340","category":"secondary","osm_type":"way","osm_id":"1518712116","ref":"B1340"}},{"type":"Feature","geometry":{"type":"LineString","coordinates":[[-1.67792,55.59452],[-1.67445,55.5926],[-1.67003,55.58801]]},"properties":{"name":"B1340","category":"secondary","osm_type":"way","osm_id":"1518712117","ref":"B1340"}},{"type":"Feature","geometry":{"type":"LineString","coordinates":[[-1.7257,55.60705],[-1.72534,55.60706]]},"properties":{"name":"Radcliffe Road","category":"secondary","osm_type":"way","osm_id":"1527652496","ref":"B1342"}},{"type":"Feature","geometry":{"type":"LineString","coordinates":[[-1.77121,55.56832],[-1.7698,55.56851],[-1.76817,55.56818],[-1.76469,55.56903],[-1.76328,55.56809]]},"properties":{"name":"B1341","category":"secondary","osm_type":"way","osm_id":"1528284257","ref":"B1341"}},{"type":"Feature","geometry":{"type":"LineString","coordinates":[[-1.76328,55.56809],[-1.76085,55.57015],[-1.7603,55.57153],[-1.7577,55.57258]]},"properties":{"name":"B1341","category":"secondary","osm_type":"way","osm_id":"1528284258","ref":"B1341"}},{"type":"Feature","geometry":{"type":"LineString","coordinates":[[-1.72156,55.60281],[-1.71916,55.60484]]},"properties":{"name":"Lucker Road","category":"secondary","osm_type":"way","osm_id":"1528284265","ref":"B1341"}},{"type":"Feature","geometry":{"type":"LineString","coordinates":[[-1.79186,55.5638],[-1.79052,55.56398],[-1.78559,55.56612]]},"properties":{"name":"B1341","category":"secondary","osm_type":"way","osm_id":"1528611590","ref":"B1341"}},{"type":"Feature","geometry":{"type":"LineString","coordinates":[[-1.66767,55.58611],[-1.6674,55.58591]]},"properties":{"name":"B1340","category":"secondary","osm_type":"way","osm_id":"1549447234","ref":"B1340"}},{"type":"Feature","geometry":{"type":"LineString","coordinates":[[-1.63975,55.5572],[-1.64221,55.55619]]},"properties":{"name":"B1340","category":"secondary","osm_type":"way","osm_id":"1550086241","ref":"B1340"}},{"type":"Feature","geometry":{"type":"LineString","coordinates":[[-1.6373,55.55557],[-1.63825,55.55643]]},"properties":{"name":"The Wynding","category":"tertiary","osm_type":"way","osm_id":"1550086242"}},{"type":"Feature","geometry":{"type":"LineString","coordinates":[[-1.63356,55.55699],[-1.63441,55.55747]]},"properties":{"name":"The Haven","category":"tertiary","osm_type":"way","osm_id":"1550086243"}},{"type":"Feature","geometry":{"type":"LineString","coordinates":[[-1.63337,55.55874],[-1.63309,55.55862]]},"properties":{"name":"Harbour Road","category":"tertiary","osm_type":"way","osm_id":"1550086244"}},{"type":"Feature","geometry":{"type":"LineString","coordinates":[[-1.63341,55.55875],[-1.63337,55.55874]]},"properties":{"name":"Harbour Road","category":"tertiary","osm_type":"way","osm_id":"1550086245"}},{"type":"Feature","geometry":{"type":"LineString","coordinates":[[-1.84208,55.55936],[-1.83437,55.55992],[-1.82959,55.56116],[-1.82314,55.56333],[-1.80668,55.56763],[-1.80645,55.56869],[-1.80481,55.57044],[-1.8,55.57073],[-1.79585,55.57169]]},"properties":{"name":"B6348","category":"secondary","osm_type":"way","osm_id":"1553290914","ref":"B6348"}},{"type":"Feature","geometry":{"type":"LineString","coordinates":[[-1.8422,55.55935],[-1.84208,55.55936]]},"properties":{"name":"B6348","category":"secondary","osm_type":"way","osm_id":"1553290915","ref":"B6348"}},{"type":"Feature","geometry":{"type":"LineString","coordinates":[[-1.90458,55.54995],[-1.90153,55.5499],[-1.89988,55.55085],[-1.89292,55.55117]]},"properties":{"name":"B6348","category":"secondary","osm_type":"way","osm_id":"1553290916","ref":"B6348"}},{"type":"Feature","geometry":{"type":"LineString","coordinates":[[-1.89292,55.55117],[-1.89278,55.55119]]},"properties":{"name":"B6348","category":"secondary","osm_type":"way","osm_id":"1553290917","ref":"B6348"}},{"type":"Feature","geometry":{"type":"LineString","coordinates":[[-1.94721,55.65737],[-1.94524,55.65234],[-1.94569,55.64279]]},"properties":{"name":"Secondary and tertiary roads","category":"tertiary","osm_type":"way","osm_id":"1553290920"}},{"type":"Feature","geometry":{"type":"LineString","coordinates":[[-1.94569,55.64279],[-1.9457,55.64271]]},"properties":{"name":"Secondary and tertiary roads","category":"tertiary","osm_type":"way","osm_id":"1553290921"}}]}