{"type":"FeatureCollection","features":[{"type":"Feature","geometry":{"type":"LineString","coordinates":[[-3.0402,52.88285],[-3.03981,52.88296]]},"properties":{"name":"Chirk Road","category":"secondary","osm_type":"way","osm_id":"4349163","ref":"B5069"}},{"type":"Feature","geometry":{"type":"LineString","coordinates":[[-3.03778,52.89491],[-3.03794,52.89546]]},"properties":{"name":"B5009","category":"secondary","osm_type":"way","osm_id":"4369316","ref":"B5009"}},{"type":"Feature","geometry":{"type":"LineString","coordinates":[[-3.05323,52.85917],[-3.05373,52.85982]]},"properties":{"name":"Leg Street","category":"secondary","osm_type":"way","osm_id":"8034009","ref":"B4579"}},{"type":"Feature","geometry":{"type":"LineString","coordinates":[[-3.02838,52.85016],[-3.02885,52.85033]]},"properties":{"name":"Shrewsbury Road","category":"secondary","osm_type":"way","osm_id":"8169060","ref":"B4579"}},{"type":"Feature","geometry":{"type":"LineString","coordinates":[[-3.05817,52.86107],[-3.06026,52.86233]]},"properties":{"name":"Willow Street","category":"secondary","osm_type":"way","osm_id":"23246616","ref":"B4580"}},{"type":"Feature","geometry":{"type":"LineString","coordinates":[[-3.04682,52.85308],[-3.04451,52.85224],[-3.04159,52.8519]]},"properties":{"name":"Shrewsbury Road","category":"secondary","osm_type":"way","osm_id":"24336186","ref":"B4579"}},{"type":"Feature","geometry":{"type":"LineString","coordinates":[[-3.00918,52.63379],[-3.01167,52.63326],[-3.01437,52.63177],[-3.01838,52.63042],[-3.0301,52.62692],[-3.03187,52.62672],[-3.03363,52.62543],[-3.03643,52.62442],[-3.045,52.62193],[-3.04862,52.62135],[-3.05239,52.619],[-3.05075,52.61729],[-3.05339,52.61606],[-3.06184,52.61066],[-3.06375,52.60908],[-3.06397,52.60787]]},"properties":{"name":"B4386","category":"secondary","osm_type":"way","osm_id":"24809813","ref":"B4386"}},{"type":"Feature","geometry":{"type":"LineString","coordinates":[[-3.04954,52.8626],[-3.04999,52.86191]]},"properties":{"name":"Oswald Road","category":"secondary","osm_type":"way","osm_id":"29287566"}},{"type":"Feature","geometry":{"type":"LineString","coordinates":[[-3.00701,52.92464],[-2.99478,52.92518]]},"properties":{"name":"Ellesmere Road","category":"secondary","osm_type":"way","osm_id":"30118527","ref":"B5068"}},{"type":"Feature","geometry":{"type":"LineString","coordinates":[[-3.00274,52.87438],[-3.00411,52.8757]]},"properties":{"name":"Church Street","category":"secondary","osm_type":"way","osm_id":"30430055","ref":"B5009"}},{"type":"Feature","geometry":{"type":"LineString","coordinates":[[-3.03758,52.89602],[-3.03705,52.896]]},"properties":{"name":"St Martin's Road","category":"secondary","osm_type":"way","osm_id":"30430056","ref":"B5069"}},{"type":"Feature","geometry":{"type":"LineString","coordinates":[[-3.0021,52.79742],[-3.00852,52.80342],[-3.01028,52.80595],[-3.01049,52.80702],[-3.00919,52.8106]]},"properties":{"name":"Secondary and tertiary roads","category":"tertiary","osm_type":"way","osm_id":"30430062"}},{"type":"Feature","geometry":{"type":"LineString","coordinates":[[-3.03926,52.84259],[-3.04122,52.84142],[-3.04268,52.84105]]},"properties":{"name":"Secondary and tertiary roads","category":"tertiary","osm_type":"way","osm_id":"30430071"}},{"type":"Feature","geometry":{"type":"LineString","coordinates":[[-3.10167,52.8042],[-3.10097,52.80712]]},"properties":{"name":"Secondary and tertiary roads","category":"tertiary","osm_type":"way","osm_id":"30430246"}},{"type":"Feature","geometry":{"type":"LineString","coordinates":[[-3.07796,52.84939],[-3.07912,52.85062],[-3.0814,52.8556]]},"properties":{"name":"Back Racecourse Lane","category":"tertiary","osm_type":"way","osm_id":"30430247"}},{"type":"Feature","geometry":{"type":"LineString","coordinates":[[-3.10414,52.88788],[-3.10015,52.88801]]},"properties":{"name":"Secondary and tertiary roads","category":"tertiary","osm_type":"way","osm_id":"30430249"}},{"type":"Feature","geometry":{"type":"LineString","coordinates":[[-3.04337,52.91909],[-3.0438,52.91908]]},"properties":{"name":"Station Road","category":"tertiary","osm_type":"way","osm_id":"30430253"}},{"type":"Feature","geometry":{"type":"LineString","coordinates":[[-3.06504,52.89791],[-3.06443,52.89214],[-3.06512,52.88628]]},"properties":{"name":"Secondary and tertiary roads","category":"tertiary","osm_type":"way","osm_id":"30430255"}},{"type":"Feature","geometry":{"type":"LineString","coordinates":[[-3.06676,52.91388],[-3.06802,52.91622],[-3.06852,52.91903],[-3.07078,52.92152],[-3.07109,52.9232],[-3.07,52.92452],[-3.07088,52.92594]]},"properties":{"name":"High Street","category":"tertiary","osm_type":"way","osm_id":"30430261"}},{"type":"Feature","geometry":{"type":"LineString","coordinates":[[-3.02924,52.82655],[-3.03003,52.82797],[-3.03091,52.83235],[-3.03366,52.83543],[-3.03647,52.83729],[-3.03857,52.84117]]},"properties":{"name":"Secondary and tertiary roads","category":"tertiary","osm_type":"way","osm_id":"30483226"}},{"type":"Feature","geometry":{"type":"LineString","coordinates":[[-3.00919,52.8106],[-3.01686,52.81581]]},"properties":{"name":"Main Road","category":"tertiary","osm_type":"way","osm_id":"30483229"}},{"type":"Feature","geometry":{"type":"LineString","coordinates":[[-3.01078,52.93322],[-3.01236,52.93235],[-3.01273,52.9297],[-3.01336,52.92884]]},"properties":{"name":"Secondary and tertiary roads","category":"tertiary","osm_type":"way","osm_id":"30500907"}},{"type":"Feature","geometry":{"type":"LineString","coordinates":[[-3.02318,52.88689],[-3.02552,52.8885]]},"properties":{"name":"Whittington Road","category":"secondary","osm_type":"way","osm_id":"31142949","ref":"B5009"}},{"type":"Feature","geometry":{"type":"LineString","coordinates":[[-3.02318,52.88689],[-3.0268,52.88657],[-3.02859,52.88575]]},"properties":{"name":"Secondary and tertiary roads","category":"tertiary","osm_type":"way","osm_id":"31143245"}},{"type":"Feature","geometry":{"type":"LineString","coordinates":[[-3.03926,52.84259],[-3.04177,52.84821],[-3.04622,52.85185],[-3.04664,52.85298]]},"properties":{"name":"Maesbury Road","category":"tertiary","osm_type":"way","osm_id":"31695367"}},{"type":"Feature","geometry":{"type":"LineString","coordinates":[[-3.05848,52.84275],[-3.06465,52.84273],[-3.06686,52.84227],[-3.07669,52.84267]]},"properties":{"name":"Trefonen Road","category":"tertiary","osm_type":"way","osm_id":"31695892"}},{"type":"Feature","geometry":{"type":"LineString","coordinates":[[-3.07669,52.84267],[-3.07835,52.84266],[-3.08562,52.84064],[-3.09246,52.83938],[-3.0958,52.83936]]},"properties":{"name":"Secondary and tertiary roads","category":"tertiary","osm_type":"way","osm_id":"31696202"}},{"type":"Feature","geometry":{"type":"LineString","coordinates":[[-3.09051,52.89833],[-3.09179,52.89748],[-3.09432,52.89476],[-3.09473,52.89359],[-3.09739,52.89127],[-3.09983,52.89063],[-3.10414,52.88788]]},"properties":{"name":"Gyrn Road","category":"tertiary","osm_type":"way","osm_id":"31696574"}},{"type":"Feature","geometry":{"type":"LineString","coordinates":[[-3.08598,52.89719],[-3.082,52.89538],[-3.07654,52.89085],[-3.07298,52.88476]]},"properties":{"name":"B4579","category":"secondary","osm_type":"way","osm_id":"31697011","ref":"B4579"}},{"type":"Feature","geometry":{"type":"LineString","coordinates":[[-3.09215,52.89806],[-3.09051,52.89833]]},"properties":{"name":"Glyn Road","category":"secondary","osm_type":"way","osm_id":"31697012","ref":"B4579"}},{"type":"Feature","geometry":{"type":"LineString","coordinates":[[-3.0285,52.87822],[-3.02916,52.8798]]},"properties":{"name":"North Drive","category":"tertiary","osm_type":"way","osm_id":"32049749"}},{"type":"Feature","geometry":{"type":"LineString","coordinates":[[-3.03729,52.89588],[-3.03787,52.89569]]},"properties":{"name":"B5009","category":"secondary","osm_type":"way","osm_id":"32547711","ref":"B5009"}},{"type":"Feature","geometry":{"type":"LineString","coordinates":[[-3.03796,52.89586],[-3.03811,52.89614]]},"properties":{"name":"B5009","category":"secondary","osm_type":"way","osm_id":"32547731","ref":"B5009"}},{"type":"Feature","geometry":{"type":"LineString","coordinates":[[-3.01205,52.94003],[-3.01202,52.93663],[-3.01264,52.93556],[-3.01104,52.93439],[-3.01078,52.93322]]},"properties":{"name":"Secondary and tertiary roads","category":"tertiary","osm_type":"way","osm_id":"33058615"}},{"type":"Feature","geometry":{"type":"LineString","coordinates":[[-2.98971,52.74443],[-2.99448,52.75021],[-2.99363,52.75391],[-2.99583,52.757],[-2.99502,52.75757],[-2.99526,52.75847],[-2.99762,52.75946],[-2.99942,52.75939],[-3.00208,52.76195],[-3.01635,52.76721]]},"properties":{"name":"Secondary and tertiary roads","category":"tertiary","osm_type":"way","osm_id":"34291356"}},{"type":"Feature","geometry":{"type":"LineString","coordinates":[[-3.10676,52.53201],[-3.10553,52.53035]]},"properties":{"name":"B4385","category":"secondary","osm_type":"way","osm_id":"38890359","ref":"B4385"}},{"type":"Feature","geometry":{"type":"LineString","coordinates":[[-3.11706,52.53839],[-3.11514,52.53665],[-3.10933,52.53378]]},"properties":{"name":"B4385","category":"secondary","osm_type":"way","osm_id":"38890363","ref":"B4385"}},{"type":"Feature","geometry":{"type":"LineString","coordinates":[[-3.02885,52.85033],[-3.02836,52.85047]]},"properties":{"name":"Shrewsbury Road","category":"secondary","osm_type":"way","osm_id":"42709505","ref":"B4579"}},{"type":"Feature","geometry":{"type":"LineString","coordinates":[[-3.05911,52.85656],[-3.05902,52.85765],[-3.0604,52.8588],[-3.05898,52.85976],[-3.05817,52.86107]]},"properties":{"name":"Welsh Walls","category":"tertiary","osm_type":"way","osm_id":"46732356"}},{"type":"Feature","geometry":{"type":"LineString","coordinates":[[-3.05596,52.83126],[-3.05644,52.83152],[-3.05851,52.84287]]},"properties":{"name":"B5069","category":"secondary","osm_type":"way","osm_id":"46732358","ref":"B5069"}},{"type":"Feature","geometry":{"type":"LineString","coordinates":[[-3.07214,52.9262],[-3.07218,52.92623]]},"properties":{"name":"Pont Faen Bridge","category":"tertiary","osm_type":"way","osm_id":"51720592"}},{"type":"Feature","geometry":{"type":"LineString","coordinates":[[-3.05723,52.92798],[-3.05694,52.92774]]},"properties":{"name":"Chirk Bank","category":"secondary","osm_type":"way","osm_id":"51720595","ref":"B5070"}},{"type":"Feature","geometry":{"type":"LineString","coordinates":[[-3.05694,52.92774],[-3.05684,52.92769]]},"properties":{"name":"Chirk Road","category":"secondary","osm_type":"way","osm_id":"51720596","ref":"B5070"}},{"type":"Feature","geometry":{"type":"LineString","coordinates":[[-3.11631,52.87046],[-3.11635,52.87043]]},"properties":{"name":"B4580","category":"secondary","osm_type":"way","osm_id":"54966689","ref":"B4580"}},{"type":"Feature","geometry":{"type":"LineString","coordinates":[[-3.1029,52.87146],[-3.10308,52.87147]]},"properties":{"name":"B4580","category":"secondary","osm_type":"way","osm_id":"54966694","ref":"B4580"}},{"type":"Feature","geometry":{"type":"LineString","coordinates":[[-3.05797,52.92859],[-3.05723,52.92798]]},"properties":{"name":"Chirk Bank","category":"secondary","osm_type":"way","osm_id":"55069376","ref":"B5070"}},{"type":"Feature","geometry":{"type":"LineString","coordinates":[[-3.09618,52.92953],[-3.09322,52.92896],[-3.09113,52.92767]]},"properties":{"name":"Secondary and tertiary roads","category":"tertiary","osm_type":"way","osm_id":"55533334"}},{"type":"Feature","geometry":{"type":"LineString","coordinates":[[-3.11278,52.90663],[-3.10969,52.90719]]},"properties":{"name":"B4579","category":"secondary","osm_type":"way","osm_id":"55595592","ref":"B4579"}},{"type":"Feature","geometry":{"type":"LineString","coordinates":[[-3.07883,52.92105],[-3.07771,52.91975],[-3.0754,52.91864],[-3.07377,52.91831],[-3.07247,52.91655],[-3.07071,52.91605]]},"properties":{"name":"Secondary and tertiary roads","category":"tertiary","osm_type":"way","osm_id":"55602627"}},{"type":"Feature","geometry":{"type":"LineString","coordinates":[[-3.08825,52.92441],[-3.08284,52.92306],[-3.08093,52.92175],[-3.07883,52.92105]]},"properties":{"name":"Secondary and tertiary roads","category":"tertiary","osm_type":"way","osm_id":"55602629"}},{"type":"Feature","geometry":{"type":"LineString","coordinates":[[-3.07071,52.91605],[-3.06676,52.91388]]},"properties":{"name":"Bronygarth Road","category":"tertiary","osm_type":"way","osm_id":"55602631"}},{"type":"Feature","geometry":{"type":"LineString","coordinates":[[-3.07206,52.92614],[-3.07214,52.9262]]},"properties":{"name":"Secondary and tertiary roads","category":"tertiary","osm_type":"way","osm_id":"55602632"}},{"type":"Feature","geometry":{"type":"LineString","coordinates":[[-3.03163,52.88382],[-3.03607,52.88305]]},"properties":{"name":"Twmpath Lane","category":"tertiary","osm_type":"way","osm_id":"64094910"}},{"type":"Feature","geometry":{"type":"LineString","coordinates":[[-3.03287,52.89266],[-3.03612,52.89526]]},"properties":{"name":"By Pass Road","category":"secondary","osm_type":"way","osm_id":"64094911","ref":"B5009"}},{"type":"Feature","geometry":{"type":"LineString","coordinates":[[-3.04593,52.86499],[-3.0474,52.86402]]},"properties":{"name":"Gobowen Road","category":"secondary","osm_type":"way","osm_id":"64110462","ref":"B5069"}},{"type":"Feature","geometry":{"type":"LineString","coordinates":[[-3.05144,52.86231],[-3.0494,52.86315]]},"properties":{"name":"Beatrice Street","category":"secondary","osm_type":"way","osm_id":"64110478","ref":"B5069"}},{"type":"Feature","geometry":{"type":"LineString","coordinates":[[-3.0494,52.86315],[-3.04888,52.86326]]},"properties":{"name":"B5069","category":"secondary","osm_type":"way","osm_id":"64110485","ref":"B5069"}},{"type":"Feature","geometry":{"type":"LineString","coordinates":[[-3.06167,52.86257],[-3.06411,52.86305],[-3.06618,52.86429]]},"properties":{"name":"Mount Road","category":"secondary","osm_type":"way","osm_id":"64233262","ref":"B4580"}},{"type":"Feature","geometry":{"type":"LineString","coordinates":[[-3.05809,52.86101],[-3.05549,52.86187],[-3.05282,52.86152]]},"properties":{"name":"Castle Street","category":"secondary","osm_type":"way","osm_id":"64233353","ref":"B5069"}},{"type":"Feature","geometry":{"type":"LineString","coordinates":[[-3.06257,52.86854],[-3.06254,52.86629],[-3.06026,52.86233]]},"properties":{"name":"Oakhurst Road","category":"secondary","osm_type":"way","osm_id":"64233355","ref":"B4579"}},{"type":"Feature","geometry":{"type":"LineString","coordinates":[[-3.05555,52.85908],[-3.05817,52.86107]]},"properties":{"name":"Willow Street","category":"secondary","osm_type":"way","osm_id":"64298772","ref":"B5069"}},{"type":"Feature","geometry":{"type":"LineString","coordinates":[[-3.06708,52.86487],[-3.07065,52.86614],[-3.08347,52.86838]]},"properties":{"name":"B4580","category":"secondary","osm_type":"way","osm_id":"64298779","ref":"B4580"}},{"type":"Feature","geometry":{"type":"LineString","coordinates":[[-3.06811,52.85267],[-3.06488,52.85477]]},"properties":{"name":"Trefonen Road","category":"tertiary","osm_type":"way","osm_id":"64311479"}},{"type":"Feature","geometry":{"type":"LineString","coordinates":[[-3.05775,52.85642],[-3.05679,52.85619]]},"properties":{"name":"Lower Brook Street","category":"tertiary","osm_type":"way","osm_id":"64311503"}},{"type":"Feature","geometry":{"type":"LineString","coordinates":[[-3.06488,52.85477],[-3.06351,52.85538]]},"properties":{"name":"Upper Brook Street","category":"tertiary","osm_type":"way","osm_id":"64311513"}},{"type":"Feature","geometry":{"type":"LineString","coordinates":[[-3.01643,52.87226],[-3.01731,52.87353],[-3.02234,52.8768]]},"properties":{"name":"Drenewydd","category":"tertiary","osm_type":"way","osm_id":"64982335"}},{"type":"Feature","geometry":{"type":"LineString","coordinates":[[-3.02312,52.87733],[-3.02472,52.87828],[-3.0285,52.87822]]},"properties":{"name":"Inglis Road","category":"tertiary","osm_type":"way","osm_id":"64982365"}},{"type":"Feature","geometry":{"type":"LineString","coordinates":[[-3.04328,52.85912],[-3.04733,52.85833]]},"properties":{"name":"Middleton Road","category":"tertiary","osm_type":"way","osm_id":"65413921"}},{"type":"Feature","geometry":{"type":"LineString","coordinates":[[-3.04098,52.85212],[-3.03966,52.85482],[-3.04145,52.85946]]},"properties":{"name":"College Road","category":"tertiary","osm_type":"way","osm_id":"65413924"}},{"type":"Feature","geometry":{"type":"LineString","coordinates":[[-3.04297,52.86592],[-3.04114,52.8639],[-3.04197,52.86172],[-3.04114,52.85959]]},"properties":{"name":"Unicorn Road","category":"tertiary","osm_type":"way","osm_id":"65413929"}},{"type":"Feature","geometry":{"type":"LineString","coordinates":[[-3.03782,52.8682],[-3.03757,52.8656],[-3.03685,52.86488]]},"properties":{"name":"Harlech Road","category":"tertiary","osm_type":"way","osm_id":"65413936"}},{"type":"Feature","geometry":{"type":"LineString","coordinates":[[-3.03622,52.86478],[-3.03347,52.86492],[-3.03222,52.86415],[-3.03187,52.8619],[-3.03236,52.86146],[-3.03383,52.86132]]},"properties":{"name":"Cabin Lane","category":"tertiary","osm_type":"way","osm_id":"65413939"}},{"type":"Feature","geometry":{"type":"LineString","coordinates":[[-3.0497,52.85799],[-3.05012,52.85794]]},"properties":{"name":"Middleton Road","category":"tertiary","osm_type":"way","osm_id":"65413946"}},{"type":"Feature","geometry":{"type":"LineString","coordinates":[[-3.05012,52.85794],[-3.05168,52.85767]]},"properties":{"name":"Middleton Road","category":"tertiary","osm_type":"way","osm_id":"65413951"}},{"type":"Feature","geometry":{"type":"LineString","coordinates":[[-3.03689,52.86479],[-3.03677,52.86491],[-3.03657,52.86483],[-3.03668,52.86472],[-3.03689,52.86479]]},"properties":{"name":"Secondary and tertiary roads","category":"tertiary","osm_type":"way","osm_id":"65413962"}},{"type":"Feature","geometry":{"type":"LineString","coordinates":[[-3.03705,52.896],[-3.03729,52.89588]]},"properties":{"name":"St Martin's Road","category":"secondary","osm_type":"way","osm_id":"65643773","ref":"B5069"}},{"type":"Feature","geometry":{"type":"LineString","coordinates":[[-3.03705,52.896],[-3.03438,52.90052]]},"properties":{"name":"St Martin's Road","category":"secondary","osm_type":"way","osm_id":"65643787","ref":"B5069"}},{"type":"Feature","geometry":{"type":"LineString","coordinates":[[-3.04861,52.91861],[-3.05154,52.91813],[-3.05742,52.91627],[-3.06097,52.9159],[-3.06625,52.91418],[-3.06676,52.91388],[-3.06671,52.91233],[-3.0676,52.91189],[-3.06756,52.90983],[-3.07785,52.90405],[-3.08188,52.90233]]},"properties":{"name":"Station Road","category":"tertiary","osm_type":"way","osm_id":"66921077"}},{"type":"Feature","geometry":{"type":"LineString","coordinates":[[-3.04769,52.91868],[-3.04803,52.91867]]},"properties":{"name":"Station Road","category":"tertiary","osm_type":"way","osm_id":"66921080"}},{"type":"Feature","geometry":{"type":"LineString","coordinates":[[-3.00411,52.8757],[-3.00504,52.87616]]},"properties":{"name":"B5009","category":"secondary","osm_type":"way","osm_id":"67330339","ref":"B5009"}},{"type":"Feature","geometry":{"type":"LineString","coordinates":[[-3.0285,52.87822],[-3.02789,52.87441],[-3.02936,52.87334],[-3.02862,52.87025]]},"properties":{"name":"Burma Road","category":"tertiary","osm_type":"way","osm_id":"67332822"}},{"type":"Feature","geometry":{"type":"LineString","coordinates":[[-3.05323,52.85917],[-3.04963,52.85571]]},"properties":{"name":"Salop Road","category":"secondary","osm_type":"way","osm_id":"67333647","ref":"B4579"}},{"type":"Feature","geometry":{"type":"LineString","coordinates":[[-3.05382,52.86044],[-3.05275,52.86109]]},"properties":{"name":"Beatrice Street","category":"secondary","osm_type":"way","osm_id":"67333648","ref":"B4579"}},{"type":"Feature","geometry":{"type":"LineString","coordinates":[[-3.05359,52.85507],[-3.05064,52.85482],[-3.04856,52.85407]]},"properties":{"name":"Victoria Road","category":"tertiary","osm_type":"way","osm_id":"67343363"}},{"type":"Feature","geometry":{"type":"LineString","coordinates":[[-3.05775,52.85642],[-3.0566,52.858]]},"properties":{"name":"Church Street","category":"secondary","osm_type":"way","osm_id":"67343368","ref":"B5069"}},{"type":"Feature","geometry":{"type":"LineString","coordinates":[[-3.05849,52.85452],[-3.05775,52.85642]]},"properties":{"name":"Upper Church Street","category":"secondary","osm_type":"way","osm_id":"67343372","ref":"B5069"}},{"type":"Feature","geometry":{"type":"LineString","coordinates":[[-3.05851,52.84287],[-3.05832,52.84519]]},"properties":{"name":"Morda Bank","category":"secondary","osm_type":"way","osm_id":"67343380","ref":"B5069"}},{"type":"Feature","geometry":{"type":"LineString","coordinates":[[-3.05883,52.8495],[-3.05932,52.8521],[-3.05849,52.85452]]},"properties":{"name":"Morda Road","category":"secondary","osm_type":"way","osm_id":"67343383","ref":"B5069"}},{"type":"Feature","geometry":{"type":"LineString","coordinates":[[-3.05832,52.84519],[-3.05832,52.84542]]},"properties":{"name":"Morda Bank","category":"secondary","osm_type":"way","osm_id":"67354187","ref":"B5069"}},{"type":"Feature","geometry":{"type":"LineString","coordinates":[[-3.05832,52.84542],[-3.05883,52.8495]]},"properties":{"name":"Morda Bank","category":"secondary","osm_type":"way","osm_id":"67354188","ref":"B5069"}},{"type":"Feature","geometry":{"type":"LineString","coordinates":[[-3.03267,52.85053],[-3.0326,52.84771],[-3.03463,52.8457],[-3.03675,52.84455],[-3.03999,52.84387]]},"properties":{"name":"Maes-Y-Clawdd","category":"tertiary","osm_type":"way","osm_id":"67360277"}},{"type":"Feature","geometry":{"type":"LineString","coordinates":[[-3.01918,52.91794],[-3.01615,52.9189],[-3.01435,52.92025],[-3.0118,52.92081],[-3.00942,52.92349],[-3.00701,52.92464]]},"properties":{"name":"Overton Road","category":"secondary","osm_type":"way","osm_id":"67371431","ref":"B5069"}},{"type":"Feature","geometry":{"type":"LineString","coordinates":[[-3.0958,52.83936],[-3.09341,52.84326],[-3.0918,52.84429],[-3.08554,52.8469]]},"properties":{"name":"Secondary and tertiary roads","category":"tertiary","osm_type":"way","osm_id":"67379182"}},{"type":"Feature","geometry":{"type":"LineString","coordinates":[[-3.09975,52.83317],[-3.0958,52.83936]]},"properties":{"name":"Oswestry Road","category":"tertiary","osm_type":"way","osm_id":"67379217"}},{"type":"Feature","geometry":{"type":"LineString","coordinates":[[-3.1011,52.8271],[-3.10054,52.83129]]},"properties":{"name":"Treflach Road","category":"tertiary","osm_type":"way","osm_id":"67379219"}},{"type":"Feature","geometry":{"type":"LineString","coordinates":[[-3.11761,52.81219],[-3.12547,52.80855],[-3.12993,52.80826],[-3.13488,52.80696],[-3.13693,52.80725],[-3.13933,52.80647]]},"properties":{"name":"Secondary and tertiary roads","category":"tertiary","osm_type":"way","osm_id":"71203406"}},{"type":"Feature","geometry":{"type":"LineString","coordinates":[[-3.11231,52.88309],[-3.11254,52.88226],[-3.11159,52.88203],[-3.11053,52.88085],[-3.10508,52.87772],[-3.10298,52.87497],[-3.10325,52.8715]]},"properties":{"name":"Secondary and tertiary roads","category":"tertiary","osm_type":"way","osm_id":"71203419"}},{"type":"Feature","geometry":{"type":"LineString","coordinates":[[-3.10025,52.82012],[-3.10182,52.81752],[-3.10528,52.81541],[-3.10959,52.81425],[-3.11335,52.81231]]},"properties":{"name":"Nantmawr Bank","category":"tertiary","osm_type":"way","osm_id":"71203434"}},{"type":"Feature","geometry":{"type":"LineString","coordinates":[[-3.10308,52.87147],[-3.10325,52.8715]]},"properties":{"name":"B4580","category":"secondary","osm_type":"way","osm_id":"71203438","ref":"B4580"}},{"type":"Feature","geometry":{"type":"LineString","coordinates":[[-3.10325,52.8715],[-3.10459,52.87172],[-3.10533,52.87131],[-3.10673,52.872],[-3.11232,52.87001],[-3.11631,52.87046]]},"properties":{"name":"B4580","category":"secondary","osm_type":"way","osm_id":"71203458","ref":"B4580"}},{"type":"Feature","geometry":{"type":"LineString","coordinates":[[-3.10933,52.53378],[-3.10804,52.53306]]},"properties":{"name":"B4385","category":"secondary","osm_type":"way","osm_id":"71203467","ref":"B4385"}},{"type":"Feature","geometry":{"type":"LineString","coordinates":[[-3.09059,52.92549],[-3.08919,52.92502]]},"properties":{"name":"Secondary and tertiary roads","category":"tertiary","osm_type":"way","osm_id":"79234354"}},{"type":"Feature","geometry":{"type":"LineString","coordinates":[[-3.04047,52.88245],[-3.04089,52.88238]]},"properties":{"name":"Gobowen Road","category":"secondary","osm_type":"way","osm_id":"79648768","ref":"B5069"}},{"type":"Feature","geometry":{"type":"LineString","coordinates":[[-3.04089,52.88238],[-3.04061,52.88261]]},"properties":{"name":"Gobowen Road","category":"secondary","osm_type":"way","osm_id":"79648769","ref":"B5069"}},{"type":"Feature","geometry":{"type":"LineString","coordinates":[[-3.03981,52.88296],[-3.03823,52.88763],[-3.0384,52.8898]]},"properties":{"name":"Chirk Road","category":"secondary","osm_type":"way","osm_id":"79648773","ref":"B5069"}},{"type":"Feature","geometry":{"type":"LineString","coordinates":[[-3.03981,52.88296],[-3.03993,52.88273]]},"properties":{"name":"Chirk Road","category":"secondary","osm_type":"way","osm_id":"79648774","ref":"B5069"}},{"type":"Feature","geometry":{"type":"LineString","coordinates":[[-3.04261,52.9194],[-3.04219,52.91923]]},"properties":{"name":"B5070","category":"secondary","osm_type":"way","osm_id":"79649272","ref":"B5070"}},{"type":"Feature","geometry":{"type":"LineString","coordinates":[[-3.04349,52.91939],[-3.04374,52.91973]]},"properties":{"name":"Chirk Road","category":"secondary","osm_type":"way","osm_id":"79649273","ref":"B5070"}},{"type":"Feature","geometry":{"type":"LineString","coordinates":[[-3.04374,52.91973],[-3.04323,52.91956]]},"properties":{"name":"Chirk Road","category":"secondary","osm_type":"way","osm_id":"79649274","ref":"B5070"}},{"type":"Feature","geometry":{"type":"LineString","coordinates":[[-3.03985,52.91965],[-3.03502,52.9192]]},"properties":{"name":"B5070","category":"secondary","osm_type":"way","osm_id":"79649280","ref":"B5070"}},{"type":"Feature","geometry":{"type":"LineString","coordinates":[[-3.04801,52.85806],[-3.0497,52.85799]]},"properties":{"name":"Middleton Road","category":"tertiary","osm_type":"way","osm_id":"80289987"}},{"type":"Feature","geometry":{"type":"LineString","coordinates":[[-3.02129,52.9145],[-3.02126,52.9146]]},"properties":{"name":"St Martin's Road","category":"secondary","osm_type":"way","osm_id":"91234615","ref":"B5069"}},{"type":"Feature","geometry":{"type":"LineString","coordinates":[[-3.02126,52.9146],[-3.01991,52.91672]]},"properties":{"name":"St Martin's Road","category":"secondary","osm_type":"way","osm_id":"91234630","ref":"B5069"}},{"type":"Feature","geometry":{"type":"LineString","coordinates":[[-3.04292,52.84105],[-3.04356,52.84103]]},"properties":{"name":"Weston Road","category":"tertiary","osm_type":"way","osm_id":"92682504"}},{"type":"Feature","geometry":{"type":"LineString","coordinates":[[-3.03785,52.88284],[-3.03953,52.88256]]},"properties":{"name":"Twmpath Lane","category":"tertiary","osm_type":"way","osm_id":"92682508"}},{"type":"Feature","geometry":{"type":"LineString","coordinates":[[-3.04268,52.84105],[-3.04292,52.84105]]},"properties":{"name":"Weston Road","category":"tertiary","osm_type":"way","osm_id":"92682515"}},{"type":"Feature","geometry":{"type":"LineString","coordinates":[[-3.03753,52.88287],[-3.03785,52.88284]]},"properties":{"name":"Twmpath Lane","category":"tertiary","osm_type":"way","osm_id":"92682516"}},{"type":"Feature","geometry":{"type":"LineString","coordinates":[[-3.10097,52.80712],[-3.10221,52.81042],[-3.10322,52.81168],[-3.10278,52.8132],[-3.10068,52.8153],[-3.10228,52.81721]]},"properties":{"name":"Blodwel Bank","category":"tertiary","osm_type":"way","osm_id":"93576612"}},{"type":"Feature","geometry":{"type":"LineString","coordinates":[[-3.01984,52.81833],[-3.02445,52.82123]]},"properties":{"name":"Main Road","category":"tertiary","osm_type":"way","osm_id":"108256829"}},{"type":"Feature","geometry":{"type":"LineString","coordinates":[[-3.01974,52.81816],[-3.01984,52.81833]]},"properties":{"name":"Main Road","category":"tertiary","osm_type":"way","osm_id":"108256858"}},{"type":"Feature","geometry":{"type":"LineString","coordinates":[[-3.10804,52.53306],[-3.10702,52.53198]]},"properties":{"name":"B4385","category":"secondary","osm_type":"way","osm_id":"109386905","ref":"B4385"}},{"type":"Feature","geometry":{"type":"LineString","coordinates":[[-3.10025,52.82012],[-3.10143,52.82555],[-3.1011,52.8271]]},"properties":{"name":"Secondary and tertiary roads","category":"tertiary","osm_type":"way","osm_id":"110200369"}},{"type":"Feature","geometry":{"type":"LineString","coordinates":[[-3.10504,52.84323],[-3.10485,52.84324]]},"properties":{"name":"Secondary and tertiary roads","category":"tertiary","osm_type":"way","osm_id":"110846283"}},{"type":"Feature","geometry":{"type":"LineString","coordinates":[[-3.10485,52.84324],[-3.09341,52.84326]]},"properties":{"name":"Secondary and tertiary roads","category":"tertiary","osm_type":"way","osm_id":"110846285"}},{"type":"Feature","geometry":{"type":"LineString","coordinates":[[-3.11335,52.81231],[-3.11458,52.81197],[-3.11588,52.81232],[-3.11761,52.81219]]},"properties":{"name":"Nantmawr Bank","category":"tertiary","osm_type":"way","osm_id":"110846296"}},{"type":"Feature","geometry":{"type":"LineString","coordinates":[[-2.99912,52.6261],[-3.00142,52.6291],[-3.00318,52.63027],[-3.00934,52.63219],[-3.01045,52.63342]]},"properties":{"name":"B4499","category":"secondary","osm_type":"way","osm_id":"111330673","ref":"B4499"}},{"type":"Feature","geometry":{"type":"LineString","coordinates":[[-3.08844,52.78102],[-3.08245,52.78098]]},"properties":{"name":"Station Road","category":"secondary","osm_type":"way","osm_id":"114565258","ref":"B4398"}},{"type":"Feature","geometry":{"type":"LineString","coordinates":[[-3.0383,52.81017],[-3.03862,52.81014]]},"properties":{"name":"B4396","category":"secondary","osm_type":"way","osm_id":"124189822","ref":"B4396"}},{"type":"Feature","geometry":{"type":"LineString","coordinates":[[-3.03862,52.81014],[-3.04458,52.81048],[-3.04796,52.81014],[-3.05174,52.80913],[-3.05779,52.80975]]},"properties":{"name":"B4396","category":"secondary","osm_type":"way","osm_id":"124189823","ref":"B4396"}},{"type":"Feature","geometry":{"type":"LineString","coordinates":[[-3.04809,52.85385],[-3.04789,52.85372]]},"properties":{"name":"Salop Road","category":"secondary","osm_type":"way","osm_id":"127212780","ref":"B4579"}},{"type":"Feature","geometry":{"type":"LineString","coordinates":[[-3.03258,52.85066],[-3.03148,52.85055]]},"properties":{"name":"Shrewsbury Road","category":"secondary","osm_type":"way","osm_id":"127212782","ref":"B4579"}},{"type":"Feature","geometry":{"type":"LineString","coordinates":[[-3.03492,52.85113],[-3.04009,52.85189]]},"properties":{"name":"Shrewsbury Road","category":"secondary","osm_type":"way","osm_id":"127212784","ref":"B4579"}},{"type":"Feature","geometry":{"type":"LineString","coordinates":[[-3.04219,52.91923],[-3.04263,52.91916]]},"properties":{"name":"B5070","category":"secondary","osm_type":"way","osm_id":"144380856","ref":"B5070"}},{"type":"Feature","geometry":{"type":"LineString","coordinates":[[-3.05343,52.88784],[-3.04685,52.88866],[-3.04488,52.88943]]},"properties":{"name":"Secondary and tertiary roads","category":"tertiary","osm_type":"way","osm_id":"148831619"}},{"type":"Feature","geometry":{"type":"LineString","coordinates":[[-3.04519,52.86554],[-3.04384,52.86559]]},"properties":{"name":"Whittington Road","category":"secondary","osm_type":"way","osm_id":"149071676","ref":"B4580"}},{"type":"Feature","geometry":{"type":"LineString","coordinates":[[-3.03522,52.86907],[-3.03498,52.86934]]},"properties":{"name":"Whittington Road","category":"secondary","osm_type":"way","osm_id":"149071678","ref":"B4580"}},{"type":"Feature","geometry":{"type":"LineString","coordinates":[[-3.0348,52.8692],[-3.03522,52.86907]]},"properties":{"name":"Whittington Road","category":"secondary","osm_type":"way","osm_id":"149071682","ref":"B4580"}},{"type":"Feature","geometry":{"type":"LineString","coordinates":[[-3.04045,52.88974],[-3.0384,52.8898]]},"properties":{"name":"Secondary and tertiary roads","category":"tertiary","osm_type":"way","osm_id":"152253562"}},{"type":"Feature","geometry":{"type":"LineString","coordinates":[[-3.04085,52.88972],[-3.04045,52.88974]]},"properties":{"name":"Secondary and tertiary roads","category":"tertiary","osm_type":"way","osm_id":"152253564"}},{"type":"Feature","geometry":{"type":"LineString","coordinates":[[-3.06375,52.60908],[-3.06907,52.6066],[-3.07527,52.60455],[-3.08955,52.60231]]},"properties":{"name":"Secondary and tertiary roads","category":"tertiary","osm_type":"way","osm_id":"167161941"}},{"type":"Feature","geometry":{"type":"LineString","coordinates":[[-3.05373,52.85982],[-3.05382,52.86044]]},"properties":{"name":"Leg Street","category":"secondary","osm_type":"way","osm_id":"171511507","ref":"B4579"}},{"type":"Feature","geometry":{"type":"LineString","coordinates":[[-3.04999,52.86191],[-3.05055,52.86094],[-3.05373,52.85982]]},"properties":{"name":"Oswald Road","category":"secondary","osm_type":"way","osm_id":"171528932"}},{"type":"Feature","geometry":{"type":"LineString","coordinates":[[-3.04204,52.871],[-3.04079,52.87336],[-3.04203,52.87746],[-3.04145,52.87921]]},"properties":{"name":"Gobowen Road","category":"secondary","osm_type":"way","osm_id":"171529668","ref":"B5069"}},{"type":"Feature","geometry":{"type":"LineString","coordinates":[[-3.03607,52.88305],[-3.03753,52.88287]]},"properties":{"name":"Twmpath Lane","category":"tertiary","osm_type":"way","osm_id":"171529672"}},{"type":"Feature","geometry":{"type":"LineString","coordinates":[[-3.0438,52.91908],[-3.04562,52.91858],[-3.04762,52.91869]]},"properties":{"name":"Station Road","category":"tertiary","osm_type":"way","osm_id":"171558214"}},{"type":"Feature","geometry":{"type":"LineString","coordinates":[[-3.0438,52.91908],[-3.04352,52.91932]]},"properties":{"name":"Station Road","category":"tertiary","osm_type":"way","osm_id":"171558217"}},{"type":"Feature","geometry":{"type":"LineString","coordinates":[[-3.04384,52.86559],[-3.03522,52.86907]]},"properties":{"name":"Whittington Road","category":"secondary","osm_type":"way","osm_id":"171631994","ref":"B4580"}},{"type":"Feature","geometry":{"type":"LineString","coordinates":[[-3.04519,52.86554],[-3.0433,52.86776]]},"properties":{"name":"Gobowen Road","category":"secondary","osm_type":"way","osm_id":"171642606","ref":"B5069"}},{"type":"Feature","geometry":{"type":"LineString","coordinates":[[-3.04145,52.87921],[-3.04149,52.88158],[-3.04089,52.88238]]},"properties":{"name":"Gobowen Road","category":"secondary","osm_type":"way","osm_id":"171642607","ref":"B5069"}},{"type":"Feature","geometry":{"type":"LineString","coordinates":[[-3.03148,52.85055],[-3.03007,52.85043]]},"properties":{"name":"Shrewsbury Road","category":"secondary","osm_type":"way","osm_id":"171894055","ref":"B4579"}},{"type":"Feature","geometry":{"type":"LineString","coordinates":[[-3.03007,52.85043],[-3.0291,52.85035]]},"properties":{"name":"Shrewsbury Road","category":"secondary","osm_type":"way","osm_id":"171894059","ref":"B4579"}},{"type":"Feature","geometry":{"type":"LineString","coordinates":[[-3.04856,52.85407],[-3.0483,52.85413]]},"properties":{"name":"Secondary and tertiary roads","category":"tertiary","osm_type":"way","osm_id":"171894117"}},{"type":"Feature","geometry":{"type":"LineString","coordinates":[[-3.09398,52.57846],[-3.09364,52.57847]]},"properties":{"name":"Montgomery Road","category":"secondary","osm_type":"way","osm_id":"172922736","ref":"B4386"}},{"type":"Feature","geometry":{"type":"LineString","coordinates":[[-3.09364,52.57847],[-3.09218,52.57879]]},"properties":{"name":"Montgomery Road","category":"secondary","osm_type":"way","osm_id":"172922739","ref":"B4386"}},{"type":"Feature","geometry":{"type":"LineString","coordinates":[[-3.08795,52.58153],[-3.08868,52.58012],[-3.09125,52.57789]]},"properties":{"name":"Shrewsbury Road","category":"secondary","osm_type":"way","osm_id":"172998769","ref":"B4386"}},{"type":"Feature","geometry":{"type":"LineString","coordinates":[[-3.13198,52.56885],[-3.11608,52.57417],[-3.1064,52.57527],[-3.09688,52.57857],[-3.09398,52.57846]]},"properties":{"name":"Montgomery Road","category":"secondary","osm_type":"way","osm_id":"173534051","ref":"B4386"}},{"type":"Feature","geometry":{"type":"LineString","coordinates":[[-3.05275,52.86109],[-3.05267,52.86131]]},"properties":{"name":"Beatrice Street","category":"secondary","osm_type":"way","osm_id":"176658187","ref":"B4579"}},{"type":"Feature","geometry":{"type":"LineString","coordinates":[[-3.07388,52.59519],[-3.0814,52.59073],[-3.08555,52.58584],[-3.08795,52.58153]]},"properties":{"name":"B4386","category":"secondary","osm_type":"way","osm_id":"177709007","ref":"B4386"}},{"type":"Feature","geometry":{"type":"LineString","coordinates":[[-3.07359,52.59536],[-3.07388,52.59519]]},"properties":{"name":"B4386","category":"secondary","osm_type":"way","osm_id":"177709008","ref":"B4386"}},{"type":"Feature","geometry":{"type":"LineString","coordinates":[[-3.07206,52.92614],[-3.07088,52.92594]]},"properties":{"name":"Secondary and tertiary roads","category":"tertiary","osm_type":"way","osm_id":"184971696"}},{"type":"Feature","geometry":{"type":"LineString","coordinates":[[-3.01358,52.92879],[-3.00833,52.92809]]},"properties":{"name":"Glyn Morlas Lane","category":"tertiary","osm_type":"way","osm_id":"193541830"}},{"type":"Feature","geometry":{"type":"LineString","coordinates":[[-3.11639,52.8703],[-3.11673,52.86962],[-3.11907,52.86899],[-3.12871,52.86907]]},"properties":{"name":"B4580","category":"secondary","osm_type":"way","osm_id":"205896910","ref":"B4580"}},{"type":"Feature","geometry":{"type":"LineString","coordinates":[[-3.12871,52.86907],[-3.1289,52.86906]]},"properties":{"name":"B4580","category":"secondary","osm_type":"way","osm_id":"205896912","ref":"B4580"}},{"type":"Feature","geometry":{"type":"LineString","coordinates":[[-3.11635,52.87043],[-3.11639,52.8703]]},"properties":{"name":"B4580","category":"secondary","osm_type":"way","osm_id":"205896914","ref":"B4580"}},{"type":"Feature","geometry":{"type":"LineString","coordinates":[[-3.1289,52.86906],[-3.12892,52.86905]]},"properties":{"name":"B4580","category":"secondary","osm_type":"way","osm_id":"205896916","ref":"B4580"}},{"type":"Feature","geometry":{"type":"LineString","coordinates":[[-3.16649,52.80681],[-3.15667,52.8086],[-3.14425,52.80813],[-3.14002,52.80696],[-3.13867,52.80505],[-3.13584,52.80252],[-3.13393,52.80186],[-3.12949,52.8016],[-3.1212,52.79961],[-3.11552,52.79998],[-3.11115,52.80145]]},"properties":{"name":"B4396","category":"secondary","osm_type":"way","osm_id":"215642388","ref":"B4396"}},{"type":"Feature","geometry":{"type":"LineString","coordinates":[[-3.16655,52.80679],[-3.16649,52.80681]]},"properties":{"name":"B4396","category":"secondary","osm_type":"way","osm_id":"215642390","ref":"B4396"}},{"type":"Feature","geometry":{"type":"LineString","coordinates":[[-3.14483,52.83801],[-3.13738,52.83886],[-3.13385,52.84016],[-3.13042,52.84208],[-3.12254,52.84466],[-3.11217,52.84458],[-3.10857,52.84346],[-3.10504,52.84323]]},"properties":{"name":"Secondary and tertiary roads","category":"tertiary","osm_type":"way","osm_id":"219160723"}},{"type":"Feature","geometry":{"type":"LineString","coordinates":[[-3.02916,52.8798],[-3.03056,52.88304],[-3.03163,52.88382]]},"properties":{"name":"North Drive","category":"tertiary","osm_type":"way","osm_id":"226720922"}},{"type":"Feature","geometry":{"type":"LineString","coordinates":[[-3.05779,52.80975],[-3.06058,52.80974],[-3.06293,52.8089]]},"properties":{"name":"B4396","category":"secondary","osm_type":"way","osm_id":"231230668","ref":"B4396"}},{"type":"Feature","geometry":{"type":"LineString","coordinates":[[-3.03869,52.89184],[-3.03766,52.89457]]},"properties":{"name":"Chirk Road","category":"secondary","osm_type":"way","osm_id":"239544440","ref":"B5069"}},{"type":"Feature","geometry":{"type":"LineString","coordinates":[[-3.06351,52.85538],[-3.06164,52.8561],[-3.05859,52.85651]]},"properties":{"name":"Upper Brook Street","category":"tertiary","osm_type":"way","osm_id":"250816027"}},{"type":"Feature","geometry":{"type":"LineString","coordinates":[[-3.0497,52.78292],[-3.04722,52.78409],[-3.04335,52.78401]]},"properties":{"name":"Station Road","category":"secondary","osm_type":"way","osm_id":"260759859","ref":"B4398"}},{"type":"Feature","geometry":{"type":"LineString","coordinates":[[-3.05007,52.78276],[-3.0497,52.78292]]},"properties":{"name":"Station Road","category":"secondary","osm_type":"way","osm_id":"260759860","ref":"B4398"}},{"type":"Feature","geometry":{"type":"LineString","coordinates":[[-3.08245,52.78098],[-3.08207,52.78098]]},"properties":{"name":"Station Road","category":"secondary","osm_type":"way","osm_id":"260816368","ref":"B4398"}},{"type":"Feature","geometry":{"type":"LineString","coordinates":[[-3.08207,52.78098],[-3.07873,52.78088]]},"properties":{"name":"Station Road","category":"secondary","osm_type":"way","osm_id":"260816370","ref":"B4398"}},{"type":"Feature","geometry":{"type":"LineString","coordinates":[[-3.02859,52.88575],[-3.02894,52.8856]]},"properties":{"name":"Secondary and tertiary roads","category":"tertiary","osm_type":"way","osm_id":"272473290"}},{"type":"Feature","geometry":{"type":"LineString","coordinates":[[-3.02894,52.8856],[-3.03163,52.88382]]},"properties":{"name":"Twmpath Lane","category":"tertiary","osm_type":"way","osm_id":"272473298"}},{"type":"Feature","geometry":{"type":"LineString","coordinates":[[-2.99748,52.79521],[-3.003,52.79788],[-3.00649,52.79854],[-3.0108,52.80041],[-3.01546,52.80062],[-3.01967,52.80191]]},"properties":{"name":"B4396","category":"secondary","osm_type":"way","osm_id":"293518390","ref":"B4396"}},{"type":"Feature","geometry":{"type":"LineString","coordinates":[[-3.10414,52.88788],[-3.10516,52.8874]]},"properties":{"name":"Secondary and tertiary roads","category":"tertiary","osm_type":"way","osm_id":"327119681"}},{"type":"Feature","geometry":{"type":"LineString","coordinates":[[-3.04762,52.91869],[-3.04769,52.91868]]},"properties":{"name":"Station Road","category":"tertiary","osm_type":"way","osm_id":"327119684"}},{"type":"Feature","geometry":{"type":"LineString","coordinates":[[-3.10969,52.90719],[-3.10909,52.90723]]},"properties":{"name":"B4579","category":"secondary","osm_type":"way","osm_id":"327119710","ref":"B4579"}},{"type":"Feature","geometry":{"type":"LineString","coordinates":[[-3.10516,52.8874],[-3.11061,52.88446],[-3.11231,52.88309]]},"properties":{"name":"Secondary and tertiary roads","category":"tertiary","osm_type":"way","osm_id":"327119724"}},{"type":"Feature","geometry":{"type":"LineString","coordinates":[[-3.10909,52.90723],[-3.1069,52.90702],[-3.10335,52.90581],[-3.10112,52.90341],[-3.0972,52.90118],[-3.09615,52.8992],[-3.09469,52.89836],[-3.09526,52.8962],[-3.09215,52.89806]]},"properties":{"name":"Glyn Road","category":"secondary","osm_type":"way","osm_id":"327119725","ref":"B4579"}},{"type":"Feature","geometry":{"type":"LineString","coordinates":[[-3.10015,52.88801],[-3.09361,52.88783],[-3.09146,52.88638],[-3.08481,52.88942],[-3.08221,52.88946],[-3.07934,52.89047],[-3.0784,52.88994],[-3.07533,52.89014],[-3.07262,52.8894],[-3.0693,52.8899],[-3.06297,52.88928],[-3.05709,52.8874],[-3.05343,52.88784]]},"properties":{"name":"Secondary and tertiary roads","category":"tertiary","osm_type":"way","osm_id":"327119726"}},{"type":"Feature","geometry":{"type":"LineString","coordinates":[[-3.0746,52.78011],[-3.06663,52.77849],[-3.0626,52.77854],[-3.0597,52.77911],[-3.05259,52.78164]]},"properties":{"name":"Station Road","category":"secondary","osm_type":"way","osm_id":"327144595","ref":"B4398"}},{"type":"Feature","geometry":{"type":"LineString","coordinates":[[-3.02143,52.76829],[-3.02803,52.77136],[-3.02878,52.77336],[-3.03093,52.77364],[-3.03481,52.77513],[-3.04013,52.78403]]},"properties":{"name":"Secondary and tertiary roads","category":"tertiary","osm_type":"way","osm_id":"327148847"}},{"type":"Feature","geometry":{"type":"LineString","coordinates":[[-3.01635,52.76721],[-3.01705,52.76816],[-3.02143,52.76829]]},"properties":{"name":"Secondary and tertiary roads","category":"tertiary","osm_type":"way","osm_id":"327148848"}},{"type":"Feature","geometry":{"type":"LineString","coordinates":[[-3.038,52.84194],[-3.03837,52.84187]]},"properties":{"name":"Secondary and tertiary roads","category":"tertiary","osm_type":"way","osm_id":"333792431"}},{"type":"Feature","geometry":{"type":"LineString","coordinates":[[-3.03875,52.84208],[-3.03908,52.84233]]},"properties":{"name":"Maesbury Road","category":"tertiary","osm_type":"way","osm_id":"333792432"}},{"type":"Feature","geometry":{"type":"LineString","coordinates":[[-3.03857,52.84117],[-3.03894,52.84135]]},"properties":{"name":"Secondary and tertiary roads","category":"tertiary","osm_type":"way","osm_id":"333792434"}},{"type":"Feature","geometry":{"type":"LineString","coordinates":[[-3.0393,52.84131],[-3.03857,52.84117]]},"properties":{"name":"Secondary and tertiary roads","category":"tertiary","osm_type":"way","osm_id":"333792436"}},{"type":"Feature","geometry":{"type":"LineString","coordinates":[[-3.01967,52.80191],[-3.01983,52.80197]]},"properties":{"name":"B4396","category":"secondary","osm_type":"way","osm_id":"337159062","ref":"B4396"}},{"type":"Feature","geometry":{"type":"LineString","coordinates":[[-3.01983,52.80197],[-3.0254,52.80482],[-3.0292,52.80765],[-3.03408,52.80958],[-3.0383,52.81017]]},"properties":{"name":"B4396","category":"secondary","osm_type":"way","osm_id":"337159063","ref":"B4396"}},{"type":"Feature","geometry":{"type":"LineString","coordinates":[[-3.13208,52.56882],[-3.13198,52.56885]]},"properties":{"name":"Chirbury Road","category":"secondary","osm_type":"way","osm_id":"362071265","ref":"B4386"}},{"type":"Feature","geometry":{"type":"LineString","coordinates":[[-3.04803,52.91867],[-3.04861,52.91861]]},"properties":{"name":"Station Road","category":"tertiary","osm_type":"way","osm_id":"385081462"}},{"type":"Feature","geometry":{"type":"LineString","coordinates":[[-3.09075,52.92565],[-3.09059,52.92549]]},"properties":{"name":"Secondary and tertiary roads","category":"tertiary","osm_type":"way","osm_id":"413191648"}},{"type":"Feature","geometry":{"type":"LineString","coordinates":[[-3.06324,52.80897],[-3.06636,52.80963]]},"properties":{"name":"B4396","category":"secondary","osm_type":"way","osm_id":"424831608","ref":"B4396"}},{"type":"Feature","geometry":{"type":"LineString","coordinates":[[-3.06293,52.8089],[-3.06324,52.80897]]},"properties":{"name":"B4396","category":"secondary","osm_type":"way","osm_id":"424831609","ref":"B4396"}},{"type":"Feature","geometry":{"type":"LineString","coordinates":[[-3.15509,52.83717],[-3.15329,52.83744],[-3.14857,52.83724],[-3.1476,52.83912],[-3.14483,52.83801]]},"properties":{"name":"Secondary and tertiary roads","category":"tertiary","osm_type":"way","osm_id":"438327732"}},{"type":"Feature","geometry":{"type":"LineString","coordinates":[[-3.15648,52.83701],[-3.15509,52.83717]]},"properties":{"name":"Secondary and tertiary roads","category":"tertiary","osm_type":"way","osm_id":"438327739"}},{"type":"Feature","geometry":{"type":"LineString","coordinates":[[-3.05132,52.84245],[-3.05311,52.84289],[-3.05851,52.84287]]},"properties":{"name":"Weston Road","category":"tertiary","osm_type":"way","osm_id":"438333762"}},{"type":"Feature","geometry":{"type":"LineString","coordinates":[[-3.0433,52.86776],[-3.04204,52.871]]},"properties":{"name":"Gobowen Road","category":"secondary","osm_type":"way","osm_id":"495005750","ref":"B5069"}},{"type":"Feature","geometry":{"type":"LineString","coordinates":[[-3.09689,52.92979],[-3.09618,52.92953]]},"properties":{"name":"Secondary and tertiary roads","category":"tertiary","osm_type":"way","osm_id":"511444836"}},{"type":"Feature","geometry":{"type":"LineString","coordinates":[[-3.00291,52.92827],[-3.00053,52.93015]]},"properties":{"name":"Overton Road","category":"secondary","osm_type":"way","osm_id":"522291503","ref":"B5069"}},{"type":"Feature","geometry":{"type":"LineString","coordinates":[[-3.03434,52.51517],[-3.02983,52.51324],[-3.02726,52.51169],[-3.01633,52.50763],[-3.00749,52.50563],[-3.004,52.50538],[-2.99925,52.5056]]},"properties":{"name":"B4385","category":"secondary","osm_type":"way","osm_id":"534164814","ref":"B4385"}},{"type":"Feature","geometry":{"type":"LineString","coordinates":[[-3.04749,52.85354],[-3.04682,52.85308]]},"properties":{"name":"Salop Road","category":"secondary","osm_type":"way","osm_id":"542075522","ref":"B4579"}},{"type":"Feature","geometry":{"type":"LineString","coordinates":[[-3.04789,52.85372],[-3.04749,52.85354]]},"properties":{"name":"Salop Road","category":"secondary","osm_type":"way","osm_id":"542075523","ref":"B4579"}},{"type":"Feature","geometry":{"type":"LineString","coordinates":[[-3.06397,52.60787],[-3.06409,52.60759]]},"properties":{"name":"B4386","category":"secondary","osm_type":"way","osm_id":"545945763","ref":"B4386"}},{"type":"Feature","geometry":{"type":"LineString","coordinates":[[-3.06409,52.60759],[-3.06671,52.60035],[-3.06796,52.59841],[-3.06899,52.59752],[-3.07359,52.59536]]},"properties":{"name":"B4386","category":"secondary","osm_type":"way","osm_id":"545945768","ref":"B4386"}},{"type":"Feature","geometry":{"type":"LineString","coordinates":[[-3.04963,52.85571],[-3.04809,52.85385]]},"properties":{"name":"Salop Road","category":"secondary","osm_type":"way","osm_id":"675843811","ref":"B4579"}},{"type":"Feature","geometry":{"type":"LineString","coordinates":[[-3.09113,52.92767],[-3.09075,52.92565]]},"properties":{"name":"Secondary and tertiary roads","category":"tertiary","osm_type":"way","osm_id":"695872257"}},{"type":"Feature","geometry":{"type":"LineString","coordinates":[[-3.0411,52.85199],[-3.04098,52.85212]]},"properties":{"name":"College Road","category":"tertiary","osm_type":"way","osm_id":"728166560"}},{"type":"Feature","geometry":{"type":"LineString","coordinates":[[-3.00504,52.87616],[-3.00785,52.87742],[-3.01325,52.88086],[-3.01833,52.88231],[-3.02055,52.88394],[-3.02218,52.88591]]},"properties":{"name":"B5009","category":"secondary","osm_type":"way","osm_id":"735303827","ref":"B5009"}},{"type":"Feature","geometry":{"type":"LineString","coordinates":[[-3.02552,52.8885],[-3.03287,52.89266]]},"properties":{"name":"Whittington Road","category":"secondary","osm_type":"way","osm_id":"735303828","ref":"B5009"}},{"type":"Feature","geometry":{"type":"LineString","coordinates":[[-3.03991,52.8827],[-3.03953,52.88256]]},"properties":{"name":"Twmpath Lane","category":"tertiary","osm_type":"way","osm_id":"757570115"}},{"type":"Feature","geometry":{"type":"LineString","coordinates":[[-3.03953,52.88256],[-3.03995,52.88251]]},"properties":{"name":"Twmpath Lane","category":"tertiary","osm_type":"way","osm_id":"757570116"}},{"type":"Feature","geometry":{"type":"LineString","coordinates":[[-3.04868,52.86329],[-3.04903,52.86306]]},"properties":{"name":"Gobowen Road","category":"secondary","osm_type":"way","osm_id":"757746287","ref":"B5069"}},{"type":"Feature","geometry":{"type":"LineString","coordinates":[[-3.04852,52.86336],[-3.04868,52.86329]]},"properties":{"name":"Gobowen Road","category":"secondary","osm_type":"way","osm_id":"757746288","ref":"B5069"}},{"type":"Feature","geometry":{"type":"LineString","coordinates":[[-3.0494,52.86315],[-3.04903,52.86306]]},"properties":{"name":"Beatrice Street","category":"secondary","osm_type":"way","osm_id":"757746290","ref":"B5069"}},{"type":"Feature","geometry":{"type":"LineString","coordinates":[[-3.04903,52.86306],[-3.04888,52.86326]]},"properties":{"name":"Secondary and tertiary roads","category":"secondary","osm_type":"way","osm_id":"757746291"}},{"type":"Feature","geometry":{"type":"LineString","coordinates":[[-3.04888,52.86326],[-3.04868,52.86329]]},"properties":{"name":"B5069","category":"secondary","osm_type":"way","osm_id":"757746292","ref":"B5069"}},{"type":"Feature","geometry":{"type":"LineString","coordinates":[[-3.0814,52.8556],[-3.0818,52.85602],[-3.09039,52.85871],[-3.09453,52.86072],[-3.09884,52.86142],[-3.10068,52.86218],[-3.1015,52.86608],[-3.10342,52.86937],[-3.1029,52.87146]]},"properties":{"name":"Back Racecourse Lane","category":"tertiary","osm_type":"way","osm_id":"845131588"}},{"type":"Feature","geometry":{"type":"LineString","coordinates":[[-3.08359,52.8684],[-3.1029,52.87146]]},"properties":{"name":"B4580","category":"secondary","osm_type":"way","osm_id":"845148008","ref":"B4580"}},{"type":"Feature","geometry":{"type":"LineString","coordinates":[[-3.08347,52.86838],[-3.08359,52.8684]]},"properties":{"name":"B4580","category":"secondary","osm_type":"way","osm_id":"845148009","ref":"B4580"}},{"type":"Feature","geometry":{"type":"LineString","coordinates":[[-3.06513,52.8862],[-3.06485,52.88306],[-3.06631,52.88091]]},"properties":{"name":"Secondary and tertiary roads","category":"tertiary","osm_type":"way","osm_id":"845148046"}},{"type":"Feature","geometry":{"type":"LineString","coordinates":[[-3.06512,52.88628],[-3.06513,52.8862]]},"properties":{"name":"Secondary and tertiary roads","category":"tertiary","osm_type":"way","osm_id":"845148047"}},{"type":"Feature","geometry":{"type":"LineString","coordinates":[[-3.0664,52.88085],[-3.06746,52.88007]]},"properties":{"name":"Secondary and tertiary roads","category":"tertiary","osm_type":"way","osm_id":"845148048"}},{"type":"Feature","geometry":{"type":"LineString","coordinates":[[-3.06631,52.88091],[-3.0664,52.88085]]},"properties":{"name":"Secondary and tertiary roads","category":"tertiary","osm_type":"way","osm_id":"845148049"}},{"type":"Feature","geometry":{"type":"LineString","coordinates":[[-3.04809,52.85385],[-3.04856,52.85407]]},"properties":{"name":"Victoria Road","category":"tertiary","osm_type":"way","osm_id":"845802591"}},{"type":"Feature","geometry":{"type":"LineString","coordinates":[[-3.04747,52.84099],[-3.05132,52.84245]]},"properties":{"name":"Weston Road","category":"tertiary","osm_type":"way","osm_id":"846444424"}},{"type":"Feature","geometry":{"type":"LineString","coordinates":[[-3.04734,52.84097],[-3.04747,52.84099]]},"properties":{"name":"Weston Road","category":"tertiary","osm_type":"way","osm_id":"846444425"}},{"type":"Feature","geometry":{"type":"LineString","coordinates":[[-3.04549,52.84133],[-3.04734,52.84097]]},"properties":{"name":"Weston Road","category":"tertiary","osm_type":"way","osm_id":"846459133"}},{"type":"Feature","geometry":{"type":"LineString","coordinates":[[-3.04404,52.84106],[-3.0441,52.84107]]},"properties":{"name":"Weston Road","category":"tertiary","osm_type":"way","osm_id":"846459134"}},{"type":"Feature","geometry":{"type":"LineString","coordinates":[[-3.04103,52.85171],[-3.04127,52.85185],[-3.04105,52.85199],[-3.04079,52.85186],[-3.04103,52.85171]]},"properties":{"name":"Shrewsbury Road","category":"secondary","osm_type":"way","osm_id":"852173778","ref":"B4579"}},{"type":"Feature","geometry":{"type":"LineString","coordinates":[[-3.04098,52.85212],[-3.04094,52.85198]]},"properties":{"name":"College Road","category":"tertiary","osm_type":"way","osm_id":"852173779"}},{"type":"Feature","geometry":{"type":"LineString","coordinates":[[-3.04123,52.85177],[-3.04159,52.8519]]},"properties":{"name":"Shrewsbury Road","category":"secondary","osm_type":"way","osm_id":"852173780","ref":"B4579"}},{"type":"Feature","geometry":{"type":"LineString","coordinates":[[-3.04088,52.85196],[-3.04009,52.85189]]},"properties":{"name":"Shrewsbury Road","category":"secondary","osm_type":"way","osm_id":"852173781","ref":"B4579"}},{"type":"Feature","geometry":{"type":"LineString","coordinates":[[-3.04159,52.8519],[-3.04123,52.85193]]},"properties":{"name":"Shrewsbury Road","category":"secondary","osm_type":"way","osm_id":"852173784","ref":"B4579"}},{"type":"Feature","geometry":{"type":"LineString","coordinates":[[-3.04029,52.85186],[-3.04081,52.8518]]},"properties":{"name":"Shrewsbury Road","category":"secondary","osm_type":"way","osm_id":"852173785","ref":"B4579"}},{"type":"Feature","geometry":{"type":"LineString","coordinates":[[-3.07207,52.88373],[-3.06873,52.88211],[-3.06587,52.87715],[-3.06339,52.87447],[-3.06374,52.8722],[-3.06248,52.87047],[-3.06257,52.86854]]},"properties":{"name":"B4579","category":"secondary","osm_type":"way","osm_id":"856970923","ref":"B4579"}},{"type":"Feature","geometry":{"type":"LineString","coordinates":[[-3.07298,52.88476],[-3.07293,52.88469]]},"properties":{"name":"B4579","category":"secondary","osm_type":"way","osm_id":"856970924","ref":"B4579"}},{"type":"Feature","geometry":{"type":"LineString","coordinates":[[-3.08532,52.847],[-3.08226,52.84826],[-3.07389,52.85046],[-3.06811,52.85267]]},"properties":{"name":"Secondary and tertiary roads","category":"tertiary","osm_type":"way","osm_id":"857155342"}},{"type":"Feature","geometry":{"type":"LineString","coordinates":[[-3.08554,52.8469],[-3.08532,52.847]]},"properties":{"name":"Secondary and tertiary roads","category":"tertiary","osm_type":"way","osm_id":"857155343"}},{"type":"Feature","geometry":{"type":"LineString","coordinates":[[-3.10051,52.83139],[-3.09975,52.83317]]},"properties":{"name":"Treflach Road","category":"tertiary","osm_type":"way","osm_id":"857318720"}},{"type":"Feature","geometry":{"type":"LineString","coordinates":[[-3.10054,52.83129],[-3.10051,52.83139]]},"properties":{"name":"Treflach Road","category":"tertiary","osm_type":"way","osm_id":"857318721"}},{"type":"Feature","geometry":{"type":"LineString","coordinates":[[-3.05596,52.83126],[-3.05571,52.83123]]},"properties":{"name":"B5069","category":"secondary","osm_type":"way","osm_id":"857353114","ref":"B5069"}},{"type":"Feature","geometry":{"type":"LineString","coordinates":[[-3.07293,52.88469],[-3.07218,52.88378]]},"properties":{"name":"B4579","category":"secondary","osm_type":"way","osm_id":"881069316","ref":"B4579"}},{"type":"Feature","geometry":{"type":"LineString","coordinates":[[-3.07218,52.88378],[-3.07207,52.88373]]},"properties":{"name":"B4579","category":"secondary","osm_type":"way","osm_id":"881069317","ref":"B4579"}},{"type":"Feature","geometry":{"type":"LineString","coordinates":[[-3.00618,52.92535],[-3.00811,52.92652]]},"properties":{"name":"Colliery Road","category":"tertiary","osm_type":"way","osm_id":"900712459"}},{"type":"Feature","geometry":{"type":"LineString","coordinates":[[-3.03891,52.89146],[-3.03889,52.89162]]},"properties":{"name":"Chirk Road","category":"secondary","osm_type":"way","osm_id":"905906307","ref":"B5069"}},{"type":"Feature","geometry":{"type":"LineString","coordinates":[[-3.0384,52.8898],[-3.03871,52.89114]]},"properties":{"name":"Chirk Road","category":"secondary","osm_type":"way","osm_id":"905906308","ref":"B5069"}},{"type":"Feature","geometry":{"type":"LineString","coordinates":[[-3.03869,52.89153],[-3.03871,52.89114]]},"properties":{"name":"Chirk Road","category":"secondary","osm_type":"way","osm_id":"905906309","ref":"B5069"}},{"type":"Feature","geometry":{"type":"LineString","coordinates":[[-3.03869,52.89184],[-3.03871,52.89159]]},"properties":{"name":"Chirk Road","category":"secondary","osm_type":"way","osm_id":"905906310","ref":"B5069"}},{"type":"Feature","geometry":{"type":"LineString","coordinates":[[-3.04356,52.84103],[-3.04404,52.84106]]},"properties":{"name":"Weston Road","category":"tertiary","osm_type":"way","osm_id":"906203387"}},{"type":"Feature","geometry":{"type":"LineString","coordinates":[[-3.04432,52.84111],[-3.04549,52.84133]]},"properties":{"name":"Weston Road","category":"tertiary","osm_type":"way","osm_id":"906203388"}},{"type":"Feature","geometry":{"type":"LineString","coordinates":[[-3.05612,52.85604],[-3.05359,52.85507]]},"properties":{"name":"Victoria Road","category":"tertiary","osm_type":"way","osm_id":"906785566"}},{"type":"Feature","geometry":{"type":"LineString","coordinates":[[-3.04488,52.88943],[-3.04085,52.88972]]},"properties":{"name":"Secondary and tertiary roads","category":"tertiary","osm_type":"way","osm_id":"906785578"}},{"type":"Feature","geometry":{"type":"LineString","coordinates":[[-3.03871,52.89114],[-3.03891,52.89146]]},"properties":{"name":"Chirk Road","category":"secondary","osm_type":"way","osm_id":"906790716","ref":"B5069"}},{"type":"Feature","geometry":{"type":"LineString","coordinates":[[-3.02908,52.91847],[-3.02202,52.91788]]},"properties":{"name":"B5070","category":"secondary","osm_type":"way","osm_id":"906790724","ref":"B5070"}},{"type":"Feature","geometry":{"type":"LineString","coordinates":[[-3.0294,52.91848],[-3.02908,52.91847]]},"properties":{"name":"B5070","category":"secondary","osm_type":"way","osm_id":"906790725","ref":"B5070"}},{"type":"Feature","geometry":{"type":"LineString","coordinates":[[-3.02445,52.82123],[-3.025,52.82307],[-3.02671,52.82457]]},"properties":{"name":"Main Road","category":"tertiary","osm_type":"way","osm_id":"907760652"}},{"type":"Feature","geometry":{"type":"LineString","coordinates":[[-3.05262,52.86145],[-3.05231,52.86173]]},"properties":{"name":"Beatrice Street","category":"secondary","osm_type":"way","osm_id":"907761987","ref":"B5069"}},{"type":"Feature","geometry":{"type":"LineString","coordinates":[[-3.03869,52.89153],[-3.03891,52.89146]]},"properties":{"name":"Chirk Road","category":"secondary","osm_type":"way","osm_id":"907763987","ref":"B5069"}},{"type":"Feature","geometry":{"type":"LineString","coordinates":[[-3.03889,52.89162],[-3.03871,52.89159]]},"properties":{"name":"Chirk Road","category":"secondary","osm_type":"way","osm_id":"907763988","ref":"B5069"}},{"type":"Feature","geometry":{"type":"LineString","coordinates":[[-3.03889,52.89162],[-3.03869,52.89184]]},"properties":{"name":"Chirk Road","category":"secondary","osm_type":"way","osm_id":"907763989","ref":"B5069"}},{"type":"Feature","geometry":{"type":"LineString","coordinates":[[-3.03766,52.89457],[-3.03778,52.89491]]},"properties":{"name":"B5009","category":"secondary","osm_type":"way","osm_id":"907763993","ref":"B5009"}},{"type":"Feature","geometry":{"type":"LineString","coordinates":[[-3.00701,52.92464],[-3.00291,52.92827]]},"properties":{"name":"Overton Road","category":"secondary","osm_type":"way","osm_id":"908210769","ref":"B5069"}},{"type":"Feature","geometry":{"type":"LineString","coordinates":[[-3.03795,52.89578],[-3.03758,52.89602]]},"properties":{"name":"B5009","category":"secondary","osm_type":"way","osm_id":"908210770","ref":"B5009"}},{"type":"Feature","geometry":{"type":"LineString","coordinates":[[-3.03787,52.89569],[-3.03795,52.89578]]},"properties":{"name":"B5009","category":"secondary","osm_type":"way","osm_id":"908210771","ref":"B5009"}},{"type":"Feature","geometry":{"type":"LineString","coordinates":[[-3.04593,52.86499],[-3.04519,52.86554]]},"properties":{"name":"Gobowen Road","category":"secondary","osm_type":"way","osm_id":"908210776","ref":"B5069"}},{"type":"Feature","geometry":{"type":"LineString","coordinates":[[-3.03758,52.89602],[-3.03729,52.89588]]},"properties":{"name":"B5009","category":"secondary","osm_type":"way","osm_id":"908210779","ref":"B5009"}},{"type":"Feature","geometry":{"type":"LineString","coordinates":[[-3.0414,52.9015],[-3.0435,52.9019]]},"properties":{"name":"B5009","category":"secondary","osm_type":"way","osm_id":"913207904","ref":"B5009"}},{"type":"Feature","geometry":{"type":"LineString","coordinates":[[-3.0373,52.89574],[-3.03725,52.89563]]},"properties":{"name":"By Pass Road","category":"secondary","osm_type":"way","osm_id":"913207907","ref":"B5009"}},{"type":"Feature","geometry":{"type":"LineString","coordinates":[[-3.03725,52.89563],[-3.03741,52.89566]]},"properties":{"name":"By Pass Road","category":"secondary","osm_type":"way","osm_id":"913207908","ref":"B5009"}},{"type":"Feature","geometry":{"type":"LineString","coordinates":[[-3.03811,52.89614],[-3.03773,52.89601]]},"properties":{"name":"B5009","category":"secondary","osm_type":"way","osm_id":"913207910","ref":"B5009"}},{"type":"Feature","geometry":{"type":"LineString","coordinates":[[-3.03612,52.89526],[-3.03725,52.89563]]},"properties":{"name":"By Pass Road","category":"secondary","osm_type":"way","osm_id":"913207912","ref":"B5009"}},{"type":"Feature","geometry":{"type":"LineString","coordinates":[[-3.03811,52.89614],[-3.0414,52.9015]]},"properties":{"name":"B5009","category":"secondary","osm_type":"way","osm_id":"913207913","ref":"B5009"}},{"type":"Feature","geometry":{"type":"LineString","coordinates":[[-3.01991,52.91672],[-3.01918,52.91794]]},"properties":{"name":"St Martin's Road","category":"secondary","osm_type":"way","osm_id":"913216080","ref":"B5069"}},{"type":"Feature","geometry":{"type":"LineString","coordinates":[[-3.02202,52.91788],[-3.01918,52.91794]]},"properties":{"name":"B5070","category":"secondary","osm_type":"way","osm_id":"913216081","ref":"B5070"}},{"type":"Feature","geometry":{"type":"LineString","coordinates":[[-3.03004,52.90312],[-3.02785,52.90568],[-3.02408,52.90779],[-3.02407,52.91034],[-3.02147,52.91405]]},"properties":{"name":"St Martin's Road","category":"secondary","osm_type":"way","osm_id":"913216085","ref":"B5069"}},{"type":"Feature","geometry":{"type":"LineString","coordinates":[[-3.0441,52.84107],[-3.04432,52.84111]]},"properties":{"name":"Weston Road","category":"tertiary","osm_type":"way","osm_id":"913631715"}},{"type":"Feature","geometry":{"type":"LineString","coordinates":[[-3.00901,52.6338],[-3.00918,52.63379]]},"properties":{"name":"B4386","category":"secondary","osm_type":"way","osm_id":"913965232","ref":"B4386"}},{"type":"Feature","geometry":{"type":"LineString","coordinates":[[-3.03502,52.9192],[-3.03247,52.91853],[-3.02962,52.91848]]},"properties":{"name":"B5070","category":"secondary","osm_type":"way","osm_id":"919667515","ref":"B5070"}},{"type":"Feature","geometry":{"type":"LineString","coordinates":[[-3.04219,52.91923],[-3.03985,52.91965]]},"properties":{"name":"B5070","category":"secondary","osm_type":"way","osm_id":"919667516","ref":"B5070"}},{"type":"Feature","geometry":{"type":"LineString","coordinates":[[-3.06938,52.90875],[-3.06801,52.90623]]},"properties":{"name":"Secondary and tertiary roads","category":"tertiary","osm_type":"way","osm_id":"929116646"}},{"type":"Feature","geometry":{"type":"LineString","coordinates":[[-3.06801,52.90623],[-3.06784,52.90615]]},"properties":{"name":"Secondary and tertiary roads","category":"tertiary","osm_type":"way","osm_id":"929116647"}},{"type":"Feature","geometry":{"type":"LineString","coordinates":[[-2.99153,52.63818],[-2.9935,52.63715],[-2.99416,52.63624],[-2.99611,52.63544],[-3.00901,52.6338]]},"properties":{"name":"B4386","category":"secondary","osm_type":"way","osm_id":"939966747","ref":"B4386"}},{"type":"Feature","geometry":{"type":"LineString","coordinates":[[-3.03871,52.89159],[-3.03869,52.89153]]},"properties":{"name":"Chirk Road","category":"secondary","osm_type":"way","osm_id":"942232203","ref":"B5069"}},{"type":"Feature","geometry":{"type":"LineString","coordinates":[[-3.03657,52.8648],[-3.03622,52.86478]]},"properties":{"name":"Cabin Lane","category":"tertiary","osm_type":"way","osm_id":"943902261"}},{"type":"Feature","geometry":{"type":"LineString","coordinates":[[-3.03383,52.86132],[-3.03719,52.85997],[-3.04061,52.85967]]},"properties":{"name":"Cabin Lane","category":"tertiary","osm_type":"way","osm_id":"943902262"}},{"type":"Feature","geometry":{"type":"LineString","coordinates":[[-3.04061,52.85967],[-3.04328,52.85912]]},"properties":{"name":"Middleton Road","category":"tertiary","osm_type":"way","osm_id":"943904461"}},{"type":"Feature","geometry":{"type":"LineString","coordinates":[[-3.04733,52.85833],[-3.04801,52.85806]]},"properties":{"name":"Middleton Road","category":"tertiary","osm_type":"way","osm_id":"943904462"}},{"type":"Feature","geometry":{"type":"LineString","coordinates":[[-3.0558,52.831],[-3.05596,52.83126]]},"properties":{"name":"B5069","category":"secondary_link","osm_type":"way","osm_id":"989846272","ref":"B5069"}},{"type":"Feature","geometry":{"type":"LineString","coordinates":[[-3.04826,52.86347],[-3.04852,52.86336]]},"properties":{"name":"Gobowen Road","category":"secondary","osm_type":"way","osm_id":"997152230","ref":"B5069"}},{"type":"Feature","geometry":{"type":"LineString","coordinates":[[-3.04762,52.86387],[-3.04826,52.86347]]},"properties":{"name":"Gobowen Road","category":"secondary","osm_type":"way","osm_id":"997152231","ref":"B5069"}},{"type":"Feature","geometry":{"type":"LineString","coordinates":[[-3.0474,52.86402],[-3.04762,52.86387]]},"properties":{"name":"Gobowen Road","category":"secondary","osm_type":"way","osm_id":"997152232","ref":"B5069"}},{"type":"Feature","geometry":{"type":"LineString","coordinates":[[-3.06618,52.86429],[-3.06708,52.86487]]},"properties":{"name":"Mount Road","category":"secondary","osm_type":"way","osm_id":"997190087","ref":"B4580"}},{"type":"Feature","geometry":{"type":"LineString","coordinates":[[-3.06026,52.86233],[-3.06167,52.86257]]},"properties":{"name":"Mount Road","category":"secondary","osm_type":"way","osm_id":"997190088","ref":"B4580"}},{"type":"Feature","geometry":{"type":"LineString","coordinates":[[-3.03431,52.90062],[-3.03309,52.90176],[-3.03004,52.90312]]},"properties":{"name":"St Martin's Road","category":"secondary","osm_type":"way","osm_id":"1011567564","ref":"B5069"}},{"type":"Feature","geometry":{"type":"LineString","coordinates":[[-3.03438,52.90052],[-3.03431,52.90062]]},"properties":{"name":"St Martin's Road","category":"secondary","osm_type":"way","osm_id":"1011567565","ref":"B5069"}},{"type":"Feature","geometry":{"type":"LineString","coordinates":[[-3.02311,52.7864],[-3.01836,52.78889],[-3.00936,52.79274],[-2.99896,52.79351],[-2.99687,52.79391],[-2.99538,52.79465]]},"properties":{"name":"Station Road","category":"secondary","osm_type":"way","osm_id":"1089812497","ref":"B4398"}},{"type":"Feature","geometry":{"type":"LineString","coordinates":[[-3.04335,52.78401],[-3.03565,52.78424],[-3.03107,52.78334],[-3.02932,52.78341],[-3.02311,52.7864]]},"properties":{"name":"Station Road","category":"secondary","osm_type":"way","osm_id":"1089812499","ref":"B4398"}},{"type":"Feature","geometry":{"type":"LineString","coordinates":[[-3.07873,52.78088],[-3.0746,52.78011]]},"properties":{"name":"Station Road","category":"secondary","osm_type":"way","osm_id":"1089812500","ref":"B4398"}},{"type":"Feature","geometry":{"type":"LineString","coordinates":[[-3.06784,52.90615],[-3.06627,52.90474],[-3.06558,52.90145]]},"properties":{"name":"Secondary and tertiary roads","category":"tertiary","osm_type":"way","osm_id":"1108555337"}},{"type":"Feature","geometry":{"type":"LineString","coordinates":[[-3.06558,52.90145],[-3.06504,52.89791]]},"properties":{"name":"Secondary and tertiary roads","category":"tertiary","osm_type":"way","osm_id":"1108555338"}},{"type":"Feature","geometry":{"type":"LineString","coordinates":[[-3.02234,52.8768],[-3.02312,52.87733]]},"properties":{"name":"Park Meadow","category":"tertiary","osm_type":"way","osm_id":"1118965080"}},{"type":"Feature","geometry":{"type":"LineString","coordinates":[[-3.02671,52.82457],[-3.02924,52.82655]]},"properties":{"name":"Secondary and tertiary roads","category":"tertiary","osm_type":"way","osm_id":"1132718247"}},{"type":"Feature","geometry":{"type":"LineString","coordinates":[[-3.01783,52.81648],[-3.01974,52.81816]]},"properties":{"name":"Main Road","category":"tertiary","osm_type":"way","osm_id":"1132718248"}},{"type":"Feature","geometry":{"type":"LineString","coordinates":[[-3.01686,52.81581],[-3.01783,52.81648]]},"properties":{"name":"Main Road","category":"tertiary","osm_type":"way","osm_id":"1132718249"}},{"type":"Feature","geometry":{"type":"LineString","coordinates":[[-3.08206,52.90227],[-3.08506,52.90118],[-3.0874,52.89926],[-3.08987,52.89907],[-3.09014,52.89834]]},"properties":{"name":"Secondary and tertiary roads","category":"tertiary","osm_type":"way","osm_id":"1133461261"}},{"type":"Feature","geometry":{"type":"LineString","coordinates":[[-3.08188,52.90233],[-3.08206,52.90227]]},"properties":{"name":"Station Road","category":"tertiary","osm_type":"way","osm_id":"1133461262"}},{"type":"Feature","geometry":{"type":"LineString","coordinates":[[-3.02218,52.88591],[-3.02314,52.88685]]},"properties":{"name":"B5009","category":"secondary","osm_type":"way","osm_id":"1153004681","ref":"B5009"}},{"type":"Feature","geometry":{"type":"LineString","coordinates":[[-3.09051,52.89833],[-3.08598,52.89719]]},"properties":{"name":"Glyn Road","category":"secondary","osm_type":"way","osm_id":"1175951507","ref":"B4579"}},{"type":"Feature","geometry":{"type":"LineString","coordinates":[[-3.0566,52.858],[-3.05555,52.85908]]},"properties":{"name":"Church Street","category":"secondary","osm_type":"way","osm_id":"1213063947","ref":"B5069"}},{"type":"Feature","geometry":{"type":"LineString","coordinates":[[-3.05235,52.78177],[-3.05007,52.78276]]},"properties":{"name":"Station Road","category":"secondary","osm_type":"way","osm_id":"1223791491","ref":"B4398"}},{"type":"Feature","geometry":{"type":"LineString","coordinates":[[-3.05259,52.78164],[-3.05235,52.78177]]},"properties":{"name":"Station Road","category":"secondary","osm_type":"way","osm_id":"1223791492","ref":"B4398"}},{"type":"Feature","geometry":{"type":"LineString","coordinates":[[-3.03868,52.84168],[-3.03859,52.84194]]},"properties":{"name":"Maesbury Road","category":"tertiary_link","osm_type":"way","osm_id":"1225418189"}},{"type":"Feature","geometry":{"type":"LineString","coordinates":[[-3.03837,52.84187],[-3.03859,52.84194]]},"properties":{"name":"Maesbury Road","category":"tertiary","osm_type":"way","osm_id":"1225418193"}},{"type":"Feature","geometry":{"type":"LineString","coordinates":[[-3.03875,52.84208],[-3.03856,52.84201]]},"properties":{"name":"Maesbury Road","category":"tertiary","osm_type":"way","osm_id":"1225418194"}},{"type":"Feature","geometry":{"type":"LineString","coordinates":[[-3.03856,52.84201],[-3.03818,52.842]]},"properties":{"name":"Maesbury Road","category":"tertiary_link","osm_type":"way","osm_id":"1225418195"}},{"type":"Feature","geometry":{"type":"LineString","coordinates":[[-3.03856,52.84201],[-3.03835,52.84188]]},"properties":{"name":"Maesbury Road","category":"tertiary","osm_type":"way","osm_id":"1225418205"}},{"type":"Feature","geometry":{"type":"LineString","coordinates":[[-3.03859,52.84194],[-3.03875,52.84208]]},"properties":{"name":"Maesbury Road","category":"tertiary","osm_type":"way","osm_id":"1225418208"}},{"type":"Feature","geometry":{"type":"LineString","coordinates":[[-3.03865,52.84152],[-3.03867,52.8413]]},"properties":{"name":"Secondary and tertiary roads","category":"tertiary_link","osm_type":"way","osm_id":"1225418212"}},{"type":"Feature","geometry":{"type":"LineString","coordinates":[[-3.02314,52.88685],[-3.02318,52.88689]]},"properties":{"name":"B5009","category":"secondary","osm_type":"way","osm_id":"1238530671","ref":"B5009"}},{"type":"Feature","geometry":{"type":"LineString","coordinates":[[-3.02957,52.91848],[-3.0294,52.91848]]},"properties":{"name":"B5070","category":"secondary","osm_type":"way","osm_id":"1305088073","ref":"B5070"}},{"type":"Feature","geometry":{"type":"LineString","coordinates":[[-3.02962,52.91848],[-3.02957,52.91848]]},"properties":{"name":"B5070","category":"secondary","osm_type":"way","osm_id":"1305088074","ref":"B5070"}},{"type":"Feature","geometry":{"type":"LineString","coordinates":[[-3.05679,52.85619],[-3.05612,52.85604]]},"properties":{"name":"Lower Brook Street","category":"tertiary","osm_type":"way","osm_id":"1349412279"}},{"type":"Feature","geometry":{"type":"LineString","coordinates":[[-3.05859,52.85651],[-3.05775,52.85642]]},"properties":{"name":"Upper Brook Street","category":"tertiary","osm_type":"way","osm_id":"1349412280"}},{"type":"Feature","geometry":{"type":"LineString","coordinates":[[-3.06058,52.86239],[-3.06045,52.86258]]},"properties":{"name":"Secondary and tertiary roads","category":"secondary","osm_type":"way","osm_id":"1349412426"}},{"type":"Feature","geometry":{"type":"LineString","coordinates":[[-3.05282,52.86152],[-3.05251,52.86155]]},"properties":{"name":"Castle Street","category":"secondary","osm_type":"way","osm_id":"1349412492","ref":"B5069"}},{"type":"Feature","geometry":{"type":"LineString","coordinates":[[-3.05262,52.86145],[-3.05282,52.86152]]},"properties":{"name":"Castle Street","category":"secondary","osm_type":"way","osm_id":"1349412493","ref":"B5069"}},{"type":"Feature","geometry":{"type":"LineString","coordinates":[[-3.05231,52.86173],[-3.05144,52.86231]]},"properties":{"name":"Beatrice Street","category":"secondary","osm_type":"way","osm_id":"1349743188","ref":"B5069"}},{"type":"Feature","geometry":{"type":"LineString","coordinates":[[-3.03835,52.84188],[-3.03821,52.8418]]},"properties":{"name":"Maesbury Road","category":"tertiary","osm_type":"way","osm_id":"1350782855"}},{"type":"Feature","geometry":{"type":"LineString","coordinates":[[-3.0291,52.85035],[-3.02885,52.85033]]},"properties":{"name":"Shrewsbury Road","category":"secondary","osm_type":"way","osm_id":"1350782870","ref":"B4579"}},{"type":"Feature","geometry":{"type":"LineString","coordinates":[[-3.03341,52.85077],[-3.03291,52.8507]]},"properties":{"name":"Shrewsbury Road","category":"secondary","osm_type":"way","osm_id":"1350782872","ref":"B4579"}},{"type":"Feature","geometry":{"type":"LineString","coordinates":[[-3.03492,52.85113],[-3.03341,52.85077]]},"properties":{"name":"Shrewsbury Road","category":"secondary","osm_type":"way","osm_id":"1350782873","ref":"B4579"}},{"type":"Feature","geometry":{"type":"LineString","coordinates":[[-3.04009,52.85189],[-3.04029,52.85186]]},"properties":{"name":"Shrewsbury Road","category":"secondary","osm_type":"way","osm_id":"1350782953","ref":"B4579"}},{"type":"Feature","geometry":{"type":"LineString","coordinates":[[-3.03908,52.84233],[-3.03926,52.84259]]},"properties":{"name":"Maesbury Road","category":"tertiary","osm_type":"way","osm_id":"1350782987"}},{"type":"Feature","geometry":{"type":"LineString","coordinates":[[-3.03894,52.84135],[-3.03908,52.84143]]},"properties":{"name":"Secondary and tertiary roads","category":"tertiary","osm_type":"way","osm_id":"1350782988"}},{"type":"Feature","geometry":{"type":"LineString","coordinates":[[-3.05267,52.86131],[-3.05262,52.86145]]},"properties":{"name":"Beatrice Street","category":"secondary","osm_type":"way","osm_id":"1350783005","ref":"B4579"}},{"type":"Feature","geometry":{"type":"LineString","coordinates":[[-3.04903,52.86306],[-3.04954,52.8626]]},"properties":{"name":"Oswald Road","category":"secondary","osm_type":"way","osm_id":"1350783010"}},{"type":"Feature","geometry":{"type":"LineString","coordinates":[[-3.01638,52.872],[-3.01643,52.87226]]},"properties":{"name":"Drenewydd","category":"tertiary","osm_type":"way","osm_id":"1364525212"}},{"type":"Feature","geometry":{"type":"LineString","coordinates":[[-3.02147,52.91405],[-3.02129,52.9145]]},"properties":{"name":"St Martin's Road","category":"secondary","osm_type":"way","osm_id":"1378656897","ref":"B5069"}},{"type":"Feature","geometry":{"type":"LineString","coordinates":[[-3.00811,52.92652],[-3.00833,52.92809]]},"properties":{"name":"Secondary and tertiary roads","category":"tertiary","osm_type":"way","osm_id":"1395671888"}},{"type":"Feature","geometry":{"type":"LineString","coordinates":[[-3.03282,52.85074],[-3.03258,52.85066],[-3.03273,52.85052],[-3.03294,52.8506],[-3.03282,52.85074]]},"properties":{"name":"Secondary and tertiary roads","category":"secondary","osm_type":"way","osm_id":"1424654618"}},{"type":"Feature","geometry":{"type":"LineString","coordinates":[[-3.03218,52.85059],[-3.03259,52.85058]]},"properties":{"name":"Secondary and tertiary roads","category":"secondary","osm_type":"way","osm_id":"1424654619"}},{"type":"Feature","geometry":{"type":"LineString","coordinates":[[-3.03294,52.8506],[-3.0332,52.8507]]},"properties":{"name":"Secondary and tertiary roads","category":"secondary","osm_type":"way","osm_id":"1424654620"}},{"type":"Feature","geometry":{"type":"LineString","coordinates":[[-3.03281,52.85035],[-3.03289,52.85055]]},"properties":{"name":"Secondary and tertiary roads","category":"tertiary","osm_type":"way","osm_id":"1424654621"}},{"type":"Feature","geometry":{"type":"LineString","coordinates":[[-3.08882,52.92464],[-3.08825,52.92441]]},"properties":{"name":"Secondary and tertiary roads","category":"tertiary","osm_type":"way","osm_id":"1486478177"}},{"type":"Feature","geometry":{"type":"LineString","coordinates":[[-3.05684,52.92769],[-3.05003,52.92654],[-3.04536,52.92619],[-3.04476,52.92541],[-3.04374,52.91973]]},"properties":{"name":"Chirk Road","category":"secondary","osm_type":"way","osm_id":"1551294943","ref":"B5070"}},{"type":"Feature","geometry":{"type":"LineString","coordinates":[[-3.03794,52.89546],[-3.03787,52.89569]]},"properties":{"name":"B5009","category":"secondary","osm_type":"way","osm_id":"1551487572","ref":"B5009"}},{"type":"Feature","geometry":{"type":"LineString","coordinates":[[-3.03767,52.89562],[-3.03794,52.89546]]},"properties":{"name":"B5009","category":"secondary","osm_type":"way","osm_id":"1551487573","ref":"B5009"}}]}