{"type":"FeatureCollection","features":[{"type":"Feature","geometry":{"type":"LineString","coordinates":[[-5.00407,50.51567],[-5.00526,50.51391],[-5.00835,50.51138],[-5.0108,50.51043]]},"properties":{"name":"B3276","category":"secondary","osm_type":"way","osm_id":"22913083","ref":"B3276"}},{"type":"Feature","geometry":{"type":"LineString","coordinates":[[-5.00403,50.51906],[-5.00407,50.51567]]},"properties":{"name":"B3276","category":"secondary","osm_type":"way","osm_id":"37277014","ref":"B3276"}},{"type":"Feature","geometry":{"type":"LineString","coordinates":[[-5.02281,50.50303],[-5.02424,50.50086]]},"properties":{"name":"B3276","category":"secondary","osm_type":"way","osm_id":"70240837","ref":"B3276"}},{"type":"Feature","geometry":{"type":"LineString","coordinates":[[-5.021,50.5093],[-5.0212,50.50919]]},"properties":{"name":"B3276","category":"secondary","osm_type":"way","osm_id":"70240838","ref":"B3276"}},{"type":"Feature","geometry":{"type":"LineString","coordinates":[[-5.01405,50.50952],[-5.01708,50.50975]]},"properties":{"name":"B3276","category":"secondary","osm_type":"way","osm_id":"233125223","ref":"B3276"}},{"type":"Feature","geometry":{"type":"LineString","coordinates":[[-5.02223,50.50809],[-5.02198,50.50516]]},"properties":{"name":"B3276","category":"secondary","osm_type":"way","osm_id":"823192097","ref":"B3276"}},{"type":"Feature","geometry":{"type":"LineString","coordinates":[[-5.01708,50.50975],[-5.02093,50.50932]]},"properties":{"name":"B3276","category":"secondary","osm_type":"way","osm_id":"823192098","ref":"B3276"}},{"type":"Feature","geometry":{"type":"LineString","coordinates":[[-5.0212,50.50919],[-5.02219,50.50823]]},"properties":{"name":"B3276","category":"secondary","osm_type":"way","osm_id":"824129568","ref":"B3276"}},{"type":"Feature","geometry":{"type":"LineString","coordinates":[[-5.02093,50.50932],[-5.021,50.5093]]},"properties":{"name":"B3276","category":"secondary","osm_type":"way","osm_id":"824129569","ref":"B3276"}},{"type":"Feature","geometry":{"type":"LineString","coordinates":[[-5.00086,50.52154],[-5.00237,50.52071]]},"properties":{"name":"B3276","category":"secondary","osm_type":"way","osm_id":"1144531084","ref":"B3276"}},{"type":"Feature","geometry":{"type":"LineString","coordinates":[[-5.00354,50.52039],[-5.00403,50.51906]]},"properties":{"name":"B3276","category":"secondary","osm_type":"way","osm_id":"1144531085","ref":"B3276"}},{"type":"Feature","geometry":{"type":"LineString","coordinates":[[-5.00329,50.52041],[-5.00354,50.52039]]},"properties":{"name":"B3276","category":"secondary","osm_type":"way","osm_id":"1144531086","ref":"B3276"}},{"type":"Feature","geometry":{"type":"LineString","coordinates":[[-5.00244,50.52067],[-5.00329,50.52041]]},"properties":{"name":"B3276","category":"secondary","osm_type":"way","osm_id":"1144531087","ref":"B3276"}},{"type":"Feature","geometry":{"type":"LineString","coordinates":[[-5.00039,50.52181],[-5.00086,50.52154]]},"properties":{"name":"B3276","category":"secondary","osm_type":"way","osm_id":"1144531088","ref":"B3276"}},{"type":"Feature","geometry":{"type":"LineString","coordinates":[[-5.02219,50.50823],[-5.02223,50.50809]]},"properties":{"name":"B3276","category":"secondary","osm_type":"way","osm_id":"1200015851","ref":"B3276"}},{"type":"Feature","geometry":{"type":"LineString","coordinates":[[-5.02198,50.50516],[-5.02281,50.50303]]},"properties":{"name":"B3276","category":"secondary","osm_type":"way","osm_id":"1200015857","ref":"B3276"}},{"type":"Feature","geometry":{"type":"LineString","coordinates":[[-5.02401,50.50046],[-5.02326,50.49986]]},"properties":{"name":"B3276","category":"secondary","osm_type":"way","osm_id":"1200015858","ref":"B3276"}},{"type":"Feature","geometry":{"type":"LineString","coordinates":[[-5.02424,50.50086],[-5.02401,50.50046]]},"properties":{"name":"B3276","category":"secondary","osm_type":"way","osm_id":"1200015859","ref":"B3276"}},{"type":"Feature","geometry":{"type":"LineString","coordinates":[[-5.0108,50.51043],[-5.01405,50.50952]]},"properties":{"name":"B3276","category":"secondary","osm_type":"way","osm_id":"1222729561","ref":"B3276"}},{"type":"Feature","geometry":{"type":"LineString","coordinates":[[-5.00237,50.52071],[-5.00244,50.52067]]},"properties":{"name":"B3276","category":"secondary","osm_type":"way","osm_id":"1349539684","ref":"B3276"}}]}