{"type":"FeatureCollection","features":[{"type":"Feature","geometry":{"type":"LineString","coordinates":[[-6.29542,49.91522],[-6.29646,49.91493],[-6.2988,49.91545]]},"properties":{"name":"High Cross Lane","category":"tertiary","osm_type":"way","osm_id":"33458901"}},{"type":"Feature","geometry":{"type":"LineString","coordinates":[[-6.31116,49.91505],[-6.31147,49.91566],[-6.31084,49.91608]]},"properties":{"name":"Church Road","category":"tertiary","osm_type":"way","osm_id":"33458908"}},{"type":"Feature","geometry":{"type":"LineString","coordinates":[[-6.30134,49.9248],[-6.30422,49.92922]]},"properties":{"name":"Telegraph Road","category":"tertiary","osm_type":"way","osm_id":"33458910"}},{"type":"Feature","geometry":{"type":"LineString","coordinates":[[-6.3026,49.92621],[-6.30767,49.92441]]},"properties":{"name":"Porthloo Lane","category":"tertiary","osm_type":"way","osm_id":"33458934"}},{"type":"Feature","geometry":{"type":"LineString","coordinates":[[-6.30767,49.92441],[-6.30832,49.92429],[-6.30761,49.92301],[-6.30794,49.92229]]},"properties":{"name":"Porthloo Hill","category":"tertiary","osm_type":"way","osm_id":"356331397"}},{"type":"Feature","geometry":{"type":"LineString","coordinates":[[-6.30794,49.92229],[-6.30479,49.9188],[-6.30445,49.91745]]},"properties":{"name":"Porthloo Lane","category":"tertiary","osm_type":"way","osm_id":"356331398"}}]}