{"type":"FeatureCollection","features":[{"type":"Feature","geometry":{"type":"LineString","coordinates":[[0.35565,51.48364],[0.35599,51.48352]]},"properties":{"name":"Chadwell Road","category":"secondary","osm_type":"way","osm_id":"1433641379","ref":"B149"}},{"type":"Feature","geometry":{"type":"LineString","coordinates":[[0.68133,51.23799],[0.68038,51.23873]]},"properties":{"name":"East Street","category":"tertiary","osm_type":"way","osm_id":"1433806682"}},{"type":"Feature","geometry":{"type":"LineString","coordinates":[[0.36657,51.47166],[0.36681,51.47147]]},"properties":{"name":"Feenan Highway","category":"tertiary","osm_type":"way","osm_id":"1434230699"}},{"type":"Feature","geometry":{"type":"LineString","coordinates":[[0.36681,51.47147],[0.36653,51.47154]]},"properties":{"name":"Feenan Highway","category":"tertiary","osm_type":"way","osm_id":"1434230700"}},{"type":"Feature","geometry":{"type":"LineString","coordinates":[[0.57361,51.38048],[0.57464,51.38034]]},"properties":{"name":"Cornwallis Avenue","category":"tertiary","osm_type":"way","osm_id":"1436825489"}},{"type":"Feature","geometry":{"type":"LineString","coordinates":[[0.04497,51.43637],[0.04516,51.43624]]},"properties":{"name":"Mottingham Road","category":"secondary","osm_type":"way","osm_id":"1442472262","ref":"B226"}},{"type":"Feature","geometry":{"type":"LineString","coordinates":[[0.37515,51.4314],[0.37499,51.43143]]},"properties":{"name":"Whitehill Road","category":"tertiary","osm_type":"way","osm_id":"1442497422"}},{"type":"Feature","geometry":{"type":"LineString","coordinates":[[0.67964,51.22372],[0.6814,51.22408]]},"properties":{"name":"Lenham Road","category":"tertiary","osm_type":"way","osm_id":"1443192225"}},{"type":"Feature","geometry":{"type":"LineString","coordinates":[[0.69046,51.22509],[0.69203,51.22648]]},"properties":{"name":"Headcorn Road","category":"tertiary","osm_type":"way","osm_id":"1443192226"}},{"type":"Feature","geometry":{"type":"LineString","coordinates":[[0.66861,51.19867],[0.67078,51.20024],[0.67639,51.20579]]},"properties":{"name":"Headcorn Road","category":"tertiary","osm_type":"way","osm_id":"1443192491"}},{"type":"Feature","geometry":{"type":"LineString","coordinates":[[0.67187,51.1552],[0.6695,51.15692]]},"properties":{"name":"Headcorn Road","category":"tertiary","osm_type":"way","osm_id":"1444646888"}},{"type":"Feature","geometry":{"type":"LineString","coordinates":[[0.63425,51.16591],[0.63454,51.16563]]},"properties":{"name":"Smarden Road","category":"tertiary","osm_type":"way","osm_id":"1444647744"}},{"type":"Feature","geometry":{"type":"LineString","coordinates":[[0.62451,51.17037],[0.63087,51.17185]]},"properties":{"name":"Lenham Road","category":"tertiary","osm_type":"way","osm_id":"1444650051"}},{"type":"Feature","geometry":{"type":"LineString","coordinates":[[0.68905,51.13933],[0.69026,51.13831],[0.68978,51.13699]]},"properties":{"name":"Bethersden Road","category":"tertiary","osm_type":"way","osm_id":"1444656489"}},{"type":"Feature","geometry":{"type":"LineString","coordinates":[[0.67617,51.14505],[0.67904,51.1449]]},"properties":{"name":"Biddenden Road","category":"tertiary","osm_type":"way","osm_id":"1444656490"}},{"type":"Feature","geometry":{"type":"LineString","coordinates":[[0.33292,51.43365],[0.33288,51.43334]]},"properties":{"name":"Secondary and tertiary roads","category":"secondary","osm_type":"way","osm_id":"1444863883"}},{"type":"Feature","geometry":{"type":"LineString","coordinates":[[0.33288,51.43334],[0.33292,51.43365]]},"properties":{"name":"Springhead Road","category":"secondary","osm_type":"way","osm_id":"1444863884","ref":"B262"}},{"type":"Feature","geometry":{"type":"LineString","coordinates":[[0.33294,51.43319],[0.33306,51.43293]]},"properties":{"name":"Secondary and tertiary roads","category":"secondary","osm_type":"way","osm_id":"1444863888"}},{"type":"Feature","geometry":{"type":"LineString","coordinates":[[0.33288,51.43334],[0.33294,51.43319]]},"properties":{"name":"Springhead Road","category":"secondary","osm_type":"way","osm_id":"1444863889","ref":"B262"}},{"type":"Feature","geometry":{"type":"LineString","coordinates":[[0.242,51.45797],[0.24191,51.45813]]},"properties":{"name":"Rennie Drive","category":"tertiary","osm_type":"way","osm_id":"1445778320"}},{"type":"Feature","geometry":{"type":"LineString","coordinates":[[0.24215,51.45814],[0.242,51.45797]]},"properties":{"name":"Secondary and tertiary roads","category":"tertiary","osm_type":"way","osm_id":"1445778321"}},{"type":"Feature","geometry":{"type":"LineString","coordinates":[[0.3353,51.44415],[0.33594,51.44358]]},"properties":{"name":"Secondary and tertiary roads","category":"secondary","osm_type":"way","osm_id":"1445803984"}},{"type":"Feature","geometry":{"type":"LineString","coordinates":[[0.33622,51.44326],[0.33594,51.44358]]},"properties":{"name":"The Hill","category":"secondary","osm_type":"way","osm_id":"1445803985","ref":"B2175"}},{"type":"Feature","geometry":{"type":"LineString","coordinates":[[0.33557,51.44395],[0.3353,51.44415]]},"properties":{"name":"High Street","category":"secondary","osm_type":"way","osm_id":"1445803986","ref":"B2175"}},{"type":"Feature","geometry":{"type":"LineString","coordinates":[[0.3569,51.16993],[0.35152,51.17037],[0.34941,51.17106],[0.34832,51.17336]]},"properties":{"name":"Alders Road","category":"tertiary","osm_type":"way","osm_id":"1446271699"}},{"type":"Feature","geometry":{"type":"LineString","coordinates":[[0.3572,51.17017],[0.36099,51.16977]]},"properties":{"name":"Crittenden Road","category":"tertiary","osm_type":"way","osm_id":"1446271720"}},{"type":"Feature","geometry":{"type":"LineString","coordinates":[[0.36099,51.16977],[0.36285,51.16869]]},"properties":{"name":"Crittenden Road","category":"tertiary","osm_type":"way","osm_id":"1446271721"}},{"type":"Feature","geometry":{"type":"LineString","coordinates":[[0.08008,51.25815],[0.07991,51.25993]]},"properties":{"name":"Hosey Common Road","category":"secondary","osm_type":"way","osm_id":"1446348442","ref":"B2026"}},{"type":"Feature","geometry":{"type":"LineString","coordinates":[[0.08006,51.25799],[0.08008,51.25815]]},"properties":{"name":"Hosey Common Road","category":"secondary","osm_type":"way","osm_id":"1446348443","ref":"B2026"}},{"type":"Feature","geometry":{"type":"LineString","coordinates":[[0.63551,51.2251],[0.64011,51.22584],[0.64184,51.22528],[0.64441,51.2256],[0.64741,51.22468]]},"properties":{"name":"Lenham Road","category":"tertiary","osm_type":"way","osm_id":"1446871106"}},{"type":"Feature","geometry":{"type":"LineString","coordinates":[[0.64517,51.22053],[0.64579,51.22216]]},"properties":{"name":"Ulcombe Hill","category":"tertiary","osm_type":"way","osm_id":"1446871107"}},{"type":"Feature","geometry":{"type":"LineString","coordinates":[[0.64375,51.21385],[0.64377,51.21442]]},"properties":{"name":"The Street","category":"tertiary","osm_type":"way","osm_id":"1446871108"}},{"type":"Feature","geometry":{"type":"LineString","coordinates":[[0.64385,51.20714],[0.64436,51.20834]]},"properties":{"name":"Headcorn Road","category":"tertiary","osm_type":"way","osm_id":"1446871109"}},{"type":"Feature","geometry":{"type":"LineString","coordinates":[[0.63426,51.22449],[0.63551,51.2251]]},"properties":{"name":"Chartway Street","category":"tertiary","osm_type":"way","osm_id":"1446926040"}},{"type":"Feature","geometry":{"type":"LineString","coordinates":[[0.62557,51.23211],[0.62838,51.23542],[0.63233,51.24157]]},"properties":{"name":"Broomfield Road","category":"tertiary","osm_type":"way","osm_id":"1446929632"}},{"type":"Feature","geometry":{"type":"LineString","coordinates":[[0.6295,51.22643],[0.62951,51.22657]]},"properties":{"name":"Broomfield Road","category":"tertiary","osm_type":"way","osm_id":"1446929633"}},{"type":"Feature","geometry":{"type":"LineString","coordinates":[[0.39127,51.39317],[0.39135,51.39315]]},"properties":{"name":"The Street","category":"tertiary","osm_type":"way","osm_id":"1447673337"}},{"type":"Feature","geometry":{"type":"LineString","coordinates":[[0.69956,51.15368],[0.70121,51.15444]]},"properties":{"name":"Pluckley Road","category":"tertiary","osm_type":"way","osm_id":"1448582996"}},{"type":"Feature","geometry":{"type":"LineString","coordinates":[[0.67187,51.1552],[0.67121,51.15454]]},"properties":{"name":"Bell Lane","category":"tertiary","osm_type":"way","osm_id":"1448588082"}},{"type":"Feature","geometry":{"type":"LineString","coordinates":[[0.64241,51.14093],[0.64209,51.14048]]},"properties":{"name":"Bell Lane","category":"tertiary","osm_type":"way","osm_id":"1448589112"}},{"type":"Feature","geometry":{"type":"LineString","coordinates":[[0.64635,51.13159],[0.64497,51.13184]]},"properties":{"name":"Weeks Lane","category":"tertiary","osm_type":"way","osm_id":"1448589551"}},{"type":"Feature","geometry":{"type":"LineString","coordinates":[[0.8547,51.05023],[0.85503,51.05031]]},"properties":{"name":"Secondary and tertiary roads","category":"tertiary","osm_type":"way","osm_id":"1449440167"}},{"type":"Feature","geometry":{"type":"LineString","coordinates":[[0.85503,51.05031],[0.85478,51.05013]]},"properties":{"name":"Secondary and tertiary roads","category":"tertiary","osm_type":"way","osm_id":"1449440168"}},{"type":"Feature","geometry":{"type":"LineString","coordinates":[[0.02634,51.48991],[0.02684,51.48995]]},"properties":{"name":"Bugsby's Way","category":"tertiary","osm_type":"way","osm_id":"1449476210"}},{"type":"Feature","geometry":{"type":"LineString","coordinates":[[0.02169,51.49002],[0.02198,51.49002]]},"properties":{"name":"Bugsby's Way","category":"tertiary","osm_type":"way","osm_id":"1449476211"}},{"type":"Feature","geometry":{"type":"LineString","coordinates":[[0.02198,51.49002],[0.02278,51.49002]]},"properties":{"name":"Bugsby's Way","category":"tertiary","osm_type":"way","osm_id":"1449476212"}},{"type":"Feature","geometry":{"type":"LineString","coordinates":[[0.02785,51.48993],[0.02769,51.48991]]},"properties":{"name":"Bugsby's Way","category":"tertiary","osm_type":"way","osm_id":"1449476213"}},{"type":"Feature","geometry":{"type":"LineString","coordinates":[[0.02502,51.48999],[0.02591,51.4899]]},"properties":{"name":"Bugsby's Way","category":"tertiary","osm_type":"way","osm_id":"1449476214"}},{"type":"Feature","geometry":{"type":"LineString","coordinates":[[0.02584,51.48982],[0.02558,51.48984]]},"properties":{"name":"Bugsby's Way","category":"tertiary","osm_type":"way","osm_id":"1449476215"}},{"type":"Feature","geometry":{"type":"LineString","coordinates":[[0.02305,51.49002],[0.0232,51.49002]]},"properties":{"name":"Bugsby's Way","category":"tertiary","osm_type":"way","osm_id":"1449476216"}},{"type":"Feature","geometry":{"type":"LineString","coordinates":[[0.41265,51.4],[0.41229,51.4001]]},"properties":{"name":"Secondary and tertiary roads","category":"tertiary","osm_type":"way","osm_id":"1449541446"}},{"type":"Feature","geometry":{"type":"LineString","coordinates":[[0.85395,51.01004],[0.85406,51.01022]]},"properties":{"name":"Secondary and tertiary roads","category":"tertiary","osm_type":"way","osm_id":"1449671401"}},{"type":"Feature","geometry":{"type":"LineString","coordinates":[[0.17838,51.41453],[0.17827,51.41461]]},"properties":{"name":"St David's Road","category":"tertiary","osm_type":"way","osm_id":"1450200763"}},{"type":"Feature","geometry":{"type":"LineString","coordinates":[[0.55686,51.11392],[0.55594,51.11353]]},"properties":{"name":"Frittenden Road","category":"tertiary","osm_type":"way","osm_id":"1451042160"}},{"type":"Feature","geometry":{"type":"LineString","coordinates":[[0.58778,51.13741],[0.58567,51.1368]]},"properties":{"name":"The Street","category":"tertiary","osm_type":"way","osm_id":"1451042161"}},{"type":"Feature","geometry":{"type":"LineString","coordinates":[[0.59388,51.14311],[0.59405,51.14226],[0.59266,51.14048]]},"properties":{"name":"Water Lane","category":"tertiary","osm_type":"way","osm_id":"1451042162"}},{"type":"Feature","geometry":{"type":"LineString","coordinates":[[0.61608,51.16938],[0.6176,51.16902],[0.62007,51.16917]]},"properties":{"name":"Moat Road","category":"tertiary","osm_type":"way","osm_id":"1451042163"}},{"type":"Feature","geometry":{"type":"LineString","coordinates":[[0.76795,51.02652],[0.76791,51.02642]]},"properties":{"name":"Appledore Road","category":"tertiary","osm_type":"way","osm_id":"1451723901"}},{"type":"Feature","geometry":{"type":"LineString","coordinates":[[0.01949,51.25557],[0.01937,51.25567]]},"properties":{"name":"Kent Hatch Road","category":"secondary","osm_type":"way","osm_id":"1451733734","ref":"B269"}},{"type":"Feature","geometry":{"type":"LineString","coordinates":[[0.31583,51.35939],[0.31862,51.36506]]},"properties":{"name":"Hartley Bottom Road","category":"tertiary","osm_type":"way","osm_id":"1451802660"}},{"type":"Feature","geometry":{"type":"LineString","coordinates":[[0.314,51.35562],[0.31537,51.357],[0.31501,51.35769],[0.31583,51.35939]]},"properties":{"name":"Hartley Bottom Road","category":"tertiary","osm_type":"way","osm_id":"1451802754"}},{"type":"Feature","geometry":{"type":"LineString","coordinates":[[0.31338,51.35319],[0.314,51.35562]]},"properties":{"name":"Hartley Bottom Road","category":"tertiary","osm_type":"way","osm_id":"1451802929"}},{"type":"Feature","geometry":{"type":"LineString","coordinates":[[0.31195,51.3511],[0.31221,51.35159]]},"properties":{"name":"Hartley Bottom Road","category":"tertiary","osm_type":"way","osm_id":"1451802996"}},{"type":"Feature","geometry":{"type":"LineString","coordinates":[[0.31221,51.35159],[0.31283,51.35242]]},"properties":{"name":"Hartley Bottom Road","category":"tertiary","osm_type":"way","osm_id":"1451802997"}},{"type":"Feature","geometry":{"type":"LineString","coordinates":[[0.31312,51.3528],[0.31338,51.35319]]},"properties":{"name":"Hartley Bottom Road","category":"tertiary","osm_type":"way","osm_id":"1451802998"}},{"type":"Feature","geometry":{"type":"LineString","coordinates":[[0.03983,51.24722],[0.03753,51.24742]]},"properties":{"name":"Kent Hatch Road","category":"secondary","osm_type":"way","osm_id":"1451948718","ref":"B269"}},{"type":"Feature","geometry":{"type":"LineString","coordinates":[[0.01412,51.25842],[0.01531,51.25729]]},"properties":{"name":"High Street","category":"secondary","osm_type":"way","osm_id":"1451985454","ref":"B269"}},{"type":"Feature","geometry":{"type":"LineString","coordinates":[[0.01531,51.25729],[0.01612,51.25641]]},"properties":{"name":"High Street","category":"secondary","osm_type":"way","osm_id":"1451985456","ref":"B269"}},{"type":"Feature","geometry":{"type":"LineString","coordinates":[[0.10787,51.48886],[0.10781,51.48823]]},"properties":{"name":"Basildon Road","category":"tertiary","osm_type":"way","osm_id":"1452583643"}},{"type":"Feature","geometry":{"type":"LineString","coordinates":[[0.84264,51.0874],[0.84431,51.08182]]},"properties":{"name":"Hamstreet Road","category":"tertiary","osm_type":"way","osm_id":"1452657121"}},{"type":"Feature","geometry":{"type":"LineString","coordinates":[[0.8426,51.08749],[0.84264,51.0874]]},"properties":{"name":"Hamstreet Road","category":"tertiary","osm_type":"way","osm_id":"1452657122"}},{"type":"Feature","geometry":{"type":"LineString","coordinates":[[0.79736,51.10446],[0.803,51.10588]]},"properties":{"name":"Woodchurch Road","category":"tertiary","osm_type":"way","osm_id":"1453292090"}},{"type":"Feature","geometry":{"type":"LineString","coordinates":[[0.803,51.10588],[0.80311,51.10591]]},"properties":{"name":"Woodchurch Road","category":"tertiary","osm_type":"way","osm_id":"1453292091"}},{"type":"Feature","geometry":{"type":"LineString","coordinates":[[0.14917,51.4553],[0.14906,51.45495]]},"properties":{"name":"Highland Road","category":"tertiary","osm_type":"way","osm_id":"1453611200"}},{"type":"Feature","geometry":{"type":"LineString","coordinates":[[0.14919,51.45538],[0.14917,51.4553]]},"properties":{"name":"Highland Road","category":"tertiary","osm_type":"way","osm_id":"1453611201"}},{"type":"Feature","geometry":{"type":"LineString","coordinates":[[0.01882,51.4853],[0.01945,51.48475]]},"properties":{"name":"Westcombe Hill","category":"tertiary","osm_type":"way","osm_id":"1454136993"}},{"type":"Feature","geometry":{"type":"LineString","coordinates":[[0.00847,51.48329],[0.00858,51.48361]]},"properties":{"name":"Vanbrugh Hill","category":"tertiary","osm_type":"way","osm_id":"1454137907"}},{"type":"Feature","geometry":{"type":"LineString","coordinates":[[0.56307,51.25567],[0.56317,51.25763]]},"properties":{"name":"Church Road","category":"tertiary","osm_type":"way","osm_id":"1454384146"}},{"type":"Feature","geometry":{"type":"LineString","coordinates":[[0.78509,51.0674],[0.78514,51.06733]]},"properties":{"name":"Appledore Road","category":"tertiary","osm_type":"way","osm_id":"1455186677"}},{"type":"Feature","geometry":{"type":"LineString","coordinates":[[0.24198,51.39341],[0.24313,51.39312]]},"properties":{"name":"The Street","category":"tertiary","osm_type":"way","osm_id":"1457452488"}},{"type":"Feature","geometry":{"type":"LineString","coordinates":[[0.27626,51.36617],[0.27513,51.3672],[0.2739,51.36765]]},"properties":{"name":"Sun Hill","category":"tertiary","osm_type":"way","osm_id":"1457455669"}},{"type":"Feature","geometry":{"type":"LineString","coordinates":[[0.27626,51.36617],[0.27675,51.36728]]},"properties":{"name":"Valley Road","category":"tertiary","osm_type":"way","osm_id":"1457462745"}},{"type":"Feature","geometry":{"type":"LineString","coordinates":[[0.30358,51.37532],[0.30374,51.37587]]},"properties":{"name":"Ash Road","category":"tertiary","osm_type":"way","osm_id":"1457462752"}},{"type":"Feature","geometry":{"type":"LineString","coordinates":[[0.32105,51.36926],[0.32115,51.36951]]},"properties":{"name":"Hartley Bottom Road","category":"tertiary","osm_type":"way","osm_id":"1457462758"}},{"type":"Feature","geometry":{"type":"LineString","coordinates":[[0.32594,51.49114],[0.32723,51.49054]]},"properties":{"name":"Lodge Lane","category":"tertiary","osm_type":"way","osm_id":"1457484390"}},{"type":"Feature","geometry":{"type":"LineString","coordinates":[[0.32723,51.49054],[0.32594,51.49114]]},"properties":{"name":"Lodge Lane","category":"tertiary","osm_type":"way","osm_id":"1457484391"}},{"type":"Feature","geometry":{"type":"LineString","coordinates":[[0.69542,51.34437],[0.69541,51.34417],[0.69509,51.34417],[0.69509,51.34437],[0.69542,51.34437]]},"properties":{"name":"Chestnut Street Roundabout","category":"tertiary","osm_type":"way","osm_id":"1458165155","operator":"Kent County Council"}},{"type":"Feature","geometry":{"type":"LineString","coordinates":[[0.73219,51.34479],[0.73236,51.34523]]},"properties":{"name":"B2006","category":"secondary","osm_type":"way","osm_id":"1459356669","ref":"B2006"}},{"type":"Feature","geometry":{"type":"LineString","coordinates":[[0.73253,51.34547],[0.73237,51.34525]]},"properties":{"name":"B2006","category":"secondary","osm_type":"way","osm_id":"1459356670","ref":"B2006"}},{"type":"Feature","geometry":{"type":"LineString","coordinates":[[0.73236,51.34523],[0.73253,51.3455]]},"properties":{"name":"Secondary and tertiary roads","category":"secondary","osm_type":"way","osm_id":"1459356671"}},{"type":"Feature","geometry":{"type":"LineString","coordinates":[[0.73253,51.3455],[0.73253,51.34547]]},"properties":{"name":"B2006","category":"secondary","osm_type":"way","osm_id":"1459356672","ref":"B2006"}},{"type":"Feature","geometry":{"type":"LineString","coordinates":[[0.73237,51.34525],[0.73236,51.34523]]},"properties":{"name":"B2006","category":"secondary","osm_type":"way","osm_id":"1459356673","ref":"B2006"}},{"type":"Feature","geometry":{"type":"LineString","coordinates":[[0.74591,51.15059],[0.74673,51.1521],[0.74618,51.15543]]},"properties":{"name":"Pluckley Road","category":"tertiary","osm_type":"way","osm_id":"1460285414"}},{"type":"Feature","geometry":{"type":"LineString","coordinates":[[0.74582,51.15049],[0.74591,51.15059]]},"properties":{"name":"Pluckley Road","category":"tertiary","osm_type":"way","osm_id":"1460285415"}},{"type":"Feature","geometry":{"type":"LineString","coordinates":[[0.40983,51.39693],[0.41208,51.39978]]},"properties":{"name":"Halfpence Lane","category":"tertiary","osm_type":"way","osm_id":"1460562695"}},{"type":"Feature","geometry":{"type":"LineString","coordinates":[[0.34981,51.48606],[0.35035,51.48581]]},"properties":{"name":"Wood View","category":"secondary","osm_type":"way","osm_id":"1462326478","ref":"B149"}},{"type":"Feature","geometry":{"type":"LineString","coordinates":[[0.35035,51.48581],[0.34967,51.48612]]},"properties":{"name":"Secondary and tertiary roads","category":"secondary","osm_type":"way","osm_id":"1462326479"}},{"type":"Feature","geometry":{"type":"LineString","coordinates":[[0.35674,51.48323],[0.35693,51.48314]]},"properties":{"name":"Chadwell Road","category":"secondary","osm_type":"way","osm_id":"1462326499","ref":"B149"}},{"type":"Feature","geometry":{"type":"LineString","coordinates":[[0.36599,51.46189],[0.3664,51.46183]]},"properties":{"name":"Secondary and tertiary roads","category":"tertiary","osm_type":"way","osm_id":"1462364360"}},{"type":"Feature","geometry":{"type":"LineString","coordinates":[[0.36443,51.46163],[0.36463,51.46188]]},"properties":{"name":"Civic Square","category":"tertiary","osm_type":"way","osm_id":"1462387407"}},{"type":"Feature","geometry":{"type":"LineString","coordinates":[[0.36616,51.46172],[0.36592,51.46125]]},"properties":{"name":"Civic Square","category":"tertiary","osm_type":"way","osm_id":"1462387646"}},{"type":"Feature","geometry":{"type":"LineString","coordinates":[[0.76796,51.02653],[0.76795,51.02652]]},"properties":{"name":"Appledore Road","category":"tertiary","osm_type":"way","osm_id":"1463173885"}},{"type":"Feature","geometry":{"type":"LineString","coordinates":[[0.2882,51.18987],[0.28819,51.18976]]},"properties":{"name":"Vale Rise","category":"tertiary","osm_type":"way","osm_id":"1463226576"}},{"type":"Feature","geometry":{"type":"LineString","coordinates":[[0.28811,51.1895],[0.28786,51.18934]]},"properties":{"name":"Lodge Oak Lane","category":"tertiary","osm_type":"way","osm_id":"1463226577"}},{"type":"Feature","geometry":{"type":"LineString","coordinates":[[0.27829,51.19259],[0.27866,51.19242]]},"properties":{"name":"Sovereign Way","category":"tertiary","osm_type":"way","osm_id":"1463411673"}},{"type":"Feature","geometry":{"type":"LineString","coordinates":[[0.59036,51.23707],[0.59079,51.23695]]},"properties":{"name":"Horseshoes Lane","category":"tertiary","osm_type":"way","osm_id":"1464110302"}},{"type":"Feature","geometry":{"type":"LineString","coordinates":[[0.22509,51.27431],[0.2248,51.27453]]},"properties":{"name":"Park Lane","category":"tertiary","osm_type":"way","osm_id":"1464374185"}},{"type":"Feature","geometry":{"type":"LineString","coordinates":[[0.2248,51.27453],[0.22465,51.27462]]},"properties":{"name":"Park Lane","category":"tertiary","osm_type":"way","osm_id":"1464374186"}},{"type":"Feature","geometry":{"type":"LineString","coordinates":[[0.22576,51.27363],[0.22556,51.27384]]},"properties":{"name":"Secondary and tertiary roads","category":"tertiary","osm_type":"way","osm_id":"1464374187"}},{"type":"Feature","geometry":{"type":"LineString","coordinates":[[0.30826,51.25963],[0.30827,51.26083]]},"properties":{"name":"Long Mill Lane","category":"tertiary","osm_type":"way","osm_id":"1464377423"}},{"type":"Feature","geometry":{"type":"LineString","coordinates":[[0.59362,51.22151],[0.59523,51.22128],[0.60101,51.22157]]},"properties":{"name":"Chartway Street","category":"tertiary","osm_type":"way","osm_id":"1464548871"}},{"type":"Feature","geometry":{"type":"LineString","coordinates":[[0.25356,51.40158],[0.25351,51.40158]]},"properties":{"name":"Rabbits Road","category":"tertiary","osm_type":"way","osm_id":"1464917359"}},{"type":"Feature","geometry":{"type":"LineString","coordinates":[[0.58533,51.1809],[0.5857,51.1808]]},"properties":{"name":"Four Oaks Road","category":"tertiary","osm_type":"way","osm_id":"1466185141"}},{"type":"Feature","geometry":{"type":"LineString","coordinates":[[0.5857,51.1808],[0.58533,51.18074]]},"properties":{"name":"Four Oaks Road","category":"tertiary","osm_type":"way","osm_id":"1466185142"}},{"type":"Feature","geometry":{"type":"LineString","coordinates":[[0.8529,51.12549],[0.85229,51.12591]]},"properties":{"name":"Britannia Lane","category":"tertiary","osm_type":"way","osm_id":"1467269373"}},{"type":"Feature","geometry":{"type":"LineString","coordinates":[[0.09795,51.37386],[0.09862,51.37475]]},"properties":{"name":"High Street","category":"tertiary","osm_type":"way","osm_id":"1469940421"}},{"type":"Feature","geometry":{"type":"LineString","coordinates":[[0.10021,51.37711],[0.10197,51.37891]]},"properties":{"name":"High Street","category":"tertiary","osm_type":"way","osm_id":"1469940422"}},{"type":"Feature","geometry":{"type":"LineString","coordinates":[[0.9937,51.25505],[0.99352,51.25505]]},"properties":{"name":"Shalmsford Street","category":"tertiary","osm_type":"way","osm_id":"1469990791"}},{"type":"Feature","geometry":{"type":"LineString","coordinates":[[0.99494,51.2549],[0.9937,51.25505]]},"properties":{"name":"Shalmsford Street","category":"tertiary","osm_type":"way","osm_id":"1469990792"}},{"type":"Feature","geometry":{"type":"LineString","coordinates":[[0.47438,51.30062],[0.47474,51.30067]]},"properties":{"name":"Station Road","category":"tertiary","osm_type":"way","osm_id":"1470020437"}},{"type":"Feature","geometry":{"type":"LineString","coordinates":[[0.47139,51.30062],[0.47438,51.30062]]},"properties":{"name":"Station Road","category":"tertiary","osm_type":"way","osm_id":"1470020438"}},{"type":"Feature","geometry":{"type":"LineString","coordinates":[[0.031,51.48827],[0.03105,51.48801]]},"properties":{"name":"Anchor and Hope Lane","category":"tertiary_link","osm_type":"way","osm_id":"1470145327"}},{"type":"Feature","geometry":{"type":"LineString","coordinates":[[0.031,51.48827],[0.03117,51.48816]]},"properties":{"name":"Anchor and Hope Lane","category":"tertiary","osm_type":"way","osm_id":"1470145328"}},{"type":"Feature","geometry":{"type":"LineString","coordinates":[[0.07605,51.37349],[0.07572,51.37424],[0.07642,51.37531]]},"properties":{"name":"Crofton Lane","category":"tertiary","osm_type":"way","osm_id":"1470912983"}},{"type":"Feature","geometry":{"type":"LineString","coordinates":[[0.47543,51.30077],[0.47602,51.30094]]},"properties":{"name":"Station Road","category":"tertiary","osm_type":"way","osm_id":"1471720381"}},{"type":"Feature","geometry":{"type":"LineString","coordinates":[[0.86533,51.1217],[0.8657,51.12186]]},"properties":{"name":"Moat Field Meadow","category":"tertiary","osm_type":"way","osm_id":"1473619782"}},{"type":"Feature","geometry":{"type":"LineString","coordinates":[[0.63515,51.15552],[0.63977,51.15552]]},"properties":{"name":"Shenley Road","category":"tertiary","osm_type":"way","osm_id":"1475299948"}},{"type":"Feature","geometry":{"type":"LineString","coordinates":[[0.60395,51.13833],[0.59898,51.1384],[0.5972,51.139],[0.59352,51.14146]]},"properties":{"name":"Biddenden Road","category":"tertiary","osm_type":"way","osm_id":"1475308640"}},{"type":"Feature","geometry":{"type":"LineString","coordinates":[[0.36683,51.4768],[0.3666,51.4772]]},"properties":{"name":"Chadwell Bypass","category":"secondary","osm_type":"way","osm_id":"1477879471","ref":"B149"}},{"type":"Feature","geometry":{"type":"LineString","coordinates":[[0.3666,51.4772],[0.36702,51.47683]]},"properties":{"name":"Chadwell Bypass","category":"secondary","osm_type":"way","osm_id":"1477879472","ref":"B149"}},{"type":"Feature","geometry":{"type":"LineString","coordinates":[[0.36758,51.477],[0.36712,51.47669]]},"properties":{"name":"Chadwell Hill","category":"tertiary","osm_type":"way","osm_id":"1477879476"}},{"type":"Feature","geometry":{"type":"LineString","coordinates":[[0.36706,51.47682],[0.36758,51.477]]},"properties":{"name":"Chadwell Hill","category":"tertiary","osm_type":"way","osm_id":"1477879477"}},{"type":"Feature","geometry":{"type":"LineString","coordinates":[[0.11862,51.43918],[0.11844,51.43931]]},"properties":{"name":"Foots Cray Lane","category":"tertiary","osm_type":"way","osm_id":"1484172848"}},{"type":"Feature","geometry":{"type":"LineString","coordinates":[[0.11863,51.43937],[0.11862,51.43918]]},"properties":{"name":"Foots Cray Lane","category":"tertiary","osm_type":"way","osm_id":"1484172849"}},{"type":"Feature","geometry":{"type":"LineString","coordinates":[[0.0054,51.49671],[0.00549,51.49679]]},"properties":{"name":"Secondary and tertiary roads","category":"tertiary","osm_type":"way","osm_id":"1484828877"}},{"type":"Feature","geometry":{"type":"LineString","coordinates":[[0.00549,51.49679],[0.00758,51.49558],[0.00936,51.4938]]},"properties":{"name":"Millennium Way","category":"tertiary","osm_type":"way","osm_id":"1484828878"}},{"type":"Feature","geometry":{"type":"LineString","coordinates":[[0.0054,51.49671],[0.00516,51.49681]]},"properties":{"name":"Millennium Way","category":"tertiary","osm_type":"way","osm_id":"1484828879"}},{"type":"Feature","geometry":{"type":"LineString","coordinates":[[0.06336,51.45071],[0.0634,51.4508]]},"properties":{"name":"Southend Crescent","category":"tertiary","osm_type":"way","osm_id":"1485916469"}},{"type":"Feature","geometry":{"type":"LineString","coordinates":[[0.41202,51.12453],[0.41463,51.12631],[0.41727,51.12958],[0.42148,51.13155]]},"properties":{"name":"Lamberhurst Road","category":"secondary","osm_type":"way","osm_id":"1486073317","ref":"B2162"}},{"type":"Feature","geometry":{"type":"LineString","coordinates":[[0.41192,51.12448],[0.41202,51.12453]]},"properties":{"name":"Lamberhurst Road","category":"secondary","osm_type":"way","osm_id":"1486073318","ref":"B2162"}},{"type":"Feature","geometry":{"type":"LineString","coordinates":[[0.42065,51.24958],[0.4214,51.25257]]},"properties":{"name":"Bow Road","category":"secondary","osm_type":"way","osm_id":"1486880208","ref":"B2015"}},{"type":"Feature","geometry":{"type":"LineString","coordinates":[[0.50864,51.26397],[0.50853,51.26395]]},"properties":{"name":"Church Road","category":"tertiary","osm_type":"way","osm_id":"1486894512"}},{"type":"Feature","geometry":{"type":"LineString","coordinates":[[0.51251,51.26215],[0.5129,51.26259]]},"properties":{"name":"Tovil Hill","category":"secondary","osm_type":"way","osm_id":"1486894514","ref":"B2010"}},{"type":"Feature","geometry":{"type":"LineString","coordinates":[[0.51294,51.22997],[0.50727,51.2302]]},"properties":{"name":"Heath Road","category":"secondary","osm_type":"way","osm_id":"1486900964","ref":"B2163"}},{"type":"Feature","geometry":{"type":"LineString","coordinates":[[0.50727,51.2302],[0.50527,51.23034]]},"properties":{"name":"Heath Road","category":"secondary","osm_type":"way","osm_id":"1486900965","ref":"B2163"}},{"type":"Feature","geometry":{"type":"LineString","coordinates":[[0.81281,51.12938],[0.81691,51.12763],[0.81925,51.12773],[0.82098,51.12862]]},"properties":{"name":"Secondary and tertiary roads","category":"tertiary","osm_type":"way","osm_id":"1487080419"}},{"type":"Feature","geometry":{"type":"LineString","coordinates":[[0.81281,51.12938],[0.81225,51.12943]]},"properties":{"name":"Secondary and tertiary roads","category":"tertiary","osm_type":"way","osm_id":"1487080420"}},{"type":"Feature","geometry":{"type":"LineString","coordinates":[[0.81241,51.12961],[0.81281,51.12938]]},"properties":{"name":"Secondary and tertiary roads","category":"tertiary","osm_type":"way","osm_id":"1487080421"}},{"type":"Feature","geometry":{"type":"LineString","coordinates":[[0.56317,51.25763],[0.56316,51.25816]]},"properties":{"name":"Church Road","category":"tertiary","osm_type":"way","osm_id":"1487142735"}},{"type":"Feature","geometry":{"type":"LineString","coordinates":[[0.54751,51.27318],[0.54786,51.27353]]},"properties":{"name":"New Cut Road","category":"tertiary","osm_type":"way","osm_id":"1487157397"}},{"type":"Feature","geometry":{"type":"LineString","coordinates":[[0.54786,51.27353],[0.54858,51.27484]]},"properties":{"name":"New Cut Road","category":"tertiary","osm_type":"way","osm_id":"1487157398"}},{"type":"Feature","geometry":{"type":"LineString","coordinates":[[0.55198,51.28104],[0.55274,51.28256]]},"properties":{"name":"New Cut Road","category":"tertiary","osm_type":"way","osm_id":"1487157401"}},{"type":"Feature","geometry":{"type":"LineString","coordinates":[[0.5578,51.2816],[0.55311,51.28272]]},"properties":{"name":"Bearsted Road","category":"tertiary","osm_type":"way","osm_id":"1487157403"}},{"type":"Feature","geometry":{"type":"LineString","coordinates":[[0.57011,51.27644],[0.56965,51.27648]]},"properties":{"name":"Ware Street","category":"tertiary","osm_type":"way","osm_id":"1487157404"}},{"type":"Feature","geometry":{"type":"LineString","coordinates":[[0.64144,51.26568],[0.64128,51.26641]]},"properties":{"name":"Secondary and tertiary roads","category":"tertiary","osm_type":"way","osm_id":"1487165186"}},{"type":"Feature","geometry":{"type":"LineString","coordinates":[[0.63353,51.26329],[0.63565,51.26331]]},"properties":{"name":"Eyhorne Street","category":"tertiary","osm_type":"way","osm_id":"1487165187"}},{"type":"Feature","geometry":{"type":"LineString","coordinates":[[0.63257,51.26279],[0.63273,51.26287]]},"properties":{"name":"Eyhorne Street","category":"tertiary","osm_type":"way","osm_id":"1487165188"}},{"type":"Feature","geometry":{"type":"LineString","coordinates":[[0.62714,51.26161],[0.6282,51.26134]]},"properties":{"name":"Eyhorne Street","category":"tertiary","osm_type":"way","osm_id":"1487165189"}},{"type":"Feature","geometry":{"type":"LineString","coordinates":[[0.62848,51.26124],[0.62875,51.2612]]},"properties":{"name":"Eyhorne Street","category":"tertiary","osm_type":"way","osm_id":"1487173905"}},{"type":"Feature","geometry":{"type":"LineString","coordinates":[[0.64796,51.23796],[0.64801,51.23803]]},"properties":{"name":"Chegworth Road","category":"tertiary","osm_type":"way","osm_id":"1487173914"}},{"type":"Feature","geometry":{"type":"LineString","coordinates":[[0.69019,51.22485],[0.69031,51.22496]]},"properties":{"name":"Headcorn Road","category":"tertiary","osm_type":"way","osm_id":"1487173925"}},{"type":"Feature","geometry":{"type":"LineString","coordinates":[[0.69031,51.22496],[0.69046,51.22509]]},"properties":{"name":"Headcorn Road","category":"tertiary","osm_type":"way","osm_id":"1487173926"}},{"type":"Feature","geometry":{"type":"LineString","coordinates":[[0.70647,51.23078],[0.70727,51.23094]]},"properties":{"name":"Headcorn Road","category":"tertiary","osm_type":"way","osm_id":"1487173928"}},{"type":"Feature","geometry":{"type":"LineString","coordinates":[[0.35832,51.41931],[0.35798,51.41946]]},"properties":{"name":"Coldharbour Road","category":"tertiary","osm_type":"way","osm_id":"1487743583"}},{"type":"Feature","geometry":{"type":"LineString","coordinates":[[0.25713,51.49479],[0.25711,51.49483]]},"properties":{"name":"Ship Lane","category":"tertiary","osm_type":"way","osm_id":"1488076126"}},{"type":"Feature","geometry":{"type":"LineString","coordinates":[[0.24603,51.49865],[0.2465,51.49874]]},"properties":{"name":"High Street","category":"tertiary","osm_type":"way","osm_id":"1488076139"}},{"type":"Feature","geometry":{"type":"LineString","coordinates":[[0.2465,51.49874],[0.24671,51.49877]]},"properties":{"name":"High Street","category":"tertiary","osm_type":"way","osm_id":"1488076140"}},{"type":"Feature","geometry":{"type":"LineString","coordinates":[[0.47613,51.29056],[0.4769,51.28851],[0.47667,51.28706]]},"properties":{"name":"Secondary and tertiary roads","category":"secondary_link","osm_type":"way","osm_id":"1488594765"}},{"type":"Feature","geometry":{"type":"LineString","coordinates":[[0.74115,51.20167],[0.74067,51.20133]]},"properties":{"name":"Field Mill Road","category":"tertiary","osm_type":"way","osm_id":"1488610249"}},{"type":"Feature","geometry":{"type":"LineString","coordinates":[[0.74125,51.2017],[0.74115,51.20167]]},"properties":{"name":"Field Mill Road","category":"tertiary","osm_type":"way","osm_id":"1488610250"}},{"type":"Feature","geometry":{"type":"LineString","coordinates":[[0.5726,51.38079],[0.57267,51.38075]]},"properties":{"name":"Secondary and tertiary roads","category":"tertiary","osm_type":"way","osm_id":"1489079828"}},{"type":"Feature","geometry":{"type":"LineString","coordinates":[[0.57267,51.38075],[0.57257,51.38075]]},"properties":{"name":"Secondary and tertiary roads","category":"tertiary","osm_type":"way","osm_id":"1489079829"}},{"type":"Feature","geometry":{"type":"LineString","coordinates":[[0.57257,51.38075],[0.57251,51.38079]]},"properties":{"name":"Secondary and tertiary roads","category":"tertiary","osm_type":"way","osm_id":"1489079832"}},{"type":"Feature","geometry":{"type":"LineString","coordinates":[[0.57251,51.38079],[0.5726,51.38079]]},"properties":{"name":"Secondary and tertiary roads","category":"tertiary","osm_type":"way","osm_id":"1489079833"}},{"type":"Feature","geometry":{"type":"LineString","coordinates":[[0.57502,51.3411],[0.57558,51.34159]]},"properties":{"name":"Sharsted Way","category":"tertiary","osm_type":"way","osm_id":"1489413402"}},{"type":"Feature","geometry":{"type":"LineString","coordinates":[[0.57558,51.34159],[0.57587,51.34182]]},"properties":{"name":"Sharsted Way","category":"tertiary","osm_type":"way","osm_id":"1489413403"}},{"type":"Feature","geometry":{"type":"LineString","coordinates":[[0.57587,51.34182],[0.57558,51.34159]]},"properties":{"name":"Secondary and tertiary roads","category":"tertiary","osm_type":"way","osm_id":"1489413404"}},{"type":"Feature","geometry":{"type":"LineString","coordinates":[[0.29548,51.48833],[0.29554,51.48932]]},"properties":{"name":"Grifon Road","category":"tertiary","osm_type":"way","osm_id":"1492259334"}},{"type":"Feature","geometry":{"type":"LineString","coordinates":[[0.29363,51.49026],[0.29361,51.48991]]},"properties":{"name":"Gilbert Road","category":"tertiary","osm_type":"way","osm_id":"1492259335"}},{"type":"Feature","geometry":{"type":"LineString","coordinates":[[0.03118,51.48788],[0.03105,51.48801]]},"properties":{"name":"Charlton Church Lane","category":"tertiary","osm_type":"way","osm_id":"1494896250"}},{"type":"Feature","geometry":{"type":"LineString","coordinates":[[0.03123,51.48781],[0.03118,51.48788]]},"properties":{"name":"Charlton Church Lane","category":"tertiary","osm_type":"way","osm_id":"1495029144"}},{"type":"Feature","geometry":{"type":"LineString","coordinates":[[0.59079,51.23695],[0.59182,51.23626]]},"properties":{"name":"Heath Road","category":"tertiary","osm_type":"way","osm_id":"1495852979"}},{"type":"Feature","geometry":{"type":"LineString","coordinates":[[0.36523,51.46189],[0.36599,51.46189]]},"properties":{"name":"Civic Square","category":"tertiary","osm_type":"way","osm_id":"1496531418"}},{"type":"Feature","geometry":{"type":"LineString","coordinates":[[0.19781,51.21375],[0.19755,51.21376]]},"properties":{"name":"Copping's Road","category":"tertiary","osm_type":"way","osm_id":"1497689145"}},{"type":"Feature","geometry":{"type":"LineString","coordinates":[[0.20347,51.21488],[0.20172,51.21516],[0.19781,51.21375]]},"properties":{"name":"Copping's Road","category":"tertiary","osm_type":"way","osm_id":"1497689146"}},{"type":"Feature","geometry":{"type":"LineString","coordinates":[[0.19518,51.21255],[0.1951,51.21243]]},"properties":{"name":"Copping's Road","category":"tertiary","osm_type":"way","osm_id":"1497689147"}},{"type":"Feature","geometry":{"type":"LineString","coordinates":[[0.19766,51.21386],[0.19755,51.21376]]},"properties":{"name":"Copping's Road","category":"tertiary","osm_type":"way","osm_id":"1497694314"}},{"type":"Feature","geometry":{"type":"LineString","coordinates":[[0.19781,51.21375],[0.19766,51.21386]]},"properties":{"name":"Copping's Road","category":"tertiary","osm_type":"way","osm_id":"1497694315"}},{"type":"Feature","geometry":{"type":"LineString","coordinates":[[0.19755,51.21376],[0.19628,51.21345],[0.19518,51.21255]]},"properties":{"name":"Copping's Road","category":"tertiary","osm_type":"way","osm_id":"1497694316"}},{"type":"Feature","geometry":{"type":"LineString","coordinates":[[0.1951,51.21243],[0.19465,51.21017],[0.19102,51.20758],[0.18986,51.20728]]},"properties":{"name":"Copping's Road","category":"tertiary","osm_type":"way","osm_id":"1498017924"}},{"type":"Feature","geometry":{"type":"LineString","coordinates":[[0.18981,51.20727],[0.18975,51.20725]]},"properties":{"name":"Copping's Road","category":"tertiary","osm_type":"way","osm_id":"1498017925"}},{"type":"Feature","geometry":{"type":"LineString","coordinates":[[0.18975,51.20725],[0.18971,51.20723]]},"properties":{"name":"Copping's Road","category":"tertiary","osm_type":"way","osm_id":"1498017926"}},{"type":"Feature","geometry":{"type":"LineString","coordinates":[[0.18986,51.20728],[0.18981,51.20727]]},"properties":{"name":"Copping's Road","category":"tertiary","osm_type":"way","osm_id":"1498017927"}},{"type":"Feature","geometry":{"type":"LineString","coordinates":[[0.06202,51.20532],[0.06211,51.20514]]},"properties":{"name":"Station Road","category":"secondary","osm_type":"way","osm_id":"1498242293","ref":"B2026"}},{"type":"Feature","geometry":{"type":"LineString","coordinates":[[0.06195,51.20513],[0.06202,51.20532]]},"properties":{"name":"Station Road","category":"secondary","osm_type":"way","osm_id":"1498242294","ref":"B2026"}},{"type":"Feature","geometry":{"type":"LineString","coordinates":[[0.0622,51.20488],[0.06205,51.20498]]},"properties":{"name":"Station Road","category":"secondary","osm_type":"way","osm_id":"1498243022","ref":"B2026"}},{"type":"Feature","geometry":{"type":"LineString","coordinates":[[0.06218,51.20505],[0.0622,51.20488]]},"properties":{"name":"Station Road","category":"secondary","osm_type":"way","osm_id":"1498243023","ref":"B2026"}},{"type":"Feature","geometry":{"type":"LineString","coordinates":[[0.13945,51.24692],[0.13223,51.24476]]},"properties":{"name":"Wheatsheaf Hill","category":"secondary","osm_type":"way","osm_id":"1498737752","ref":"B2042"}},{"type":"Feature","geometry":{"type":"LineString","coordinates":[[0.2535,51.40164],[0.25351,51.40158]]},"properties":{"name":"East Hill","category":"tertiary","osm_type":"way","osm_id":"1518363574"}},{"type":"Feature","geometry":{"type":"LineString","coordinates":[[0.34097,51.4902],[0.34131,51.48961],[0.3427,51.48995]]},"properties":{"name":"Blackshots Lane","category":"tertiary","osm_type":"way","osm_id":"1522598847"}},{"type":"Feature","geometry":{"type":"LineString","coordinates":[[0.1451,51.47349],[0.14517,51.47358]]},"properties":{"name":"Bedonwell Road","category":"tertiary","osm_type":"way","osm_id":"1525938016"}},{"type":"Feature","geometry":{"type":"LineString","coordinates":[[0.14531,51.47352],[0.14523,51.47345]]},"properties":{"name":"Bedonwell Road","category":"tertiary","osm_type":"way","osm_id":"1525938017"}},{"type":"Feature","geometry":{"type":"LineString","coordinates":[[0.13699,51.47134],[0.13906,51.47014]]},"properties":{"name":"Long Lane","category":"tertiary","osm_type":"way","osm_id":"1525938018"}},{"type":"Feature","geometry":{"type":"LineString","coordinates":[[0.14115,51.46864],[0.14205,51.46803]]},"properties":{"name":"Long Lane","category":"tertiary","osm_type":"way","osm_id":"1525938019"}},{"type":"Feature","geometry":{"type":"LineString","coordinates":[[0.1451,51.47349],[0.14399,51.47329]]},"properties":{"name":"Little Heath Road","category":"tertiary","osm_type":"way","osm_id":"1525938022"}},{"type":"Feature","geometry":{"type":"LineString","coordinates":[[0.1575,51.47452],[0.16114,51.47121]]},"properties":{"name":"Brook Street","category":"tertiary","osm_type":"way","osm_id":"1525938023"}},{"type":"Feature","geometry":{"type":"LineString","coordinates":[[0.15747,51.47457],[0.1575,51.47452]]},"properties":{"name":"Brook Street","category":"tertiary","osm_type":"way","osm_id":"1525938024"}},{"type":"Feature","geometry":{"type":"LineString","coordinates":[[0.07984,51.49199],[0.07998,51.49208]]},"properties":{"name":"Secondary and tertiary roads","category":"tertiary","osm_type":"way","osm_id":"1525938030"}},{"type":"Feature","geometry":{"type":"LineString","coordinates":[[0.73404,51.36682],[0.73385,51.36661]]},"properties":{"name":"Grovehurst Road","category":"tertiary","osm_type":"way","osm_id":"1530615878"}},{"type":"Feature","geometry":{"type":"LineString","coordinates":[[0.73385,51.36661],[0.73378,51.36682]]},"properties":{"name":"Grovehurst Road","category":"tertiary","osm_type":"way","osm_id":"1530615879"}},{"type":"Feature","geometry":{"type":"LineString","coordinates":[[0.73385,51.36708],[0.73404,51.36731]]},"properties":{"name":"Grovehurst Road","category":"tertiary","osm_type":"way","osm_id":"1530615880"}},{"type":"Feature","geometry":{"type":"LineString","coordinates":[[0.73404,51.36731],[0.73406,51.36706]]},"properties":{"name":"Grovehurst Road","category":"tertiary","osm_type":"way","osm_id":"1530615881"}},{"type":"Feature","geometry":{"type":"LineString","coordinates":[[0.73409,51.36684],[0.73374,51.36685],[0.73375,51.36704],[0.7341,51.36703],[0.73409,51.36684]]},"properties":{"name":"Secondary and tertiary roads","category":"tertiary","osm_type":"way","osm_id":"1530615882"}},{"type":"Feature","geometry":{"type":"LineString","coordinates":[[0.73404,51.36731],[0.73414,51.3678]]},"properties":{"name":"Grovehurst Road","category":"tertiary","osm_type":"way","osm_id":"1530615883"}},{"type":"Feature","geometry":{"type":"LineString","coordinates":[[0.08014,51.49182],[0.07997,51.49182]]},"properties":{"name":"Secondary and tertiary roads","category":"tertiary","osm_type":"way","osm_id":"1530915906"}},{"type":"Feature","geometry":{"type":"LineString","coordinates":[[0.07997,51.49182],[0.07986,51.49188]]},"properties":{"name":"Secondary and tertiary roads","category":"tertiary","osm_type":"way","osm_id":"1530915907"}},{"type":"Feature","geometry":{"type":"LineString","coordinates":[[0.08021,51.49185],[0.08014,51.49182]]},"properties":{"name":"Secondary and tertiary roads","category":"tertiary","osm_type":"way","osm_id":"1530915908"}},{"type":"Feature","geometry":{"type":"LineString","coordinates":[[0.07912,51.45882],[0.07916,51.45879]]},"properties":{"name":"Rochester Way","category":"tertiary","osm_type":"way","osm_id":"1531716480"}},{"type":"Feature","geometry":{"type":"LineString","coordinates":[[0.42018,51.22161],[0.42076,51.22116],[0.42213,51.22114]]},"properties":{"name":"Lees Road","category":"secondary","osm_type":"way","osm_id":"1531918553","ref":"B2162"}},{"type":"Feature","geometry":{"type":"LineString","coordinates":[[0.40215,51.22804],[0.40711,51.22692]]},"properties":{"name":"Hampstead Lane","category":"secondary","osm_type":"way","osm_id":"1531918554","ref":"B2162"}},{"type":"Feature","geometry":{"type":"LineString","coordinates":[[0.23318,51.4965],[0.23353,51.49633]]},"properties":{"name":"Purfleet Road","category":"tertiary","osm_type":"way","osm_id":"1532282883"}},{"type":"Feature","geometry":{"type":"LineString","coordinates":[[0.23247,51.49642],[0.23284,51.49651]]},"properties":{"name":"Purfleet Road","category":"tertiary","osm_type":"way","osm_id":"1532282886"}},{"type":"Feature","geometry":{"type":"LineString","coordinates":[[0.23284,51.49651],[0.23248,51.49631]]},"properties":{"name":"Purfleet Road","category":"tertiary","osm_type":"way","osm_id":"1532282887"}},{"type":"Feature","geometry":{"type":"LineString","coordinates":[[0.2324,51.49638],[0.23247,51.49642]]},"properties":{"name":"Purfleet Road","category":"tertiary","osm_type":"way","osm_id":"1532282888"}},{"type":"Feature","geometry":{"type":"LineString","coordinates":[[0.04084,51.42953],[0.04162,51.42971]]},"properties":{"name":"Dunkery Road","category":"tertiary","osm_type":"way","osm_id":"1532953299"}},{"type":"Feature","geometry":{"type":"LineString","coordinates":[[0.04075,51.42951],[0.04084,51.42953]]},"properties":{"name":"Dunkery Road","category":"tertiary","osm_type":"way","osm_id":"1532953300"}},{"type":"Feature","geometry":{"type":"LineString","coordinates":[[0.38646,51.40695],[0.3874,51.40646]]},"properties":{"name":"Henhurst Road","category":"tertiary","osm_type":"way","osm_id":"1534276848"}},{"type":"Feature","geometry":{"type":"LineString","coordinates":[[0.38484,51.4073],[0.3847,51.4074]]},"properties":{"name":"Henhurst Road","category":"tertiary","osm_type":"way","osm_id":"1534276850"}},{"type":"Feature","geometry":{"type":"LineString","coordinates":[[0.38755,51.40622],[0.38763,51.40598]]},"properties":{"name":"Henhurst Road","category":"tertiary","osm_type":"way","osm_id":"1534276856"}},{"type":"Feature","geometry":{"type":"LineString","coordinates":[[0.34393,51.21192],[0.3439,51.21182]]},"properties":{"name":"Victoria Road","category":"tertiary","osm_type":"way","osm_id":"1534842179"}},{"type":"Feature","geometry":{"type":"LineString","coordinates":[[0.3439,51.21182],[0.34386,51.21174]]},"properties":{"name":"Victoria Road","category":"tertiary","osm_type":"way","osm_id":"1534842180"}},{"type":"Feature","geometry":{"type":"LineString","coordinates":[[0.85089,51.12943],[0.85049,51.12929]]},"properties":{"name":"Secondary and tertiary roads","category":"tertiary","osm_type":"way","osm_id":"1534934859"}},{"type":"Feature","geometry":{"type":"LineString","coordinates":[[0.85049,51.12929],[0.84946,51.12915]]},"properties":{"name":"Stanhope Road","category":"tertiary","osm_type":"way","osm_id":"1534934860"}},{"type":"Feature","geometry":{"type":"LineString","coordinates":[[0.85049,51.12929],[0.85089,51.12943]]},"properties":{"name":"Stanhope Road","category":"tertiary","osm_type":"way","osm_id":"1534934861"}},{"type":"Feature","geometry":{"type":"LineString","coordinates":[[0.55403,51.16511],[0.55577,51.16546]]},"properties":{"name":"Headcorn Road","category":"tertiary","osm_type":"way","osm_id":"1536923971"}},{"type":"Feature","geometry":{"type":"LineString","coordinates":[[0.55577,51.16546],[0.55625,51.16546]]},"properties":{"name":"Headcorn Road","category":"tertiary","osm_type":"way","osm_id":"1536923972"}},{"type":"Feature","geometry":{"type":"LineString","coordinates":[[0.55625,51.16546],[0.55745,51.16546]]},"properties":{"name":"Headcorn Road","category":"tertiary","osm_type":"way","osm_id":"1536923973"}},{"type":"Feature","geometry":{"type":"LineString","coordinates":[[0.55745,51.16546],[0.55782,51.16548]]},"properties":{"name":"Headcorn Road","category":"tertiary","osm_type":"way","osm_id":"1536923974"}},{"type":"Feature","geometry":{"type":"LineString","coordinates":[[0.55782,51.16548],[0.55871,51.1656]]},"properties":{"name":"Headcorn Road","category":"tertiary","osm_type":"way","osm_id":"1536923975"}},{"type":"Feature","geometry":{"type":"LineString","coordinates":[[0.24722,51.15288],[0.24772,51.15281]]},"properties":{"name":"Speldhurst Road","category":"tertiary","osm_type":"way","osm_id":"1537460336"}},{"type":"Feature","geometry":{"type":"LineString","coordinates":[[0.48433,51.25696],[0.4848,51.25619]]},"properties":{"name":"Farleigh Lane","category":"tertiary","osm_type":"way","osm_id":"1539095606"}},{"type":"Feature","geometry":{"type":"LineString","coordinates":[[0.48446,51.25518],[0.4845,51.25485]]},"properties":{"name":"Farleigh Lane","category":"tertiary","osm_type":"way","osm_id":"1539095607"}},{"type":"Feature","geometry":{"type":"LineString","coordinates":[[0.48455,51.25541],[0.48446,51.25518]]},"properties":{"name":"Farleigh Lane","category":"tertiary","osm_type":"way","osm_id":"1539095609"}},{"type":"Feature","geometry":{"type":"LineString","coordinates":[[0.4766,51.2922],[0.47681,51.29264]]},"properties":{"name":"Hermitage Lane","category":"secondary","osm_type":"way","osm_id":"1539974683","ref":"B2246"}},{"type":"Feature","geometry":{"type":"LineString","coordinates":[[0.4767,51.29226],[0.4766,51.2922]]},"properties":{"name":"Hermitage Lane","category":"secondary","osm_type":"way","osm_id":"1539974684","ref":"B2246"}},{"type":"Feature","geometry":{"type":"LineString","coordinates":[[0.1913,51.43395],[0.19116,51.43332]]},"properties":{"name":"Heath Lane Upper","category":"tertiary","osm_type":"way","osm_id":"1544626377"}},{"type":"Feature","geometry":{"type":"LineString","coordinates":[[0.21051,51.36819],[0.2108,51.36806]]},"properties":{"name":"Riverside","category":"tertiary","osm_type":"way","osm_id":"1545059723"}},{"type":"Feature","geometry":{"type":"LineString","coordinates":[[0.11616,51.49594],[0.11585,51.49582]]},"properties":{"name":"Eynsham Drive","category":"tertiary","osm_type":"way","osm_id":"1545457649"}},{"type":"Feature","geometry":{"type":"LineString","coordinates":[[0.10787,51.48894],[0.10787,51.48886]]},"properties":{"name":"Basildon Road","category":"tertiary","osm_type":"way","osm_id":"1545711724"}},{"type":"Feature","geometry":{"type":"LineString","coordinates":[[0.23164,51.48285],[0.23159,51.4829]]},"properties":{"name":"London Road","category":"tertiary","osm_type":"way","osm_id":"1546711552"}},{"type":"Feature","geometry":{"type":"LineString","coordinates":[[0.31038,51.44703],[0.31035,51.44697]]},"properties":{"name":"High Street","category":"secondary","osm_type":"way","osm_id":"1546803712","ref":"B259"}},{"type":"Feature","geometry":{"type":"LineString","coordinates":[[0.33605,51.25241],[0.33594,51.25244]]},"properties":{"name":"Gover Hill","category":"tertiary","osm_type":"way","osm_id":"1547041186"}},{"type":"Feature","geometry":{"type":"LineString","coordinates":[[0.03125,51.48779],[0.03123,51.48781]]},"properties":{"name":"Charlton Church Lane","category":"tertiary","osm_type":"way","osm_id":"1547556428"}},{"type":"Feature","geometry":{"type":"LineString","coordinates":[[0.82098,51.12862],[0.82023,51.12993],[0.81693,51.13291]]},"properties":{"name":"Chilmington Green Road","category":"tertiary","osm_type":"way","osm_id":"1547742519"}},{"type":"Feature","geometry":{"type":"LineString","coordinates":[[0.27963,51.0268],[0.281,51.02804]]},"properties":{"name":"Coggins Mill Lane","category":"tertiary","osm_type":"way","osm_id":"1548710837"}},{"type":"Feature","geometry":{"type":"LineString","coordinates":[[0.27954,51.02674],[0.27963,51.0268]]},"properties":{"name":"Coggins Mill Lane","category":"tertiary","osm_type":"way","osm_id":"1548710838"}},{"type":"Feature","geometry":{"type":"LineString","coordinates":[[0.3335,51.42888],[0.33352,51.42886]]},"properties":{"name":"Hall Road","category":"secondary","osm_type":"way","osm_id":"1549426194","ref":"B262"}},{"type":"Feature","geometry":{"type":"LineString","coordinates":[[0.53526,51.35285],[0.53523,51.35288]]},"properties":{"name":"Princes Avenue","category":"tertiary","osm_type":"way","osm_id":"1549439805"}},{"type":"Feature","geometry":{"type":"LineString","coordinates":[[0.53545,51.35281],[0.53526,51.35285]]},"properties":{"name":"Princes Avenue","category":"tertiary","osm_type":"way","osm_id":"1549439806"}},{"type":"Feature","geometry":{"type":"LineString","coordinates":[[0.53523,51.35288],[0.53524,51.35298]]},"properties":{"name":"Princes Avenue","category":"tertiary","osm_type":"way","osm_id":"1549439807"}},{"type":"Feature","geometry":{"type":"LineString","coordinates":[[0.29972,51.10146],[0.30361,51.10059],[0.30717,51.10032]]},"properties":{"name":"Bayham Road","category":"secondary","osm_type":"way","osm_id":"1549906913","ref":"B2169"}},{"type":"Feature","geometry":{"type":"LineString","coordinates":[[0.61566,51.37522],[0.61866,51.37441]]},"properties":{"name":"B2004","category":"secondary","osm_type":"way","osm_id":"1552509837","ref":"B2004"}},{"type":"Feature","geometry":{"type":"LineString","coordinates":[[0.61019,51.37664],[0.61317,51.37601]]},"properties":{"name":"Lower Rainham Road","category":"secondary","osm_type":"way","osm_id":"1552509838","ref":"B2004"}},{"type":"Feature","geometry":{"type":"LineString","coordinates":[[0.60525,51.37832],[0.60575,51.3781]]},"properties":{"name":"Lower Rainham Road","category":"secondary","osm_type":"way","osm_id":"1552509839","ref":"B2004"}},{"type":"Feature","geometry":{"type":"LineString","coordinates":[[0.60438,51.37872],[0.60525,51.37832]]},"properties":{"name":"Lower Rainham Road","category":"secondary","osm_type":"way","osm_id":"1552509840","ref":"B2004"}},{"type":"Feature","geometry":{"type":"LineString","coordinates":[[0.60345,51.37922],[0.60438,51.37872]]},"properties":{"name":"Lower Rainham Road","category":"secondary","osm_type":"way","osm_id":"1552509841","ref":"B2004"}},{"type":"Feature","geometry":{"type":"LineString","coordinates":[[0.60279,51.37966],[0.60318,51.37938]]},"properties":{"name":"Lower Rainham Road","category":"secondary","osm_type":"way","osm_id":"1552509842","ref":"B2004"}},{"type":"Feature","geometry":{"type":"LineString","coordinates":[[0.23125,51.24144],[0.23047,51.24149]]},"properties":{"name":"Mill Lane","category":"tertiary","osm_type":"way","osm_id":"1552790021"}},{"type":"Feature","geometry":{"type":"LineString","coordinates":[[0.23138,51.24143],[0.23125,51.24144]]},"properties":{"name":"Mill Lane","category":"tertiary","osm_type":"way","osm_id":"1552790022"}},{"type":"Feature","geometry":{"type":"LineString","coordinates":[[0.23777,51.23742],[0.23516,51.23832]]},"properties":{"name":"Mill Lane","category":"tertiary","osm_type":"way","osm_id":"1552790041"}},{"type":"Feature","geometry":{"type":"LineString","coordinates":[[0.23516,51.23832],[0.23508,51.23836]]},"properties":{"name":"Mill Lane","category":"tertiary","osm_type":"way","osm_id":"1552790042"}},{"type":"Feature","geometry":{"type":"LineString","coordinates":[[0.08546,51.48914],[0.08549,51.4892]]},"properties":{"name":"Griffin Road","category":"tertiary","osm_type":"way","osm_id":"1553538580"}},{"type":"Feature","geometry":{"type":"LineString","coordinates":[[0.08557,51.48945],[0.08558,51.48947]]},"properties":{"name":"Griffin Road","category":"tertiary","osm_type":"way","osm_id":"1553538587"}},{"type":"Feature","geometry":{"type":"LineString","coordinates":[[0.03946,51.46203],[0.03959,51.46198]]},"properties":{"name":"Rochester Way","category":"tertiary","osm_type":"way","osm_id":"1554004677"}},{"type":"Feature","geometry":{"type":"LineString","coordinates":[[0.00783,51.12492],[0.00906,51.1257]]},"properties":{"name":"Woodbury Avenue","category":"tertiary","osm_type":"way","osm_id":"1554493573"}},{"type":"Feature","geometry":{"type":"LineString","coordinates":[[0.35086,51.09906],[0.35154,51.09904]]},"properties":{"name":"Bayham Road","category":"secondary","osm_type":"way","osm_id":"1556385227","ref":"B2169"}},{"type":"Feature","geometry":{"type":"LineString","coordinates":[[0.35073,51.09907],[0.35086,51.09906]]},"properties":{"name":"Bayham Road","category":"secondary","osm_type":"way","osm_id":"1556385228","ref":"B2169"}},{"type":"Feature","geometry":{"type":"LineString","coordinates":[[0.02783,51.11136],[0.02753,51.11087]]},"properties":{"name":"Maypole Road","category":"tertiary","osm_type":"way","osm_id":"1557207677"}},{"type":"Feature","geometry":{"type":"LineString","coordinates":[[0.69503,51.34429],[0.69435,51.34453]]},"properties":{"name":"Secondary and tertiary roads","category":"tertiary_link","osm_type":"way","osm_id":"1558803632"}},{"type":"Feature","geometry":{"type":"LineString","coordinates":[[0.8657,51.12186],[0.86726,51.12315]]},"properties":{"name":"Moat Field Meadow","category":"tertiary","osm_type":"way","osm_id":"1559028954"}},{"type":"Feature","geometry":{"type":"LineString","coordinates":[[0.86726,51.12315],[0.86731,51.12341]]},"properties":{"name":"Moat Field Meadow","category":"tertiary","osm_type":"way","osm_id":"1559028955"}},{"type":"Feature","geometry":{"type":"LineString","coordinates":[[0.86765,51.12338],[0.86726,51.12315]]},"properties":{"name":"Moat Field Meadow","category":"tertiary","osm_type":"way","osm_id":"1559028956"}},{"type":"Feature","geometry":{"type":"LineString","coordinates":[[0.8657,51.12186],[0.86569,51.1216]]},"properties":{"name":"Moat Field Meadow","category":"tertiary","osm_type":"way","osm_id":"1559028957"}}]}