{"type":"FeatureCollection","features":[{"type":"Feature","geometry":{"type":"LineString","coordinates":[[0.22413,52.36081],[0.22415,52.36076]]},"properties":{"name":"Broad Baulk","category":"tertiary","osm_type":"way","osm_id":"1337598738"}},{"type":"Feature","geometry":{"type":"LineString","coordinates":[[0.22412,52.36085],[0.22413,52.36081]]},"properties":{"name":"Broad Baulk","category":"tertiary","osm_type":"way","osm_id":"1337598739"}},{"type":"Feature","geometry":{"type":"LineString","coordinates":[[0.49697,52.3892],[0.4946,52.3913],[0.49532,52.39274],[0.48856,52.40147]]},"properties":{"name":"Secondary and tertiary roads","category":"tertiary","osm_type":"way","osm_id":"1337614661"}},{"type":"Feature","geometry":{"type":"LineString","coordinates":[[0.49703,52.38911],[0.49697,52.3892]]},"properties":{"name":"Secondary and tertiary roads","category":"tertiary","osm_type":"way","osm_id":"1337614662"}},{"type":"Feature","geometry":{"type":"LineString","coordinates":[[0.21035,52.38194],[0.21036,52.382]]},"properties":{"name":"Grunty Fen Road","category":"tertiary","osm_type":"way","osm_id":"1337772104"}},{"type":"Feature","geometry":{"type":"LineString","coordinates":[[0.14976,52.01682],[0.14972,52.01662]]},"properties":{"name":"Littlebury Green Road","category":"tertiary","osm_type":"way","osm_id":"1342497621"}},{"type":"Feature","geometry":{"type":"LineString","coordinates":[[0.87557,52.49603],[0.87594,52.49548]]},"properties":{"name":"The Green","category":"tertiary","osm_type":"way","osm_id":"1342553156"}},{"type":"Feature","geometry":{"type":"LineString","coordinates":[[0.17373,52.10846],[0.17429,52.10841]]},"properties":{"name":"Secondary and tertiary roads","category":"tertiary_link","osm_type":"way","osm_id":"1347185858"}},{"type":"Feature","geometry":{"type":"LineString","coordinates":[[0.19721,52.07445],[0.19666,52.07432]]},"properties":{"name":"Secondary and tertiary roads","category":"secondary","osm_type":"way","osm_id":"1347564213"}},{"type":"Feature","geometry":{"type":"LineString","coordinates":[[0.19682,52.07456],[0.19696,52.07457]]},"properties":{"name":"Secondary and tertiary roads","category":"secondary","osm_type":"way","osm_id":"1347564214"}},{"type":"Feature","geometry":{"type":"LineString","coordinates":[[0.19715,52.07451],[0.19721,52.07445]]},"properties":{"name":"Secondary and tertiary roads","category":"secondary","osm_type":"way","osm_id":"1347564215"}},{"type":"Feature","geometry":{"type":"LineString","coordinates":[[0.19696,52.07457],[0.19715,52.07451]]},"properties":{"name":"Secondary and tertiary roads","category":"secondary","osm_type":"way","osm_id":"1347564216"}},{"type":"Feature","geometry":{"type":"LineString","coordinates":[[0.22618,52.12634],[0.226,52.12624]]},"properties":{"name":"Newmarket Road","category":"tertiary","osm_type":"way","osm_id":"1347594472"}},{"type":"Feature","geometry":{"type":"LineString","coordinates":[[0.15156,52.24431],[0.15202,52.24422]]},"properties":{"name":"Secondary and tertiary roads","category":"tertiary","osm_type":"way","osm_id":"1347667594"}},{"type":"Feature","geometry":{"type":"LineString","coordinates":[[0.15134,52.24439],[0.15156,52.24431]]},"properties":{"name":"Secondary and tertiary roads","category":"tertiary","osm_type":"way","osm_id":"1347667595"}},{"type":"Feature","geometry":{"type":"LineString","coordinates":[[0.17685,52.22567],[0.17702,52.22591]]},"properties":{"name":"B1047","category":"secondary","osm_type":"way","osm_id":"1347692963","ref":"B1047"}},{"type":"Feature","geometry":{"type":"LineString","coordinates":[[0.21672,52.21624],[0.21683,52.21638]]},"properties":{"name":"Church Road","category":"secondary","osm_type":"way","osm_id":"1347693539","ref":"B1102"}},{"type":"Feature","geometry":{"type":"LineString","coordinates":[[0.21483,52.05385],[0.21461,52.05345]]},"properties":{"name":"Springwell Road","category":"secondary","osm_type":"way","osm_id":"1348136244","ref":"B184"}},{"type":"Feature","geometry":{"type":"LineString","coordinates":[[0.21396,52.0558],[0.21411,52.05547]]},"properties":{"name":"Walden Road","category":"secondary","osm_type":"way","osm_id":"1348136245","ref":"B184"}},{"type":"Feature","geometry":{"type":"LineString","coordinates":[[0.21514,52.0543],[0.21507,52.05417]]},"properties":{"name":"Springwell Road","category":"secondary","osm_type":"way","osm_id":"1348136246","ref":"B184"}},{"type":"Feature","geometry":{"type":"LineString","coordinates":[[0.21474,52.05448],[0.21465,52.0546]]},"properties":{"name":"Walden Road","category":"secondary","osm_type":"way","osm_id":"1348136248","ref":"B184"}},{"type":"Feature","geometry":{"type":"LineString","coordinates":[[0.21521,52.05435],[0.21514,52.0543]]},"properties":{"name":"Secondary and tertiary roads","category":"secondary","osm_type":"way","osm_id":"1348136249"}},{"type":"Feature","geometry":{"type":"LineString","coordinates":[[0.21494,52.05458],[0.2151,52.05456]]},"properties":{"name":"Secondary and tertiary roads","category":"secondary","osm_type":"way","osm_id":"1348136250"}},{"type":"Feature","geometry":{"type":"LineString","coordinates":[[0.21473,52.05445],[0.21474,52.05448]]},"properties":{"name":"Secondary and tertiary roads","category":"secondary","osm_type":"way","osm_id":"1348136251"}},{"type":"Feature","geometry":{"type":"LineString","coordinates":[[0.21482,52.0543],[0.21478,52.05432]]},"properties":{"name":"Secondary and tertiary roads","category":"secondary","osm_type":"way","osm_id":"1348136252"}},{"type":"Feature","geometry":{"type":"LineString","coordinates":[[0.04661,52.35409],[0.04517,52.35296]]},"properties":{"name":"Hundred Foot Bank","category":"secondary","osm_type":"way","osm_id":"1350903955","ref":"B1381"}},{"type":"Feature","geometry":{"type":"LineString","coordinates":[[0.32069,52.22353],[0.32812,52.21947]]},"properties":{"name":"Swaffham Heath Road","category":"tertiary","osm_type":"way","osm_id":"1351509496"}},{"type":"Feature","geometry":{"type":"LineString","coordinates":[[0.72303,52.08672],[0.72327,52.08695]]},"properties":{"name":"High Street","category":"secondary","osm_type":"way","osm_id":"1352381578","ref":"B1064"}},{"type":"Feature","geometry":{"type":"LineString","coordinates":[[0.71122,52.06167],[0.71118,52.06182]]},"properties":{"name":"Rodbridge Hill","category":"secondary","osm_type":"way","osm_id":"1352381579","ref":"B1064"}},{"type":"Feature","geometry":{"type":"LineString","coordinates":[[0.75753,52.24906],[0.75742,52.24863]]},"properties":{"name":"Lady Miriam Way","category":"tertiary","osm_type":"way","osm_id":"1352949898"}},{"type":"Feature","geometry":{"type":"LineString","coordinates":[[0.75739,52.24824],[0.75747,52.24788]]},"properties":{"name":"Lady Miriam Way","category":"tertiary","osm_type":"way","osm_id":"1352949899"}},{"type":"Feature","geometry":{"type":"LineString","coordinates":[[0.27111,52.39885],[0.27099,52.39877]]},"properties":{"name":"Lisle Lane","category":"tertiary","osm_type":"way","osm_id":"1360895334"}},{"type":"Feature","geometry":{"type":"LineString","coordinates":[[0.8741,52.3008],[0.87389,52.30067]]},"properties":{"name":"Walsham Road","category":"tertiary","osm_type":"way","osm_id":"1361417458"}},{"type":"Feature","geometry":{"type":"LineString","coordinates":[[0.87389,52.30067],[0.8644,52.30086]]},"properties":{"name":"Walsham Road","category":"tertiary","osm_type":"way","osm_id":"1361417460"}},{"type":"Feature","geometry":{"type":"LineString","coordinates":[[0.34654,52.10003],[0.34787,52.09996]]},"properties":{"name":"Linton Road","category":"tertiary","osm_type":"way","osm_id":"1361726955"}},{"type":"Feature","geometry":{"type":"LineString","coordinates":[[0.16349,52.24861],[0.16366,52.24849]]},"properties":{"name":"Humphries Way","category":"tertiary","osm_type":"way","osm_id":"1361728702"}},{"type":"Feature","geometry":{"type":"LineString","coordinates":[[0.0136,52.38375],[0.01457,52.38437]]},"properties":{"name":"Chatteris Road","category":"secondary","osm_type":"way","osm_id":"1361740896","ref":"B1050"}},{"type":"Feature","geometry":{"type":"LineString","coordinates":[[0.31003,52.06261],[0.30999,52.06269]]},"properties":{"name":"Bartlow Road","category":"tertiary","osm_type":"way","osm_id":"1361747247"}},{"type":"Feature","geometry":{"type":"LineString","coordinates":[[0.32069,52.46545],[0.32001,52.46547]]},"properties":{"name":"Secondary and tertiary roads","category":"tertiary_link","osm_type":"way","osm_id":"1362056118"}},{"type":"Feature","geometry":{"type":"LineString","coordinates":[[0.32001,52.46547],[0.31847,52.46274],[0.31715,52.46189]]},"properties":{"name":"Lynn Road","category":"tertiary","osm_type":"way","osm_id":"1362056119"}},{"type":"Feature","geometry":{"type":"LineString","coordinates":[[0.4882,52.0539],[0.48827,52.05372]]},"properties":{"name":"Fell Road","category":"tertiary","osm_type":"way","osm_id":"1363091694"}},{"type":"Feature","geometry":{"type":"LineString","coordinates":[[0.48852,52.30966],[0.49262,52.3112]]},"properties":{"name":"Elms Road","category":"tertiary","osm_type":"way","osm_id":"1363123418"}},{"type":"Feature","geometry":{"type":"LineString","coordinates":[[0.75202,52.41623],[0.75365,52.41642]]},"properties":{"name":"Norwich Road","category":"tertiary","osm_type":"way","osm_id":"1363140430"}},{"type":"Feature","geometry":{"type":"LineString","coordinates":[[0.74536,52.41607],[0.7456,52.41614]]},"properties":{"name":"London Road","category":"tertiary","osm_type":"way","osm_id":"1363141241"}},{"type":"Feature","geometry":{"type":"LineString","coordinates":[[0.74594,52.41613],[0.74565,52.41606]]},"properties":{"name":"London Road","category":"tertiary","osm_type":"way","osm_id":"1363141242"}},{"type":"Feature","geometry":{"type":"LineString","coordinates":[[0.74466,52.41578],[0.74495,52.41589]]},"properties":{"name":"London Road","category":"tertiary","osm_type":"way","osm_id":"1363141243"}},{"type":"Feature","geometry":{"type":"LineString","coordinates":[[0.73202,52.40776],[0.73252,52.40796]]},"properties":{"name":"London Road","category":"tertiary","osm_type":"way","osm_id":"1363142412"}},{"type":"Feature","geometry":{"type":"LineString","coordinates":[[0.45865,52.03373],[0.45829,52.03378]]},"properties":{"name":"Old Hall Lane","category":"tertiary","osm_type":"way","osm_id":"1363173129"}},{"type":"Feature","geometry":{"type":"LineString","coordinates":[[0.4999,52.04654],[0.49975,52.04637]]},"properties":{"name":"Birdbrook Road","category":"tertiary","osm_type":"way","osm_id":"1363173759"}},{"type":"Feature","geometry":{"type":"LineString","coordinates":[[0.5193,52.0374],[0.51675,52.03583],[0.51413,52.03575]]},"properties":{"name":"Stambourne Road","category":"tertiary","osm_type":"way","osm_id":"1363173760"}},{"type":"Feature","geometry":{"type":"LineString","coordinates":[[0.51434,52.0355],[0.51461,52.03568]]},"properties":{"name":"Stambourne Road","category":"tertiary","osm_type":"way","osm_id":"1363173761"}},{"type":"Feature","geometry":{"type":"LineString","coordinates":[[0.58235,52.05399],[0.57702,52.05216],[0.57643,52.05151],[0.57659,52.0505]]},"properties":{"name":"Clare Road","category":"tertiary","osm_type":"way","osm_id":"1363350027"}},{"type":"Feature","geometry":{"type":"LineString","coordinates":[[0.2823,52.24223],[0.28212,52.24201]]},"properties":{"name":"Green Bank Road","category":"secondary","osm_type":"way","osm_id":"1363389488","ref":"B1102"}},{"type":"Feature","geometry":{"type":"LineString","coordinates":[[0.42462,52.25604],[0.42597,52.25639]]},"properties":{"name":"Well Bottom","category":"secondary","osm_type":"way","osm_id":"1363405712","ref":"B1506"}},{"type":"Feature","geometry":{"type":"LineString","coordinates":[[0.09026,52.14544],[0.08998,52.14553]]},"properties":{"name":"London Road","category":"secondary","osm_type":"way","osm_id":"1363408397","ref":"B1368"}},{"type":"Feature","geometry":{"type":"LineString","coordinates":[[0.08989,52.14562],[0.09026,52.14544]]},"properties":{"name":"London Road","category":"secondary","osm_type":"way","osm_id":"1363408398","ref":"B1368"}},{"type":"Feature","geometry":{"type":"LineString","coordinates":[[0.37665,52.15981],[0.37677,52.15912],[0.37543,52.15838]]},"properties":{"name":"Brinkley Road","category":"secondary","osm_type":"way","osm_id":"1363424445","ref":"B1052"}},{"type":"Feature","geometry":{"type":"LineString","coordinates":[[0.37709,52.16596],[0.37616,52.1644]]},"properties":{"name":"Weston Colville Road","category":"secondary","osm_type":"way","osm_id":"1363424446","ref":"B1052"}},{"type":"Feature","geometry":{"type":"LineString","coordinates":[[0.37594,52.16233],[0.37623,52.16029]]},"properties":{"name":"Weston Colville Road","category":"secondary","osm_type":"way","osm_id":"1363424447","ref":"B1052"}},{"type":"Feature","geometry":{"type":"LineString","coordinates":[[0.37733,52.1683],[0.37761,52.1684]]},"properties":{"name":"High Street","category":"tertiary","osm_type":"way","osm_id":"1363424450"}},{"type":"Feature","geometry":{"type":"LineString","coordinates":[[0.37816,52.16917],[0.3804,52.17241]]},"properties":{"name":"Brinkley Road","category":"secondary","osm_type":"way","osm_id":"1363424451","ref":"B1052"}},{"type":"Feature","geometry":{"type":"LineString","coordinates":[[0.37332,52.16889],[0.37619,52.16855]]},"properties":{"name":"Secondary and tertiary roads","category":"tertiary","osm_type":"way","osm_id":"1363424452"}},{"type":"Feature","geometry":{"type":"LineString","coordinates":[[0.69235,52.10369],[0.69162,52.10465],[0.68915,52.10558]]},"properties":{"name":"Lower Street","category":"secondary","osm_type":"way","osm_id":"1363616652","ref":"B1066"}},{"type":"Feature","geometry":{"type":"LineString","coordinates":[[0.68532,52.10639],[0.68381,52.10739]]},"properties":{"name":"Lower Street","category":"secondary","osm_type":"way","osm_id":"1363616653","ref":"B1066"}},{"type":"Feature","geometry":{"type":"LineString","coordinates":[[0.18304,52.08272],[0.18336,52.08282]]},"properties":{"name":"New Road","category":"tertiary","osm_type":"way","osm_id":"1363689848"}},{"type":"Feature","geometry":{"type":"LineString","coordinates":[[0.18304,52.08272],[0.18248,52.08255]]},"properties":{"name":"Ickleton Road","category":"tertiary","osm_type":"way","osm_id":"1363689849"}},{"type":"Feature","geometry":{"type":"LineString","coordinates":[[0.18293,52.08289],[0.18304,52.08272]]},"properties":{"name":"High Street","category":"tertiary","osm_type":"way","osm_id":"1363689851"}},{"type":"Feature","geometry":{"type":"LineString","coordinates":[[0.17814,52.07606],[0.17861,52.0757]]},"properties":{"name":"Brookhampton Street","category":"tertiary","osm_type":"way","osm_id":"1364067638"}},{"type":"Feature","geometry":{"type":"LineString","coordinates":[[0.17811,52.07609],[0.17814,52.07606]]},"properties":{"name":"Brookhampton Street","category":"tertiary","osm_type":"way","osm_id":"1364067639"}},{"type":"Feature","geometry":{"type":"LineString","coordinates":[[0.9525,52.30335],[0.94737,52.30229],[0.94608,52.30235]]},"properties":{"name":"Walsham Road","category":"tertiary","osm_type":"way","osm_id":"1365005669"}},{"type":"Feature","geometry":{"type":"LineString","coordinates":[[0.95265,52.30339],[0.9525,52.30335]]},"properties":{"name":"Walsham Road","category":"tertiary","osm_type":"way","osm_id":"1365005670"}},{"type":"Feature","geometry":{"type":"LineString","coordinates":[[0.9607,52.30305],[0.96052,52.30306]]},"properties":{"name":"Walsham Road","category":"tertiary","osm_type":"way","osm_id":"1365005671"}},{"type":"Feature","geometry":{"type":"LineString","coordinates":[[0.96763,52.30298],[0.96587,52.30325],[0.96326,52.30285],[0.9607,52.30305]]},"properties":{"name":"Walsham Road","category":"tertiary","osm_type":"way","osm_id":"1365005672"}},{"type":"Feature","geometry":{"type":"LineString","coordinates":[[0.5352,52.43106],[0.53541,52.43143]]},"properties":{"name":"Station Road","category":"secondary","osm_type":"way","osm_id":"1365283813","ref":"B1112"}},{"type":"Feature","geometry":{"type":"LineString","coordinates":[[0.68135,52.44222],[0.68154,52.44229]]},"properties":{"name":"Secondary and tertiary roads","category":"tertiary","osm_type":"way","osm_id":"1367790401"}},{"type":"Feature","geometry":{"type":"LineString","coordinates":[[0.4913,52.27704],[0.49129,52.27695]]},"properties":{"name":"Station Road","category":"secondary","osm_type":"way","osm_id":"1367806751","ref":"B1085"}},{"type":"Feature","geometry":{"type":"LineString","coordinates":[[0.49127,52.27742],[0.49129,52.2773]]},"properties":{"name":"Station Road","category":"secondary","osm_type":"way","osm_id":"1367806752","ref":"B1085"}},{"type":"Feature","geometry":{"type":"LineString","coordinates":[[0.49329,52.31105],[0.49324,52.31116]]},"properties":{"name":"Red Lodge North","category":"tertiary","osm_type":"way","osm_id":"1367812207"}},{"type":"Feature","geometry":{"type":"LineString","coordinates":[[0.49342,52.31076],[0.4934,52.31081]]},"properties":{"name":"Red Lodge North","category":"tertiary","osm_type":"way","osm_id":"1367812208"}},{"type":"Feature","geometry":{"type":"LineString","coordinates":[[0.4149,52.03913],[0.41553,52.03957],[0.41566,52.04124]]},"properties":{"name":"Water Lane","category":"tertiary","osm_type":"way","osm_id":"1368053064"}},{"type":"Feature","geometry":{"type":"LineString","coordinates":[[0.41566,52.04124],[0.41566,52.04129]]},"properties":{"name":"Water Lane","category":"tertiary","osm_type":"way","osm_id":"1368053065"}},{"type":"Feature","geometry":{"type":"LineString","coordinates":[[0.52071,52.38031],[0.52092,52.38033]]},"properties":{"name":"Eriswell Road","category":"tertiary","osm_type":"way","osm_id":"1368495778"}},{"type":"Feature","geometry":{"type":"LineString","coordinates":[[0.78023,52.24768],[0.78023,52.24766]]},"properties":{"name":"The Battlies","category":"tertiary","osm_type":"way","osm_id":"1371648161"}},{"type":"Feature","geometry":{"type":"LineString","coordinates":[[0.2538,52.22697],[0.25305,52.22758]]},"properties":{"name":"Lode Road","category":"tertiary","osm_type":"way","osm_id":"1372048177"}},{"type":"Feature","geometry":{"type":"LineString","coordinates":[[0.31706,52.26072],[0.31375,52.25887]]},"properties":{"name":"Swaffham Road","category":"secondary","osm_type":"way","osm_id":"1374400822","ref":"B1102"}},{"type":"Feature","geometry":{"type":"LineString","coordinates":[[0.48531,52.25271],[0.48555,52.25275]]},"properties":{"name":"Bridge Street","category":"tertiary","osm_type":"way","osm_id":"1374800751"}},{"type":"Feature","geometry":{"type":"LineString","coordinates":[[0.27597,52.24072],[0.27572,52.24087]]},"properties":{"name":"Station Road","category":"secondary","osm_type":"way","osm_id":"1374817337","ref":"B1102"}},{"type":"Feature","geometry":{"type":"LineString","coordinates":[[0.15471,52.12409],[0.15514,52.12413]]},"properties":{"name":"Mill Lane","category":"tertiary","osm_type":"way","osm_id":"1378088658"}},{"type":"Feature","geometry":{"type":"LineString","coordinates":[[0.15986,52.10203],[0.15979,52.10197]]},"properties":{"name":"Moorfield Road","category":"tertiary","osm_type":"way","osm_id":"1378093040"}},{"type":"Feature","geometry":{"type":"LineString","coordinates":[[0.1464,52.11491],[0.14505,52.11542],[0.14285,52.11549],[0.13869,52.11644]]},"properties":{"name":"North Road","category":"tertiary","osm_type":"way","osm_id":"1378390820"}},{"type":"Feature","geometry":{"type":"LineString","coordinates":[[0.15989,52.10172],[0.15998,52.10117]]},"properties":{"name":"Moorfield Road","category":"tertiary","osm_type":"way","osm_id":"1378767702"}},{"type":"Feature","geometry":{"type":"LineString","coordinates":[[0.95069,52.27495],[0.94803,52.27535]]},"properties":{"name":"Wyverstone Road","category":"tertiary","osm_type":"way","osm_id":"1380039206"}},{"type":"Feature","geometry":{"type":"LineString","coordinates":[[0.538,52.20862],[0.53492,52.20796],[0.53251,52.20814]]},"properties":{"name":"Front Street","category":"tertiary","osm_type":"way","osm_id":"1380265829"}},{"type":"Feature","geometry":{"type":"LineString","coordinates":[[0.44978,52.08294],[0.44951,52.08262]]},"properties":{"name":"Millfields Way","category":"tertiary","osm_type":"way","osm_id":"1382568668"}},{"type":"Feature","geometry":{"type":"LineString","coordinates":[[0.44938,52.08267],[0.44978,52.08294]]},"properties":{"name":"Millfields Way","category":"tertiary","osm_type":"way","osm_id":"1382568669"}},{"type":"Feature","geometry":{"type":"LineString","coordinates":[[0.22354,52.11306],[0.22592,52.11162],[0.23131,52.11088]]},"properties":{"name":"Secondary and tertiary roads","category":"tertiary","osm_type":"way","osm_id":"1382629322"}},{"type":"Feature","geometry":{"type":"LineString","coordinates":[[0.02094,52.36454],[0.01979,52.36592]]},"properties":{"name":"Earith Road","category":"secondary","osm_type":"way","osm_id":"1383529273","ref":"B1050"}},{"type":"Feature","geometry":{"type":"LineString","coordinates":[[0.01657,52.36774],[0.01526,52.36827]]},"properties":{"name":"Earith Road","category":"secondary","osm_type":"way","osm_id":"1383529354","ref":"B1050"}},{"type":"Feature","geometry":{"type":"LineString","coordinates":[[0.01526,52.36827],[0.01181,52.37082]]},"properties":{"name":"Somersham Road","category":"secondary","osm_type":"way","osm_id":"1383529361","ref":"B1050"}},{"type":"Feature","geometry":{"type":"LineString","coordinates":[[0.69024,52.18836],[0.69027,52.18835]]},"properties":{"name":"Rectory Road","category":"tertiary","osm_type":"way","osm_id":"1384096355"}},{"type":"Feature","geometry":{"type":"LineString","coordinates":[[0.70356,52.2054],[0.70339,52.20464]]},"properties":{"name":"Church Road","category":"tertiary","osm_type":"way","osm_id":"1385093113"}},{"type":"Feature","geometry":{"type":"LineString","coordinates":[[0.17224,52.11323],[0.17325,52.11143]]},"properties":{"name":"London Road","category":"tertiary","osm_type":"way","osm_id":"1388818724"}},{"type":"Feature","geometry":{"type":"LineString","coordinates":[[0.17325,52.11143],[0.17328,52.11134]]},"properties":{"name":"London Road","category":"tertiary","osm_type":"way","osm_id":"1388818725"}},{"type":"Feature","geometry":{"type":"LineString","coordinates":[[0.30683,52.18822],[0.30486,52.18907]]},"properties":{"name":"Secondary and tertiary roads","category":"tertiary","osm_type":"way","osm_id":"1390519627"}},{"type":"Feature","geometry":{"type":"LineString","coordinates":[[0.56159,52.2032],[0.55862,52.20378]]},"properties":{"name":"Secondary and tertiary roads","category":"tertiary","osm_type":"way","osm_id":"1392329068"}},{"type":"Feature","geometry":{"type":"LineString","coordinates":[[0.58878,52.20568],[0.5854,52.20565]]},"properties":{"name":"Ousden Road","category":"tertiary","osm_type":"way","osm_id":"1392329261"}},{"type":"Feature","geometry":{"type":"LineString","coordinates":[[0.89359,52.32108],[0.89716,52.3189]]},"properties":{"name":"Upthorpe Road","category":"tertiary","osm_type":"way","osm_id":"1392545219"}},{"type":"Feature","geometry":{"type":"LineString","coordinates":[[0.91409,52.47976],[0.91153,52.47949]]},"properties":{"name":"Church Road","category":"tertiary","osm_type":"way","osm_id":"1410726250"}},{"type":"Feature","geometry":{"type":"LineString","coordinates":[[0.91153,52.47949],[0.91139,52.47948]]},"properties":{"name":"Church Road","category":"tertiary","osm_type":"way","osm_id":"1410726251"}},{"type":"Feature","geometry":{"type":"LineString","coordinates":[[0.02103,52.25531],[0.02068,52.25541]]},"properties":{"name":"Saxon Way","category":"tertiary","osm_type":"way","osm_id":"1413522467"}},{"type":"Feature","geometry":{"type":"LineString","coordinates":[[0.02103,52.25531],[0.02159,52.25515]]},"properties":{"name":"Saxon Way","category":"tertiary","osm_type":"way","osm_id":"1413522468"}},{"type":"Feature","geometry":{"type":"LineString","coordinates":[[0.16837,52.1161],[0.16954,52.11523]]},"properties":{"name":"London Road","category":"tertiary","osm_type":"way","osm_id":"1415007824"}},{"type":"Feature","geometry":{"type":"LineString","coordinates":[[0.17218,52.11334],[0.17224,52.11323]]},"properties":{"name":"London Road","category":"tertiary","osm_type":"way","osm_id":"1415007825"}},{"type":"Feature","geometry":{"type":"LineString","coordinates":[[0.7153,52.26427],[0.71512,52.26351]]},"properties":{"name":"Thetford Road","category":"secondary","osm_type":"way","osm_id":"1415220856","ref":"B1106"}},{"type":"Feature","geometry":{"type":"LineString","coordinates":[[0.75497,52.26658],[0.75604,52.26668]]},"properties":{"name":"Fornham Road","category":"tertiary","osm_type":"way","osm_id":"1415220857"}},{"type":"Feature","geometry":{"type":"LineString","coordinates":[[0.76311,52.27562],[0.76385,52.27544]]},"properties":{"name":"Mill Road","category":"secondary","osm_type":"way","osm_id":"1415220858","ref":"B1106"}},{"type":"Feature","geometry":{"type":"LineString","coordinates":[[0.8103,52.25705],[0.81036,52.25874]]},"properties":{"name":"Secondary and tertiary roads","category":"tertiary","osm_type":"way","osm_id":"1415220861"}},{"type":"Feature","geometry":{"type":"LineString","coordinates":[[0.71512,52.26351],[0.71504,52.2634]]},"properties":{"name":"Thetford Road","category":"secondary","osm_type":"way","osm_id":"1415222615","ref":"B1106"}},{"type":"Feature","geometry":{"type":"LineString","coordinates":[[0.72116,52.08257],[0.72158,52.08356]]},"properties":{"name":"High Street","category":"secondary","osm_type":"way","osm_id":"1415624411","ref":"B1064"}},{"type":"Feature","geometry":{"type":"LineString","coordinates":[[0.74479,52.08103],[0.74437,52.08076]]},"properties":{"name":"Lavenham Road","category":"tertiary","osm_type":"way","osm_id":"1415646793"}},{"type":"Feature","geometry":{"type":"LineString","coordinates":[[0.73694,52.07954],[0.73551,52.07932]]},"properties":{"name":"Bull Lane","category":"tertiary","osm_type":"way","osm_id":"1415646794"}},{"type":"Feature","geometry":{"type":"LineString","coordinates":[[0.71414,52.06851],[0.71418,52.06857]]},"properties":{"name":"Southgate Street","category":"secondary","osm_type":"way","osm_id":"1415646796","ref":"B1064"}},{"type":"Feature","geometry":{"type":"LineString","coordinates":[[0.71118,52.06182],[0.71069,52.06352]]},"properties":{"name":"Rodbridge Hill","category":"secondary","osm_type":"way","osm_id":"1415646797","ref":"B1064"}},{"type":"Feature","geometry":{"type":"LineString","coordinates":[[0.70632,52.05973],[0.70645,52.05975]]},"properties":{"name":"Halstead Road","category":"tertiary","osm_type":"way","osm_id":"1415646798"}},{"type":"Feature","geometry":{"type":"LineString","coordinates":[[0.70687,52.08914],[0.70651,52.09133],[0.70572,52.09185]]},"properties":{"name":"B1066","category":"secondary","osm_type":"way","osm_id":"1415648221","ref":"B1066"}},{"type":"Feature","geometry":{"type":"LineString","coordinates":[[0.70793,52.08668],[0.70687,52.08914]]},"properties":{"name":"B1066","category":"secondary","osm_type":"way","osm_id":"1415648222","ref":"B1066"}},{"type":"Feature","geometry":{"type":"LineString","coordinates":[[0.91477,52.02254],[0.91537,52.02176]]},"properties":{"name":"Millwood Road","category":"tertiary","osm_type":"way","osm_id":"1416335727"}},{"type":"Feature","geometry":{"type":"LineString","coordinates":[[0.81283,52.00085],[0.81129,52.00015]]},"properties":{"name":"Bures Road","category":"tertiary","osm_type":"way","osm_id":"1416335729"}},{"type":"Feature","geometry":{"type":"LineString","coordinates":[[0.63164,52.2675],[0.63126,52.26683]]},"properties":{"name":"Flempton Road","category":"tertiary","osm_type":"way","osm_id":"1416338012"}},{"type":"Feature","geometry":{"type":"LineString","coordinates":[[0.77865,52.31817],[0.77735,52.31905]]},"properties":{"name":"New Road","category":"tertiary","osm_type":"way","osm_id":"1416338013"}},{"type":"Feature","geometry":{"type":"LineString","coordinates":[[0.96708,52.35132],[0.96553,52.35099]]},"properties":{"name":"The Street","category":"tertiary","osm_type":"way","osm_id":"1416343763"}},{"type":"Feature","geometry":{"type":"LineString","coordinates":[[0.71955,52.07997],[0.71959,52.08002]]},"properties":{"name":"Hall Street","category":"secondary","osm_type":"way","osm_id":"1416506641","ref":"B1064"}},{"type":"Feature","geometry":{"type":"LineString","coordinates":[[0.79403,52.09044],[0.79369,52.0902]]},"properties":{"name":"Lavenham Road","category":"secondary","osm_type":"way","osm_id":"1416507352","ref":"B1071"}},{"type":"Feature","geometry":{"type":"LineString","coordinates":[[0.8398,52.12879],[0.8408,52.13121]]},"properties":{"name":"Mill Lane","category":"tertiary","osm_type":"way","osm_id":"1416511354"}},{"type":"Feature","geometry":{"type":"LineString","coordinates":[[0.8408,52.13121],[0.84089,52.13149]]},"properties":{"name":"Mill Lane","category":"tertiary","osm_type":"way","osm_id":"1416511355"}},{"type":"Feature","geometry":{"type":"LineString","coordinates":[[0.15362,52.13521],[0.15387,52.13525]]},"properties":{"name":"Cambridge Road","category":"tertiary","osm_type":"way","osm_id":"1417537853"}},{"type":"Feature","geometry":{"type":"LineString","coordinates":[[0.92628,52.37239],[0.92706,52.37295]]},"properties":{"name":"Bury Road","category":"secondary","osm_type":"way","osm_id":"1420136960","ref":"B1111"}},{"type":"Feature","geometry":{"type":"LineString","coordinates":[[0.91513,52.3741],[0.91349,52.37339]]},"properties":{"name":"Fen Street","category":"tertiary","osm_type":"way","osm_id":"1420137005"}},{"type":"Feature","geometry":{"type":"LineString","coordinates":[[0.91074,52.37286],[0.90729,52.37204]]},"properties":{"name":"Fen Street","category":"tertiary","osm_type":"way","osm_id":"1420137038"}},{"type":"Feature","geometry":{"type":"LineString","coordinates":[[0.90405,52.37128],[0.90391,52.37121]]},"properties":{"name":"Hopton Road","category":"tertiary","osm_type":"way","osm_id":"1420137039"}},{"type":"Feature","geometry":{"type":"LineString","coordinates":[[0.92864,52.37441],[0.92922,52.37504]]},"properties":{"name":"High Street","category":"secondary","osm_type":"way","osm_id":"1420137294","ref":"B1111"}},{"type":"Feature","geometry":{"type":"LineString","coordinates":[[0.9286,52.37436],[0.92864,52.37441]]},"properties":{"name":"High Street","category":"secondary","osm_type":"way","osm_id":"1420137302","ref":"B1111"}},{"type":"Feature","geometry":{"type":"LineString","coordinates":[[0.85387,52.18275],[0.85316,52.18265]]},"properties":{"name":"Lower Green","category":"tertiary","osm_type":"way","osm_id":"1420202249"}},{"type":"Feature","geometry":{"type":"LineString","coordinates":[[0.85316,52.18265],[0.85305,52.1826]]},"properties":{"name":"Lower Green","category":"tertiary","osm_type":"way","osm_id":"1420202250"}},{"type":"Feature","geometry":{"type":"LineString","coordinates":[[0.98393,52.44736],[0.99063,52.43799]]},"properties":{"name":"Quidenham Road","category":"tertiary","osm_type":"way","osm_id":"1421891088"}},{"type":"Feature","geometry":{"type":"LineString","coordinates":[[0.72257,52.0798],[0.7204,52.07986]]},"properties":{"name":"Bull Lane","category":"tertiary","osm_type":"way","osm_id":"1423262817"}},{"type":"Feature","geometry":{"type":"LineString","coordinates":[[0.71657,52.076],[0.71749,52.07783]]},"properties":{"name":"Hall Street","category":"secondary","osm_type":"way","osm_id":"1423262822","ref":"B1064"}},{"type":"Feature","geometry":{"type":"LineString","coordinates":[[0.79281,52.10593],[0.79202,52.10571]]},"properties":{"name":"Church Street","category":"secondary","osm_type":"way","osm_id":"1423270840"}},{"type":"Feature","geometry":{"type":"LineString","coordinates":[[0.05716,52.12121],[0.05747,52.12113]]},"properties":{"name":"Barrington Road","category":"tertiary","osm_type":"way","osm_id":"1426030222"}},{"type":"Feature","geometry":{"type":"LineString","coordinates":[[0.0551,52.12013],[0.05549,52.12029]]},"properties":{"name":"Barrington Road","category":"tertiary","osm_type":"way","osm_id":"1426030223"}},{"type":"Feature","geometry":{"type":"LineString","coordinates":[[0.0526,52.12308],[0.05324,52.12228]]},"properties":{"name":"Barrington Road","category":"tertiary","osm_type":"way","osm_id":"1426030318"}},{"type":"Feature","geometry":{"type":"LineString","coordinates":[[0.05234,52.12341],[0.0526,52.12308]]},"properties":{"name":"Barrington Road","category":"tertiary","osm_type":"way","osm_id":"1426030319"}},{"type":"Feature","geometry":{"type":"LineString","coordinates":[[0.04334,52.12631],[0.04349,52.12595]]},"properties":{"name":"Barrington Road","category":"tertiary","osm_type":"way","osm_id":"1426030330"}},{"type":"Feature","geometry":{"type":"LineString","coordinates":[[0.04349,52.12595],[0.04354,52.12585]]},"properties":{"name":"Barrington Road","category":"tertiary","osm_type":"way","osm_id":"1426030331"}},{"type":"Feature","geometry":{"type":"LineString","coordinates":[[0.04313,52.12692],[0.04314,52.12685]]},"properties":{"name":"Foxton Road","category":"tertiary","osm_type":"way","osm_id":"1426070099"}},{"type":"Feature","geometry":{"type":"LineString","coordinates":[[0.043,52.12768],[0.04313,52.12692]]},"properties":{"name":"Foxton Road","category":"tertiary","osm_type":"way","osm_id":"1426077656"}},{"type":"Feature","geometry":{"type":"LineString","coordinates":[[0.03863,52.12943],[0.0399,52.12936]]},"properties":{"name":"Challis Green","category":"tertiary","osm_type":"way","osm_id":"1426198053"}},{"type":"Feature","geometry":{"type":"LineString","coordinates":[[0.11332,52.21206],[0.11366,52.21175]]},"properties":{"name":"Castle Street","category":"tertiary","osm_type":"way","osm_id":"1426200051"}},{"type":"Feature","geometry":{"type":"LineString","coordinates":[[0.03878,52.13072],[0.03906,52.13132]]},"properties":{"name":"Haslingfield Road","category":"tertiary","osm_type":"way","osm_id":"1426212512"}},{"type":"Feature","geometry":{"type":"LineString","coordinates":[[0.03938,52.13208],[0.03985,52.13316]]},"properties":{"name":"Haslingfield Road","category":"tertiary","osm_type":"way","osm_id":"1426212513"}},{"type":"Feature","geometry":{"type":"LineString","coordinates":[[0.03906,52.13132],[0.03938,52.13208]]},"properties":{"name":"Haslingfield Road","category":"tertiary","osm_type":"way","osm_id":"1426212516"}},{"type":"Feature","geometry":{"type":"LineString","coordinates":[[0.03863,52.12943],[0.03864,52.12964]]},"properties":{"name":"Haslingfield Road","category":"tertiary","osm_type":"way","osm_id":"1426212521"}},{"type":"Feature","geometry":{"type":"LineString","coordinates":[[0.03985,52.13316],[0.04062,52.13512]]},"properties":{"name":"Haslingfield Road","category":"tertiary","osm_type":"way","osm_id":"1426212526"}},{"type":"Feature","geometry":{"type":"LineString","coordinates":[[0.0409,52.13587],[0.04232,52.13851]]},"properties":{"name":"Haslingfield Road","category":"tertiary","osm_type":"way","osm_id":"1426212527"}},{"type":"Feature","geometry":{"type":"LineString","coordinates":[[0.03578,52.12769],[0.03619,52.12782]]},"properties":{"name":"High Street","category":"tertiary","osm_type":"way","osm_id":"1426232366"}},{"type":"Feature","geometry":{"type":"LineString","coordinates":[[0.03379,52.1274],[0.03578,52.12769]]},"properties":{"name":"High Street","category":"tertiary","osm_type":"way","osm_id":"1426232367"}},{"type":"Feature","geometry":{"type":"LineString","coordinates":[[0.03356,52.12737],[0.03379,52.1274]]},"properties":{"name":"High Street","category":"tertiary","osm_type":"way","osm_id":"1426232383"}},{"type":"Feature","geometry":{"type":"LineString","coordinates":[[0.03331,52.12734],[0.03356,52.12737]]},"properties":{"name":"High Street","category":"tertiary","osm_type":"way","osm_id":"1426232384"}},{"type":"Feature","geometry":{"type":"LineString","coordinates":[[0.03163,52.12704],[0.0323,52.12718]]},"properties":{"name":"High Street","category":"tertiary","osm_type":"way","osm_id":"1426232393"}},{"type":"Feature","geometry":{"type":"LineString","coordinates":[[0.02683,52.126],[0.02736,52.12616]]},"properties":{"name":"West Green","category":"tertiary","osm_type":"way","osm_id":"1426256693"}},{"type":"Feature","geometry":{"type":"LineString","coordinates":[[0.01596,52.13601],[0.01868,52.13594],[0.01949,52.13431]]},"properties":{"name":"Orwell Road","category":"tertiary","osm_type":"way","osm_id":"1426363518"}},{"type":"Feature","geometry":{"type":"LineString","coordinates":[[0.02676,52.12597],[0.02683,52.126]]},"properties":{"name":"Shepreth Road","category":"tertiary","osm_type":"way","osm_id":"1426363547"}},{"type":"Feature","geometry":{"type":"LineString","coordinates":[[0.02586,52.12633],[0.02683,52.126]]},"properties":{"name":"Orwell Road","category":"tertiary","osm_type":"way","osm_id":"1426363548"}},{"type":"Feature","geometry":{"type":"LineString","coordinates":[[0.02315,52.12787],[0.0235,52.12771]]},"properties":{"name":"Orwell Road","category":"tertiary","osm_type":"way","osm_id":"1426363553"}},{"type":"Feature","geometry":{"type":"LineString","coordinates":[[0.00545,52.11479],[0.00492,52.11605]]},"properties":{"name":"Malton Road","category":"tertiary","osm_type":"way","osm_id":"1426397786"}},{"type":"Feature","geometry":{"type":"LineString","coordinates":[[0.947,52.39548],[0.94702,52.39536]]},"properties":{"name":"Harling Road","category":"secondary","osm_type":"way","osm_id":"1427300162","ref":"B1111"}},{"type":"Feature","geometry":{"type":"LineString","coordinates":[[0.04976,52.28884],[0.05219,52.28873]]},"properties":{"name":"Unity Way","category":"tertiary","osm_type":"way","osm_id":"1427478077"}},{"type":"Feature","geometry":{"type":"LineString","coordinates":[[0.33571,52.28329],[0.33975,52.28637]]},"properties":{"name":"Ness Road","category":"secondary","osm_type":"way","osm_id":"1429757048","ref":"B1102"}},{"type":"Feature","geometry":{"type":"LineString","coordinates":[[0.72807,52.22281],[0.72823,52.22611]]},"properties":{"name":"Nowton Road","category":"tertiary","osm_type":"way","osm_id":"1431535402"}},{"type":"Feature","geometry":{"type":"LineString","coordinates":[[0.94018,52.44168],[0.94189,52.44194]]},"properties":{"name":"Quidenham Road","category":"tertiary","osm_type":"way","osm_id":"1431922702"}},{"type":"Feature","geometry":{"type":"LineString","coordinates":[[0.26309,52.4011],[0.26325,52.40137]]},"properties":{"name":"Lynn Road","category":"secondary","osm_type":"way","osm_id":"1435267328","ref":"B1382"}},{"type":"Feature","geometry":{"type":"LineString","coordinates":[[0.58456,52.23958],[0.58504,52.23882]]},"properties":{"name":"Barrow Hill","category":"tertiary","osm_type":"way","osm_id":"1436374806"}},{"type":"Feature","geometry":{"type":"LineString","coordinates":[[0.82592,52.30466],[0.8258,52.30476]]},"properties":{"name":"Ixworth Road","category":"tertiary","osm_type":"way","osm_id":"1453143391"}},{"type":"Feature","geometry":{"type":"LineString","coordinates":[[0.82828,52.30275],[0.82592,52.30466]]},"properties":{"name":"Ixworth Road","category":"tertiary","osm_type":"way","osm_id":"1453143392"}},{"type":"Feature","geometry":{"type":"LineString","coordinates":[[0.99031,52.27077],[0.99317,52.27066]]},"properties":{"name":"Westhorpe Road","category":"tertiary","osm_type":"way","osm_id":"1455418241"}},{"type":"Feature","geometry":{"type":"LineString","coordinates":[[0.15998,52.10117],[0.15947,52.10042]]},"properties":{"name":"Moorfield Road","category":"tertiary","osm_type":"way","osm_id":"1455467421"}},{"type":"Feature","geometry":{"type":"LineString","coordinates":[[0.08716,52.22576],[0.08729,52.22604]]},"properties":{"name":"Girton Road","category":"tertiary","osm_type":"way","osm_id":"1458612065"}},{"type":"Feature","geometry":{"type":"LineString","coordinates":[[0.08729,52.22604],[0.08735,52.22627]]},"properties":{"name":"Girton Road","category":"tertiary","osm_type":"way","osm_id":"1458612068"}},{"type":"Feature","geometry":{"type":"LineString","coordinates":[[0.08735,52.22627],[0.08752,52.22677]]},"properties":{"name":"Girton Road","category":"tertiary","osm_type":"way","osm_id":"1458612069"}},{"type":"Feature","geometry":{"type":"LineString","coordinates":[[0.1429,52.20897],[0.14293,52.20932]]},"properties":{"name":"Coldhams Lane","category":"tertiary","osm_type":"way","osm_id":"1459425485"}},{"type":"Feature","geometry":{"type":"LineString","coordinates":[[0.33903,52.33094],[0.34006,52.33042]]},"properties":{"name":"Sand Street","category":"tertiary","osm_type":"way","osm_id":"1465630893"}},{"type":"Feature","geometry":{"type":"LineString","coordinates":[[0.34044,52.33022],[0.34006,52.33042]]},"properties":{"name":"Sand Street","category":"tertiary","osm_type":"way","osm_id":"1465630894"}},{"type":"Feature","geometry":{"type":"LineString","coordinates":[[0.34006,52.33042],[0.34044,52.33022]]},"properties":{"name":"Secondary and tertiary roads","category":"tertiary","osm_type":"way","osm_id":"1465630895"}},{"type":"Feature","geometry":{"type":"LineString","coordinates":[[0.32963,52.34658],[0.32994,52.34635]]},"properties":{"name":"Townsend","category":"tertiary","osm_type":"way","osm_id":"1466098514"}},{"type":"Feature","geometry":{"type":"LineString","coordinates":[[0.32994,52.34635],[0.33009,52.34623]]},"properties":{"name":"Townsend","category":"tertiary","osm_type":"way","osm_id":"1466098515"}},{"type":"Feature","geometry":{"type":"LineString","coordinates":[[0.02555,52.0864],[0.02507,52.08624]]},"properties":{"name":"Secondary and tertiary roads","category":"tertiary","osm_type":"way","osm_id":"1466769853"}},{"type":"Feature","geometry":{"type":"LineString","coordinates":[[0.02344,52.08586],[0.02507,52.08624]]},"properties":{"name":"Cambridge Road","category":"tertiary","osm_type":"way","osm_id":"1466769854"}},{"type":"Feature","geometry":{"type":"LineString","coordinates":[[0.02507,52.08624],[0.02555,52.0864]]},"properties":{"name":"Cambridge Road","category":"tertiary","osm_type":"way","osm_id":"1466769855"}},{"type":"Feature","geometry":{"type":"LineString","coordinates":[[0.51934,52.20613],[0.51561,52.20601]]},"properties":{"name":"Secondary and tertiary roads","category":"tertiary","osm_type":"way","osm_id":"1472786087"}},{"type":"Feature","geometry":{"type":"LineString","coordinates":[[0.51964,52.20616],[0.51934,52.20613]]},"properties":{"name":"Secondary and tertiary roads","category":"tertiary","osm_type":"way","osm_id":"1472786088"}},{"type":"Feature","geometry":{"type":"LineString","coordinates":[[0.84809,52.33299],[0.848,52.33411]]},"properties":{"name":"Spring Road","category":"tertiary","osm_type":"way","osm_id":"1473715110"}},{"type":"Feature","geometry":{"type":"LineString","coordinates":[[0.848,52.33411],[0.84801,52.33419]]},"properties":{"name":"Black Bridge","category":"tertiary","osm_type":"way","osm_id":"1473715111"}},{"type":"Feature","geometry":{"type":"LineString","coordinates":[[0.2305,52.01803],[0.23006,52.01816]]},"properties":{"name":"Audley End Road","category":"tertiary","osm_type":"way","osm_id":"1474715430"}},{"type":"Feature","geometry":{"type":"LineString","coordinates":[[0.23983,52.0209],[0.23987,52.02039]]},"properties":{"name":"High Street","category":"secondary","osm_type":"way","osm_id":"1474715431","ref":"B184"}},{"type":"Feature","geometry":{"type":"LineString","coordinates":[[0.48879,52.28548],[0.48911,52.28546]]},"properties":{"name":"Dane Hill Road","category":"tertiary","osm_type":"way","osm_id":"1474729593"}},{"type":"Feature","geometry":{"type":"LineString","coordinates":[[0.2625,52.20494],[0.25902,52.20644]]},"properties":{"name":"Little Wilbraham Road","category":"tertiary","osm_type":"way","osm_id":"1476541472"}},{"type":"Feature","geometry":{"type":"LineString","coordinates":[[0.19827,52.05858],[0.19703,52.05938]]},"properties":{"name":"London Road","category":"secondary","osm_type":"way","osm_id":"1476645410","ref":"B1383"}},{"type":"Feature","geometry":{"type":"LineString","coordinates":[[0.73338,52.03813],[0.73325,52.03809]]},"properties":{"name":"B1508","category":"secondary","osm_type":"way","osm_id":"1479291692","ref":"B1508"}},{"type":"Feature","geometry":{"type":"LineString","coordinates":[[0.1692,52.12407],[0.16869,52.12482]]},"properties":{"name":"High Street","category":"tertiary","osm_type":"way","osm_id":"1485395577"}},{"type":"Feature","geometry":{"type":"LineString","coordinates":[[0.26685,52.39206],[0.26711,52.39167]]},"properties":{"name":"Bridge Road","category":"tertiary","osm_type":"way","osm_id":"1486179468"}},{"type":"Feature","geometry":{"type":"LineString","coordinates":[[0.86396,52.20544],[0.86358,52.20467]]},"properties":{"name":"Secondary and tertiary roads","category":"tertiary","osm_type":"way","osm_id":"1490507802"}},{"type":"Feature","geometry":{"type":"LineString","coordinates":[[0.16805,52.11668],[0.16837,52.1161]]},"properties":{"name":"London Road","category":"tertiary","osm_type":"way","osm_id":"1491291852"}},{"type":"Feature","geometry":{"type":"LineString","coordinates":[[0.16804,52.11669],[0.16805,52.11668]]},"properties":{"name":"High Street","category":"tertiary","osm_type":"way","osm_id":"1492933510"}},{"type":"Feature","geometry":{"type":"LineString","coordinates":[[0.16802,52.11682],[0.16804,52.11669]]},"properties":{"name":"High Street","category":"tertiary","osm_type":"way","osm_id":"1492933511"}},{"type":"Feature","geometry":{"type":"LineString","coordinates":[[0.17152,52.12683],[0.17092,52.1268]]},"properties":{"name":"Babraham Road","category":"tertiary","osm_type":"way","osm_id":"1493144843"}},{"type":"Feature","geometry":{"type":"LineString","coordinates":[[0.17185,52.12685],[0.17193,52.12686]]},"properties":{"name":"Babraham Road","category":"tertiary","osm_type":"way","osm_id":"1493144858"}},{"type":"Feature","geometry":{"type":"LineString","coordinates":[[0.17193,52.12686],[0.17293,52.12695]]},"properties":{"name":"Babraham Road","category":"tertiary","osm_type":"way","osm_id":"1493144859"}},{"type":"Feature","geometry":{"type":"LineString","coordinates":[[0.17293,52.12695],[0.17321,52.12698]]},"properties":{"name":"Babraham Road","category":"tertiary","osm_type":"way","osm_id":"1493144860"}},{"type":"Feature","geometry":{"type":"LineString","coordinates":[[0.17185,52.12685],[0.17152,52.12683]]},"properties":{"name":"Babraham Road","category":"tertiary","osm_type":"way","osm_id":"1493144862"}},{"type":"Feature","geometry":{"type":"LineString","coordinates":[[0.17092,52.1268],[0.17075,52.12679]]},"properties":{"name":"Babraham Road","category":"tertiary","osm_type":"way","osm_id":"1493144863"}},{"type":"Feature","geometry":{"type":"LineString","coordinates":[[0.16829,52.12559],[0.16795,52.12631]]},"properties":{"name":"Hillside","category":"tertiary","osm_type":"way","osm_id":"1493215565"}},{"type":"Feature","geometry":{"type":"LineString","coordinates":[[0.16521,52.12963],[0.16606,52.12904]]},"properties":{"name":"Cambridge Road","category":"tertiary","osm_type":"way","osm_id":"1493430584"}},{"type":"Feature","geometry":{"type":"LineString","coordinates":[[0.16774,52.12686],[0.16783,52.12662]]},"properties":{"name":"Cambridge Road","category":"tertiary","osm_type":"way","osm_id":"1493430585"}},{"type":"Feature","geometry":{"type":"LineString","coordinates":[[0.16783,52.12662],[0.16791,52.12642]]},"properties":{"name":"Cambridge Road","category":"tertiary","osm_type":"way","osm_id":"1493430586"}},{"type":"Feature","geometry":{"type":"LineString","coordinates":[[0.16763,52.12708],[0.16774,52.12686]]},"properties":{"name":"Cambridge Road","category":"tertiary","osm_type":"way","osm_id":"1493430587"}},{"type":"Feature","geometry":{"type":"LineString","coordinates":[[0.16637,52.12877],[0.16676,52.12839]]},"properties":{"name":"Cambridge Road","category":"tertiary","osm_type":"way","osm_id":"1493430588"}},{"type":"Feature","geometry":{"type":"LineString","coordinates":[[0.16705,52.12806],[0.16717,52.12788]]},"properties":{"name":"Cambridge Road","category":"tertiary","osm_type":"way","osm_id":"1493430589"}},{"type":"Feature","geometry":{"type":"LineString","coordinates":[[0.16723,52.12778],[0.16737,52.12755]]},"properties":{"name":"Cambridge Road","category":"tertiary","osm_type":"way","osm_id":"1493430590"}},{"type":"Feature","geometry":{"type":"LineString","coordinates":[[0.16717,52.12788],[0.16723,52.12778]]},"properties":{"name":"Cambridge Road","category":"tertiary","osm_type":"way","osm_id":"1493430591"}},{"type":"Feature","geometry":{"type":"LineString","coordinates":[[0.16676,52.12839],[0.16705,52.12806]]},"properties":{"name":"Cambridge Road","category":"tertiary","osm_type":"way","osm_id":"1493430592"}},{"type":"Feature","geometry":{"type":"LineString","coordinates":[[0.16606,52.12904],[0.16637,52.12877]]},"properties":{"name":"Cambridge Road","category":"tertiary","osm_type":"way","osm_id":"1493430593"}},{"type":"Feature","geometry":{"type":"LineString","coordinates":[[0.15478,52.13532],[0.15504,52.13528]]},"properties":{"name":"Cambridge Road","category":"tertiary","osm_type":"way","osm_id":"1493430595"}},{"type":"Feature","geometry":{"type":"LineString","coordinates":[[0.21437,52.02005],[0.21219,52.01811]]},"properties":{"name":"London Road","category":"secondary","osm_type":"way","osm_id":"1495952839","ref":"B1383"}},{"type":"Feature","geometry":{"type":"LineString","coordinates":[[0.25466,52.40811],[0.25479,52.40825]]},"properties":{"name":"Secondary and tertiary roads","category":"secondary","osm_type":"way","osm_id":"1502443932"}},{"type":"Feature","geometry":{"type":"LineString","coordinates":[[0.25504,52.408],[0.25466,52.40811]]},"properties":{"name":"Secondary and tertiary roads","category":"secondary","osm_type":"way","osm_id":"1502443933"}},{"type":"Feature","geometry":{"type":"LineString","coordinates":[[0.25514,52.40809],[0.25504,52.408]]},"properties":{"name":"Secondary and tertiary roads","category":"secondary","osm_type":"way","osm_id":"1502443934"}},{"type":"Feature","geometry":{"type":"LineString","coordinates":[[0.15973,52.10203],[0.15962,52.1021]]},"properties":{"name":"Moorfield Road","category":"tertiary","osm_type":"way","osm_id":"1502443943"}},{"type":"Feature","geometry":{"type":"LineString","coordinates":[[0.43481,52.08604],[0.4349,52.08597]]},"properties":{"name":"Withersfield Road","category":"tertiary","osm_type":"way","osm_id":"1508202850"}},{"type":"Feature","geometry":{"type":"LineString","coordinates":[[0.45133,52.08457],[0.45127,52.08452]]},"properties":{"name":"Chalkstone Way","category":"tertiary","osm_type":"way","osm_id":"1508202851"}},{"type":"Feature","geometry":{"type":"LineString","coordinates":[[0.45102,52.0846],[0.45105,52.08466]]},"properties":{"name":"Chalkstone Way","category":"tertiary","osm_type":"way","osm_id":"1508202852"}},{"type":"Feature","geometry":{"type":"LineString","coordinates":[[0.45127,52.08452],[0.45102,52.0846]]},"properties":{"name":"Chalkstone Way","category":"tertiary","osm_type":"way","osm_id":"1508202853"}},{"type":"Feature","geometry":{"type":"LineString","coordinates":[[0.12458,52.39147],[0.12501,52.39142]]},"properties":{"name":"The Brook","category":"secondary","osm_type":"way","osm_id":"1510761957","ref":"B1381"}},{"type":"Feature","geometry":{"type":"LineString","coordinates":[[0.12501,52.39142],[0.1245,52.39135]]},"properties":{"name":"The Brook","category":"secondary","osm_type":"way","osm_id":"1510761958","ref":"B1381"}},{"type":"Feature","geometry":{"type":"LineString","coordinates":[[0.17089,52.18406],[0.17035,52.18416]]},"properties":{"name":"Cherry Hinton Road","category":"tertiary","osm_type":"way","osm_id":"1518981472"}},{"type":"Feature","geometry":{"type":"LineString","coordinates":[[0.17128,52.18399],[0.17115,52.18402]]},"properties":{"name":"Cherry Hinton Road","category":"tertiary","osm_type":"way","osm_id":"1518981473"}},{"type":"Feature","geometry":{"type":"LineString","coordinates":[[0.31858,52.09534],[0.31822,52.09552]]},"properties":{"name":"Dean Road","category":"tertiary","osm_type":"way","osm_id":"1529017785"}},{"type":"Feature","geometry":{"type":"LineString","coordinates":[[0.13157,52.20234],[0.13936,52.19922]]},"properties":{"name":"Mill Road","category":"tertiary","osm_type":"way","osm_id":"1530338643"}},{"type":"Feature","geometry":{"type":"LineString","coordinates":[[0.7139,52.12971],[0.7138,52.12961]]},"properties":{"name":"Secondary and tertiary roads","category":"tertiary","osm_type":"way","osm_id":"1533356014"}},{"type":"Feature","geometry":{"type":"LineString","coordinates":[[0.71482,52.13063],[0.7139,52.12971]]},"properties":{"name":"Secondary and tertiary roads","category":"tertiary","osm_type":"way","osm_id":"1533356015"}},{"type":"Feature","geometry":{"type":"LineString","coordinates":[[0.50726,52.02941],[0.50451,52.02786]]},"properties":{"name":"Wesley End Road","category":"tertiary","osm_type":"way","osm_id":"1535894359"}},{"type":"Feature","geometry":{"type":"LineString","coordinates":[[0.1313,52.19509],[0.13113,52.19512]]},"properties":{"name":"Station Road","category":"tertiary","osm_type":"way","osm_id":"1541012993"}},{"type":"Feature","geometry":{"type":"LineString","coordinates":[[0.13142,52.19502],[0.13158,52.19508]]},"properties":{"name":"Station Road","category":"tertiary","osm_type":"way","osm_id":"1541012995"}},{"type":"Feature","geometry":{"type":"LineString","coordinates":[[0.13167,52.19506],[0.13189,52.19503]]},"properties":{"name":"Station Road","category":"tertiary","osm_type":"way","osm_id":"1541012996"}},{"type":"Feature","geometry":{"type":"LineString","coordinates":[[0.5404,52.36999],[0.53947,52.37013],[0.53646,52.37237]]},"properties":{"name":"B1112","category":"secondary","osm_type":"way","osm_id":"1547685222","ref":"B1112"}},{"type":"Feature","geometry":{"type":"LineString","coordinates":[[0.48101,52.28664],[0.48417,52.28627]]},"properties":{"name":"Dane Hill Road","category":"secondary","osm_type":"way","osm_id":"1548587239","ref":"B1085"}},{"type":"Feature","geometry":{"type":"LineString","coordinates":[[0.48004,52.28678],[0.48022,52.28653],[0.47984,52.28642],[0.47965,52.28666],[0.48004,52.28678]]},"properties":{"name":"Secondary and tertiary roads","category":"secondary","osm_type":"way","osm_id":"1548587240"}},{"type":"Feature","geometry":{"type":"LineString","coordinates":[[0.48101,52.28664],[0.48022,52.28653]]},"properties":{"name":"Dane Hill Road","category":"secondary","osm_type":"way","osm_id":"1548587241","ref":"B1085"}},{"type":"Feature","geometry":{"type":"LineString","coordinates":[[0.47967,52.28651],[0.47894,52.28677]]},"properties":{"name":"Dane Hill Road","category":"secondary","osm_type":"way","osm_id":"1548587242","ref":"B1085"}},{"type":"Feature","geometry":{"type":"LineString","coordinates":[[0.48014,52.28674],[0.48101,52.28664]]},"properties":{"name":"Dane Hill Road","category":"secondary","osm_type":"way","osm_id":"1548587243","ref":"B1085"}},{"type":"Feature","geometry":{"type":"LineString","coordinates":[[0.47894,52.28677],[0.47975,52.28675]]},"properties":{"name":"Dane Hill Road","category":"secondary","osm_type":"way","osm_id":"1548587244","ref":"B1085"}},{"type":"Feature","geometry":{"type":"LineString","coordinates":[[0.2058,52.12943],[0.2062,52.12955]]},"properties":{"name":"High Street","category":"tertiary","osm_type":"way","osm_id":"1550955106"}},{"type":"Feature","geometry":{"type":"LineString","coordinates":[[0.05475,52.28922],[0.05712,52.28864],[0.05876,52.287],[0.06229,52.2867]]},"properties":{"name":"Stirling Road","category":"tertiary","osm_type":"way","osm_id":"1551553993"}},{"type":"Feature","geometry":{"type":"LineString","coordinates":[[0.11062,52.23675],[0.11118,52.23669]]},"properties":{"name":"Cambridge Road","category":"tertiary","osm_type":"way","osm_id":"1551718898"}},{"type":"Feature","geometry":{"type":"LineString","coordinates":[[0.11031,52.23974],[0.11062,52.23675]]},"properties":{"name":"Cambridge Road","category":"tertiary","osm_type":"way","osm_id":"1551720069"}},{"type":"Feature","geometry":{"type":"LineString","coordinates":[[0.11235,52.23627],[0.11212,52.23663]]},"properties":{"name":"Bridge Road","category":"secondary","osm_type":"way","osm_id":"1551720573","ref":"B1049"}},{"type":"Feature","geometry":{"type":"LineString","coordinates":[[0.27428,52.0956],[0.27475,52.09621]]},"properties":{"name":"High Street","category":"secondary","osm_type":"way","osm_id":"1552587505","ref":"B1052"}},{"type":"Feature","geometry":{"type":"LineString","coordinates":[[0.17191,52.18413],[0.17152,52.18394]]},"properties":{"name":"Secondary and tertiary roads","category":"tertiary","osm_type":"way","osm_id":"1552591651"}},{"type":"Feature","geometry":{"type":"LineString","coordinates":[[0.14118,52.10053],[0.14124,52.10048]]},"properties":{"name":"Hill Farm Road","category":"tertiary","osm_type":"way","osm_id":"1555147317"}},{"type":"Feature","geometry":{"type":"LineString","coordinates":[[0.11207,52.22444],[0.11208,52.22435]]},"properties":{"name":"Histon Road","category":"secondary","osm_type":"way","osm_id":"1556409907","ref":"B1049"}}]}