{"type":"FeatureCollection","features":[{"type":"Feature","geometry":{"type":"LineString","coordinates":[[0.02869,53.73107],[0.00878,53.72885],[0.00653,53.72905]]},"properties":{"name":"Hull Road","category":"secondary","osm_type":"way","osm_id":"8059077","ref":"B1362"}},{"type":"Feature","geometry":{"type":"LineString","coordinates":[[0.00653,53.72905],[-0.00471,53.7271]]},"properties":{"name":"B1362","category":"secondary","osm_type":"way","osm_id":"8059216","ref":"B1362"}},{"type":"Feature","geometry":{"type":"LineString","coordinates":[[0.02869,53.73107],[0.02764,53.73442]]},"properties":{"name":"Arthur Street","category":"secondary","osm_type":"way","osm_id":"24004923","ref":"B1242"}},{"type":"Feature","geometry":{"type":"LineString","coordinates":[[0.05306,53.71129],[0.04609,53.71798],[0.0424,53.72005]]},"properties":{"name":"Holmpton Road","category":"tertiary","osm_type":"way","osm_id":"26184313"}},{"type":"Feature","geometry":{"type":"LineString","coordinates":[[0.02764,53.73442],[0.02442,53.73781]]},"properties":{"name":"North Road","category":"secondary","osm_type":"way","osm_id":"26184407","ref":"B1242"}},{"type":"Feature","geometry":{"type":"LineString","coordinates":[[0.02231,53.73838],[0.02093,53.73856]]},"properties":{"name":"B1242","category":"secondary","osm_type":"way","osm_id":"26184408","ref":"B1242"}},{"type":"Feature","geometry":{"type":"LineString","coordinates":[[0.02388,53.73807],[0.02231,53.73838]]},"properties":{"name":"Waxholme Road","category":"secondary","osm_type":"way","osm_id":"26184413","ref":"B1242"}},{"type":"Feature","geometry":{"type":"LineString","coordinates":[[0.11575,53.65033],[0.11991,53.65013],[0.12346,53.64818]]},"properties":{"name":"Seaside Road","category":"tertiary","osm_type":"way","osm_id":"32688736"}},{"type":"Feature","geometry":{"type":"LineString","coordinates":[[0.07824,53.65329],[0.08068,53.65352]]},"properties":{"name":"Easington Road","category":"secondary","osm_type":"way","osm_id":"34849851","ref":"B1445"}},{"type":"Feature","geometry":{"type":"LineString","coordinates":[[0.06734,53.6566],[0.06937,53.65631],[0.06978,53.65526],[0.07205,53.65409],[0.07566,53.65321],[0.07824,53.65329]]},"properties":{"name":"Main Road","category":"secondary","osm_type":"way","osm_id":"34849853","ref":"B1445"}},{"type":"Feature","geometry":{"type":"LineString","coordinates":[[0.06985,53.68648],[0.06748,53.68793],[0.06547,53.69044]]},"properties":{"name":"Main Road","category":"tertiary","osm_type":"way","osm_id":"34849857"}},{"type":"Feature","geometry":{"type":"LineString","coordinates":[[0.06535,53.69067],[0.06472,53.69212]]},"properties":{"name":"Withernsea Road","category":"tertiary","osm_type":"way","osm_id":"34849883"}},{"type":"Feature","geometry":{"type":"LineString","coordinates":[[0.06472,53.69212],[0.06176,53.69913]]},"properties":{"name":"Withernsea Road","category":"tertiary","osm_type":"way","osm_id":"34849885"}},{"type":"Feature","geometry":{"type":"LineString","coordinates":[[0.08812,53.6672],[0.08821,53.66714]]},"properties":{"name":"Warmer Lane","category":"tertiary","osm_type":"way","osm_id":"35331148"}},{"type":"Feature","geometry":{"type":"LineString","coordinates":[[0.11115,53.66325],[0.11286,53.66321],[0.11525,53.66108],[0.11499,53.65363]]},"properties":{"name":"Dimlington Road","category":"tertiary","osm_type":"way","osm_id":"35331149"}},{"type":"Feature","geometry":{"type":"LineString","coordinates":[[0.11499,53.65363],[0.11437,53.65205]]},"properties":{"name":"Dimlington Road","category":"tertiary","osm_type":"way","osm_id":"35331154"}},{"type":"Feature","geometry":{"type":"LineString","coordinates":[[0.1141,53.65085],[0.11575,53.65033]]},"properties":{"name":"North Church Side","category":"secondary","osm_type":"way","osm_id":"35331155","ref":"B1445"}},{"type":"Feature","geometry":{"type":"LineString","coordinates":[[0.11437,53.65205],[0.1141,53.65085]]},"properties":{"name":"Dimlington Road","category":"secondary","osm_type":"way","osm_id":"35331156","ref":"B1445"}},{"type":"Feature","geometry":{"type":"LineString","coordinates":[[0.1234,53.64752],[0.12109,53.63594],[0.12316,53.62921]]},"properties":{"name":"Firtholme Road","category":"tertiary","osm_type":"way","osm_id":"35331165"}},{"type":"Feature","geometry":{"type":"LineString","coordinates":[[0.12726,53.62385],[0.12924,53.62035]]},"properties":{"name":"Easington Road","category":"tertiary","osm_type":"way","osm_id":"35331167"}},{"type":"Feature","geometry":{"type":"LineString","coordinates":[[0.10552,53.65221],[0.11437,53.65205]]},"properties":{"name":"Hull Road","category":"secondary","osm_type":"way","osm_id":"35331178","ref":"B1445"}},{"type":"Feature","geometry":{"type":"LineString","coordinates":[[0.08068,53.65352],[0.08216,53.65376],[0.08658,53.65293],[0.08915,53.65307],[0.09442,53.65224],[0.0972,53.65234]]},"properties":{"name":"Easington Road","category":"secondary","osm_type":"way","osm_id":"35331181","ref":"B1445"}},{"type":"Feature","geometry":{"type":"LineString","coordinates":[[0.05441,53.66054],[0.05749,53.66]]},"properties":{"name":"Skeffling Road","category":"secondary","osm_type":"way","osm_id":"35331187","ref":"B1445"}},{"type":"Feature","geometry":{"type":"LineString","coordinates":[[0.0476,53.66154],[0.05026,53.66041],[0.05245,53.66082],[0.05441,53.66054]]},"properties":{"name":"B1445","category":"secondary","osm_type":"way","osm_id":"35331193","ref":"B1445"}},{"type":"Feature","geometry":{"type":"LineString","coordinates":[[0.03482,53.6674],[0.03718,53.66553],[0.03999,53.66433],[0.04314,53.66371],[0.0476,53.66154]]},"properties":{"name":"B1445","category":"secondary","osm_type":"way","osm_id":"35331194","ref":"B1445"}},{"type":"Feature","geometry":{"type":"LineString","coordinates":[[0.02829,53.66957],[0.02948,53.6695],[0.02956,53.66879],[0.03379,53.66794],[0.03482,53.6674]]},"properties":{"name":"Main Street","category":"secondary","osm_type":"way","osm_id":"35331198","ref":"B1445"}},{"type":"Feature","geometry":{"type":"LineString","coordinates":[[0.02715,53.67007],[0.02829,53.66957]]},"properties":{"name":"Patrington Road","category":"secondary","osm_type":"way","osm_id":"35331199","ref":"B1445"}},{"type":"Feature","geometry":{"type":"LineString","coordinates":[[0.06176,53.69913],[0.05885,53.7036]]},"properties":{"name":"Holmpton Road","category":"tertiary","osm_type":"way","osm_id":"60847616"}},{"type":"Feature","geometry":{"type":"LineString","coordinates":[[0.07875,53.67762],[0.07835,53.6786],[0.07374,53.68346],[0.06985,53.68648]]},"properties":{"name":"Out Newton Road","category":"tertiary","osm_type":"way","osm_id":"60847617"}},{"type":"Feature","geometry":{"type":"LineString","coordinates":[[0.05749,53.66],[0.0616,53.65904],[0.06562,53.65684],[0.06734,53.6566]]},"properties":{"name":"Weeton Road","category":"secondary","osm_type":"way","osm_id":"60924226","ref":"B1445"}},{"type":"Feature","geometry":{"type":"LineString","coordinates":[[0.02116,53.50064],[0.02127,53.50056]]},"properties":{"name":"Tetney Lock Road","category":"tertiary","osm_type":"way","osm_id":"69596891"}},{"type":"Feature","geometry":{"type":"LineString","coordinates":[[0.0972,53.65234],[0.10552,53.65221]]},"properties":{"name":"Hull Road","category":"secondary","osm_type":"way","osm_id":"135180647","ref":"B1445"}},{"type":"Feature","geometry":{"type":"LineString","coordinates":[[0.01638,53.73979],[0.0094,53.74185],[0.00861,53.74243]]},"properties":{"name":"Waxholme Road","category":"secondary","osm_type":"way","osm_id":"148744664","ref":"B1242"}},{"type":"Feature","geometry":{"type":"LineString","coordinates":[[0.12321,53.6291],[0.12493,53.6278]]},"properties":{"name":"Firtholme Road","category":"tertiary","osm_type":"way","osm_id":"173744121"}},{"type":"Feature","geometry":{"type":"LineString","coordinates":[[0.12316,53.62921],[0.12321,53.6291]]},"properties":{"name":"Long Bank Bridge","category":"tertiary","osm_type":"way","osm_id":"173744133"}},{"type":"Feature","geometry":{"type":"LineString","coordinates":[[0.12346,53.64818],[0.1234,53.64752]]},"properties":{"name":"Firtholme Road","category":"tertiary","osm_type":"way","osm_id":"183691072"}},{"type":"Feature","geometry":{"type":"LineString","coordinates":[[0.09272,53.67418],[0.09373,53.67604],[0.09258,53.67662],[0.09424,53.67816],[0.09103,53.67829],[0.07875,53.67762]]},"properties":{"name":"Balk Hill","category":"tertiary","osm_type":"way","osm_id":"184284062"}},{"type":"Feature","geometry":{"type":"LineString","coordinates":[[0.12493,53.6278],[0.12504,53.62772]]},"properties":{"name":"Firtholme Road","category":"tertiary","osm_type":"way","osm_id":"184284085"}},{"type":"Feature","geometry":{"type":"LineString","coordinates":[[0.12504,53.62772],[0.12537,53.62719]]},"properties":{"name":"Firtholme Road","category":"tertiary","osm_type":"way","osm_id":"184284116"}},{"type":"Feature","geometry":{"type":"LineString","coordinates":[[0.09265,53.67414],[0.09272,53.67418]]},"properties":{"name":"Balk Hill","category":"tertiary","osm_type":"way","osm_id":"184284118"}},{"type":"Feature","geometry":{"type":"LineString","coordinates":[[0.08821,53.66714],[0.08987,53.66603],[0.0901,53.66434],[0.09482,53.66412],[0.09602,53.66373],[0.11115,53.66325]]},"properties":{"name":"Warmer Lane","category":"tertiary","osm_type":"way","osm_id":"184284120"}},{"type":"Feature","geometry":{"type":"LineString","coordinates":[[-0.00302,53.67935],[0.0022,53.67681],[0.00502,53.67651],[0.01512,53.67321],[0.02091,53.67233],[0.02715,53.67007]]},"properties":{"name":"Welwick Road","category":"secondary","osm_type":"way","osm_id":"254942389","ref":"B1445"}},{"type":"Feature","geometry":{"type":"LineString","coordinates":[[0.12924,53.62035],[0.12993,53.61973],[0.13931,53.62013]]},"properties":{"name":"Easington Road","category":"tertiary","osm_type":"way","osm_id":"254945301"}},{"type":"Feature","geometry":{"type":"LineString","coordinates":[[0.02106,53.50069],[0.02116,53.50064]]},"properties":{"name":"Tetney Lock Road","category":"tertiary","osm_type":"way","osm_id":"254947258"}},{"type":"Feature","geometry":{"type":"LineString","coordinates":[[0.08812,53.6672],[0.08994,53.6695],[0.08988,53.67172],[0.09265,53.67414]]},"properties":{"name":"Balk Hill","category":"tertiary","osm_type":"way","osm_id":"817323467"}},{"type":"Feature","geometry":{"type":"LineString","coordinates":[[0.02442,53.73781],[0.02388,53.73807]]},"properties":{"name":"North Road","category":"secondary","osm_type":"way","osm_id":"963970110","ref":"B1242"}},{"type":"Feature","geometry":{"type":"LineString","coordinates":[[0.02093,53.73856],[0.01953,53.73888]]},"properties":{"name":"B1242","category":"secondary","osm_type":"way","osm_id":"963970113","ref":"B1242"}},{"type":"Feature","geometry":{"type":"LineString","coordinates":[[0.01953,53.73888],[0.01861,53.73912]]},"properties":{"name":"B1242","category":"secondary","osm_type":"way","osm_id":"963970114","ref":"B1242"}},{"type":"Feature","geometry":{"type":"LineString","coordinates":[[0.01861,53.73912],[0.01638,53.73979]]},"properties":{"name":"B1242","category":"secondary","osm_type":"way","osm_id":"963970115","ref":"B1242"}},{"type":"Feature","geometry":{"type":"LineString","coordinates":[[0.06547,53.69044],[0.06535,53.69067]]},"properties":{"name":"Main Road","category":"tertiary","osm_type":"way","osm_id":"1375117576"}},{"type":"Feature","geometry":{"type":"LineString","coordinates":[[0.12538,53.64724],[0.12796,53.64631]]},"properties":{"name":"Seaside Road","category":"tertiary","osm_type":"way","osm_id":"1375117578"}},{"type":"Feature","geometry":{"type":"LineString","coordinates":[[0.12537,53.62719],[0.12726,53.62385]]},"properties":{"name":"Easington Road","category":"tertiary","osm_type":"way","osm_id":"1424425197"}},{"type":"Feature","geometry":{"type":"LineString","coordinates":[[0.12346,53.64818],[0.12538,53.64724]]},"properties":{"name":"Seaside Road","category":"tertiary","osm_type":"way","osm_id":"1424425202"}},{"type":"Feature","geometry":{"type":"LineString","coordinates":[[0.0424,53.72005],[0.03942,53.72162]]},"properties":{"name":"Holmpton Road","category":"tertiary","osm_type":"way","osm_id":"1424431640"}},{"type":"Feature","geometry":{"type":"LineString","coordinates":[[0.05885,53.7036],[0.05492,53.70961],[0.05306,53.71129]]},"properties":{"name":"Holmpton Road","category":"tertiary","osm_type":"way","osm_id":"1424431641"}}]}