{"type":"FeatureCollection","features":[{"type":"Feature","geometry":{"type":"LineString","coordinates":[[1.09731,51.26552],[1.09758,51.26537]]},"properties":{"name":"Old Dover Road","category":"tertiary","osm_type":"way","osm_id":"1388850707"}},{"type":"Feature","geometry":{"type":"LineString","coordinates":[[1.09758,51.26537],[1.10195,51.26269]]},"properties":{"name":"Old Dover Road","category":"tertiary","osm_type":"way","osm_id":"1388850712"}},{"type":"Feature","geometry":{"type":"LineString","coordinates":[[1.05471,51.36479],[1.05497,51.36477]]},"properties":{"name":"Herne Bay Road","category":"secondary","osm_type":"way","osm_id":"1390219456","ref":"B2205"}},{"type":"Feature","geometry":{"type":"LineString","coordinates":[[1.34255,51.27643],[1.34246,51.27636]]},"properties":{"name":"Ramsgate Road","category":"tertiary","osm_type":"way","osm_id":"1408784395"}},{"type":"Feature","geometry":{"type":"LineString","coordinates":[[1.03621,51.0853],[1.0363,51.08549]]},"properties":{"name":"Stone Street","category":"tertiary","osm_type":"way","osm_id":"1408795593"}},{"type":"Feature","geometry":{"type":"LineString","coordinates":[[1.03103,51.08083],[1.03234,51.0824]]},"properties":{"name":"Stone Street","category":"tertiary","osm_type":"way","osm_id":"1408799261"}},{"type":"Feature","geometry":{"type":"LineString","coordinates":[[1.02846,51.07805],[1.02972,51.0792]]},"properties":{"name":"Stone Street","category":"tertiary","osm_type":"way","osm_id":"1409205773"}},{"type":"Feature","geometry":{"type":"LineString","coordinates":[[1.03004,51.0795],[1.03025,51.07976]]},"properties":{"name":"Stone Street","category":"tertiary","osm_type":"way","osm_id":"1409206059"}},{"type":"Feature","geometry":{"type":"LineString","coordinates":[[1.02988,51.07935],[1.03004,51.0795]]},"properties":{"name":"Stone Street","category":"tertiary","osm_type":"way","osm_id":"1409206065"}},{"type":"Feature","geometry":{"type":"LineString","coordinates":[[1.03028,51.07979],[1.03036,51.0799]]},"properties":{"name":"Stone Street","category":"tertiary","osm_type":"way","osm_id":"1409206467"}},{"type":"Feature","geometry":{"type":"LineString","coordinates":[[1.03036,51.0799],[1.03074,51.08038]]},"properties":{"name":"Stone Street","category":"tertiary","osm_type":"way","osm_id":"1409206483"}},{"type":"Feature","geometry":{"type":"LineString","coordinates":[[1.03074,51.08038],[1.03099,51.08078]]},"properties":{"name":"Stone Street","category":"tertiary","osm_type":"way","osm_id":"1409333578"}},{"type":"Feature","geometry":{"type":"LineString","coordinates":[[1.03099,51.08078],[1.03103,51.08083]]},"properties":{"name":"Stone Street","category":"tertiary","osm_type":"way","osm_id":"1409333579"}},{"type":"Feature","geometry":{"type":"LineString","coordinates":[[1.36814,51.33043],[1.37076,51.33065]]},"properties":{"name":"Cliffsend Road","category":"tertiary","osm_type":"way","osm_id":"1411154456"}},{"type":"Feature","geometry":{"type":"LineString","coordinates":[[1.09138,51.07465],[1.091,51.07447]]},"properties":{"name":"Station Road","category":"tertiary","osm_type":"way","osm_id":"1411184286"}},{"type":"Feature","geometry":{"type":"LineString","coordinates":[[1.0915,51.07464],[1.09138,51.07465]]},"properties":{"name":"Station Road","category":"tertiary","osm_type":"way","osm_id":"1411184287"}},{"type":"Feature","geometry":{"type":"LineString","coordinates":[[1.07669,51.29181],[1.07675,51.29151]]},"properties":{"name":"St. Stephen's Hill","category":"tertiary","osm_type":"way","osm_id":"1413518886"}},{"type":"Feature","geometry":{"type":"LineString","coordinates":[[1.29765,51.15337],[1.29717,51.15342]]},"properties":{"name":"Honeywood Parkway","category":"tertiary","osm_type":"way","osm_id":"1414097126"}},{"type":"Feature","geometry":{"type":"LineString","coordinates":[[1.29732,51.15355],[1.29765,51.15337]]},"properties":{"name":"Honeywood Parkway","category":"tertiary","osm_type":"way","osm_id":"1414097127"}},{"type":"Feature","geometry":{"type":"LineString","coordinates":[[1.10926,51.36297],[1.10956,51.36274]]},"properties":{"name":"Secondary and tertiary roads","category":"tertiary","osm_type":"way","osm_id":"1422995630"}},{"type":"Feature","geometry":{"type":"LineString","coordinates":[[1.10937,51.36278],[1.10912,51.36287]]},"properties":{"name":"Greenhill Road (East)","category":"tertiary","osm_type":"way","osm_id":"1422995631"}},{"type":"Feature","geometry":{"type":"LineString","coordinates":[[1.38306,51.3836],[1.38317,51.38345]]},"properties":{"name":"Churchfields","category":"secondary","osm_type":"way","osm_id":"1425832351","ref":"B2055"}},{"type":"Feature","geometry":{"type":"LineString","coordinates":[[1.04692,51.28313],[1.04746,51.28347]]},"properties":{"name":"Secondary and tertiary roads","category":"tertiary","osm_type":"way","osm_id":"1425880471"}},{"type":"Feature","geometry":{"type":"LineString","coordinates":[[1.04746,51.28347],[1.04793,51.28326]]},"properties":{"name":"Secondary and tertiary roads","category":"tertiary","osm_type":"way","osm_id":"1425880472"}},{"type":"Feature","geometry":{"type":"LineString","coordinates":[[1.08495,51.28556],[1.08499,51.28565]]},"properties":{"name":"Kingsmead Road","category":"secondary","osm_type":"way","osm_id":"1441871722","ref":"B2248"}},{"type":"Feature","geometry":{"type":"LineString","coordinates":[[1.08518,51.28547],[1.08495,51.28556]]},"properties":{"name":"Kingsmead Road","category":"secondary","osm_type":"way","osm_id":"1441871723","ref":"B2248"}},{"type":"Feature","geometry":{"type":"LineString","coordinates":[[1.0853,51.28558],[1.08518,51.28547]]},"properties":{"name":"Kingsmead Road","category":"secondary","osm_type":"way","osm_id":"1441871724","ref":"B2248"}},{"type":"Feature","geometry":{"type":"LineString","coordinates":[[1.08208,51.28696],[1.08212,51.28696]]},"properties":{"name":"St. Stephen's Road","category":"secondary","osm_type":"way","osm_id":"1441872967","ref":"B2248"}},{"type":"Feature","geometry":{"type":"LineString","coordinates":[[1.08191,51.28689],[1.08208,51.28696]]},"properties":{"name":"St. Stephen's Road","category":"secondary","osm_type":"way","osm_id":"1441872968","ref":"B2248"}},{"type":"Feature","geometry":{"type":"LineString","coordinates":[[1.0819,51.28686],[1.08191,51.28689]]},"properties":{"name":"St. Stephen's Road","category":"secondary","osm_type":"way","osm_id":"1441872969","ref":"B2248"}},{"type":"Feature","geometry":{"type":"LineString","coordinates":[[1.08202,51.28674],[1.0819,51.28686]]},"properties":{"name":"St. Stephen's Road","category":"secondary","osm_type":"way","osm_id":"1441872970","ref":"B2248"}},{"type":"Feature","geometry":{"type":"LineString","coordinates":[[1.08206,51.28674],[1.08202,51.28674]]},"properties":{"name":"St. Stephen's Road","category":"secondary","osm_type":"way","osm_id":"1441872971","ref":"B2248"}},{"type":"Feature","geometry":{"type":"LineString","coordinates":[[1.08225,51.28682],[1.08206,51.28674]]},"properties":{"name":"St. Stephen's Road","category":"secondary","osm_type":"way","osm_id":"1441872972","ref":"B2248"}},{"type":"Feature","geometry":{"type":"LineString","coordinates":[[1.08226,51.28685],[1.08225,51.28682]]},"properties":{"name":"St. Stephen's Road","category":"secondary","osm_type":"way","osm_id":"1441872973","ref":"B2248"}},{"type":"Feature","geometry":{"type":"LineString","coordinates":[[1.30322,51.11495],[1.30329,51.11485]]},"properties":{"name":"Old Folkestone Road","category":"tertiary","osm_type":"way","osm_id":"1449463130"}},{"type":"Feature","geometry":{"type":"LineString","coordinates":[[1.26069,51.20304],[1.26145,51.20147]]},"properties":{"name":"Adelaide Road","category":"tertiary","osm_type":"way","osm_id":"1455100254"}},{"type":"Feature","geometry":{"type":"LineString","coordinates":[[1.33327,51.27861],[1.32828,51.27881]]},"properties":{"name":"Ash Road","category":"tertiary","osm_type":"way","osm_id":"1455729883"}},{"type":"Feature","geometry":{"type":"LineString","coordinates":[[1.24571,51.17449],[1.24711,51.17532]]},"properties":{"name":"Secondary and tertiary roads","category":"tertiary","osm_type":"way","osm_id":"1457535233"}},{"type":"Feature","geometry":{"type":"LineString","coordinates":[[1.26627,51.15367],[1.26943,51.1531]]},"properties":{"name":"London Road","category":"tertiary","osm_type":"way","osm_id":"1457535239"}},{"type":"Feature","geometry":{"type":"LineString","coordinates":[[1.26943,51.1531],[1.2695,51.15308]]},"properties":{"name":"London Road","category":"tertiary","osm_type":"way","osm_id":"1457535240"}},{"type":"Feature","geometry":{"type":"LineString","coordinates":[[1.26782,51.14754],[1.26968,51.14823]]},"properties":{"name":"Alkham Road","category":"tertiary","osm_type":"way","osm_id":"1457535241"}},{"type":"Feature","geometry":{"type":"LineString","coordinates":[[1.25809,51.14559],[1.25956,51.14561]]},"properties":{"name":"Alkham Road","category":"tertiary","osm_type":"way","osm_id":"1457535242"}},{"type":"Feature","geometry":{"type":"LineString","coordinates":[[1.29499,51.12336],[1.29576,51.1233]]},"properties":{"name":"Elms Vale Road","category":"tertiary","osm_type":"way","osm_id":"1457538103"}},{"type":"Feature","geometry":{"type":"LineString","coordinates":[[1.31379,51.12525],[1.31375,51.12521]]},"properties":{"name":"King Street","category":"tertiary","osm_type":"way","osm_id":"1457538106"}},{"type":"Feature","geometry":{"type":"LineString","coordinates":[[1.17238,51.07704],[1.17271,51.07712]]},"properties":{"name":"Sandgate Road","category":"tertiary","osm_type":"way","osm_id":"1462450197"}},{"type":"Feature","geometry":{"type":"LineString","coordinates":[[1.17271,51.07712],[1.17242,51.07698]]},"properties":{"name":"Sandgate Road","category":"tertiary","osm_type":"way","osm_id":"1462450198"}},{"type":"Feature","geometry":{"type":"LineString","coordinates":[[1.18842,51.1521],[1.1897,51.15241],[1.19139,51.15214],[1.19597,51.15308],[1.20105,51.15521],[1.20269,51.15505],[1.20413,51.15538],[1.20815,51.15701]]},"properties":{"name":"Swanton Lane","category":"tertiary","osm_type":"way","osm_id":"1481507167"}},{"type":"Feature","geometry":{"type":"LineString","coordinates":[[1.08093,51.28591],[1.08015,51.2849]]},"properties":{"name":"St. Stephen's Road","category":"secondary","osm_type":"way","osm_id":"1510466030","ref":"B2248"}},{"type":"Feature","geometry":{"type":"LineString","coordinates":[[1.41019,51.39115],[1.41033,51.39114]]},"properties":{"name":"Palm Bay Avenue","category":"secondary","osm_type":"way","osm_id":"1525594372","ref":"B2051"}},{"type":"Feature","geometry":{"type":"LineString","coordinates":[[1.41054,51.39111],[1.41083,51.39108]]},"properties":{"name":"Palm Bay Avenue","category":"secondary","osm_type":"way","osm_id":"1525594373","ref":"B2051"}},{"type":"Feature","geometry":{"type":"LineString","coordinates":[[1.42052,51.39027],[1.4208,51.39021]]},"properties":{"name":"Palm Bay Avenue","category":"secondary","osm_type":"way","osm_id":"1525595066","ref":"B2051"}},{"type":"Feature","geometry":{"type":"LineString","coordinates":[[1.41797,51.39023],[1.41809,51.39022]]},"properties":{"name":"Palm Bay Avenue","category":"secondary","osm_type":"way","osm_id":"1525595067","ref":"B2051"}},{"type":"Feature","geometry":{"type":"LineString","coordinates":[[1.41809,51.39022],[1.41923,51.39016]]},"properties":{"name":"Palm Bay Avenue","category":"secondary","osm_type":"way","osm_id":"1525595068","ref":"B2051"}},{"type":"Feature","geometry":{"type":"LineString","coordinates":[[1.41346,51.39076],[1.4138,51.39073]]},"properties":{"name":"Palm Bay Avenue","category":"secondary","osm_type":"way","osm_id":"1525595069","ref":"B2051"}},{"type":"Feature","geometry":{"type":"LineString","coordinates":[[1.41083,51.39108],[1.41346,51.39076]]},"properties":{"name":"Palm Bay Avenue","category":"secondary","osm_type":"way","osm_id":"1525595070","ref":"B2051"}},{"type":"Feature","geometry":{"type":"LineString","coordinates":[[1.1287,51.35672],[1.12702,51.35544]]},"properties":{"name":"Herne Relief Road","category":"tertiary","osm_type":"way","osm_id":"1528299396"}},{"type":"Feature","geometry":{"type":"LineString","coordinates":[[1.12902,51.3573],[1.12979,51.35803]]},"properties":{"name":"Herne Relief Road","category":"tertiary","osm_type":"way","osm_id":"1528299401"}},{"type":"Feature","geometry":{"type":"LineString","coordinates":[[1.12951,51.35755],[1.1287,51.35672]]},"properties":{"name":"Herne Relief Road","category":"tertiary","osm_type":"way","osm_id":"1528299406"}},{"type":"Feature","geometry":{"type":"LineString","coordinates":[[1.12883,51.3571],[1.12902,51.3573]]},"properties":{"name":"Herne Relief Road","category":"tertiary","osm_type":"way","osm_id":"1528299407"}},{"type":"Feature","geometry":{"type":"LineString","coordinates":[[1.37735,51.37525],[1.37702,51.37525],[1.37704,51.37544],[1.37734,51.37545],[1.37735,51.37525]]},"properties":{"name":"Manston Road","category":"tertiary","osm_type":"way","osm_id":"1529030897"}},{"type":"Feature","geometry":{"type":"LineString","coordinates":[[1.37724,51.37548],[1.37739,51.37593]]},"properties":{"name":"Manston Road","category":"tertiary","osm_type":"way","osm_id":"1529030898"}},{"type":"Feature","geometry":{"type":"LineString","coordinates":[[1.37707,51.37523],[1.3764,51.3748]]},"properties":{"name":"Manston Road","category":"tertiary","osm_type":"way","osm_id":"1529030899"}},{"type":"Feature","geometry":{"type":"LineString","coordinates":[[1.37801,51.37659],[1.37805,51.37679]]},"properties":{"name":"Manston Road","category":"tertiary","osm_type":"way","osm_id":"1545700335"}},{"type":"Feature","geometry":{"type":"LineString","coordinates":[[1.37739,51.37593],[1.37801,51.37659]]},"properties":{"name":"Manston Road","category":"tertiary","osm_type":"way","osm_id":"1545703259"}},{"type":"Feature","geometry":{"type":"LineString","coordinates":[[1.38372,51.37464],[1.38425,51.37408]]},"properties":{"name":"Nash Road","category":"tertiary","osm_type":"way","osm_id":"1545703274"}},{"type":"Feature","geometry":{"type":"LineString","coordinates":[[1.03025,51.07976],[1.03028,51.07979]]},"properties":{"name":"Stone Street","category":"tertiary","osm_type":"way","osm_id":"1548196983"}},{"type":"Feature","geometry":{"type":"LineString","coordinates":[[1.02972,51.0792],[1.02988,51.07935]]},"properties":{"name":"Stone Street","category":"tertiary","osm_type":"way","osm_id":"1548196984"}},{"type":"Feature","geometry":{"type":"LineString","coordinates":[[1.04852,51.35838],[1.04806,51.35818]]},"properties":{"name":"Ham Shades Lane","category":"tertiary","osm_type":"way","osm_id":"1552766045"}},{"type":"Feature","geometry":{"type":"LineString","coordinates":[[1.03532,51.36314],[1.03548,51.36294]]},"properties":{"name":"Castle Road","category":"tertiary","osm_type":"way","osm_id":"1554794334"}},{"type":"Feature","geometry":{"type":"LineString","coordinates":[[1.03449,51.36329],[1.03235,51.3637]]},"properties":{"name":"Tankerton Road","category":"secondary","osm_type":"way","osm_id":"1554794335","ref":"B2205"}},{"type":"Feature","geometry":{"type":"LineString","coordinates":[[1.03595,51.36319],[1.03449,51.36329]]},"properties":{"name":"Tankerton Road","category":"secondary","osm_type":"way","osm_id":"1554794337","ref":"B2205"}},{"type":"Feature","geometry":{"type":"LineString","coordinates":[[1.0245,51.35885],[1.0241,51.36026]]},"properties":{"name":"High Street","category":"secondary","osm_type":"way","osm_id":"1558953646","ref":"B2205"}},{"type":"Feature","geometry":{"type":"LineString","coordinates":[[1.02468,51.35848],[1.0245,51.35885]]},"properties":{"name":"High Street","category":"secondary","osm_type":"way","osm_id":"1558953648","ref":"B2205"}}]}