{"type":"FeatureCollection","features":[{"type":"Feature","geometry":{"type":"LineString","coordinates":[[1.21883,51.84173],[1.2188,51.84181]]},"properties":{"name":"Holland Road","category":"secondary","osm_type":"way","osm_id":"1147027671","ref":"B1032"}},{"type":"Feature","geometry":{"type":"LineString","coordinates":[[1.06505,51.94541],[1.06613,51.94536]]},"properties":{"name":"High Street","category":"secondary","osm_type":"way","osm_id":"1147347930","ref":"B1352"}},{"type":"Feature","geometry":{"type":"LineString","coordinates":[[1.0645,51.94542],[1.06505,51.94541]]},"properties":{"name":"High Street","category":"secondary","osm_type":"way","osm_id":"1147347931","ref":"B1352"}},{"type":"Feature","geometry":{"type":"LineString","coordinates":[[1.16168,51.80278],[1.16109,51.80275]]},"properties":{"name":"Valley Road","category":"secondary","osm_type":"way","osm_id":"1152200352","ref":"B1027"}},{"type":"Feature","geometry":{"type":"LineString","coordinates":[[1.32541,51.96419],[1.3254,51.96447]]},"properties":{"name":"Secondary and tertiary roads","category":"tertiary","osm_type":"way","osm_id":"1157158821"}},{"type":"Feature","geometry":{"type":"LineString","coordinates":[[1.01461,51.84897],[1.015,51.84853]]},"properties":{"name":"Colchester Main Road","category":"secondary","osm_type":"way","osm_id":"1160924476","ref":"B1027"}},{"type":"Feature","geometry":{"type":"LineString","coordinates":[[1.35185,51.96389],[1.35178,51.96368]]},"properties":{"name":"Hamilton Road","category":"secondary","osm_type":"way","osm_id":"1169295504","ref":"B1082"}},{"type":"Feature","geometry":{"type":"LineString","coordinates":[[1.3516,51.96371],[1.35108,51.96379]]},"properties":{"name":"Cobbold Road","category":"tertiary","osm_type":"way","osm_id":"1169295505"}},{"type":"Feature","geometry":{"type":"LineString","coordinates":[[1.35199,51.96364],[1.35178,51.96368]]},"properties":{"name":"Cobbold Road","category":"tertiary","osm_type":"way","osm_id":"1169295506"}},{"type":"Feature","geometry":{"type":"LineString","coordinates":[[1.33204,51.97513],[1.3302,51.97566]]},"properties":{"name":"High Street","category":"tertiary","osm_type":"way","osm_id":"1175929911"}},{"type":"Feature","geometry":{"type":"LineString","coordinates":[[1.33204,51.97513],[1.33238,51.97504]]},"properties":{"name":"High Street","category":"tertiary","osm_type":"way","osm_id":"1175929912"}},{"type":"Feature","geometry":{"type":"LineString","coordinates":[[1.10182,51.89458],[1.10376,51.89282],[1.10772,51.89129]]},"properties":{"name":"Heath Road","category":"secondary","osm_type":"way","osm_id":"1180013856","ref":"B1035"}},{"type":"Feature","geometry":{"type":"LineString","coordinates":[[1.07428,51.94668],[1.07705,51.94595]]},"properties":{"name":"The Walls","category":"secondary","osm_type":"way","osm_id":"1183359708","ref":"B1352"}},{"type":"Feature","geometry":{"type":"LineString","coordinates":[[1.07401,51.94668],[1.07428,51.94668]]},"properties":{"name":"The Walls","category":"secondary","osm_type":"way","osm_id":"1183359709","ref":"B1352"}},{"type":"Feature","geometry":{"type":"LineString","coordinates":[[1.12069,51.9703],[1.1241,51.97074]]},"properties":{"name":"Manningtree Road","category":"secondary","osm_type":"way","osm_id":"1187893734","ref":"B1080"}},{"type":"Feature","geometry":{"type":"LineString","coordinates":[[1.12038,51.97023],[1.12069,51.9703]]},"properties":{"name":"B1080","category":"secondary","osm_type":"way","osm_id":"1187893735","ref":"B1080"}},{"type":"Feature","geometry":{"type":"LineString","coordinates":[[1.13069,51.97041],[1.13147,51.9704]]},"properties":{"name":"Holbrook Road","category":"secondary","osm_type":"way","osm_id":"1187896321","ref":"B1080"}},{"type":"Feature","geometry":{"type":"LineString","coordinates":[[1.06712,51.99253],[1.06863,51.99139]]},"properties":{"name":"Capel Road","category":"tertiary","osm_type":"way","osm_id":"1188140824"}},{"type":"Feature","geometry":{"type":"LineString","coordinates":[[1.06863,51.99139],[1.06899,51.99118]]},"properties":{"name":"Capel Road","category":"tertiary","osm_type":"way","osm_id":"1188141082"}},{"type":"Feature","geometry":{"type":"LineString","coordinates":[[1.33238,51.97504],[1.3321,51.97498]]},"properties":{"name":"High Street","category":"tertiary","osm_type":"way","osm_id":"1194676792"}},{"type":"Feature","geometry":{"type":"LineString","coordinates":[[1.3321,51.97498],[1.33204,51.97513]]},"properties":{"name":"High Street","category":"tertiary","osm_type":"way","osm_id":"1194676793"}},{"type":"Feature","geometry":{"type":"LineString","coordinates":[[1.052,51.99943],[1.05138,51.99899]]},"properties":{"name":"London Road","category":"tertiary","osm_type":"way","osm_id":"1206588440"}},{"type":"Feature","geometry":{"type":"LineString","coordinates":[[1.00607,51.9889],[1.00719,51.98884]]},"properties":{"name":"B1070","category":"secondary","osm_type":"way","osm_id":"1206942233","ref":"B1070"}},{"type":"Feature","geometry":{"type":"LineString","coordinates":[[1.04373,51.93812],[1.0437,51.93826]]},"properties":{"name":"Bromley Road","category":"tertiary","osm_type":"way","osm_id":"1221869902"}},{"type":"Feature","geometry":{"type":"LineString","coordinates":[[1.34883,51.95983],[1.34952,51.96001]]},"properties":{"name":"Wolsey Gardens","category":"tertiary","osm_type":"way","osm_id":"1228469198"}},{"type":"Feature","geometry":{"type":"LineString","coordinates":[[1.0699,51.89743],[1.06959,51.89682]]},"properties":{"name":"Little Bromley Road","category":"tertiary","osm_type":"way","osm_id":"1230074289"}},{"type":"Feature","geometry":{"type":"LineString","coordinates":[[1.06959,51.89682],[1.06917,51.89676]]},"properties":{"name":"Little Bromley Road","category":"tertiary","osm_type":"way","osm_id":"1230074290"}},{"type":"Feature","geometry":{"type":"LineString","coordinates":[[1.06902,51.89688],[1.06955,51.89764]]},"properties":{"name":"Bentley Road","category":"tertiary","osm_type":"way","osm_id":"1230074291"}},{"type":"Feature","geometry":{"type":"LineString","coordinates":[[1.03287,51.88146],[1.03203,51.88275]]},"properties":{"name":"Parsons Hill","category":"secondary","osm_type":"way","osm_id":"1237231864","ref":"B1029"}},{"type":"Feature","geometry":{"type":"LineString","coordinates":[[1.01777,51.97782],[1.01812,51.97796]]},"properties":{"name":"Gaston street","category":"tertiary","osm_type":"way","osm_id":"1238930912"}},{"type":"Feature","geometry":{"type":"LineString","coordinates":[[1.08232,51.79612],[1.08219,51.79619]]},"properties":{"name":"Spring Road","category":"tertiary","osm_type":"way","osm_id":"1252007036"}},{"type":"Feature","geometry":{"type":"LineString","coordinates":[[1.08275,51.79589],[1.08232,51.79612]]},"properties":{"name":"Spring Road","category":"tertiary","osm_type":"way","osm_id":"1252007037"}},{"type":"Feature","geometry":{"type":"LineString","coordinates":[[1.12106,51.85968],[1.12513,51.85991]]},"properties":{"name":"Thorpe Road","category":"secondary","osm_type":"way","osm_id":"1258815320","ref":"B1033"}},{"type":"Feature","geometry":{"type":"LineString","coordinates":[[1.01148,51.97168],[1.01235,51.97243]]},"properties":{"name":"The Street","category":"tertiary","osm_type":"way","osm_id":"1258993113"}},{"type":"Feature","geometry":{"type":"LineString","coordinates":[[1.26774,51.96072],[1.26748,51.96052]]},"properties":{"name":"B1456","category":"secondary","osm_type":"way","osm_id":"1262670581","ref":"B1456"}},{"type":"Feature","geometry":{"type":"LineString","coordinates":[[1.26748,51.96052],[1.26875,51.95789]]},"properties":{"name":"B1456","category":"secondary","osm_type":"way","osm_id":"1262670582","ref":"B1456"}},{"type":"Feature","geometry":{"type":"LineString","coordinates":[[1.26761,51.96086],[1.26746,51.96101]]},"properties":{"name":"B1456","category":"secondary","osm_type":"way","osm_id":"1262670583","ref":"B1456"}},{"type":"Feature","geometry":{"type":"LineString","coordinates":[[1.26779,51.96093],[1.26774,51.96072]]},"properties":{"name":"B1456","category":"secondary","osm_type":"way","osm_id":"1262670587","ref":"B1456"}},{"type":"Feature","geometry":{"type":"LineString","coordinates":[[1.26746,51.96101],[1.26779,51.96093]]},"properties":{"name":"B1456","category":"secondary","osm_type":"way","osm_id":"1262670589","ref":"B1456"}},{"type":"Feature","geometry":{"type":"LineString","coordinates":[[1.14914,51.7919],[1.15039,51.79074]]},"properties":{"name":"Pier Avenue","category":"tertiary","osm_type":"way","osm_id":"1265466924"}},{"type":"Feature","geometry":{"type":"LineString","coordinates":[[1.15211,51.81246],[1.15074,51.81374]]},"properties":{"name":"London Road","category":"secondary","osm_type":"way","osm_id":"1265589909","ref":"B1441"}},{"type":"Feature","geometry":{"type":"LineString","coordinates":[[1.05265,51.94094],[1.05085,51.94072],[1.05067,51.93754]]},"properties":{"name":"Colchester Road","category":"tertiary","osm_type":"way","osm_id":"1265819083"}},{"type":"Feature","geometry":{"type":"LineString","coordinates":[[1.02816,51.84249],[1.02904,51.84234]]},"properties":{"name":"Tenpenny Hill","category":"secondary","osm_type":"way","osm_id":"1265819084","ref":"B1027"}},{"type":"Feature","geometry":{"type":"LineString","coordinates":[[1.03818,51.87693],[1.03698,51.87791]]},"properties":{"name":"Frating Road","category":"secondary","osm_type":"way","osm_id":"1265833298","ref":"B1029"}},{"type":"Feature","geometry":{"type":"LineString","coordinates":[[0.9994,51.85767],[1.00082,51.85647],[1.00304,51.85565],[1.00593,51.8539]]},"properties":{"name":"Colchester Main Road","category":"secondary","osm_type":"way","osm_id":"1265840362","ref":"B1027"}},{"type":"Feature","geometry":{"type":"LineString","coordinates":[[1.0083,51.85266],[1.006,51.8525]]},"properties":{"name":"Wivenhoe Road","category":"tertiary","osm_type":"way","osm_id":"1265840363"}},{"type":"Feature","geometry":{"type":"LineString","coordinates":[[1.07358,51.84225],[1.0734,51.84195]]},"properties":{"name":"St Mary's Road","category":"tertiary","osm_type":"way","osm_id":"1265842012"}},{"type":"Feature","geometry":{"type":"LineString","coordinates":[[1.05783,51.85524],[1.0578,51.85525]]},"properties":{"name":"Thorrington Road","category":"tertiary","osm_type":"way","osm_id":"1265843617"}},{"type":"Feature","geometry":{"type":"LineString","coordinates":[[1.17667,51.80658],[1.17654,51.80646]]},"properties":{"name":"Sladburys Lane","category":"tertiary","osm_type":"way","osm_id":"1267078100"}},{"type":"Feature","geometry":{"type":"LineString","coordinates":[[1.17648,51.80656],[1.17667,51.80658]]},"properties":{"name":"Sladburys Lane","category":"tertiary","osm_type":"way","osm_id":"1267078101"}},{"type":"Feature","geometry":{"type":"LineString","coordinates":[[1.17638,51.80623],[1.17628,51.80639]]},"properties":{"name":"Sladburys Lane","category":"tertiary","osm_type":"way","osm_id":"1267078102"}},{"type":"Feature","geometry":{"type":"LineString","coordinates":[[1.17644,51.80638],[1.17638,51.80623]]},"properties":{"name":"Sladburys Lane","category":"tertiary","osm_type":"way","osm_id":"1267078103"}},{"type":"Feature","geometry":{"type":"LineString","coordinates":[[1.17636,51.80637],[1.17621,51.80649],[1.1764,51.80658],[1.17654,51.80646],[1.17636,51.80637]]},"properties":{"name":"Sladburys Lane","category":"tertiary","osm_type":"way","osm_id":"1267078104"}},{"type":"Feature","geometry":{"type":"LineString","coordinates":[[1.17764,51.80746],[1.17667,51.80658]]},"properties":{"name":"Sladburys Lane","category":"tertiary","osm_type":"way","osm_id":"1267078105"}},{"type":"Feature","geometry":{"type":"LineString","coordinates":[[1.09816,51.8954],[1.10182,51.89458]]},"properties":{"name":"Heath Road","category":"secondary","osm_type":"way","osm_id":"1267936193","ref":"B1035"}},{"type":"Feature","geometry":{"type":"LineString","coordinates":[[1.10592,51.93938],[1.10524,51.93961]]},"properties":{"name":"Brickman's Hill","category":"secondary","osm_type":"way","osm_id":"1271741504","ref":"B1352"}},{"type":"Feature","geometry":{"type":"LineString","coordinates":[[1.11222,51.93927],[1.11102,51.93969]]},"properties":{"name":"Station Road","category":"secondary","osm_type":"way","osm_id":"1271741505","ref":"B1352"}},{"type":"Feature","geometry":{"type":"LineString","coordinates":[[1.0487,51.94843],[1.04908,51.94846]]},"properties":{"name":"Station Road","category":"secondary","osm_type":"way","osm_id":"1273887868","ref":"B1352"}},{"type":"Feature","geometry":{"type":"LineString","coordinates":[[1.04908,51.94846],[1.04885,51.94828]]},"properties":{"name":"Station Road","category":"secondary","osm_type":"way","osm_id":"1273887869","ref":"B1352"}},{"type":"Feature","geometry":{"type":"LineString","coordinates":[[1.32941,51.97584],[1.32092,51.97863]]},"properties":{"name":"High Road","category":"tertiary","osm_type":"way","osm_id":"1277612313"}},{"type":"Feature","geometry":{"type":"LineString","coordinates":[[1.35356,51.96778],[1.35329,51.96768]]},"properties":{"name":"High Road East","category":"tertiary","osm_type":"way","osm_id":"1277781318"}},{"type":"Feature","geometry":{"type":"LineString","coordinates":[[1.35326,51.96782],[1.35356,51.96778]]},"properties":{"name":"High Road East","category":"tertiary","osm_type":"way","osm_id":"1277781319"}},{"type":"Feature","geometry":{"type":"LineString","coordinates":[[1.35292,51.96766],[1.35261,51.96772]]},"properties":{"name":"High Road West","category":"tertiary","osm_type":"way","osm_id":"1277781324"}},{"type":"Feature","geometry":{"type":"LineString","coordinates":[[1.35261,51.96772],[1.3529,51.96778]]},"properties":{"name":"High Road West","category":"tertiary","osm_type":"way","osm_id":"1277781325"}},{"type":"Feature","geometry":{"type":"LineString","coordinates":[[1.34087,51.95815],[1.34118,51.95817]]},"properties":{"name":"Undercliff Road West","category":"secondary","osm_type":"way","osm_id":"1277782777","ref":"B1082"}},{"type":"Feature","geometry":{"type":"LineString","coordinates":[[1.34118,51.95817],[1.34098,51.95803]]},"properties":{"name":"Undercliff Road West","category":"secondary","osm_type":"way","osm_id":"1277782783","ref":"B1082"}},{"type":"Feature","geometry":{"type":"LineString","coordinates":[[1.30633,51.99221],[1.30567,51.99299]]},"properties":{"name":"High Road","category":"tertiary","osm_type":"way","osm_id":"1280783221"}},{"type":"Feature","geometry":{"type":"LineString","coordinates":[[1.15867,51.98379],[1.15921,51.9855]]},"properties":{"name":"Ipswich Road","category":"secondary","osm_type":"way","osm_id":"1280910183","ref":"B1080"}},{"type":"Feature","geometry":{"type":"LineString","coordinates":[[1.12882,51.97043],[1.13002,51.9704]]},"properties":{"name":"Holbrook Road","category":"secondary","osm_type":"way","osm_id":"1281233744","ref":"B1080"}},{"type":"Feature","geometry":{"type":"LineString","coordinates":[[1.13002,51.9704],[1.13069,51.97041]]},"properties":{"name":"Holbrook Road","category":"secondary","osm_type":"way","osm_id":"1281233873","ref":"B1080"}},{"type":"Feature","geometry":{"type":"LineString","coordinates":[[1.3539,51.96334],[1.35199,51.96364]]},"properties":{"name":"Cobbold Road","category":"tertiary","osm_type":"way","osm_id":"1281417445"}},{"type":"Feature","geometry":{"type":"LineString","coordinates":[[1.35105,51.96051],[1.35128,51.96057]]},"properties":{"name":"Wolsey Gardens","category":"tertiary","osm_type":"way","osm_id":"1281417446"}},{"type":"Feature","geometry":{"type":"LineString","coordinates":[[1.27452,51.85033],[1.27445,51.85004]]},"properties":{"name":"Princes Esplanade","category":"secondary","osm_type":"way","osm_id":"1284569498","ref":"B1034"}},{"type":"Feature","geometry":{"type":"LineString","coordinates":[[1.30291,51.99527],[1.30159,51.99652]]},"properties":{"name":"High Road","category":"tertiary","osm_type":"way","osm_id":"1285163287"}},{"type":"Feature","geometry":{"type":"LineString","coordinates":[[1.30324,51.99494],[1.30291,51.99527]]},"properties":{"name":"High Road","category":"tertiary","osm_type":"way","osm_id":"1285163290"}},{"type":"Feature","geometry":{"type":"LineString","coordinates":[[1.00975,51.97745],[1.01152,51.97983]]},"properties":{"name":"Hadleigh Road","category":"tertiary","osm_type":"way","osm_id":"1296312259"}},{"type":"Feature","geometry":{"type":"LineString","coordinates":[[1.20892,51.98923],[1.21151,51.98934]]},"properties":{"name":"Main Road","category":"secondary","osm_type":"way","osm_id":"1297324150","ref":"B1456"}},{"type":"Feature","geometry":{"type":"LineString","coordinates":[[1.21151,51.98934],[1.21295,51.98927]]},"properties":{"name":"Main Road","category":"secondary","osm_type":"way","osm_id":"1297324359","ref":"B1456"}},{"type":"Feature","geometry":{"type":"LineString","coordinates":[[1.21295,51.98927],[1.21519,51.98921]]},"properties":{"name":"Main Road","category":"secondary","osm_type":"way","osm_id":"1297324674","ref":"B1456"}},{"type":"Feature","geometry":{"type":"LineString","coordinates":[[1.21752,51.98926],[1.2182,51.98928]]},"properties":{"name":"Main Road","category":"secondary","osm_type":"way","osm_id":"1297324775","ref":"B1456"}},{"type":"Feature","geometry":{"type":"LineString","coordinates":[[1.05631,51.9386],[1.05755,51.93883]]},"properties":{"name":"Long Road","category":"secondary","osm_type":"way","osm_id":"1301729847","ref":"B1352"}},{"type":"Feature","geometry":{"type":"LineString","coordinates":[[1.05755,51.93883],[1.05876,51.93905]]},"properties":{"name":"Long Road","category":"secondary","osm_type":"way","osm_id":"1301729848","ref":"B1352"}},{"type":"Feature","geometry":{"type":"LineString","coordinates":[[1.087,51.90257],[1.08678,51.90269]]},"properties":{"name":"Clacton Road","category":"secondary","osm_type":"way","osm_id":"1303692537","ref":"B1035"}},{"type":"Feature","geometry":{"type":"LineString","coordinates":[[1.08662,51.90307],[1.08681,51.90288]]},"properties":{"name":"Clacton Road","category":"secondary","osm_type":"way","osm_id":"1303692544","ref":"B1035"}},{"type":"Feature","geometry":{"type":"LineString","coordinates":[[1.0869,51.9028],[1.087,51.90257]]},"properties":{"name":"Clacton Road","category":"secondary","osm_type":"way","osm_id":"1303692545","ref":"B1035"}},{"type":"Feature","geometry":{"type":"LineString","coordinates":[[1.08661,51.90285],[1.08662,51.90307]]},"properties":{"name":"Clacton Road","category":"secondary","osm_type":"way","osm_id":"1303692546","ref":"B1035"}},{"type":"Feature","geometry":{"type":"LineString","coordinates":[[1.08628,51.90373],[1.08662,51.90307]]},"properties":{"name":"Clacton Road","category":"secondary","osm_type":"way","osm_id":"1303692548","ref":"B1035"}},{"type":"Feature","geometry":{"type":"LineString","coordinates":[[1.35747,51.9815],[1.35774,51.98108]]},"properties":{"name":"Gulpher Road","category":"tertiary","osm_type":"way","osm_id":"1311583369"}},{"type":"Feature","geometry":{"type":"LineString","coordinates":[[1.35729,51.98161],[1.35747,51.9815]]},"properties":{"name":"Gulpher Road","category":"tertiary","osm_type":"way","osm_id":"1311583370"}},{"type":"Feature","geometry":{"type":"LineString","coordinates":[[1.35731,51.97974],[1.3573,51.97965]]},"properties":{"name":"Gulpher Road","category":"tertiary","osm_type":"way","osm_id":"1311583371"}},{"type":"Feature","geometry":{"type":"LineString","coordinates":[[1.35774,51.98108],[1.35731,51.97974]]},"properties":{"name":"Gulpher Road","category":"tertiary","osm_type":"way","osm_id":"1311583372"}},{"type":"Feature","geometry":{"type":"LineString","coordinates":[[1.33225,51.97519],[1.33422,51.97647],[1.33604,51.97671]]},"properties":{"name":"Jubilee Avenue","category":"tertiary","osm_type":"way","osm_id":"1348308825"}},{"type":"Feature","geometry":{"type":"LineString","coordinates":[[1.3158,51.96008],[1.31545,51.95994]]},"properties":{"name":"Ferry Lane","category":"tertiary","osm_type":"way","osm_id":"1348312125"}},{"type":"Feature","geometry":{"type":"LineString","coordinates":[[1.05912,51.97022],[1.05759,51.97003]]},"properties":{"name":"Park Road","category":"tertiary","osm_type":"way","osm_id":"1380315653"}},{"type":"Feature","geometry":{"type":"LineString","coordinates":[[1.17122,51.8175],[1.17144,51.81746]]},"properties":{"name":"Stephenson Road","category":"tertiary","osm_type":"way","osm_id":"1388517140"}},{"type":"Feature","geometry":{"type":"LineString","coordinates":[[1.33604,51.97671],[1.3361,51.9769]]},"properties":{"name":"Jubilee Avenue","category":"tertiary","osm_type":"way","osm_id":"1408387477"}},{"type":"Feature","geometry":{"type":"LineString","coordinates":[[1.3363,51.97683],[1.33604,51.97671]]},"properties":{"name":"Jubilee Avenue","category":"tertiary","osm_type":"way","osm_id":"1408387478"}},{"type":"Feature","geometry":{"type":"LineString","coordinates":[[1.36096,51.96236],[1.36123,51.96241]]},"properties":{"name":"Bath Hill","category":"tertiary","osm_type":"way","osm_id":"1416380121"}},{"type":"Feature","geometry":{"type":"LineString","coordinates":[[1.07517,51.86806],[1.07555,51.8683]]},"properties":{"name":"Church Road","category":"tertiary","osm_type":"way","osm_id":"1419083251"}},{"type":"Feature","geometry":{"type":"LineString","coordinates":[[1.16218,51.8212],[1.16237,51.8213],[1.16252,51.82116],[1.1623,51.82109],[1.16218,51.8212]]},"properties":{"name":"Thorpe Road","category":"tertiary","osm_type":"way","osm_id":"1420757932"}},{"type":"Feature","geometry":{"type":"LineString","coordinates":[[1.35178,51.96368],[1.3516,51.96371]]},"properties":{"name":"Cobbold Road","category":"tertiary","osm_type":"way","osm_id":"1423281158"}},{"type":"Feature","geometry":{"type":"LineString","coordinates":[[1.26748,51.96052],[1.26761,51.96081]]},"properties":{"name":"B1456","category":"secondary","osm_type":"way","osm_id":"1427497178","ref":"B1456"}},{"type":"Feature","geometry":{"type":"LineString","coordinates":[[1.15878,51.98943],[1.15799,51.99178]]},"properties":{"name":"Ipswich Road","category":"secondary","osm_type":"way","osm_id":"1427502279","ref":"B1080"}},{"type":"Feature","geometry":{"type":"LineString","coordinates":[[1.10959,51.85901],[1.10979,51.85889]]},"properties":{"name":"B1441","category":"secondary","osm_type":"way","osm_id":"1428954005","ref":"B1441"}},{"type":"Feature","geometry":{"type":"LineString","coordinates":[[1.13147,51.9704],[1.13761,51.97062]]},"properties":{"name":"Holbrook Road","category":"secondary","osm_type":"way","osm_id":"1430281246","ref":"B1080"}},{"type":"Feature","geometry":{"type":"LineString","coordinates":[[1.14274,51.97106],[1.14302,51.97106]]},"properties":{"name":"Holbrook Road","category":"secondary","osm_type":"way","osm_id":"1430281247","ref":"B1080"}},{"type":"Feature","geometry":{"type":"LineString","coordinates":[[1.11016,51.9922],[1.1101,51.99195]]},"properties":{"name":"School Road","category":"tertiary","osm_type":"way","osm_id":"1431163131"}},{"type":"Feature","geometry":{"type":"LineString","coordinates":[[1.15916,51.81916],[1.1613,51.81877]]},"properties":{"name":"Centenary Way","category":"secondary","osm_type":"way","osm_id":"1432230983","ref":"B1442"}},{"type":"Feature","geometry":{"type":"LineString","coordinates":[[1.15782,51.8194],[1.15916,51.81916]]},"properties":{"name":"Centenary Way","category":"secondary","osm_type":"way","osm_id":"1432230984","ref":"B1442"}},{"type":"Feature","geometry":{"type":"LineString","coordinates":[[1.02222,51.97997],[1.02211,51.98084],[1.02282,51.98155],[1.02242,51.9822]]},"properties":{"name":"Woodgates Road","category":"tertiary","osm_type":"way","osm_id":"1456783315"}},{"type":"Feature","geometry":{"type":"LineString","coordinates":[[1.03308,51.97002],[1.0336,51.97227]]},"properties":{"name":"Mill Road","category":"secondary","osm_type":"way","osm_id":"1456783395","ref":"B1070"}},{"type":"Feature","geometry":{"type":"LineString","coordinates":[[1.04048,51.96498],[1.04274,51.9644],[1.0443,51.96241]]},"properties":{"name":"Manningtree Road","category":"secondary","osm_type":"way","osm_id":"1456783404","ref":"B1070"}},{"type":"Feature","geometry":{"type":"LineString","coordinates":[[1.0443,51.96241],[1.04588,51.96179],[1.04695,51.96044]]},"properties":{"name":"Manningtree Road","category":"secondary","osm_type":"way","osm_id":"1456783570","ref":"B1070"}},{"type":"Feature","geometry":{"type":"LineString","coordinates":[[1.06428,51.83074],[1.06414,51.83085]]},"properties":{"name":"Holly Bush Hill","category":"secondary","osm_type":"way","osm_id":"1510179541","ref":"B1027"}},{"type":"Feature","geometry":{"type":"LineString","coordinates":[[1.14191,51.82531],[1.14262,51.82605],[1.14171,51.82763]]},"properties":{"name":"The Street","category":"secondary","osm_type":"way","osm_id":"1510264619","ref":"B1441"}},{"type":"Feature","geometry":{"type":"LineString","coordinates":[[1.21973,51.84206],[1.22016,51.8421]]},"properties":{"name":"Frinton Road","category":"secondary","osm_type":"way","osm_id":"1510373279","ref":"B1033"}},{"type":"Feature","geometry":{"type":"LineString","coordinates":[[1.14537,51.91241],[1.14613,51.91247]]},"properties":{"name":"Harwich Road","category":"tertiary","osm_type":"way","osm_id":"1510591179"}},{"type":"Feature","geometry":{"type":"LineString","coordinates":[[1.28112,51.85932],[1.28052,51.85922]]},"properties":{"name":"Naze Park Road","category":"tertiary","osm_type":"way","osm_id":"1510695580"}},{"type":"Feature","geometry":{"type":"LineString","coordinates":[[1.28052,51.85922],[1.27929,51.85902]]},"properties":{"name":"Naze Park Road","category":"tertiary","osm_type":"way","osm_id":"1510695581"}},{"type":"Feature","geometry":{"type":"LineString","coordinates":[[1.03591,51.84936],[1.03593,51.84944]]},"properties":{"name":"Station Road","category":"secondary","osm_type":"way","osm_id":"1511549057","ref":"B1029"}},{"type":"Feature","geometry":{"type":"LineString","coordinates":[[1.04395,51.83822],[1.04181,51.83926]]},"properties":{"name":"Clacton Road","category":"secondary","osm_type":"way","osm_id":"1511549058","ref":"B1027"}},{"type":"Feature","geometry":{"type":"LineString","coordinates":[[1.08678,51.90269],[1.08661,51.90285]]},"properties":{"name":"B1035","category":"secondary","osm_type":"way","osm_id":"1529712327","ref":"B1035"}},{"type":"Feature","geometry":{"type":"LineString","coordinates":[[1.08681,51.90288],[1.0869,51.9028]]},"properties":{"name":"B1035","category":"secondary","osm_type":"way","osm_id":"1529712328","ref":"B1035"}},{"type":"Feature","geometry":{"type":"LineString","coordinates":[[1.08661,51.90285],[1.08681,51.90288]]},"properties":{"name":"B1035","category":"secondary","osm_type":"way","osm_id":"1529712329","ref":"B1035"}},{"type":"Feature","geometry":{"type":"LineString","coordinates":[[1.0869,51.9028],[1.08678,51.90269]]},"properties":{"name":"B1035","category":"secondary","osm_type":"way","osm_id":"1529712330","ref":"B1035"}},{"type":"Feature","geometry":{"type":"LineString","coordinates":[[1.31119,51.98786],[1.31102,51.98821]]},"properties":{"name":"Secondary and tertiary roads","category":"tertiary","osm_type":"way","osm_id":"1531444672"}},{"type":"Feature","geometry":{"type":"LineString","coordinates":[[1.31164,51.9881],[1.31154,51.98792]]},"properties":{"name":"Secondary and tertiary roads","category":"tertiary","osm_type":"way","osm_id":"1531444675"}},{"type":"Feature","geometry":{"type":"LineString","coordinates":[[1.31154,51.98792],[1.31119,51.98786]]},"properties":{"name":"Secondary and tertiary roads","category":"tertiary","osm_type":"way","osm_id":"1531444676"}},{"type":"Feature","geometry":{"type":"LineString","coordinates":[[1.31102,51.98821],[1.3114,51.98828]]},"properties":{"name":"Secondary and tertiary roads","category":"tertiary","osm_type":"way","osm_id":"1531444677"}},{"type":"Feature","geometry":{"type":"LineString","coordinates":[[1.3114,51.98828],[1.31149,51.98825]]},"properties":{"name":"Secondary and tertiary roads","category":"tertiary","osm_type":"way","osm_id":"1531444678"}},{"type":"Feature","geometry":{"type":"LineString","coordinates":[[1.31149,51.98825],[1.31164,51.9881]]},"properties":{"name":"Secondary and tertiary roads","category":"tertiary","osm_type":"way","osm_id":"1531444679"}},{"type":"Feature","geometry":{"type":"LineString","coordinates":[[1.26761,51.96081],[1.26761,51.96086]]},"properties":{"name":"B1456","category":"secondary","osm_type":"way","osm_id":"1531594634","ref":"B1456"}},{"type":"Feature","geometry":{"type":"LineString","coordinates":[[1.26761,51.96086],[1.26779,51.96093]]},"properties":{"name":"B1456","category":"secondary","osm_type":"way","osm_id":"1531594635","ref":"B1456"}},{"type":"Feature","geometry":{"type":"LineString","coordinates":[[1.26774,51.96072],[1.26761,51.96081]]},"properties":{"name":"B1456","category":"secondary","osm_type":"way","osm_id":"1531594636","ref":"B1456"}},{"type":"Feature","geometry":{"type":"LineString","coordinates":[[1.17854,51.8544],[1.18295,51.85331]]},"properties":{"name":"Frinton Road","category":"secondary","osm_type":"way","osm_id":"1531740572","ref":"B1033"}},{"type":"Feature","geometry":{"type":"LineString","coordinates":[[1.03151,51.84219],[1.02957,51.84236]]},"properties":{"name":"Clacton Road","category":"secondary","osm_type":"way","osm_id":"1549678442","ref":"B1027"}},{"type":"Feature","geometry":{"type":"LineString","coordinates":[[1.39483,51.9904],[1.39484,51.99285],[1.39663,51.99355]]},"properties":{"name":"Ferry Road","category":"tertiary","osm_type":"way","osm_id":"1550195946"}},{"type":"Feature","geometry":{"type":"LineString","coordinates":[[1.1546,51.83841],[1.15426,51.83897]]},"properties":{"name":"Tan Lane","category":"tertiary","osm_type":"way","osm_id":"1550855635"}}]}