{"type":"FeatureCollection","features":[{"type":"Feature","geometry":{"type":"Point","coordinates":[-0.98176,53.96461]},"properties":{"name":"Dunnington","category":"village","osm_type":"node","osm_id":"12711826"}},{"type":"Feature","geometry":{"type":"Point","coordinates":[-0.97298,53.97926]},"properties":{"name":"Holtby","category":"village","osm_type":"node","osm_id":"12712963"}},{"type":"Feature","geometry":{"type":"Point","coordinates":[-0.91312,53.9907]},"properties":{"name":"Stamford Bridge","category":"village","osm_type":"node","osm_id":"12732392"}},{"type":"Feature","geometry":{"type":"Point","coordinates":[-0.78519,53.98646]},"properties":{"name":"Bishop Wilton","category":"village","osm_type":"node","osm_id":"16143657","website":"https://bishopwilton.com/"}},{"type":"Feature","geometry":{"type":"Point","coordinates":[-0.16894,53.91346]},"properties":{"name":"Hornsea","category":"town","osm_type":"node","osm_id":"20628349"}},{"type":"Feature","geometry":{"type":"Point","coordinates":[-0.66797,53.86436]},"properties":{"name":"Market Weighton","category":"town","osm_type":"node","osm_id":"21448978"}},{"type":"Feature","geometry":{"type":"Point","coordinates":[-0.0788,53.56714]},"properties":{"name":"Grimsby","category":"town","osm_type":"node","osm_id":"21639941"}},{"type":"Feature","geometry":{"type":"Point","coordinates":[-0.43157,53.84255]},"properties":{"name":"Beverley","category":"town","osm_type":"node","osm_id":"25990518"}},{"type":"Feature","geometry":{"type":"Point","coordinates":[-0.52402,53.9198]},"properties":{"name":"Lund","category":"village","osm_type":"node","osm_id":"25990972"}},{"type":"Feature","geometry":{"type":"Point","coordinates":[-0.45823,53.87903]},"properties":{"name":"Leconfield","category":"village","osm_type":"node","osm_id":"25990973"}},{"type":"Feature","geometry":{"type":"Point","coordinates":[-0.64535,53.77988]},"properties":{"name":"North Cave","category":"village","osm_type":"node","osm_id":"26014985"}},{"type":"Feature","geometry":{"type":"Point","coordinates":[-0.33948,53.74357]},"properties":{"name":"Hull","category":"city","osm_type":"node","osm_id":"26701158"}},{"type":"Feature","geometry":{"type":"Point","coordinates":[-0.64508,53.59225]},"properties":{"name":"Scunthorpe","category":"town","osm_type":"node","osm_id":"26701165"}},{"type":"Feature","geometry":{"type":"Point","coordinates":[-0.87159,53.70356]},"properties":{"name":"Goole","category":"town","osm_type":"node","osm_id":"27330199"}},{"type":"Feature","geometry":{"type":"Point","coordinates":[-0.029,53.55721]},"properties":{"name":"Cleethorpes","category":"town","osm_type":"node","osm_id":"27583967"}},{"type":"Feature","geometry":{"type":"Point","coordinates":[-0.08636,53.53741]},"properties":{"name":"Scartho","category":"village","osm_type":"node","osm_id":"29348891"}},{"type":"Feature","geometry":{"type":"Point","coordinates":[-0.02348,53.53397]},"properties":{"name":"Humberston","category":"village","osm_type":"node","osm_id":"29348946"}},{"type":"Feature","geometry":{"type":"Point","coordinates":[-0.09638,53.51585]},"properties":{"name":"Waltham","category":"village","osm_type":"node","osm_id":"29349046"}},{"type":"Feature","geometry":{"type":"Point","coordinates":[-0.06067,53.50513]},"properties":{"name":"Holton le Clay","category":"village","osm_type":"node","osm_id":"29349108"}},{"type":"Feature","geometry":{"type":"Point","coordinates":[-0.92655,53.9749]},"properties":{"name":"Low Catton","category":"village","osm_type":"node","osm_id":"30481146"}},{"type":"Feature","geometry":{"type":"Point","coordinates":[-0.90778,53.97307]},"properties":{"name":"High Catton","category":"village","osm_type":"node","osm_id":"30481398"}},{"type":"Feature","geometry":{"type":"Point","coordinates":[-0.86454,53.9896]},"properties":{"name":"Full Sutton","category":"village","osm_type":"node","osm_id":"30737197"}},{"type":"Feature","geometry":{"type":"Point","coordinates":[-0.83588,53.96936]},"properties":{"name":"Fangfoss","category":"village","osm_type":"node","osm_id":"30737198"}},{"type":"Feature","geometry":{"type":"Point","coordinates":[-0.92606,53.52213]},"properties":{"name":"Wroot","category":"village","osm_type":"node","osm_id":"32017771"}},{"type":"Feature","geometry":{"type":"Point","coordinates":[-0.73683,53.95509]},"properties":{"name":"Millington","category":"village","osm_type":"node","osm_id":"32140517"}},{"type":"Feature","geometry":{"type":"Point","coordinates":[-0.93681,53.92076]},"properties":{"name":"Elvington","category":"village","osm_type":"node","osm_id":"32667815"}},{"type":"Feature","geometry":{"type":"Point","coordinates":[-0.94965,53.86953]},"properties":{"name":"Thorganby","category":"village","osm_type":"node","osm_id":"32668174"}},{"type":"Feature","geometry":{"type":"Point","coordinates":[-0.48941,53.73866]},"properties":{"name":"Swanland","category":"village","osm_type":"node","osm_id":"36308484"}},{"type":"Feature","geometry":{"type":"Point","coordinates":[-0.50516,53.71923]},"properties":{"name":"North Ferriby","category":"village","osm_type":"node","osm_id":"36652640"}},{"type":"Feature","geometry":{"type":"Point","coordinates":[-0.47374,53.7495]},"properties":{"name":"West Ella","category":"village","osm_type":"node","osm_id":"36683858"}},{"type":"Feature","geometry":{"type":"Point","coordinates":[-0.618,53.81076]},"properties":{"name":"South Newbald","category":"village","osm_type":"node","osm_id":"36943856"}},{"type":"Feature","geometry":{"type":"Point","coordinates":[-0.61583,53.81953]},"properties":{"name":"North Newbald","category":"village","osm_type":"node","osm_id":"36943859"}},{"type":"Feature","geometry":{"type":"Point","coordinates":[-0.48865,53.82151]},"properties":{"name":"Walkington","category":"village","osm_type":"node","osm_id":"36943861"}},{"type":"Feature","geometry":{"type":"Point","coordinates":[-0.5062,53.79104]},"properties":{"name":"Little Weighton","category":"village","osm_type":"node","osm_id":"36943863"}},{"type":"Feature","geometry":{"type":"Point","coordinates":[-0.46266,53.78933]},"properties":{"name":"Skidby","category":"village","osm_type":"node","osm_id":"36943865"}},{"type":"Feature","geometry":{"type":"Point","coordinates":[-0.60228,53.76937]},"properties":{"name":"South Cave","category":"town","osm_type":"node","osm_id":"36943867"}},{"type":"Feature","geometry":{"type":"Point","coordinates":[-0.63402,53.84107]},"properties":{"name":"Sancton","category":"village","osm_type":"node","osm_id":"36944578"}},{"type":"Feature","geometry":{"type":"Point","coordinates":[-0.54861,53.73312]},"properties":{"name":"Welton","category":"village","osm_type":"node","osm_id":"42176554"}},{"type":"Feature","geometry":{"type":"Point","coordinates":[-0.53188,53.72699]},"properties":{"name":"Melton","category":"village","osm_type":"node","osm_id":"42176559"}},{"type":"Feature","geometry":{"type":"Point","coordinates":[-0.56688,53.72964]},"properties":{"name":"Brough","category":"village","osm_type":"node","osm_id":"47857572"}},{"type":"Feature","geometry":{"type":"Point","coordinates":[-0.60352,53.7534]},"properties":{"name":"Ellerker","category":"village","osm_type":"node","osm_id":"47872738"}},{"type":"Feature","geometry":{"type":"Point","coordinates":[-0.41452,53.74553]},"properties":{"name":"Anlaby Common","category":"village","osm_type":"node","osm_id":"52073202"}},{"type":"Feature","geometry":{"type":"Point","coordinates":[-0.43493,53.72316]},"properties":{"name":"Hessle","category":"town","osm_type":"node","osm_id":"52133526"}},{"type":"Feature","geometry":{"type":"Point","coordinates":[-0.57651,53.75346]},"properties":{"name":"Brantingham","category":"village","osm_type":"node","osm_id":"52740951"}},{"type":"Feature","geometry":{"type":"Point","coordinates":[-0.44655,53.75738]},"properties":{"name":"Willerby","category":"village","osm_type":"node","osm_id":"53862427"}},{"type":"Feature","geometry":{"type":"Point","coordinates":[-0.45299,53.75148]},"properties":{"name":"Kirk Ella","category":"village","osm_type":"node","osm_id":"54025368"}},{"type":"Feature","geometry":{"type":"Point","coordinates":[-0.57197,53.73988]},"properties":{"name":"Elloughton","category":"village","osm_type":"node","osm_id":"54044457"}},{"type":"Feature","geometry":{"type":"Point","coordinates":[-0.41786,53.78048]},"properties":{"name":"Cottingham","category":"village","osm_type":"node","osm_id":"54549620"}},{"type":"Feature","geometry":{"type":"Point","coordinates":[-0.43952,53.68581]},"properties":{"name":"Barton-upon-Humber","category":"town","osm_type":"node","osm_id":"55136928"}},{"type":"Feature","geometry":{"type":"Point","coordinates":[-0.37905,53.67662]},"properties":{"name":"Barrow-upon-Humber","category":"village","osm_type":"node","osm_id":"55136932"}},{"type":"Feature","geometry":{"type":"Point","coordinates":[-0.27923,53.66288]},"properties":{"name":"East Halton","category":"village","osm_type":"node","osm_id":"55136939"}},{"type":"Feature","geometry":{"type":"Point","coordinates":[-0.26429,53.63004]},"properties":{"name":"South Killingholme","category":"village","osm_type":"node","osm_id":"55136942"}},{"type":"Feature","geometry":{"type":"Point","coordinates":[-0.26735,53.60815]},"properties":{"name":"Habrough","category":"village","osm_type":"node","osm_id":"55136943"}},{"type":"Feature","geometry":{"type":"Point","coordinates":[-0.2439,53.57469]},"properties":{"name":"Keelby","category":"village","osm_type":"node","osm_id":"55136946"}},{"type":"Feature","geometry":{"type":"Point","coordinates":[-0.18551,53.58719]},"properties":{"name":"Stallingborough","category":"village","osm_type":"node","osm_id":"55136948"}},{"type":"Feature","geometry":{"type":"Point","coordinates":[-0.21367,53.616]},"properties":{"name":"Immingham","category":"town","osm_type":"node","osm_id":"55136951"}},{"type":"Feature","geometry":{"type":"Point","coordinates":[-0.16395,53.57817]},"properties":{"name":"Healing","category":"village","osm_type":"node","osm_id":"55136961"}},{"type":"Feature","geometry":{"type":"Point","coordinates":[-0.46694,53.61107]},"properties":{"name":"Worlaby","category":"village","osm_type":"node","osm_id":"55136969"}},{"type":"Feature","geometry":{"type":"Point","coordinates":[-0.43782,53.59695]},"properties":{"name":"Elsham","category":"village","osm_type":"node","osm_id":"55136974"}},{"type":"Feature","geometry":{"type":"Point","coordinates":[-0.33328,53.58605]},"properties":{"name":"Kirmington","category":"village","osm_type":"node","osm_id":"55136976"}},{"type":"Feature","geometry":{"type":"Point","coordinates":[-0.40239,53.57328]},"properties":{"name":"Barnetby le Wold","category":"village","osm_type":"node","osm_id":"55136983"}},{"type":"Feature","geometry":{"type":"Point","coordinates":[-0.38314,53.58117]},"properties":{"name":"Melton Ross","category":"village","osm_type":"node","osm_id":"55136987"}},{"type":"Feature","geometry":{"type":"Point","coordinates":[-0.12437,53.54176]},"properties":{"name":"Bradley","category":"village","osm_type":"node","osm_id":"55137032"}},{"type":"Feature","geometry":{"type":"Point","coordinates":[-0.05269,53.55786]},"properties":{"name":"Old Clee","category":"village","osm_type":"node","osm_id":"55137034"}},{"type":"Feature","geometry":{"type":"Point","coordinates":[-0.21891,53.97772]},"properties":{"name":"Skipsea","category":"village","osm_type":"node","osm_id":"55559583"}},{"type":"Feature","geometry":{"type":"Point","coordinates":[-0.22386,53.99432]},"properties":{"name":"Ulrome","category":"village","osm_type":"node","osm_id":"55559586"}},{"type":"Feature","geometry":{"type":"Point","coordinates":[-0.28241,53.97163]},"properties":{"name":"Beeford","category":"village","osm_type":"node","osm_id":"55559612"}},{"type":"Feature","geometry":{"type":"Point","coordinates":[-0.32505,53.9631]},"properties":{"name":"North Frodingham","category":"village","osm_type":"node","osm_id":"55559615"}},{"type":"Feature","geometry":{"type":"Point","coordinates":[-0.32218,53.98561]},"properties":{"name":"Foston on the Wolds","category":"village","osm_type":"node","osm_id":"55559617"}},{"type":"Feature","geometry":{"type":"Point","coordinates":[-0.18593,53.84779]},"properties":{"name":"Withernwick","category":"village","osm_type":"node","osm_id":"56107210"}},{"type":"Feature","geometry":{"type":"Point","coordinates":[-0.1898,53.94133]},"properties":{"name":"Atwick","category":"village","osm_type":"node","osm_id":"56107213"}},{"type":"Feature","geometry":{"type":"Point","coordinates":[-0.30021,53.91213]},"properties":{"name":"Brandesburton","category":"village","osm_type":"node","osm_id":"56107228"}},{"type":"Feature","geometry":{"type":"Point","coordinates":[-0.31249,53.89247]},"properties":{"name":"Leven","category":"village","osm_type":"node","osm_id":"56107230"}},{"type":"Feature","geometry":{"type":"Point","coordinates":[-0.28194,53.89253]},"properties":{"name":"Catwick","category":"village","osm_type":"node","osm_id":"56107231"}},{"type":"Feature","geometry":{"type":"Point","coordinates":[-0.24399,53.89607]},"properties":{"name":"Sigglesthorne","category":"village","osm_type":"node","osm_id":"56107234"}},{"type":"Feature","geometry":{"type":"Point","coordinates":[-0.26595,53.8386]},"properties":{"name":"Skirlaugh","category":"village","osm_type":"node","osm_id":"56107248"}},{"type":"Feature","geometry":{"type":"Point","coordinates":[-0.20887,53.83674]},"properties":{"name":"Marton","category":"village","osm_type":"node","osm_id":"56107254"}},{"type":"Feature","geometry":{"type":"Point","coordinates":[-0.29035,53.86559]},"properties":{"name":"Long Riston","category":"village","osm_type":"node","osm_id":"56107262"}},{"type":"Feature","geometry":{"type":"Point","coordinates":[-0.40837,53.9833]},"properties":{"name":"Skerne","category":"village","osm_type":"node","osm_id":"56107278"}},{"type":"Feature","geometry":{"type":"Point","coordinates":[-0.38019,53.99258]},"properties":{"name":"Wansford","category":"village","osm_type":"node","osm_id":"56107280"}},{"type":"Feature","geometry":{"type":"Point","coordinates":[-0.4403,53.96074]},"properties":{"name":"Hutton Cranswick","category":"village","osm_type":"node","osm_id":"57748683"}},{"type":"Feature","geometry":{"type":"Point","coordinates":[-0.45585,53.89463]},"properties":{"name":"Scorborough","category":"village","osm_type":"node","osm_id":"57748804"}},{"type":"Feature","geometry":{"type":"Point","coordinates":[-0.48641,53.91427]},"properties":{"name":"Lockington","category":"village","osm_type":"node","osm_id":"57748806"}},{"type":"Feature","geometry":{"type":"Point","coordinates":[-0.47841,53.93287]},"properties":{"name":"Kilnwick","category":"village","osm_type":"node","osm_id":"57748808"}},{"type":"Feature","geometry":{"type":"Point","coordinates":[-0.52912,53.90524]},"properties":{"name":"Holme on the Wolds","category":"village","osm_type":"node","osm_id":"57748811"}},{"type":"Feature","geometry":{"type":"Point","coordinates":[-0.52851,53.89651]},"properties":{"name":"South Dalton","category":"village","osm_type":"node","osm_id":"57748818"}},{"type":"Feature","geometry":{"type":"Point","coordinates":[-0.51059,53.87968]},"properties":{"name":"Etton","category":"village","osm_type":"node","osm_id":"57748820"}},{"type":"Feature","geometry":{"type":"Point","coordinates":[-0.49852,53.86538]},"properties":{"name":"Cherry Burton","category":"village","osm_type":"node","osm_id":"57748823"}},{"type":"Feature","geometry":{"type":"Point","coordinates":[-0.49769,53.84499]},"properties":{"name":"Bishop Burton","category":"village","osm_type":"node","osm_id":"57748826"}},{"type":"Feature","geometry":{"type":"Point","coordinates":[-0.4481,53.85404]},"properties":{"name":"Molescroft","category":"village","osm_type":"node","osm_id":"57748828"}},{"type":"Feature","geometry":{"type":"Point","coordinates":[-0.38162,53.86192]},"properties":{"name":"Tickton","category":"village","osm_type":"node","osm_id":"57748861"}},{"type":"Feature","geometry":{"type":"Point","coordinates":[-0.39906,53.82617]},"properties":{"name":"Woodmansey","category":"village","osm_type":"node","osm_id":"57748867"}},{"type":"Feature","geometry":{"type":"Point","coordinates":[-0.53196,53.95764]},"properties":{"name":"Bainton","category":"village","osm_type":"node","osm_id":"57869492"}},{"type":"Feature","geometry":{"type":"Point","coordinates":[-0.5386,53.98583]},"properties":{"name":"Tibthorpe","category":"village","osm_type":"node","osm_id":"57869497"}},{"type":"Feature","geometry":{"type":"Point","coordinates":[-0.49133,53.97595]},"properties":{"name":"Southburn","category":"village","osm_type":"node","osm_id":"57869508"}},{"type":"Feature","geometry":{"type":"Point","coordinates":[-0.72308,53.6792]},"properties":{"name":"Adlingfleet","category":"village","osm_type":"node","osm_id":"59841421"}},{"type":"Feature","geometry":{"type":"Point","coordinates":[-0.74704,53.69794]},"properties":{"name":"Ousefleet","category":"village","osm_type":"node","osm_id":"59841732"}},{"type":"Feature","geometry":{"type":"Point","coordinates":[-0.77006,53.69479]},"properties":{"name":"Whitgift","category":"village","osm_type":"node","osm_id":"59841734"}},{"type":"Feature","geometry":{"type":"Point","coordinates":[-0.79859,53.69937]},"properties":{"name":"Reedness","category":"village","osm_type":"node","osm_id":"59841820"}},{"type":"Feature","geometry":{"type":"Point","coordinates":[-0.83526,53.69118]},"properties":{"name":"Swinefleet","category":"village","osm_type":"node","osm_id":"59841834"}},{"type":"Feature","geometry":{"type":"Point","coordinates":[-0.87016,53.69486]},"properties":{"name":"Old Goole","category":"village","osm_type":"node","osm_id":"59841935"}},{"type":"Feature","geometry":{"type":"Point","coordinates":[-0.86225,53.74732]},"properties":{"name":"Howden","category":"town","osm_type":"node","osm_id":"59847773"}},{"type":"Feature","geometry":{"type":"Point","coordinates":[-0.7761,53.93157]},"properties":{"name":"Pocklington","category":"town","osm_type":"node","osm_id":"59859974"}},{"type":"Feature","geometry":{"type":"Point","coordinates":[-0.37161,53.80044]},"properties":{"name":"Dunswell","category":"village","osm_type":"node","osm_id":"60219529"}},{"type":"Feature","geometry":{"type":"Point","coordinates":[-0.24293,53.77861]},"properties":{"name":"Bilton","category":"village","osm_type":"node","osm_id":"60269141"}},{"type":"Feature","geometry":{"type":"Point","coordinates":[-0.2288,53.78185]},"properties":{"name":"Wyton","category":"village","osm_type":"node","osm_id":"60269143"}},{"type":"Feature","geometry":{"type":"Point","coordinates":[-0.16634,53.77612]},"properties":{"name":"Lelley","category":"village","osm_type":"node","osm_id":"60269145"}},{"type":"Feature","geometry":{"type":"Point","coordinates":[-0.19721,53.75818]},"properties":{"name":"Preston","category":"village","osm_type":"node","osm_id":"60269146"}},{"type":"Feature","geometry":{"type":"Point","coordinates":[-0.2019,53.74107]},"properties":{"name":"Hedon","category":"town","osm_type":"node","osm_id":"60269148"}},{"type":"Feature","geometry":{"type":"Point","coordinates":[-0.16727,53.71807]},"properties":{"name":"Thorngumbald","category":"village","osm_type":"node","osm_id":"60269149"}},{"type":"Feature","geometry":{"type":"Point","coordinates":[-0.11252,53.71345]},"properties":{"name":"Keyingham","category":"village","osm_type":"node","osm_id":"60269153"}},{"type":"Feature","geometry":{"type":"Point","coordinates":[-0.07995,53.70075]},"properties":{"name":"Ottringham","category":"village","osm_type":"node","osm_id":"60269154"}},{"type":"Feature","geometry":{"type":"Point","coordinates":[-0.01071,53.68205]},"properties":{"name":"Patrington","category":"village","osm_type":"node","osm_id":"60269156"}},{"type":"Feature","geometry":{"type":"Point","coordinates":[-0.03371,53.70253]},"properties":{"name":"Winestead","category":"village","osm_type":"node","osm_id":"60269159"}},{"type":"Feature","geometry":{"type":"Point","coordinates":[-0.14147,53.73154]},"properties":{"name":"Burstwick","category":"village","osm_type":"node","osm_id":"60269164"}},{"type":"Feature","geometry":{"type":"Point","coordinates":[-0.13745,53.51146]},"properties":{"name":"Barnoldby le Beck","category":"village","osm_type":"node","osm_id":"60574107"}},{"type":"Feature","geometry":{"type":"Point","coordinates":[-0.75267,53.90165]},"properties":{"name":"Hayton","category":"village","osm_type":"node","osm_id":"64678042"}},{"type":"Feature","geometry":{"type":"Point","coordinates":[-0.70603,53.88008]},"properties":{"name":"Shiptonthorpe","category":"village","osm_type":"node","osm_id":"64678520"}},{"type":"Feature","geometry":{"type":"Point","coordinates":[-0.68053,53.8985]},"properties":{"name":"Londesborough","category":"village","osm_type":"node","osm_id":"64679212"}},{"type":"Feature","geometry":{"type":"Point","coordinates":[-0.72808,53.90691]},"properties":{"name":"Burnby","category":"village","osm_type":"node","osm_id":"64679397"}},{"type":"Feature","geometry":{"type":"Point","coordinates":[-0.91713,53.81844]},"properties":{"name":"Bubwith","category":"village","osm_type":"node","osm_id":"67648781"}},{"type":"Feature","geometry":{"type":"Point","coordinates":[-0.96357,53.69674]},"properties":{"name":"Rawcliffe","category":"village","osm_type":"node","osm_id":"76672919"}},{"type":"Feature","geometry":{"type":"Point","coordinates":[-0.99624,53.68331]},"properties":{"name":"East Cowick","category":"village","osm_type":"node","osm_id":"76675181"}},{"type":"Feature","geometry":{"type":"Point","coordinates":[-0.94079,53.68422]},"properties":{"name":"Rawcliffe Bridge","category":"village","osm_type":"node","osm_id":"76680345"}},{"type":"Feature","geometry":{"type":"Point","coordinates":[-0.84756,53.72109]},"properties":{"name":"Hook","category":"village","osm_type":"node","osm_id":"76682590"}},{"type":"Feature","geometry":{"type":"Point","coordinates":[-0.90112,53.71827]},"properties":{"name":"Airmyn","category":"village","osm_type":"node","osm_id":"76684524"}},{"type":"Feature","geometry":{"type":"Point","coordinates":[-0.83986,53.7206]},"properties":{"name":"Skelton","category":"village","osm_type":"node","osm_id":"76688504"}},{"type":"Feature","geometry":{"type":"Point","coordinates":[-0.80767,53.70751]},"properties":{"name":"Saltmarshe","category":"village","osm_type":"node","osm_id":"76689423"}},{"type":"Feature","geometry":{"type":"Point","coordinates":[-0.80192,53.7204]},"properties":{"name":"Laxton","category":"village","osm_type":"node","osm_id":"76690573"}},{"type":"Feature","geometry":{"type":"Point","coordinates":[-0.75905,53.7086]},"properties":{"name":"Yokefleet","category":"village","osm_type":"node","osm_id":"76697241"}},{"type":"Feature","geometry":{"type":"Point","coordinates":[-0.72045,53.70844]},"properties":{"name":"Blacktoft","category":"village","osm_type":"node","osm_id":"76700514"}},{"type":"Feature","geometry":{"type":"Point","coordinates":[-0.73147,53.75261]},"properties":{"name":"Gilberdyke","category":"village","osm_type":"node","osm_id":"76706852"}},{"type":"Feature","geometry":{"type":"Point","coordinates":[-0.70173,53.76251]},"properties":{"name":"Newport","category":"village","osm_type":"node","osm_id":"76708102"}},{"type":"Feature","geometry":{"type":"Point","coordinates":[-0.66649,53.73365]},"properties":{"name":"Broomfleet","category":"village","osm_type":"node","osm_id":"76715042"}},{"type":"Feature","geometry":{"type":"Point","coordinates":[-0.62563,53.77654]},"properties":{"name":"Everthorpe","category":"village","osm_type":"node","osm_id":"76717367"}},{"type":"Feature","geometry":{"type":"Point","coordinates":[-0.55972,53.93296]},"properties":{"name":"Middleton on the Wolds","category":"village","osm_type":"node","osm_id":"76726360"}},{"type":"Feature","geometry":{"type":"Point","coordinates":[-0.5749,53.9571]},"properties":{"name":"North Dalton","category":"village","osm_type":"node","osm_id":"76732749"}},{"type":"Feature","geometry":{"type":"Point","coordinates":[-0.79506,53.7603]},"properties":{"name":"Eastrington","category":"village","osm_type":"node","osm_id":"76740478"}},{"type":"Feature","geometry":{"type":"Point","coordinates":[-0.64349,53.79631]},"properties":{"name":"Hotham","category":"village","osm_type":"node","osm_id":"80035640"}},{"type":"Feature","geometry":{"type":"Point","coordinates":[-0.96411,53.82657]},"properties":{"name":"North Duffield","category":"village","osm_type":"node","osm_id":"80410815"}},{"type":"Feature","geometry":{"type":"Point","coordinates":[-0.77517,53.83356]},"properties":{"name":"Holme-on-Spalding-Moor","category":"village","osm_type":"node","osm_id":"81827249"}},{"type":"Feature","geometry":{"type":"Point","coordinates":[-0.92386,53.91231]},"properties":{"name":"Sutton Upon Derwent","category":"village","osm_type":"node","osm_id":"87176254"}},{"type":"Feature","geometry":{"type":"Point","coordinates":[-0.92918,53.87195]},"properties":{"name":"East Cottingwith","category":"village","osm_type":"node","osm_id":"87176255"}},{"type":"Feature","geometry":{"type":"Point","coordinates":[-0.85784,53.88852]},"properties":{"name":"Melbourne","category":"village","osm_type":"node","osm_id":"87176258"}},{"type":"Feature","geometry":{"type":"Point","coordinates":[-0.84575,53.89832]},"properties":{"name":"Thornton","category":"village","osm_type":"node","osm_id":"87176259"}},{"type":"Feature","geometry":{"type":"Point","coordinates":[-0.81264,53.86225]},"properties":{"name":"Seaton Ross","category":"village","osm_type":"node","osm_id":"87176261"}},{"type":"Feature","geometry":{"type":"Point","coordinates":[-0.80082,53.88396]},"properties":{"name":"Bielby","category":"village","osm_type":"node","osm_id":"87176263"}},{"type":"Feature","geometry":{"type":"Point","coordinates":[-0.77778,53.87268]},"properties":{"name":"Everingham","category":"village","osm_type":"node","osm_id":"87176265"}},{"type":"Feature","geometry":{"type":"Point","coordinates":[-0.74431,53.85774]},"properties":{"name":"Harswell","category":"village","osm_type":"node","osm_id":"87176267"}},{"type":"Feature","geometry":{"type":"Point","coordinates":[-0.70746,53.92215]},"properties":{"name":"Nunburnholme","category":"village","osm_type":"node","osm_id":"87176270"}},{"type":"Feature","geometry":{"type":"Point","coordinates":[-0.84516,53.7931]},"properties":{"name":"Spaldington","category":"village","osm_type":"node","osm_id":"88531981"}},{"type":"Feature","geometry":{"type":"Point","coordinates":[-0.96556,53.89704]},"properties":{"name":"Wheldrake","category":"village","osm_type":"node","osm_id":"88939933"}},{"type":"Feature","geometry":{"type":"Point","coordinates":[-0.74099,53.54285]},"properties":{"name":"West Butterwick","category":"village","osm_type":"node","osm_id":"89026392"}},{"type":"Feature","geometry":{"type":"Point","coordinates":[-0.38459,53.53813]},"properties":{"name":"Searby","category":"village","osm_type":"node","osm_id":"89033530"}},{"type":"Feature","geometry":{"type":"Point","coordinates":[-0.40169,53.55292]},"properties":{"name":"Bigby","category":"village","osm_type":"node","osm_id":"89033531"}},{"type":"Feature","geometry":{"type":"Point","coordinates":[-0.29006,53.5622]},"properties":{"name":"Great Limber","category":"village","osm_type":"node","osm_id":"89038620"}},{"type":"Feature","geometry":{"type":"Point","coordinates":[-0.18313,53.55162]},"properties":{"name":"Aylesby","category":"village","osm_type":"node","osm_id":"89038688"}},{"type":"Feature","geometry":{"type":"Point","coordinates":[-0.1704,53.54182]},"properties":{"name":"Laceby","category":"village","osm_type":"node","osm_id":"89038693"}},{"type":"Feature","geometry":{"type":"Point","coordinates":[-0.19668,53.52664]},"properties":{"name":"Irby upon Humber","category":"village","osm_type":"node","osm_id":"89038701"}},{"type":"Feature","geometry":{"type":"Point","coordinates":[-0.22634,53.51029]},"properties":{"name":"Swallow","category":"village","osm_type":"node","osm_id":"89043729"}},{"type":"Feature","geometry":{"type":"Point","coordinates":[-0.82247,53.93048]},"properties":{"name":"Barmby Moor","category":"village","osm_type":"node","osm_id":"97887018"}},{"type":"Feature","geometry":{"type":"Point","coordinates":[-0.84988,53.73475]},"properties":{"name":"Howdendyke","category":"village","osm_type":"node","osm_id":"102376051"}},{"type":"Feature","geometry":{"type":"Point","coordinates":[-0.65827,53.98617]},"properties":{"name":"Huggate","category":"village","osm_type":"node","osm_id":"102404466"}},{"type":"Feature","geometry":{"type":"Point","coordinates":[-0.11422,53.8277]},"properties":{"name":"Aldbrough","category":"village","osm_type":"node","osm_id":"102814475"}},{"type":"Feature","geometry":{"type":"Point","coordinates":[-0.80822,53.91603]},"properties":{"name":"Allerthorpe","category":"village","osm_type":"node","osm_id":"102820968"}},{"type":"Feature","geometry":{"type":"Point","coordinates":[-0.95478,53.74924]},"properties":{"name":"Barmby on the Marsh","category":"village","osm_type":"node","osm_id":"102830977"}},{"type":"Feature","geometry":{"type":"Point","coordinates":[-0.91423,53.74394]},"properties":{"name":"Asselby","category":"village","osm_type":"node","osm_id":"102832659"}},{"type":"Feature","geometry":{"type":"Point","coordinates":[-0.15001,53.80763]},"properties":{"name":"Flinton","category":"village","osm_type":"node","osm_id":"104623425"}},{"type":"Feature","geometry":{"type":"Point","coordinates":[-0.10983,53.76222]},"properties":{"name":"Burton Pidsea","category":"village","osm_type":"node","osm_id":"104623439"}},{"type":"Feature","geometry":{"type":"Point","coordinates":[-0.02649,53.67029]},"properties":{"name":"Patrington Haven","category":"village","osm_type":"node","osm_id":"104623491"}},{"type":"Feature","geometry":{"type":"Point","coordinates":[-0.85544,53.82919]},"properties":{"name":"Foggathorpe","category":"village","osm_type":"node","osm_id":"112765426"}},{"type":"Feature","geometry":{"type":"Point","coordinates":[-0.9754,53.76698]},"properties":{"name":"Hemingbrough","category":"village","osm_type":"node","osm_id":"115720982"}},{"type":"Feature","geometry":{"type":"Point","coordinates":[-0.99686,53.77835]},"properties":{"name":"Cliffe","category":"village","osm_type":"node","osm_id":"115721639"}},{"type":"Feature","geometry":{"type":"Point","coordinates":[-0.67719,53.94238]},"properties":{"name":"Warter","category":"village","osm_type":"node","osm_id":"133527478"}},{"type":"Feature","geometry":{"type":"Point","coordinates":[-0.86295,53.84831]},"properties":{"name":"Laytham","category":"village","osm_type":"node","osm_id":"133545849"}},{"type":"Feature","geometry":{"type":"Point","coordinates":[-0.43217,53.74532]},"properties":{"name":"Anlaby","category":"clock","osm_type":"node","osm_id":"137780134"}},{"type":"Feature","geometry":{"type":"Point","coordinates":[-0.88997,53.94894]},"properties":{"name":"Wilberfoss","category":"village","osm_type":"node","osm_id":"138111904"}},{"type":"Feature","geometry":{"type":"Point","coordinates":[-0.25897,53.79186]},"properties":{"name":"Ganstead","category":"village","osm_type":"node","osm_id":"138153393"}},{"type":"Feature","geometry":{"type":"Point","coordinates":[-0.6493,53.87574]},"properties":{"name":"Goodmanham","category":"village","osm_type":"node","osm_id":"158705024"}},{"type":"Feature","geometry":{"type":"Point","coordinates":[-0.82587,53.96122]},"properties":{"name":"Bolton","category":"village","osm_type":"node","osm_id":"165172193"}},{"type":"Feature","geometry":{"type":"Point","coordinates":[-0.24753,53.80037]},"properties":{"name":"Coniston","category":"village","osm_type":"node","osm_id":"165204812"}},{"type":"Feature","geometry":{"type":"Point","coordinates":[-0.92607,53.85028]},"properties":{"name":"Ellerton","category":"village","osm_type":"node","osm_id":"166617283"}},{"type":"Feature","geometry":{"type":"Point","coordinates":[-0.22467,53.83801]},"properties":{"name":"New Ellerby","category":"village","osm_type":"node","osm_id":"166732097"}},{"type":"Feature","geometry":{"type":"Point","coordinates":[-0.90405,53.93514]},"properties":{"name":"Newton Upon Derwent","category":"village","osm_type":"node","osm_id":"166741858"}},{"type":"Feature","geometry":{"type":"Point","coordinates":[-0.22564,53.82049]},"properties":{"name":"Old Ellerby","category":"village","osm_type":"node","osm_id":"166753163"}},{"type":"Feature","geometry":{"type":"Point","coordinates":[-0.23356,53.72085]},"properties":{"name":"Paull","category":"village","osm_type":"node","osm_id":"166789013"}},{"type":"Feature","geometry":{"type":"Point","coordinates":[-0.19362,53.79468]},"properties":{"name":"Sproatley","category":"village","osm_type":"node","osm_id":"166848316"}},{"type":"Feature","geometry":{"type":"Point","coordinates":[-0.27559,53.80634]},"properties":{"name":"Swine","category":"village","osm_type":"node","osm_id":"166873729"}},{"type":"Feature","geometry":{"type":"Point","coordinates":[-0.18506,53.82378]},"properties":{"name":"West Newton","category":"village","osm_type":"node","osm_id":"166947733"}},{"type":"Feature","geometry":{"type":"Point","coordinates":[-0.92456,53.77569]},"properties":{"name":"Wressle","category":"village","osm_type":"node","osm_id":"166959342"}},{"type":"Feature","geometry":{"type":"Point","coordinates":[-0.82019,53.52493]},"properties":{"name":"Epworth","category":"town","osm_type":"node","osm_id":"168342673"}},{"type":"Feature","geometry":{"type":"Point","coordinates":[-0.71745,53.75814]},"properties":{"name":"Scalby","category":"village","osm_type":"node","osm_id":"207155038"}},{"type":"Feature","geometry":{"type":"Point","coordinates":[-0.59098,53.68785]},"properties":{"name":"Winteringham","category":"village","osm_type":"node","osm_id":"243382873"}},{"type":"Feature","geometry":{"type":"Point","coordinates":[-0.59797,53.65495]},"properties":{"name":"Winterton","category":"town","osm_type":"node","osm_id":"243382876"}},{"type":"Feature","geometry":{"type":"Point","coordinates":[-0.56315,53.62163]},"properties":{"name":"Appleby","category":"village","osm_type":"node","osm_id":"243382878"}},{"type":"Feature","geometry":{"type":"Point","coordinates":[-0.60848,53.64151]},"properties":{"name":"Roxby","category":"village","osm_type":"node","osm_id":"243382883"}},{"type":"Feature","geometry":{"type":"Point","coordinates":[-0.63077,53.67779]},"properties":{"name":"West Halton","category":"village","osm_type":"node","osm_id":"243382886"}},{"type":"Feature","geometry":{"type":"Point","coordinates":[-0.66558,53.68479]},"properties":{"name":"Alkborough","category":"village","osm_type":"node","osm_id":"243382894"}},{"type":"Feature","geometry":{"type":"Point","coordinates":[-0.63448,53.70892]},"properties":{"name":"Whitton","category":"village","osm_type":"node","osm_id":"243382897"}},{"type":"Feature","geometry":{"type":"Point","coordinates":[-0.6836,53.64886]},"properties":{"name":"Burton upon Stather","category":"village","osm_type":"node","osm_id":"243382902"}},{"type":"Feature","geometry":{"type":"Point","coordinates":[-0.71843,53.66292]},"properties":{"name":"Fockerby","category":"village","osm_type":"node","osm_id":"243382907"}},{"type":"Feature","geometry":{"type":"Point","coordinates":[-0.7185,53.66099]},"properties":{"name":"Garthorpe","category":"village","osm_type":"node","osm_id":"243382910"}},{"type":"Feature","geometry":{"type":"Point","coordinates":[-0.74502,53.63932]},"properties":{"name":"Luddington","category":"village","osm_type":"node","osm_id":"243382912"}},{"type":"Feature","geometry":{"type":"Point","coordinates":[-0.70493,53.61704]},"properties":{"name":"Amcotts","category":"village","osm_type":"node","osm_id":"243382915"}},{"type":"Feature","geometry":{"type":"Point","coordinates":[-0.68223,53.62486]},"properties":{"name":"Flixborough","category":"village","osm_type":"node","osm_id":"243382918"}},{"type":"Feature","geometry":{"type":"Point","coordinates":[-0.72836,53.5941]},"properties":{"name":"Gunness","category":"village","osm_type":"node","osm_id":"243382920"}},{"type":"Feature","geometry":{"type":"Point","coordinates":[-0.73819,53.57418]},"properties":{"name":"Burringham","category":"village","osm_type":"node","osm_id":"243382922"}},{"type":"Feature","geometry":{"type":"Point","coordinates":[-0.74044,53.57723]},"properties":{"name":"Althorpe","category":"village","osm_type":"node","osm_id":"243382924"}},{"type":"Feature","geometry":{"type":"Point","coordinates":[-0.73972,53.5956]},"properties":{"name":"Keadby","category":"village","osm_type":"node","osm_id":"243382929"}},{"type":"Feature","geometry":{"type":"Point","coordinates":[-0.55392,53.56561]},"properties":{"name":"Broughton","category":"town","osm_type":"node","osm_id":"243382932"}},{"type":"Feature","geometry":{"type":"Point","coordinates":[-0.54066,53.53722]},"properties":{"name":"Scawby","category":"village","osm_type":"node","osm_id":"243382940"}},{"type":"Feature","geometry":{"type":"Point","coordinates":[-0.52539,53.51058]},"properties":{"name":"Hibaldstow","category":"village","osm_type":"node","osm_id":"243382960"}},{"type":"Feature","geometry":{"type":"Point","coordinates":[-0.48964,53.55253]},"properties":{"name":"Brigg","category":"town","osm_type":"node","osm_id":"243382973"}},{"type":"Feature","geometry":{"type":"Point","coordinates":[-0.4685,53.51776]},"properties":{"name":"Cadney","category":"village","osm_type":"node","osm_id":"243382983"}},{"type":"Feature","geometry":{"type":"Point","coordinates":[-0.46178,53.56451]},"properties":{"name":"Wrawby","category":"village","osm_type":"node","osm_id":"243382990"}},{"type":"Feature","geometry":{"type":"Point","coordinates":[-0.48459,53.62596]},"properties":{"name":"Bonby","category":"village","osm_type":"node","osm_id":"243382994"}},{"type":"Feature","geometry":{"type":"Point","coordinates":[-0.50283,53.63705]},"properties":{"name":"Saxby All Saints","category":"village","osm_type":"node","osm_id":"243382997"}},{"type":"Feature","geometry":{"type":"Point","coordinates":[-0.50595,53.6762]},"properties":{"name":"South Ferriby","category":"village","osm_type":"node","osm_id":"243383002"}},{"type":"Feature","geometry":{"type":"Point","coordinates":[-0.42765,53.50222]},"properties":{"name":"North Kelsey","category":"village","osm_type":"node","osm_id":"243392859"}},{"type":"Feature","geometry":{"type":"Point","coordinates":[-0.32826,53.61805]},"properties":{"name":"Ulceby","category":"village","osm_type":"node","osm_id":"243463115"}},{"type":"Feature","geometry":{"type":"Point","coordinates":[-0.36061,53.52893]},"properties":{"name":"Grasby","category":"village","osm_type":"node","osm_id":"243463117"}},{"type":"Feature","geometry":{"type":"Point","coordinates":[-0.42332,53.52425]},"properties":{"name":"Howsham","category":"village","osm_type":"node","osm_id":"243488359"}},{"type":"Feature","geometry":{"type":"Point","coordinates":[-0.81629,53.59656]},"properties":{"name":"Ealand","category":"village","osm_type":"node","osm_id":"243891728"}},{"type":"Feature","geometry":{"type":"Point","coordinates":[-0.73637,53.54541]},"properties":{"name":"East Butterwick","category":"village","osm_type":"node","osm_id":"243891729"}},{"type":"Feature","geometry":{"type":"Point","coordinates":[-0.77959,53.55114]},"properties":{"name":"Beltoft","category":"village","osm_type":"node","osm_id":"243891735"}},{"type":"Feature","geometry":{"type":"Point","coordinates":[-0.83122,53.54698]},"properties":{"name":"Carrhouse","category":"village","osm_type":"node","osm_id":"243891757"}},{"type":"Feature","geometry":{"type":"Point","coordinates":[-0.81614,53.55641]},"properties":{"name":"Belton","category":"village","osm_type":"node","osm_id":"243891759"}},{"type":"Feature","geometry":{"type":"Point","coordinates":[-0.82475,53.51075]},"properties":{"name":"Low Burnham","category":"village","osm_type":"node","osm_id":"243891762"}},{"type":"Feature","geometry":{"type":"Point","coordinates":[-0.81308,53.55398]},"properties":{"name":"Bracon","category":"village","osm_type":"node","osm_id":"243891764"}},{"type":"Feature","geometry":{"type":"Point","coordinates":[-0.81586,53.55676]},"properties":{"name":"Grey Green","category":"village","osm_type":"node","osm_id":"243891765"}},{"type":"Feature","geometry":{"type":"Point","coordinates":[-0.83333,53.55766]},"properties":{"name":"Westgate","category":"village","osm_type":"node","osm_id":"243891766"}},{"type":"Feature","geometry":{"type":"Point","coordinates":[-0.81944,53.54653]},"properties":{"name":"Church Town","category":"village","osm_type":"node","osm_id":"243891769"}},{"type":"Feature","geometry":{"type":"Point","coordinates":[-0.83264,53.60781]},"properties":{"name":"Crowle","category":"town","osm_type":"node","osm_id":"243891771"}},{"type":"Feature","geometry":{"type":"Point","coordinates":[-0.78459,53.63553]},"properties":{"name":"Eastoft","category":"village","osm_type":"node","osm_id":"243893684"}},{"type":"Feature","geometry":{"type":"Point","coordinates":[-0.99498,53.99979]},"properties":{"name":"Stockton on the Forest","category":"village","osm_type":"node","osm_id":"245491599"}},{"type":"Feature","geometry":{"type":"Point","coordinates":[-0.9769,53.57069]},"properties":{"name":"Hatfield Woodhouse","category":"village","osm_type":"node","osm_id":"248948285"}},{"type":"Feature","geometry":{"type":"Point","coordinates":[-0.96412,53.61068]},"properties":{"name":"Thorne","category":"town","osm_type":"node","osm_id":"248949923"}},{"type":"Feature","geometry":{"type":"Point","coordinates":[-0.94686,53.63145]},"properties":{"name":"Moorends","category":"village","osm_type":"node","osm_id":"248951387"}},{"type":"Feature","geometry":{"type":"Point","coordinates":[-0.34625,53.8164]},"properties":{"name":"Wawne","category":"village","osm_type":"node","osm_id":"300111622"}},{"type":"Feature","geometry":{"type":"Point","coordinates":[-0.30472,53.78108]},"properties":{"name":"Sutton","category":"village","osm_type":"node","osm_id":"310389206"}},{"type":"Feature","geometry":{"type":"Point","coordinates":[-0.97707,53.7291]},"properties":{"name":"Drax","category":"village","osm_type":"node","osm_id":"595589666"}},{"type":"Feature","geometry":{"type":"Point","coordinates":[-0.06285,53.52602]},"properties":{"name":"New Waltham","category":"village","osm_type":"node","osm_id":"970289667"}},{"type":"Feature","geometry":{"type":"Point","coordinates":[-0.92438,53.79775]},"properties":{"name":"Breighton","category":"village","osm_type":"node","osm_id":"1619888448"}},{"type":"Feature","geometry":{"type":"Point","coordinates":[-0.33295,53.67815]},"properties":{"name":"Goxhill","category":"village","osm_type":"node","osm_id":"1638782951"}},{"type":"Feature","geometry":{"type":"Point","coordinates":[-0.36085,53.69785]},"properties":{"name":"New Holland","category":"village","osm_type":"node","osm_id":"1638832775"}},{"type":"Feature","geometry":{"type":"Point","coordinates":[-0.3574,53.62986]},"properties":{"name":"Wootton","category":"village","osm_type":"node","osm_id":"1651463617"}},{"type":"Feature","geometry":{"type":"Point","coordinates":[-0.35659,53.64638]},"properties":{"name":"Thornton Curtis","category":"village","osm_type":"node","osm_id":"1664985848"}},{"type":"Feature","geometry":{"type":"Point","coordinates":[-0.32948,53.68632]},"properties":{"name":"North End","category":"village","osm_type":"node","osm_id":"2702393076"}},{"type":"Feature","geometry":{"type":"Point","coordinates":[-0.31796,53.66943]},"properties":{"name":"South End","category":"village","osm_type":"node","osm_id":"2702393102"}},{"type":"Feature","geometry":{"type":"Point","coordinates":[-0.69075,53.65458]},"properties":{"name":"Burton Stather","category":"village","osm_type":"node","osm_id":"2825062828"}},{"type":"Feature","geometry":{"type":"Point","coordinates":[-0.65326,53.52932]},"properties":{"name":"Messingham","category":"village","osm_type":"node","osm_id":"5647101520"}},{"type":"Feature","geometry":{"type":"Point","coordinates":[-0.19835,53.86876]},"properties":{"name":"Great Hatfield","category":"village","osm_type":"node","osm_id":"6384511256"}},{"type":"Feature","geometry":{"type":"Point","coordinates":[-0.26955,53.63896]},"properties":{"name":"North Killingholme","category":"village","osm_type":"node","osm_id":"7136114133"}},{"type":"Feature","geometry":{"type":"Point","coordinates":[-0.99646,53.68638]},"properties":{"name":"Lidgate","category":"village","osm_type":"node","osm_id":"7255825304"}},{"type":"Feature","geometry":{"type":"Point","coordinates":[-0.0729,53.72615]},"properties":{"name":"Halsham","category":"village","osm_type":"node","osm_id":"10296849552"}},{"type":"Feature","geometry":{"type":"Point","coordinates":[-0.04469,53.75227]},"properties":{"name":"Roos","category":"village","osm_type":"node","osm_id":"10296906452"}}]}