{"type":"FeatureCollection","features":[{"type":"Feature","geometry":{"type":"Point","coordinates":[-0.19086,54.08224]},"properties":{"name":"Bridlington","category":"town","osm_type":"node","osm_id":"20628524"}},{"type":"Feature","geometry":{"type":"Point","coordinates":[-0.40119,54.282]},"properties":{"name":"Scarborough","category":"town","osm_type":"node","osm_id":"20629613"}},{"type":"Feature","geometry":{"type":"Point","coordinates":[-0.61353,54.48665]},"properties":{"name":"Whitby","category":"town","osm_type":"node","osm_id":"20923539"}},{"type":"Feature","geometry":{"type":"Point","coordinates":[-0.77006,54.01677]},"properties":{"name":"Kirby Underdale","category":"village","osm_type":"node","osm_id":"25248887"}},{"type":"Feature","geometry":{"type":"Point","coordinates":[-0.79953,54.13921]},"properties":{"name":"Malton","category":"town","osm_type":"node","osm_id":"27160197"}},{"type":"Feature","geometry":{"type":"Point","coordinates":[-0.78504,54.12798]},"properties":{"name":"Norton-on-Derwent","category":"town","osm_type":"node","osm_id":"27160198"}},{"type":"Feature","geometry":{"type":"Point","coordinates":[-0.43911,54.00502]},"properties":{"name":"Driffield","category":"town","osm_type":"node","osm_id":"27160272"}},{"type":"Feature","geometry":{"type":"Point","coordinates":[-0.77656,54.24566]},"properties":{"name":"Pickering","category":"town","osm_type":"node","osm_id":"27160542"}},{"type":"Feature","geometry":{"type":"Point","coordinates":[-0.62186,54.45764]},"properties":{"name":"Sneaton","category":"village","osm_type":"node","osm_id":"27636338"}},{"type":"Feature","geometry":{"type":"Point","coordinates":[-0.66233,54.45717]},"properties":{"name":"Sleights","category":"village","osm_type":"node","osm_id":"27637111"}},{"type":"Feature","geometry":{"type":"Point","coordinates":[-0.67467,54.46618]},"properties":{"name":"Aislaby","category":"village","osm_type":"node","osm_id":"27637112"}},{"type":"Feature","geometry":{"type":"Point","coordinates":[-0.76114,54.43689]},"properties":{"name":"Egton Bridge","category":"village","osm_type":"node","osm_id":"27640027"}},{"type":"Feature","geometry":{"type":"Point","coordinates":[-0.75478,54.44651]},"properties":{"name":"Egton","category":"village","osm_type":"node","osm_id":"27640028"}},{"type":"Feature","geometry":{"type":"Point","coordinates":[-0.8078,54.44081]},"properties":{"name":"Glaisdale","category":"village","osm_type":"node","osm_id":"27641731"}},{"type":"Feature","geometry":{"type":"Point","coordinates":[-0.90932,54.46848]},"properties":{"name":"Danby","category":"village","osm_type":"node","osm_id":"27643851"}},{"type":"Feature","geometry":{"type":"Point","coordinates":[-0.97881,54.48557]},"properties":{"name":"Commondale","category":"village","osm_type":"node","osm_id":"27646011"}},{"type":"Feature","geometry":{"type":"Point","coordinates":[-0.28884,54.20969]},"properties":{"name":"Filey","category":"town","osm_type":"node","osm_id":"29071577"}},{"type":"Feature","geometry":{"type":"Point","coordinates":[-0.32252,54.18043]},"properties":{"name":"Hunmanby","category":"village","osm_type":"node","osm_id":"29071579"}},{"type":"Feature","geometry":{"type":"Point","coordinates":[-0.32007,54.20066]},"properties":{"name":"Muston","category":"village","osm_type":"node","osm_id":"29071580"}},{"type":"Feature","geometry":{"type":"Point","coordinates":[-0.44427,54.23911]},"properties":{"name":"Seamer","category":"village","osm_type":"node","osm_id":"29072064"}},{"type":"Feature","geometry":{"type":"Point","coordinates":[-0.50805,54.24439]},"properties":{"name":"Hutton Buscel","category":"village","osm_type":"node","osm_id":"29072067"}},{"type":"Feature","geometry":{"type":"Point","coordinates":[-0.521,54.23483]},"properties":{"name":"Wykeham","category":"village","osm_type":"node","osm_id":"29072068"}},{"type":"Feature","geometry":{"type":"Point","coordinates":[-0.55138,54.22649]},"properties":{"name":"Brompton","category":"village","osm_type":"node","osm_id":"29072070"}},{"type":"Feature","geometry":{"type":"Point","coordinates":[-0.5876,54.22637]},"properties":{"name":"Snainton","category":"village","osm_type":"node","osm_id":"29072071"}},{"type":"Feature","geometry":{"type":"Point","coordinates":[-0.65332,54.23338]},"properties":{"name":"Allerston","category":"village","osm_type":"node","osm_id":"29072073"}},{"type":"Feature","geometry":{"type":"Point","coordinates":[-0.6234,54.23272]},"properties":{"name":"Ebberston","category":"village","osm_type":"node","osm_id":"29072074"}},{"type":"Feature","geometry":{"type":"Point","coordinates":[-0.80023,54.25758]},"properties":{"name":"Middleton","category":"village","osm_type":"node","osm_id":"29072075"}},{"type":"Feature","geometry":{"type":"Point","coordinates":[-0.87251,54.28151]},"properties":{"name":"Appleton-le-Moors","category":"village","osm_type":"node","osm_id":"29072076"}},{"type":"Feature","geometry":{"type":"Point","coordinates":[-0.87512,54.22586]},"properties":{"name":"Normanby","category":"village","osm_type":"node","osm_id":"29072077"}},{"type":"Feature","geometry":{"type":"Point","coordinates":[-0.87646,54.23915]},"properties":{"name":"Marton","category":"village","osm_type":"node","osm_id":"29072078"}},{"type":"Feature","geometry":{"type":"Point","coordinates":[-0.85867,54.26242]},"properties":{"name":"Sinnington","category":"village","osm_type":"node","osm_id":"29072079"}},{"type":"Feature","geometry":{"type":"Point","coordinates":[-0.93247,54.27052]},"properties":{"name":"Kirkbymoorside","category":"town","osm_type":"node","osm_id":"29072080"}},{"type":"Feature","geometry":{"type":"Point","coordinates":[-0.91841,54.3006]},"properties":{"name":"Hutton-le-Hole","category":"village","osm_type":"node","osm_id":"29072081"}},{"type":"Feature","geometry":{"type":"Point","coordinates":[-0.9745,54.24684]},"properties":{"name":"Wombleton","category":"village","osm_type":"node","osm_id":"29072082"}},{"type":"Feature","geometry":{"type":"Point","coordinates":[-0.53447,54.43322]},"properties":{"name":"Robin Hood's Bay","category":"village","osm_type":"node","osm_id":"31477678","website":"https://robin-hoods-bay.co.uk/"}},{"type":"Feature","geometry":{"type":"Point","coordinates":[-0.66741,54.02025]},"properties":{"name":"Fridaythorpe","category":"village","osm_type":"node","osm_id":"34169324"}},{"type":"Feature","geometry":{"type":"Point","coordinates":[-0.63563,54.03398]},"properties":{"name":"Fimber","category":"village","osm_type":"node","osm_id":"34169325"}},{"type":"Feature","geometry":{"type":"Point","coordinates":[-0.57797,54.07062]},"properties":{"name":"Sledmere","category":"village","osm_type":"node","osm_id":"34169417"}},{"type":"Feature","geometry":{"type":"Point","coordinates":[-0.42191,54.24103]},"properties":{"name":"Crossgates","category":"village","osm_type":"node","osm_id":"36304610"}},{"type":"Feature","geometry":{"type":"Point","coordinates":[-0.87326,54.08354]},"properties":{"name":"Kirkham","category":"village","osm_type":"node","osm_id":"55441680"}},{"type":"Feature","geometry":{"type":"Point","coordinates":[-0.60675,54.17112]},"properties":{"name":"West Heslerton","category":"village","osm_type":"node","osm_id":"55441854"}},{"type":"Feature","geometry":{"type":"Point","coordinates":[-0.69343,54.15835]},"properties":{"name":"Rillington","category":"village","osm_type":"node","osm_id":"55441858"}},{"type":"Feature","geometry":{"type":"Point","coordinates":[-0.72307,54.14247]},"properties":{"name":"Scagglethorpe","category":"village","osm_type":"node","osm_id":"55441860"}},{"type":"Feature","geometry":{"type":"Point","coordinates":[-0.64911,54.14786]},"properties":{"name":"Wintringham","category":"village","osm_type":"node","osm_id":"55441864"}},{"type":"Feature","geometry":{"type":"Point","coordinates":[-0.65028,54.16878]},"properties":{"name":"Knapton","category":"village","osm_type":"node","osm_id":"55441869"}},{"type":"Feature","geometry":{"type":"Point","coordinates":[-0.67937,54.16709]},"properties":{"name":"Scampston","category":"village","osm_type":"node","osm_id":"55441872"}},{"type":"Feature","geometry":{"type":"Point","coordinates":[-0.63187,54.20289]},"properties":{"name":"Yedingham","category":"village","osm_type":"node","osm_id":"55441877"}},{"type":"Feature","geometry":{"type":"Point","coordinates":[-0.5808,54.17761]},"properties":{"name":"East Heslerton","category":"village","osm_type":"node","osm_id":"55441884"}},{"type":"Feature","geometry":{"type":"Point","coordinates":[-0.52113,54.12305]},"properties":{"name":"Weaverthorpe","category":"village","osm_type":"node","osm_id":"55441890"}},{"type":"Feature","geometry":{"type":"Point","coordinates":[-0.53167,54.17987]},"properties":{"name":"Sherburn","category":"village","osm_type":"node","osm_id":"55441901"}},{"type":"Feature","geometry":{"type":"Point","coordinates":[-0.48769,54.18495]},"properties":{"name":"Ganton","category":"village","osm_type":"node","osm_id":"55441905"}},{"type":"Feature","geometry":{"type":"Point","coordinates":[-0.27222,54.1623]},"properties":{"name":"Reighton","category":"village","osm_type":"node","osm_id":"55559330"}},{"type":"Feature","geometry":{"type":"Point","coordinates":[-0.27105,54.12465]},"properties":{"name":"Grindale","category":"village","osm_type":"node","osm_id":"55559333"}},{"type":"Feature","geometry":{"type":"Point","coordinates":[-0.34295,54.13304]},"properties":{"name":"Burton Fleming","category":"village","osm_type":"node","osm_id":"55559343"}},{"type":"Feature","geometry":{"type":"Point","coordinates":[-0.33376,54.0396]},"properties":{"name":"Harpham","category":"village","osm_type":"node","osm_id":"55559549"}},{"type":"Feature","geometry":{"type":"Point","coordinates":[-0.31714,54.0512]},"properties":{"name":"Burton Agnes","category":"village","osm_type":"node","osm_id":"55559551"}},{"type":"Feature","geometry":{"type":"Point","coordinates":[-0.31852,54.00762]},"properties":{"name":"Great Kelk","category":"village","osm_type":"node","osm_id":"55559557"}},{"type":"Feature","geometry":{"type":"Point","coordinates":[-0.23957,54.15435]},"properties":{"name":"Speeton","category":"village","osm_type":"node","osm_id":"55559562"}},{"type":"Feature","geometry":{"type":"Point","coordinates":[-0.17916,54.13127]},"properties":{"name":"Bempton","category":"village","osm_type":"node","osm_id":"55559568"}},{"type":"Feature","geometry":{"type":"Point","coordinates":[-0.25061,54.07151]},"properties":{"name":"Carnaby","category":"village","osm_type":"node","osm_id":"55559575"}},{"type":"Feature","geometry":{"type":"Point","coordinates":[-0.22668,54.01575]},"properties":{"name":"Barmston","category":"village","osm_type":"node","osm_id":"55559578"}},{"type":"Feature","geometry":{"type":"Point","coordinates":[-0.12437,54.11546]},"properties":{"name":"Flamborough","category":"village","osm_type":"node","osm_id":"55559635"}},{"type":"Feature","geometry":{"type":"Point","coordinates":[-0.37701,54.04085]},"properties":{"name":"Ruston Parva","category":"village","osm_type":"node","osm_id":"56107264"}},{"type":"Feature","geometry":{"type":"Point","coordinates":[-0.34515,54.02855]},"properties":{"name":"Lowthorpe","category":"village","osm_type":"node","osm_id":"56107267"}},{"type":"Feature","geometry":{"type":"Point","coordinates":[-0.38877,54.01779]},"properties":{"name":"Nafferton","category":"village","osm_type":"node","osm_id":"56107271"}},{"type":"Feature","geometry":{"type":"Point","coordinates":[-0.46146,54.0073]},"properties":{"name":"Little Driffield","category":"village","osm_type":"node","osm_id":"57748715"}},{"type":"Feature","geometry":{"type":"Point","coordinates":[-0.16585,54.10096]},"properties":{"name":"Sewerby","category":"village","osm_type":"node","osm_id":"57824358"}},{"type":"Feature","geometry":{"type":"Point","coordinates":[-0.50227,54.0215]},"properties":{"name":"Garton on the Wolds","category":"village","osm_type":"node","osm_id":"57869501"}},{"type":"Feature","geometry":{"type":"Point","coordinates":[-0.44415,54.19776]},"properties":{"name":"Staxton","category":"village","osm_type":"node","osm_id":"61707056"}},{"type":"Feature","geometry":{"type":"Point","coordinates":[-0.93832,54.01776]},"properties":{"name":"Sand Hutton","category":"village","osm_type":"node","osm_id":"81856288"}},{"type":"Feature","geometry":{"type":"Point","coordinates":[-0.4893,54.24772]},"properties":{"name":"West Ayton","category":"village","osm_type":"node","osm_id":"83908253"}},{"type":"Feature","geometry":{"type":"Point","coordinates":[-0.97933,54.1721]},"properties":{"name":"Hovingham","category":"village","osm_type":"node","osm_id":"84803923"}},{"type":"Feature","geometry":{"type":"Point","coordinates":[-0.57805,54.01933]},"properties":{"name":"Wetwang","category":"village","osm_type":"node","osm_id":"86001739"}},{"type":"Feature","geometry":{"type":"Point","coordinates":[-0.44461,54.32483]},"properties":{"name":"Burniston","category":"village","osm_type":"node","osm_id":"92968774"}},{"type":"Feature","geometry":{"type":"Point","coordinates":[-0.44869,54.33542]},"properties":{"name":"Cloughton","category":"village","osm_type":"node","osm_id":"92969261"}},{"type":"Feature","geometry":{"type":"Point","coordinates":[-0.44595,54.30064]},"properties":{"name":"Scalby","category":"village","osm_type":"node","osm_id":"92978992"}},{"type":"Feature","geometry":{"type":"Point","coordinates":[-0.39523,54.11626]},"properties":{"name":"Thwing","category":"village","osm_type":"node","osm_id":"96219086"}},{"type":"Feature","geometry":{"type":"Point","coordinates":[-0.54677,54.11886]},"properties":{"name":"Helperthorpe","category":"village","osm_type":"node","osm_id":"96254261"}},{"type":"Feature","geometry":{"type":"Point","coordinates":[-0.45307,54.14397]},"properties":{"name":"Foxholes","category":"village","osm_type":"node","osm_id":"96254269"}},{"type":"Feature","geometry":{"type":"Point","coordinates":[-0.41908,54.1133]},"properties":{"name":"Octon","category":"village","osm_type":"node","osm_id":"96254448"}},{"type":"Feature","geometry":{"type":"Point","coordinates":[-0.39082,54.06601]},"properties":{"name":"Kilham","category":"village","osm_type":"node","osm_id":"98308146"}},{"type":"Feature","geometry":{"type":"Point","coordinates":[-0.71184,54.09801]},"properties":{"name":"North Grimston","category":"village","osm_type":"node","osm_id":"98379837"}},{"type":"Feature","geometry":{"type":"Point","coordinates":[-0.75145,54.0742]},"properties":{"name":"Birdsall","category":"village","osm_type":"node","osm_id":"99086153"}},{"type":"Feature","geometry":{"type":"Point","coordinates":[-0.97853,54.20537]},"properties":{"name":"Nunnington","category":"village","osm_type":"node","osm_id":"105836779"}},{"type":"Feature","geometry":{"type":"Point","coordinates":[-0.72262,54.23608]},"properties":{"name":"Thornton-le-Dale","category":"village","osm_type":"node","osm_id":"148088851"}},{"type":"Feature","geometry":{"type":"Point","coordinates":[-0.82221,54.01229]},"properties":{"name":"Bugthorpe","category":"village","osm_type":"node","osm_id":"165194039"}},{"type":"Feature","geometry":{"type":"Point","coordinates":[-0.86226,54.00356]},"properties":{"name":"Skirpenbeck","category":"village","osm_type":"node","osm_id":"166841110"}},{"type":"Feature","geometry":{"type":"Point","coordinates":[-0.40262,54.14372]},"properties":{"name":"Wold Newton","category":"village","osm_type":"node","osm_id":"166953158"}},{"type":"Feature","geometry":{"type":"Point","coordinates":[-0.70795,54.29834]},"properties":{"name":"Lockton","category":"village","osm_type":"node","osm_id":"186182880"}},{"type":"Feature","geometry":{"type":"Point","coordinates":[-0.8247,54.26466]},"properties":{"name":"Wrelton","category":"village","osm_type":"node","osm_id":"186326018"}},{"type":"Feature","geometry":{"type":"Point","coordinates":[-0.5489,54.3104]},"properties":{"name":"Broxa","category":"village","osm_type":"node","osm_id":"189618997"}},{"type":"Feature","geometry":{"type":"Point","coordinates":[-0.83832,54.29224]},"properties":{"name":"Cropton","category":"village","osm_type":"node","osm_id":"190600926"}},{"type":"Feature","geometry":{"type":"Point","coordinates":[-0.94032,54.46344]},"properties":{"name":"Castleton","category":"village","osm_type":"node","osm_id":"243761356"}},{"type":"Feature","geometry":{"type":"Point","coordinates":[-0.87057,54.19346]},"properties":{"name":"Brawby","category":"village","osm_type":"node","osm_id":"244763407"}},{"type":"Feature","geometry":{"type":"Point","coordinates":[-0.83976,54.17687]},"properties":{"name":"Great Habton","category":"village","osm_type":"node","osm_id":"244763412"}},{"type":"Feature","geometry":{"type":"Point","coordinates":[-0.8548,54.20175]},"properties":{"name":"Great Barugh","category":"village","osm_type":"node","osm_id":"244763415"}},{"type":"Feature","geometry":{"type":"Point","coordinates":[-0.87336,54.15216]},"properties":{"name":"Appleton le Street","category":"village","osm_type":"node","osm_id":"244763420"}},{"type":"Feature","geometry":{"type":"Point","coordinates":[-0.82651,54.14972]},"properties":{"name":"Broughton","category":"village","osm_type":"node","osm_id":"244763430"}},{"type":"Feature","geometry":{"type":"Point","coordinates":[-0.85007,54.10599]},"properties":{"name":"High Hutton","category":"village","osm_type":"node","osm_id":"244763432"}},{"type":"Feature","geometry":{"type":"Point","coordinates":[-0.83576,54.09936]},"properties":{"name":"Low Hutton","category":"village","osm_type":"node","osm_id":"244763435"}},{"type":"Feature","geometry":{"type":"Point","coordinates":[-0.84761,54.07765]},"properties":{"name":"Westow","category":"village","osm_type":"node","osm_id":"244763440"}},{"type":"Feature","geometry":{"type":"Point","coordinates":[-0.87504,54.05674]},"properties":{"name":"Howsham","category":"village","osm_type":"node","osm_id":"244763442"}},{"type":"Feature","geometry":{"type":"Point","coordinates":[-0.83555,54.04123]},"properties":{"name":"Leppington","category":"village","osm_type":"node","osm_id":"244763444"}},{"type":"Feature","geometry":{"type":"Point","coordinates":[-0.80693,54.04522]},"properties":{"name":"Acklam","category":"village","osm_type":"node","osm_id":"244763446"}},{"type":"Feature","geometry":{"type":"Point","coordinates":[-0.80154,54.05712]},"properties":{"name":"Leavening","category":"village","osm_type":"node","osm_id":"244763449"}},{"type":"Feature","geometry":{"type":"Point","coordinates":[-0.79292,54.07381]},"properties":{"name":"Burythorpe","category":"village","osm_type":"node","osm_id":"244763451"}},{"type":"Feature","geometry":{"type":"Point","coordinates":[-0.78255,54.0938]},"properties":{"name":"Langton","category":"village","osm_type":"node","osm_id":"244763454"}},{"type":"Feature","geometry":{"type":"Point","coordinates":[-0.79555,54.08382]},"properties":{"name":"Kennythorpe","category":"village","osm_type":"node","osm_id":"244763456"}},{"type":"Feature","geometry":{"type":"Point","coordinates":[-0.67976,54.08287]},"properties":{"name":"Wharram le Street","category":"village","osm_type":"node","osm_id":"244763461"}},{"type":"Feature","geometry":{"type":"Point","coordinates":[-0.7158,54.03907]},"properties":{"name":"Thixendale","category":"village","osm_type":"node","osm_id":"244763464"}},{"type":"Feature","geometry":{"type":"Point","coordinates":[-0.74565,54.18487]},"properties":{"name":"Marishes","category":"village","osm_type":"node","osm_id":"244763471"}},{"type":"Feature","geometry":{"type":"Point","coordinates":[-0.72532,54.12557]},"properties":{"name":"Settrington","category":"village","osm_type":"node","osm_id":"244763474"}},{"type":"Feature","geometry":{"type":"Point","coordinates":[-0.77811,54.14577]},"properties":{"name":"Old Malton","category":"village","osm_type":"node","osm_id":"244763476"}},{"type":"Feature","geometry":{"type":"Point","coordinates":[-0.93283,54.09998]},"properties":{"name":"Bulmer","category":"village","osm_type":"node","osm_id":"245491581"}},{"type":"Feature","geometry":{"type":"Point","coordinates":[-0.97627,54.12755]},"properties":{"name":"Terrington","category":"village","osm_type":"node","osm_id":"245491582"}},{"type":"Feature","geometry":{"type":"Point","coordinates":[-0.95585,54.07739]},"properties":{"name":"Thornton le Clay","category":"village","osm_type":"node","osm_id":"245491586"}},{"type":"Feature","geometry":{"type":"Point","coordinates":[-0.93401,54.07777]},"properties":{"name":"Foston","category":"village","osm_type":"node","osm_id":"245491587"}},{"type":"Feature","geometry":{"type":"Point","coordinates":[-0.9632,54.05224]},"properties":{"name":"Flaxton","category":"village","osm_type":"node","osm_id":"245491589"}},{"type":"Feature","geometry":{"type":"Point","coordinates":[-0.94054,54.03194]},"properties":{"name":"Claxton","category":"village","osm_type":"node","osm_id":"245491590"}},{"type":"Feature","geometry":{"type":"Point","coordinates":[-0.92456,54.04895]},"properties":{"name":"Harton","category":"village","osm_type":"node","osm_id":"245491591"}},{"type":"Feature","geometry":{"type":"Point","coordinates":[-0.91092,54.06116]},"properties":{"name":"Barton le Willows","category":"village","osm_type":"node","osm_id":"245491593"}},{"type":"Feature","geometry":{"type":"Point","coordinates":[-0.89811,54.10273]},"properties":{"name":"Welburn","category":"village","osm_type":"node","osm_id":"245491594"}},{"type":"Feature","geometry":{"type":"Point","coordinates":[-0.88162,54.07475]},"properties":{"name":"Crambe","category":"village","osm_type":"node","osm_id":"245491595"}},{"type":"Feature","geometry":{"type":"Point","coordinates":[-0.89662,54.084]},"properties":{"name":"Whitwell on-the-Hill","category":"village","osm_type":"node","osm_id":"245491596"}},{"type":"Feature","geometry":{"type":"Point","coordinates":[-0.88496,54.03073]},"properties":{"name":"Scrayingham","category":"village","osm_type":"node","osm_id":"245491600"}},{"type":"Feature","geometry":{"type":"Point","coordinates":[-0.89704,54.15923]},"properties":{"name":"Barton le Street","category":"village","osm_type":"node","osm_id":"245491601"}},{"type":"Feature","geometry":{"type":"Point","coordinates":[-0.93207,54.165]},"properties":{"name":"Slingsby","category":"village","osm_type":"node","osm_id":"245491602","website":"https://www.slingsbyvillage.co.uk/"}},{"type":"Feature","geometry":{"type":"Point","coordinates":[-0.91159,54.13357]},"properties":{"name":"Coneysthorpe","category":"village","osm_type":"node","osm_id":"245491603"}},{"type":"Feature","geometry":{"type":"Point","coordinates":[-0.88761,54.35398]},"properties":{"name":"Rosedale Abbey","category":"village","osm_type":"node","osm_id":"248809458"}},{"type":"Feature","geometry":{"type":"Point","coordinates":[-0.44244,54.29248]},"properties":{"name":"Newby","category":"village","osm_type":"node","osm_id":"250294754"}},{"type":"Feature","geometry":{"type":"Point","coordinates":[-0.75335,54.30393]},"properties":{"name":"Newton upon Rawcliffe","category":"village","osm_type":"node","osm_id":"255851368"}},{"type":"Feature","geometry":{"type":"Point","coordinates":[-0.45276,54.24406]},"properties":{"name":"Irton","category":"village","osm_type":"node","osm_id":"259772670"}},{"type":"Feature","geometry":{"type":"Point","coordinates":[-0.82459,54.45827]},"properties":{"name":"Lealholm","category":"village","osm_type":"node","osm_id":"272480762"}},{"type":"Feature","geometry":{"type":"Point","coordinates":[-0.64561,54.45287]},"properties":{"name":"Ugglebarnby","category":"village","osm_type":"node","osm_id":"278328698"}},{"type":"Feature","geometry":{"type":"Point","coordinates":[-0.61745,54.09509]},"properties":{"name":"Kirby Grindalythe","category":"village","osm_type":"node","osm_id":"280720405"}},{"type":"Feature","geometry":{"type":"Point","coordinates":[-0.57771,54.10983]},"properties":{"name":"West Lutton","category":"village","osm_type":"node","osm_id":"280720450"}},{"type":"Feature","geometry":{"type":"Point","coordinates":[-0.54813,54.4312]},"properties":{"name":"Fylingthorpe","category":"village","osm_type":"node","osm_id":"280821572"}},{"type":"Feature","geometry":{"type":"Point","coordinates":[-0.49307,54.39758]},"properties":{"name":"Ravenscar","category":"village","osm_type":"node","osm_id":"291695324"}},{"type":"Feature","geometry":{"type":"Point","coordinates":[-0.47767,54.37191]},"properties":{"name":"Staintondale","category":"village","osm_type":"node","osm_id":"331023041"}},{"type":"Feature","geometry":{"type":"Point","coordinates":[-0.72103,54.30411]},"properties":{"name":"Levisham","category":"village","osm_type":"node","osm_id":"347054261"}},{"type":"Feature","geometry":{"type":"Point","coordinates":[-0.91736,54.46209]},"properties":{"name":"Ainthorpe","category":"village","osm_type":"node","osm_id":"432654610"}},{"type":"Feature","geometry":{"type":"Point","coordinates":[-0.62885,54.46995]},"properties":{"name":"Ruswarp","category":"village","osm_type":"node","osm_id":"642932059"}},{"type":"Feature","geometry":{"type":"Point","coordinates":[-0.37801,54.24425]},"properties":{"name":"Osgodby","category":"village","osm_type":"node","osm_id":"825270742"}},{"type":"Feature","geometry":{"type":"Point","coordinates":[-0.38376,54.23521]},"properties":{"name":"Cayton","category":"village","osm_type":"node","osm_id":"825270760"}},{"type":"Feature","geometry":{"type":"Point","coordinates":[-0.47728,54.25161]},"properties":{"name":"East Ayton","category":"village","osm_type":"node","osm_id":"828110793"}},{"type":"Feature","geometry":{"type":"Point","coordinates":[-0.51673,54.29664]},"properties":{"name":"Hackness","category":"village","osm_type":"node","osm_id":"961905968"}},{"type":"Feature","geometry":{"type":"Point","coordinates":[-0.92884,54.4275]},"properties":{"name":"Botton","category":"village","osm_type":"node","osm_id":"1179350105"}},{"type":"Feature","geometry":{"type":"Point","coordinates":[-0.76979,54.48941]},"properties":{"name":"Ugthorpe","category":"village","osm_type":"node","osm_id":"1194193860"}},{"type":"Feature","geometry":{"type":"Point","coordinates":[-0.88196,54.30438]},"properties":{"name":"Lastingham","category":"village","osm_type":"node","osm_id":"1225417248"}},{"type":"Feature","geometry":{"type":"Point","coordinates":[-0.66348,54.48301]},"properties":{"name":"Newholm","category":"village","osm_type":"node","osm_id":"1234859888"}},{"type":"Feature","geometry":{"type":"Point","coordinates":[-0.65812,54.46479]},"properties":{"name":"Briggswath","category":"village","osm_type":"node","osm_id":"1239278167"}},{"type":"Feature","geometry":{"type":"Point","coordinates":[-0.71961,54.40014]},"properties":{"name":"Goathland","category":"village","osm_type":"node","osm_id":"1245869942"}},{"type":"Feature","geometry":{"type":"Point","coordinates":[-0.95328,54.30092]},"properties":{"name":"Gillamoor","category":"village","osm_type":"node","osm_id":"1320247501"}},{"type":"Feature","geometry":{"type":"Point","coordinates":[-0.51848,54.34913]},"properties":{"name":"Harwood Dale","category":"village","osm_type":"node","osm_id":"1631430395"}},{"type":"Feature","geometry":{"type":"Point","coordinates":[-0.40221,54.20245]},"properties":{"name":"Flixton","category":"village","osm_type":"node","osm_id":"1645457467"}},{"type":"Feature","geometry":{"type":"Point","coordinates":[-0.9942,54.19177]},"properties":{"name":"Stonegrave","category":"village","osm_type":"node","osm_id":"2071354011"}},{"type":"Feature","geometry":{"type":"Point","coordinates":[-0.68241,54.14782]},"properties":{"name":"Thorpe Bassett","category":"village","osm_type":"node","osm_id":"2327568928"}},{"type":"Feature","geometry":{"type":"Point","coordinates":[-0.99385,54.25474]},"properties":{"name":"Nawton","category":"village","osm_type":"node","osm_id":"2906320782"}},{"type":"Feature","geometry":{"type":"Point","coordinates":[-0.99849,54.25351]},"properties":{"name":"Beadlam","category":"village","osm_type":"node","osm_id":"2906320783"}},{"type":"Feature","geometry":{"type":"Point","coordinates":[-0.3247,54.09297]},"properties":{"name":"Rudston","category":"village","osm_type":"node","osm_id":"3111887480"}},{"type":"Feature","geometry":{"type":"Point","coordinates":[-0.97618,54.444]},"properties":{"name":"Westerdale","category":"village","osm_type":"node","osm_id":"4271037373"}},{"type":"Feature","geometry":{"type":"Point","coordinates":[-0.72451,54.43591]},"properties":{"name":"Grosmont","category":"village","osm_type":"node","osm_id":"4463160369"}},{"type":"Feature","geometry":{"type":"Point","coordinates":[-0.91704,54.24729]},"properties":{"name":"Great Edstone","category":"village","osm_type":"node","osm_id":"5307306689"}},{"type":"Feature","geometry":{"type":"Point","coordinates":[-0.90297,54.21174]},"properties":{"name":"Salton","category":"village","osm_type":"node","osm_id":"5308727659"}},{"type":"Feature","geometry":{"type":"Point","coordinates":[-0.80553,54.20528]},"properties":{"name":"Kirby Misperton","category":"village","osm_type":"node","osm_id":"5309345815"}},{"type":"Feature","geometry":{"type":"Point","coordinates":[-0.83939,54.14933]},"properties":{"name":"Swinton","category":"village","osm_type":"node","osm_id":"5309995599"}},{"type":"Feature","geometry":{"type":"Point","coordinates":[-0.85339,54.15042]},"properties":{"name":"Amotherby","category":"village","osm_type":"node","osm_id":"5310007421"}},{"type":"Feature","geometry":{"type":"Point","coordinates":[-0.66978,54.44811]},"properties":{"name":"Eskdaleside","category":"village","osm_type":"node","osm_id":"5510146810"}},{"type":"Feature","geometry":{"type":"Point","coordinates":[-0.55802,54.30853]},"properties":{"name":"Langdale End","category":"village","osm_type":"node","osm_id":"5512567161"}},{"type":"Feature","geometry":{"type":"Point","coordinates":[-0.91281,54.26605]},"properties":{"name":"Keldholme","category":"village","osm_type":"node","osm_id":"5939273674"}},{"type":"Feature","geometry":{"type":"Point","coordinates":[-0.55402,54.25105]},"properties":{"name":"Sawdon","category":"village","osm_type":"node","osm_id":"9543976731"}},{"type":"Feature","geometry":{"type":"Point","coordinates":[-0.45783,54.08813]},"properties":{"name":"Langtoft","category":"village","osm_type":"node","osm_id":"10657535681"}},{"type":"Feature","geometry":{"type":"Point","coordinates":[-0.39793,54.23964]},"properties":{"name":"Eastfield","category":"village","osm_type":"node","osm_id":"11233281180"}},{"type":"Feature","geometry":{"type":"Point","coordinates":[-0.58875,54.22643]},"properties":{"name":"Snainton","category":"village","osm_type":"way","osm_id":"223113964"}}]}