{"type":"FeatureCollection","features":[{"type":"Feature","geometry":{"type":"Point","coordinates":[-0.73419,51.0877]},"properties":{"name":"Shottermill","category":"village","osm_type":"node","osm_id":"262679"}},{"type":"Feature","geometry":{"type":"Point","coordinates":[-0.87736,51.03038]},"properties":{"name":"Hill Brow","category":"village","osm_type":"node","osm_id":"262680"}},{"type":"Feature","geometry":{"type":"Point","coordinates":[-0.85468,51.0439]},"properties":{"name":"Rake","category":"village","osm_type":"node","osm_id":"262681"}},{"type":"Feature","geometry":{"type":"Point","coordinates":[-0.85113,51.0082]},"properties":{"name":"Rogate","category":"village","osm_type":"node","osm_id":"262718"}},{"type":"Feature","geometry":{"type":"Point","coordinates":[-0.74959,51.08445]},"properties":{"name":"Hammer","category":"village","osm_type":"node","osm_id":"262734"}},{"type":"Feature","geometry":{"type":"Point","coordinates":[-0.75999,51.07182]},"properties":{"name":"Lynchmere","category":"village","osm_type":"node","osm_id":"262735"}},{"type":"Feature","geometry":{"type":"Point","coordinates":[-0.80618,51.03609]},"properties":{"name":"Milland","category":"village","osm_type":"node","osm_id":"262737"}},{"type":"Feature","geometry":{"type":"Point","coordinates":[-0.73327,51.1133]},"properties":{"name":"Hindhead","category":"village","osm_type":"node","osm_id":"262738"}},{"type":"Feature","geometry":{"type":"Point","coordinates":[-0.72331,51.04819]},"properties":{"name":"Fernhurst","category":"village","osm_type":"node","osm_id":"262739"}},{"type":"Feature","geometry":{"type":"Point","coordinates":[-0.70978,51.08761]},"properties":{"name":"Haslemere","category":"town","osm_type":"node","osm_id":"262740"}},{"type":"Feature","geometry":{"type":"Point","coordinates":[-0.75133,51.08951]},"properties":{"name":"Woolmer Hill","category":"village","osm_type":"node","osm_id":"262754"}},{"type":"Feature","geometry":{"type":"Point","coordinates":[-0.9392,51.00249]},"properties":{"name":"Petersfield","category":"town","osm_type":"node","osm_id":"262802"}},{"type":"Feature","geometry":{"type":"Point","coordinates":[-0.9459,51.02316]},"properties":{"name":"Steep","category":"village","osm_type":"node","osm_id":"262828"}},{"type":"Feature","geometry":{"type":"Point","coordinates":[-0.8324,51.41203]},"properties":{"name":"Wokingham","category":"town","osm_type":"node","osm_id":"2510847"}},{"type":"Feature","geometry":{"type":"Point","coordinates":[-0.56617,51.40336]},"properties":{"name":"Virginia Water","category":"village","osm_type":"node","osm_id":"7440484"}},{"type":"Feature","geometry":{"type":"Point","coordinates":[-0.55647,51.32019]},"properties":{"name":"Woking","category":"town","osm_type":"node","osm_id":"12981759"}},{"type":"Feature","geometry":{"type":"Point","coordinates":[-0.97217,51.00744]},"properties":{"name":"Stroud","category":"village","osm_type":"node","osm_id":"13799740"}},{"type":"Feature","geometry":{"type":"Point","coordinates":[-0.01975,51.44532]},"properties":{"name":"Catford","category":"town","osm_type":"node","osm_id":"13878144"}},{"type":"Feature","geometry":{"type":"Point","coordinates":[-0.93772,51.05684]},"properties":{"name":"Hawkley","category":"village","osm_type":"node","osm_id":"13969468"}},{"type":"Feature","geometry":{"type":"Point","coordinates":[-0.46051,51.08598]},"properties":{"name":"Bucks Green","category":"village","osm_type":"node","osm_id":"14605806"}},{"type":"Feature","geometry":{"type":"Point","coordinates":[-0.32931,51.2955]},"properties":{"name":"Leatherhead","category":"town","osm_type":"node","osm_id":"14698913"}},{"type":"Feature","geometry":{"type":"Point","coordinates":[-0.33067,51.23252]},"properties":{"name":"Dorking","category":"town","osm_type":"node","osm_id":"14698916"}},{"type":"Feature","geometry":{"type":"Point","coordinates":[-0.97007,51.45642]},"properties":{"name":"Reading","category":"town","osm_type":"node","osm_id":"14808039"}},{"type":"Feature","geometry":{"type":"Point","coordinates":[-0.66802,51.41013]},"properties":{"name":"Ascot","category":"town","osm_type":"node","osm_id":"15732153"}},{"type":"Feature","geometry":{"type":"Point","coordinates":[-0.65591,51.40151]},"properties":{"name":"Sunninghill","category":"village","osm_type":"node","osm_id":"15732180"}},{"type":"Feature","geometry":{"type":"Point","coordinates":[-0.33365,51.42778]},"properties":{"name":"Teddington","category":"town","osm_type":"node","osm_id":"16486527"}},{"type":"Feature","geometry":{"type":"Point","coordinates":[-0.97577,51.1489]},"properties":{"name":"Alton","category":"town","osm_type":"node","osm_id":"17067290"}},{"type":"Feature","geometry":{"type":"Point","coordinates":[-0.3295,51.06303]},"properties":{"name":"Horsham","category":"town","osm_type":"node","osm_id":"17722528"}},{"type":"Feature","geometry":{"type":"Point","coordinates":[-0.18011,51.11034]},"properties":{"name":"Crawley","category":"town","osm_type":"node","osm_id":"17722928"}},{"type":"Feature","geometry":{"type":"Point","coordinates":[-0.0143,51.12856]},"properties":{"name":"East Grinstead","category":"town","osm_type":"node","osm_id":"17725071"}},{"type":"Feature","geometry":{"type":"Point","coordinates":[-0.44958,51.21926]},"properties":{"name":"Gomshall","category":"village","osm_type":"node","osm_id":"17921925"}},{"type":"Feature","geometry":{"type":"Point","coordinates":[-0.50486,51.02394]},"properties":{"name":"Wisborough Green","category":"village","osm_type":"node","osm_id":"18854280"}},{"type":"Feature","geometry":{"type":"Point","coordinates":[-0.90469,51.45304]},"properties":{"name":"Woodley","category":"town","osm_type":"node","osm_id":"20930889"}},{"type":"Feature","geometry":{"type":"Point","coordinates":[-0.24928,51.47374]},"properties":{"name":"Barnes","category":"town","osm_type":"node","osm_id":"20962675"}},{"type":"Feature","geometry":{"type":"Point","coordinates":[-0.30328,51.46135]},"properties":{"name":"Richmond","category":"town","osm_type":"node","osm_id":"21099164"}},{"type":"Feature","geometry":{"type":"Point","coordinates":[-0.32819,51.44674]},"properties":{"name":"Twickenham","category":"town","osm_type":"node","osm_id":"21099166"}},{"type":"Feature","geometry":{"type":"Point","coordinates":[-0.10031,51.3737]},"properties":{"name":"Croydon","category":"town","osm_type":"node","osm_id":"21262496"}},{"type":"Feature","geometry":{"type":"Point","coordinates":[-0.51104,51.43401]},"properties":{"name":"Staines-upon-Thames","category":"town","osm_type":"node","osm_id":"21434600"}},{"type":"Feature","geometry":{"type":"Point","coordinates":[-0.79849,51.21517]},"properties":{"name":"Farnham","category":"town","osm_type":"node","osm_id":"25426604"}},{"type":"Feature","geometry":{"type":"Point","coordinates":[-0.21378,51.29529]},"properties":{"name":"Kingswood","category":"village","osm_type":"node","osm_id":"26108617"}},{"type":"Feature","geometry":{"type":"Point","coordinates":[-0.75398,51.29187]},"properties":{"name":"Farnborough","category":"town","osm_type":"node","osm_id":"26424302"}},{"type":"Feature","geometry":{"type":"Point","coordinates":[-0.14953,51.38694]},"properties":{"name":"Beddington Corner","category":"village","osm_type":"node","osm_id":"26562606"}},{"type":"Feature","geometry":{"type":"Point","coordinates":[-0.18006,51.38669]},"properties":{"name":"St Helier","category":"village","osm_type":"node","osm_id":"26562608"}},{"type":"Feature","geometry":{"type":"Point","coordinates":[-0.46476,51.21926]},"properties":{"name":"Shere","category":"village","osm_type":"node","osm_id":"26970543"}},{"type":"Feature","geometry":{"type":"Point","coordinates":[-0.56541,51.21225]},"properties":{"name":"Shalford","category":"village","osm_type":"node","osm_id":"27025521"}},{"type":"Feature","geometry":{"type":"Point","coordinates":[-0.64181,51.0579]},"properties":{"name":"Northchapel","category":"village","osm_type":"node","osm_id":"27194592"}},{"type":"Feature","geometry":{"type":"Point","coordinates":[-0.00454,51.48208]},"properties":{"name":"Greenwich","category":"town","osm_type":"node","osm_id":"27365302"}},{"type":"Feature","geometry":{"type":"Point","coordinates":[-0.01018,51.46243]},"properties":{"name":"Lewisham","category":"town","osm_type":"node","osm_id":"27365305"}},{"type":"Feature","geometry":{"type":"Point","coordinates":[-0.13715,51.49732]},"properties":{"name":"City of Westminster","category":"city","osm_type":"node","osm_id":"27365306"}},{"type":"Feature","geometry":{"type":"Point","coordinates":[-0.32166,51.4864]},"properties":{"name":"Brentford","category":"town","osm_type":"node","osm_id":"27365513"}},{"type":"Feature","geometry":{"type":"Point","coordinates":[-0.26382,51.49231]},"properties":{"name":"Chiswick","category":"town","osm_type":"node","osm_id":"27529289"}},{"type":"Feature","geometry":{"type":"Point","coordinates":[-0.32597,51.46852]},"properties":{"name":"Isleworth","category":"town","osm_type":"node","osm_id":"27529290"}},{"type":"Feature","geometry":{"type":"Point","coordinates":[-0.94321,51.09766]},"properties":{"name":"Selborne","category":"village","osm_type":"node","osm_id":"28166199"}},{"type":"Feature","geometry":{"type":"Point","coordinates":[-0.89983,51.05019]},"properties":{"name":"West Liss","category":"village","osm_type":"node","osm_id":"28831682"}},{"type":"Feature","geometry":{"type":"Point","coordinates":[-0.6631,51.19978]},"properties":{"name":"Shackleford","category":"village","osm_type":"node","osm_id":"28962948"}},{"type":"Feature","geometry":{"type":"Point","coordinates":[-0.16828,51.24047]},"properties":{"name":"Redhill","category":"town","osm_type":"node","osm_id":"29141200"}},{"type":"Feature","geometry":{"type":"Point","coordinates":[-0.67963,51.00034]},"properties":{"name":"Lodsworth","category":"village","osm_type":"node","osm_id":"29214130"}},{"type":"Feature","geometry":{"type":"Point","coordinates":[-0.04839,51.21983]},"properties":{"name":"South Godstone","category":"village","osm_type":"node","osm_id":"29229166"}},{"type":"Feature","geometry":{"type":"Point","coordinates":[-0.99677,51.00894]},"properties":{"name":"Langrish","category":"village","osm_type":"node","osm_id":"29355781"}},{"type":"Feature","geometry":{"type":"Point","coordinates":[-0.9199,51.0121]},"properties":{"name":"Sheet","category":"village","osm_type":"node","osm_id":"29355945"}},{"type":"Feature","geometry":{"type":"Point","coordinates":[-0.30083,51.02293]},"properties":{"name":"Nuthurst","category":"village","osm_type":"node","osm_id":"29356285"}},{"type":"Feature","geometry":{"type":"Point","coordinates":[-0.89285,51.07087]},"properties":{"name":"Greatham","category":"village","osm_type":"node","osm_id":"29356582"}},{"type":"Feature","geometry":{"type":"Point","coordinates":[-0.92669,51.07553]},"properties":{"name":"Empshott","category":"village","osm_type":"node","osm_id":"29356586"}},{"type":"Feature","geometry":{"type":"Point","coordinates":[-0.9921,51.08519]},"properties":{"name":"East Tisted","category":"village","osm_type":"node","osm_id":"29356718"}},{"type":"Feature","geometry":{"type":"Point","coordinates":[-0.96829,51.08927]},"properties":{"name":"Newton Valence","category":"village","osm_type":"node","osm_id":"29356743"}},{"type":"Feature","geometry":{"type":"Point","coordinates":[-0.9831,51.11203]},"properties":{"name":"Upper Farringdon","category":"village","osm_type":"node","osm_id":"29356757"}},{"type":"Feature","geometry":{"type":"Point","coordinates":[-0.98851,51.13396]},"properties":{"name":"Chawton","category":"village","osm_type":"node","osm_id":"29356768"}},{"type":"Feature","geometry":{"type":"Point","coordinates":[-0.95088,51.16333]},"properties":{"name":"Holybourne","category":"village","osm_type":"node","osm_id":"29356784"}},{"type":"Feature","geometry":{"type":"Point","coordinates":[-0.96754,51.22098]},"properties":{"name":"South Warnborough","category":"village","osm_type":"node","osm_id":"29356894"}},{"type":"Feature","geometry":{"type":"Point","coordinates":[-0.99975,51.22891]},"properties":{"name":"Upton Grey","category":"village","osm_type":"node","osm_id":"29356932"}},{"type":"Feature","geometry":{"type":"Point","coordinates":[-0.97287,51.25619]},"properties":{"name":"Greywell","category":"village","osm_type":"node","osm_id":"29356933"}},{"type":"Feature","geometry":{"type":"Point","coordinates":[-0.93969,51.2535]},"properties":{"name":"Odiham","category":"village","osm_type":"node","osm_id":"29356936"}},{"type":"Feature","geometry":{"type":"Point","coordinates":[-0.99844,51.26285]},"properties":{"name":"Up Nately","category":"village","osm_type":"node","osm_id":"29356937"}},{"type":"Feature","geometry":{"type":"Point","coordinates":[-0.95936,51.28307]},"properties":{"name":"Hook","category":"town","osm_type":"node","osm_id":"29356957"}},{"type":"Feature","geometry":{"type":"Point","coordinates":[-0.99006,51.2811]},"properties":{"name":"Newnham","category":"village","osm_type":"node","osm_id":"29356958"}},{"type":"Feature","geometry":{"type":"Point","coordinates":[-0.97984,51.30129]},"properties":{"name":"Rotherwick","category":"village","osm_type":"node","osm_id":"29356959"}},{"type":"Feature","geometry":{"type":"Point","coordinates":[-0.94724,51.31543]},"properties":{"name":"Mattingley","category":"village","osm_type":"node","osm_id":"29356968"}},{"type":"Feature","geometry":{"type":"Point","coordinates":[-0.96222,51.34024]},"properties":{"name":"Heckfield","category":"village","osm_type":"node","osm_id":"29356969"}},{"type":"Feature","geometry":{"type":"Point","coordinates":[-0.95866,51.37911]},"properties":{"name":"Swallowfield","category":"village","osm_type":"node","osm_id":"29357074"}},{"type":"Feature","geometry":{"type":"Point","coordinates":[-0.97142,51.39455]},"properties":{"name":"Spencers Wood","category":"village","osm_type":"node","osm_id":"29357100"}},{"type":"Feature","geometry":{"type":"Point","coordinates":[-0.94838,51.4101]},"properties":{"name":"Shinfield","category":"village","osm_type":"node","osm_id":"29357125"}},{"type":"Feature","geometry":{"type":"Point","coordinates":[-0.54431,51.19748]},"properties":{"name":"Wonersh","category":"village","osm_type":"node","osm_id":"29363545"}},{"type":"Feature","geometry":{"type":"Point","coordinates":[-0.61266,51.18558]},"properties":{"name":"Godalming","category":"town","osm_type":"node","osm_id":"29533847"}},{"type":"Feature","geometry":{"type":"Point","coordinates":[-0.08512,51.1037]},"properties":{"name":"Turners Hill","category":"village","osm_type":"node","osm_id":"29738780"}},{"type":"Feature","geometry":{"type":"Point","coordinates":[-0.07892,51.04835]},"properties":{"name":"Ardingly","category":"village","osm_type":"node","osm_id":"29739168"}},{"type":"Feature","geometry":{"type":"Point","coordinates":[-0.76835,51.4909]},"properties":{"name":"White Waltham","category":"village","osm_type":"node","osm_id":"30015672"}},{"type":"Feature","geometry":{"type":"Point","coordinates":[-0.6323,51.21374]},"properties":{"name":"Compton","category":"village","osm_type":"node","osm_id":"30361710"}},{"type":"Feature","geometry":{"type":"Point","coordinates":[-0.63729,51.20272]},"properties":{"name":"Hurtmore","category":"village","osm_type":"node","osm_id":"30777287"}},{"type":"Feature","geometry":{"type":"Point","coordinates":[-0.45621,51.48942]},"properties":{"name":"Sipson","category":"village","osm_type":"node","osm_id":"30836298"}},{"type":"Feature","geometry":{"type":"Point","coordinates":[-0.16109,51.36579]},"properties":{"name":"Carshalton","category":"town","osm_type":"node","osm_id":"31000778"}},{"type":"Feature","geometry":{"type":"Point","coordinates":[-0.36135,51.46861]},"properties":{"name":"Hounslow","category":"town","osm_type":"node","osm_id":"31036374"}},{"type":"Feature","geometry":{"type":"Point","coordinates":[-0.84183,51.28099]},"properties":{"name":"Fleet","category":"town","osm_type":"node","osm_id":"32050625"}},{"type":"Feature","geometry":{"type":"Point","coordinates":[-0.48658,51.14076]},"properties":{"name":"Cranleigh","category":"village","osm_type":"node","osm_id":"32199479"}},{"type":"Feature","geometry":{"type":"Point","coordinates":[-0.08077,51.01295]},"properties":{"name":"Lindfield","category":"village","osm_type":"node","osm_id":"32320241"}},{"type":"Feature","geometry":{"type":"Point","coordinates":[-0.66436,51.23171]},"properties":{"name":"Wanborough","category":"village","osm_type":"node","osm_id":"33783569"}},{"type":"Feature","geometry":{"type":"Point","coordinates":[-0.13292,51.06027]},"properties":{"name":"Balcombe","category":"village","osm_type":"node","osm_id":"33811456"}},{"type":"Feature","geometry":{"type":"Point","coordinates":[-0.05451,51.07709]},"properties":{"name":"West Hoathly","category":"village","osm_type":"node","osm_id":"34070015"}},{"type":"Feature","geometry":{"type":"Point","coordinates":[-0.57843,51.48385]},"properties":{"name":"Datchet","category":"village","osm_type":"node","osm_id":"34569137"}},{"type":"Feature","geometry":{"type":"Point","coordinates":[-0.54304,51.47343]},"properties":{"name":"Horton","category":"village","osm_type":"node","osm_id":"34592169"}},{"type":"Feature","geometry":{"type":"Point","coordinates":[-0.0705,51.00505]},"properties":{"name":"Walstead","category":"village","osm_type":"node","osm_id":"34696084"}},{"type":"Feature","geometry":{"type":"Point","coordinates":[-0.44914,51.09003]},"properties":{"name":"Rudgwick","category":"village","osm_type":"node","osm_id":"35678518"}},{"type":"Feature","geometry":{"type":"Point","coordinates":[-0.63564,51.32651]},"properties":{"name":"Bisley","category":"village","osm_type":"node","osm_id":"40745033"}},{"type":"Feature","geometry":{"type":"Point","coordinates":[-0.61691,51.31638]},"properties":{"name":"Knaphill","category":"village","osm_type":"node","osm_id":"40746561"}},{"type":"Feature","geometry":{"type":"Point","coordinates":[-0.63501,51.30493]},"properties":{"name":"Brookwood","category":"village","osm_type":"node","osm_id":"40746999"}},{"type":"Feature","geometry":{"type":"Point","coordinates":[-0.64221,51.34022]},"properties":{"name":"West End","category":"village","osm_type":"node","osm_id":"40747457"}},{"type":"Feature","geometry":{"type":"Point","coordinates":[-0.66462,51.35115]},"properties":{"name":"Lightwater","category":"town","osm_type":"node","osm_id":"40747512"}},{"type":"Feature","geometry":{"type":"Point","coordinates":[-0.69774,51.44243]},"properties":{"name":"Winkfield","category":"village","osm_type":"node","osm_id":"40757243"}},{"type":"Feature","geometry":{"type":"Point","coordinates":[-0.69226,51.36116]},"properties":{"name":"Bagshot","category":"village","osm_type":"node","osm_id":"40758946"}},{"type":"Feature","geometry":{"type":"Point","coordinates":[-0.56687,51.32469]},"properties":{"name":"Horsell","category":"village","osm_type":"node","osm_id":"45470923"}},{"type":"Feature","geometry":{"type":"Point","coordinates":[-0.65423,51.3649]},"properties":{"name":"Windlesham","category":"village","osm_type":"node","osm_id":"45472961"}},{"type":"Feature","geometry":{"type":"Point","coordinates":[-0.7461,51.33928]},"properties":{"name":"Camberley","category":"town","osm_type":"node","osm_id":"45473897"}},{"type":"Feature","geometry":{"type":"Point","coordinates":[-0.63244,51.39447]},"properties":{"name":"Sunningdale","category":"village","osm_type":"node","osm_id":"45477411"}},{"type":"Feature","geometry":{"type":"Point","coordinates":[-0.54731,51.43126]},"properties":{"name":"Egham","category":"town","osm_type":"node","osm_id":"45479715"}},{"type":"Feature","geometry":{"type":"Point","coordinates":[-0.72559,51.28987]},"properties":{"name":"Mytchett","category":"village","osm_type":"node","osm_id":"45496346"}},{"type":"Feature","geometry":{"type":"Point","coordinates":[-0.0042,51.25665]},"properties":{"name":"Oxted","category":"town","osm_type":"node","osm_id":"52006668"}},{"type":"Feature","geometry":{"type":"Point","coordinates":[-0.01017,51.17558]},"properties":{"name":"Lingfield","category":"village","osm_type":"node","osm_id":"52006709"}},{"type":"Feature","geometry":{"type":"Point","coordinates":[-0.16408,51.17169]},"properties":{"name":"Horley","category":"town","osm_type":"node","osm_id":"58808142"}},{"type":"Feature","geometry":{"type":"Point","coordinates":[-0.98591,51.03422]},"properties":{"name":"High Cross","category":"village","osm_type":"node","osm_id":"59242870"}},{"type":"Feature","geometry":{"type":"Point","coordinates":[-0.79777,51.08941]},"properties":{"name":"Bramshott","category":"village","osm_type":"node","osm_id":"60087815"}},{"type":"Feature","geometry":{"type":"Point","coordinates":[-0.05239,51.42677]},"properties":{"name":"Sydenham","category":"town","osm_type":"node","osm_id":"64653632"}},{"type":"Feature","geometry":{"type":"Point","coordinates":[-0.02816,51.03544]},"properties":{"name":"Horsted Keynes","category":"village","osm_type":"node","osm_id":"81317805"}},{"type":"Feature","geometry":{"type":"Point","coordinates":[-0.04344,51.07465]},"properties":{"name":"Sharpthorne","category":"village","osm_type":"node","osm_id":"81325007"}},{"type":"Feature","geometry":{"type":"Point","coordinates":[-0.43438,51.27661]},"properties":{"name":"East Horsley","category":"village","osm_type":"node","osm_id":"82757766"}},{"type":"Feature","geometry":{"type":"Point","coordinates":[-0.45997,51.29856]},"properties":{"name":"Ockham","category":"village","osm_type":"node","osm_id":"82757769"}},{"type":"Feature","geometry":{"type":"Point","coordinates":[-0.45482,51.26476]},"properties":{"name":"West Horsley","category":"village","osm_type":"node","osm_id":"82757771"}},{"type":"Feature","geometry":{"type":"Point","coordinates":[-0.38922,51.27758]},"properties":{"name":"Little Bookham","category":"village","osm_type":"node","osm_id":"82758342"}},{"type":"Feature","geometry":{"type":"Point","coordinates":[-0.03163,51.35864]},"properties":{"name":"Addington","category":"village","osm_type":"node","osm_id":"84903406"}},{"type":"Feature","geometry":{"type":"Point","coordinates":[-0.1994,51.05462]},"properties":{"name":"Handcross","category":"village","osm_type":"node","osm_id":"85717705"}},{"type":"Feature","geometry":{"type":"Point","coordinates":[-0.06733,51.24828]},"properties":{"name":"Godstone","category":"village","osm_type":"node","osm_id":"85721117"}},{"type":"Feature","geometry":{"type":"Point","coordinates":[-0.05572,51.30956]},"properties":{"name":"Warlingham","category":"town","osm_type":"node","osm_id":"88375798"}},{"type":"Feature","geometry":{"type":"Point","coordinates":[-0.03513,51.28469]},"properties":{"name":"Woldingham","category":"village","osm_type":"node","osm_id":"88376921"}},{"type":"Feature","geometry":{"type":"Point","coordinates":[-0.01629,51.34254]},"properties":{"name":"New Addington","category":"village","osm_type":"node","osm_id":"89076190"}},{"type":"Feature","geometry":{"type":"Point","coordinates":[-0.07725,51.2822]},"properties":{"name":"Caterham","category":"town","osm_type":"node","osm_id":"94176427"}},{"type":"Feature","geometry":{"type":"Point","coordinates":[-0.06492,51.32001]},"properties":{"name":"Hamsey Green","category":"village","osm_type":"node","osm_id":"94197116"}},{"type":"Feature","geometry":{"type":"Point","coordinates":[-0.13935,51.31997]},"properties":{"name":"Coulsdon","category":"town","osm_type":"node","osm_id":"128562066"}},{"type":"Feature","geometry":{"type":"Point","coordinates":[-0.15508,51.29238]},"properties":{"name":"Hooley","category":"village","osm_type":"node","osm_id":"130220149"}},{"type":"Feature","geometry":{"type":"Point","coordinates":[-0.11965,51.30709]},"properties":{"name":"Old Coulsdon","category":"village","osm_type":"node","osm_id":"130220175"}},{"type":"Feature","geometry":{"type":"Point","coordinates":[-0.56822,51.26824]},"properties":{"name":"Jacobs Well","category":"village","osm_type":"node","osm_id":"133226370"}},{"type":"Feature","geometry":{"type":"Point","coordinates":[-0.17083,51.3101]},"properties":{"name":"Chipstead","category":"village","osm_type":"node","osm_id":"138193218"}},{"type":"Feature","geometry":{"type":"Point","coordinates":[-0.53191,51.29126]},"properties":{"name":"Send","category":"village","osm_type":"node","osm_id":"147056371"}},{"type":"Feature","geometry":{"type":"Point","coordinates":[-0.54498,51.30464]},"properties":{"name":"Old Woking","category":"village","osm_type":"node","osm_id":"147056375"}},{"type":"Feature","geometry":{"type":"Point","coordinates":[-0.55841,51.28044]},"properties":{"name":"Sutton Green","category":"village","osm_type":"node","osm_id":"147057303"}},{"type":"Feature","geometry":{"type":"Point","coordinates":[-0.50412,51.26079]},"properties":{"name":"West Clandon","category":"village","osm_type":"node","osm_id":"147060030"}},{"type":"Feature","geometry":{"type":"Point","coordinates":[-0.15023,51.12126]},"properties":{"name":"Pound Hill","category":"village","osm_type":"node","osm_id":"149061764"}},{"type":"Feature","geometry":{"type":"Point","coordinates":[-0.17005,51.1182]},"properties":{"name":"Three Bridges","category":"village","osm_type":"node","osm_id":"149075578"}},{"type":"Feature","geometry":{"type":"Point","coordinates":[-0.181,51.12147]},"properties":{"name":"Northgate","category":"village","osm_type":"node","osm_id":"149077579"}},{"type":"Feature","geometry":{"type":"Point","coordinates":[-0.16709,51.10735]},"properties":{"name":"Furnace Green","category":"village","osm_type":"node","osm_id":"150876825"}},{"type":"Feature","geometry":{"type":"Point","coordinates":[-0.18089,51.1024]},"properties":{"name":"Tilgate","category":"village","osm_type":"node","osm_id":"150876859"}},{"type":"Feature","geometry":{"type":"Point","coordinates":[-0.20513,51.09724]},"properties":{"name":"Broadfield","category":"village","osm_type":"node","osm_id":"150876933"}},{"type":"Feature","geometry":{"type":"Point","coordinates":[-0.2228,51.10233]},"properties":{"name":"Bewbush","category":"village","osm_type":"node","osm_id":"150876990"}},{"type":"Feature","geometry":{"type":"Point","coordinates":[-0.2145,51.11231]},"properties":{"name":"Gossops Green","category":"village","osm_type":"node","osm_id":"150877047"}},{"type":"Feature","geometry":{"type":"Point","coordinates":[-0.21278,51.12289]},"properties":{"name":"Ifield","category":"village","osm_type":"node","osm_id":"150877218"}},{"type":"Feature","geometry":{"type":"Point","coordinates":[-0.17765,51.13213]},"properties":{"name":"Manor Royal","category":"village","osm_type":"node","osm_id":"150877306"}},{"type":"Feature","geometry":{"type":"Point","coordinates":[-0.4363,51.48849]},"properties":{"name":"Harlington","category":"village","osm_type":"node","osm_id":"151027906"}},{"type":"Feature","geometry":{"type":"Point","coordinates":[-0.24363,51.08136]},"properties":{"name":"Colgate","category":"village","osm_type":"node","osm_id":"151211968"}},{"type":"Feature","geometry":{"type":"Point","coordinates":[-0.26254,51.09463]},"properties":{"name":"Faygate","category":"village","osm_type":"node","osm_id":"151212047"}},{"type":"Feature","geometry":{"type":"Point","coordinates":[-0.41929,51.46584]},"properties":{"name":"Hatton","category":"village","osm_type":"node","osm_id":"157342882"}},{"type":"Feature","geometry":{"type":"Point","coordinates":[-0.00934,51.208]},"properties":{"name":"Crowhurst","category":"village","osm_type":"node","osm_id":"158307241"}},{"type":"Feature","geometry":{"type":"Point","coordinates":[-0.03443,51.23934]},"properties":{"name":"Tandridge","category":"village","osm_type":"node","osm_id":"158326872"}},{"type":"Feature","geometry":{"type":"Point","coordinates":[-0.10008,51.24027]},"properties":{"name":"Bletchingley","category":"village","osm_type":"node","osm_id":"158337835"}},{"type":"Feature","geometry":{"type":"Point","coordinates":[-0.46198,51.43302]},"properties":{"name":"Ashford","category":"town","osm_type":"node","osm_id":"158758387"}},{"type":"Feature","geometry":{"type":"Point","coordinates":[-0.47782,51.4544]},"properties":{"name":"Stanwell","category":"village","osm_type":"node","osm_id":"159565755"}},{"type":"Feature","geometry":{"type":"Point","coordinates":[-0.20446,51.08298]},"properties":{"name":"Pease Pottage","category":"village","osm_type":"node","osm_id":"162700435"}},{"type":"Feature","geometry":{"type":"Point","coordinates":[-0.37378,51.27808]},"properties":{"name":"Great Bookham","category":"village","osm_type":"node","osm_id":"178891747"}},{"type":"Feature","geometry":{"type":"Point","coordinates":[-0.35624,51.29602]},"properties":{"name":"Fetcham","category":"village","osm_type":"node","osm_id":"178897156"}},{"type":"Feature","geometry":{"type":"Point","coordinates":[-0.6282,51.11054]},"properties":{"name":"Chiddingfold","category":"village","osm_type":"node","osm_id":"180124152"}},{"type":"Feature","geometry":{"type":"Point","coordinates":[-0.56065,51.45746]},"properties":{"name":"Wraysbury","category":"village","osm_type":"node","osm_id":"196218565"}},{"type":"Feature","geometry":{"type":"Point","coordinates":[-0.35411,51.18436]},"properties":{"name":"Coldharbour","category":"village","osm_type":"node","osm_id":"203437893"}},{"type":"Feature","geometry":{"type":"Point","coordinates":[-0.11858,51.28366]},"properties":{"name":"Chaldon","category":"village","osm_type":"node","osm_id":"205399084"}},{"type":"Feature","geometry":{"type":"Point","coordinates":[-0.6348,51.25026]},"properties":{"name":"Wood Street","category":"village","osm_type":"node","osm_id":"213305717"}},{"type":"Feature","geometry":{"type":"Point","coordinates":[-0.73126,51.23484]},"properties":{"name":"Tongham","category":"village","osm_type":"node","osm_id":"213322995"}},{"type":"Feature","geometry":{"type":"Point","coordinates":[-0.71874,51.22235]},"properties":{"name":"Seale","category":"village","osm_type":"node","osm_id":"213325043"}},{"type":"Feature","geometry":{"type":"Point","coordinates":[-0.75483,51.22087]},"properties":{"name":"Runfold","category":"village","osm_type":"node","osm_id":"213326146"}},{"type":"Feature","geometry":{"type":"Point","coordinates":[-0.49878,51.21974]},"properties":{"name":"Albury","category":"village","osm_type":"node","osm_id":"213424039"}},{"type":"Feature","geometry":{"type":"Point","coordinates":[-0.11978,51.13759]},"properties":{"name":"Copthorne","category":"village","osm_type":"node","osm_id":"220381581"}},{"type":"Feature","geometry":{"type":"Point","coordinates":[-0.22462,51.15652]},"properties":{"name":"Charlwood","category":"village","osm_type":"node","osm_id":"220516507"}},{"type":"Feature","geometry":{"type":"Point","coordinates":[-0.19496,51.10634]},"properties":{"name":"Southgate","category":"village","osm_type":"node","osm_id":"224007720"}},{"type":"Feature","geometry":{"type":"Point","coordinates":[-0.45158,51.02291]},"properties":{"name":"Billingshurst","category":"town","osm_type":"node","osm_id":"232422172"}},{"type":"Feature","geometry":{"type":"Point","coordinates":[-0.40201,51.20088]},"properties":{"name":"Abinger","category":"village","osm_type":"node","osm_id":"235421776"}},{"type":"Feature","geometry":{"type":"Point","coordinates":[-0.39406,51.03114]},"properties":{"name":"Barns Green","category":"village","osm_type":"node","osm_id":"240776215"}},{"type":"Feature","geometry":{"type":"Point","coordinates":[-0.27741,51.27699]},"properties":{"name":"Headley","category":"village","osm_type":"node","osm_id":"241601035"}},{"type":"Feature","geometry":{"type":"Point","coordinates":[-0.24658,51.28259]},"properties":{"name":"Walton On The Hill","category":"village","osm_type":"node","osm_id":"241601037"}},{"type":"Feature","geometry":{"type":"Point","coordinates":[-0.11549,51.17251]},"properties":{"name":"Smallfield","category":"village","osm_type":"node","osm_id":"244418011"}},{"type":"Feature","geometry":{"type":"Point","coordinates":[-0.20115,51.34378]},"properties":{"name":"Belmont","category":"village","osm_type":"node","osm_id":"247921151"}},{"type":"Feature","geometry":{"type":"Point","coordinates":[-0.57272,51.14946]},"properties":{"name":"Hascombe","category":"village","osm_type":"node","osm_id":"248826646"}},{"type":"Feature","geometry":{"type":"Point","coordinates":[-0.62087,51.13783]},"properties":{"name":"Hambledon","category":"village","osm_type":"node","osm_id":"248827142"}},{"type":"Feature","geometry":{"type":"Point","coordinates":[-0.56178,51.11647]},"properties":{"name":"Dunsfold","category":"village","osm_type":"node","osm_id":"248827180"}},{"type":"Feature","geometry":{"type":"Point","coordinates":[-0.51503,51.10792]},"properties":{"name":"Alfold Crossways","category":"village","osm_type":"node","osm_id":"248827223"}},{"type":"Feature","geometry":{"type":"Point","coordinates":[-0.52727,51.18608]},"properties":{"name":"Shamley Green","category":"village","osm_type":"node","osm_id":"248830697"}},{"type":"Feature","geometry":{"type":"Point","coordinates":[-0.42096,51.48257]},"properties":{"name":"Cranford Cross","category":"village","osm_type":"node","osm_id":"249856021"}},{"type":"Feature","geometry":{"type":"Point","coordinates":[-0.58081,51.45814]},"properties":{"name":"Old Windsor","category":"village","osm_type":"node","osm_id":"250825721"}},{"type":"Feature","geometry":{"type":"Point","coordinates":[-0.2666,51.23902]},"properties":{"name":"Betchworth","category":"village","osm_type":"node","osm_id":"251913974"}},{"type":"Feature","geometry":{"type":"Point","coordinates":[-0.25055,51.20716]},"properties":{"name":"Leigh","category":"village","osm_type":"node","osm_id":"251914074"}},{"type":"Feature","geometry":{"type":"Point","coordinates":[-0.28625,51.23188]},"properties":{"name":"Brockham","category":"village","osm_type":"node","osm_id":"251914410"}},{"type":"Feature","geometry":{"type":"Point","coordinates":[-0.23795,51.1932]},"properties":{"name":"Nalderswood","category":"village","osm_type":"node","osm_id":"251914712"}},{"type":"Feature","geometry":{"type":"Point","coordinates":[-0.90117,51.11901]},"properties":{"name":"Oakhanger","category":"village","osm_type":"node","osm_id":"252052949"}},{"type":"Feature","geometry":{"type":"Point","coordinates":[-0.64708,51.14945]},"properties":{"name":"Witley","category":"village","osm_type":"node","osm_id":"253851607"}},{"type":"Feature","geometry":{"type":"Point","coordinates":[-0.67178,51.13312]},"properties":{"name":"Brook","category":"village","osm_type":"node","osm_id":"253851932"}},{"type":"Feature","geometry":{"type":"Point","coordinates":[-0.64898,51.15748]},"properties":{"name":"Wheelerstreet","category":"village","osm_type":"node","osm_id":"253852073"}},{"type":"Feature","geometry":{"type":"Point","coordinates":[-0.82226,51.18341]},"properties":{"name":"Rowledge","category":"village","osm_type":"node","osm_id":"254104932"}},{"type":"Feature","geometry":{"type":"Point","coordinates":[-0.66528,51.03586]},"properties":{"name":"Lurgashall","category":"village","osm_type":"node","osm_id":"254605886"}},{"type":"Feature","geometry":{"type":"Point","coordinates":[-0.8003,51.07175]},"properties":{"name":"Liphook","category":"village","osm_type":"node","osm_id":"255674010"}},{"type":"Feature","geometry":{"type":"Point","coordinates":[-0.80675,51.48334]},"properties":{"name":"Waltham St Lawrence","category":"village","osm_type":"node","osm_id":"258575756"}},{"type":"Feature","geometry":{"type":"Point","coordinates":[-0.71294,51.1483]},"properties":{"name":"Thursley","category":"village","osm_type":"node","osm_id":"258704994"}},{"type":"Feature","geometry":{"type":"Point","coordinates":[-0.69119,51.13671]},"properties":{"name":"Bowlhead Green","category":"village","osm_type":"node","osm_id":"259021910"}},{"type":"Feature","geometry":{"type":"Point","coordinates":[-0.21859,51.0206]},"properties":{"name":"Warninglid","category":"village","osm_type":"node","osm_id":"260562478"}},{"type":"Feature","geometry":{"type":"Point","coordinates":[-0.62636,51.44232]},"properties":{"name":"The Village","category":"village","osm_type":"node","osm_id":"261759697"}},{"type":"Feature","geometry":{"type":"Point","coordinates":[-0.61993,51.2619]},"properties":{"name":"Fairlands","category":"village","osm_type":"node","osm_id":"262126367"}},{"type":"Feature","geometry":{"type":"Point","coordinates":[-0.04824,51.1399]},"properties":{"name":"Felbridge","category":"village","osm_type":"node","osm_id":"262350890"}},{"type":"Feature","geometry":{"type":"Point","coordinates":[-0.944,51.2206]},"properties":{"name":"Long Sutton","category":"village","osm_type":"node","osm_id":"264995801"}},{"type":"Feature","geometry":{"type":"Point","coordinates":[-0.1812,51.03837]},"properties":{"name":"Staplefield","category":"village","osm_type":"node","osm_id":"265783762"}},{"type":"Feature","geometry":{"type":"Point","coordinates":[-0.42825,51.10778]},"properties":{"name":"Ellens Green","category":"village","osm_type":"node","osm_id":"265903393"}},{"type":"Feature","geometry":{"type":"Point","coordinates":[-0.4399,51.10182]},"properties":{"name":"Cox Green","category":"village","osm_type":"node","osm_id":"265903600"}},{"type":"Feature","geometry":{"type":"Point","coordinates":[-0.36691,51.22545]},"properties":{"name":"Westcott","category":"village","osm_type":"node","osm_id":"266526928"}},{"type":"Feature","geometry":{"type":"Point","coordinates":[-0.32047,51.15416]},"properties":{"name":"Capel","category":"village","osm_type":"node","osm_id":"266527793"}},{"type":"Feature","geometry":{"type":"Point","coordinates":[-0.3629,51.14638]},"properties":{"name":"Ockley","category":"village","osm_type":"node","osm_id":"266527895"}},{"type":"Feature","geometry":{"type":"Point","coordinates":[-0.32592,51.19345]},"properties":{"name":"South Holmwood","category":"village","osm_type":"node","osm_id":"266528183"}},{"type":"Feature","geometry":{"type":"Point","coordinates":[-0.2904,51.16771]},"properties":{"name":"Newdigate","category":"village","osm_type":"node","osm_id":"266529815"}},{"type":"Feature","geometry":{"type":"Point","coordinates":[-0.05259,51.1962]},"properties":{"name":"Blindley Heath","category":"village","osm_type":"node","osm_id":"266535578"}},{"type":"Feature","geometry":{"type":"Point","coordinates":[-0.13378,51.22552]},"properties":{"name":"South Nutfield","category":"village","osm_type":"node","osm_id":"266535815"}},{"type":"Feature","geometry":{"type":"Point","coordinates":[-0.1255,51.2399]},"properties":{"name":"Nutfield","category":"village","osm_type":"node","osm_id":"266535816"}},{"type":"Feature","geometry":{"type":"Point","coordinates":[-0.21624,51.35762]},"properties":{"name":"Cheam","category":"village","osm_type":"node","osm_id":"266798801"}},{"type":"Feature","geometry":{"type":"Point","coordinates":[-0.22023,51.37158]},"properties":{"name":"North Cheam","category":"village","osm_type":"node","osm_id":"267113332"}},{"type":"Feature","geometry":{"type":"Point","coordinates":[-0.57265,51.29556]},"properties":{"name":"Mayford","category":"village","osm_type":"node","osm_id":"267244124"}},{"type":"Feature","geometry":{"type":"Point","coordinates":[-0.99558,51.3965]},"properties":{"name":"Grazeley","category":"village","osm_type":"node","osm_id":"269788895"}},{"type":"Feature","geometry":{"type":"Point","coordinates":[-0.51816,51.09616]},"properties":{"name":"Alfold","category":"village","osm_type":"node","osm_id":"270114200"}},{"type":"Feature","geometry":{"type":"Point","coordinates":[-0.28017,51.12104]},"properties":{"name":"Rusper","category":"village","osm_type":"node","osm_id":"270891475"}},{"type":"Feature","geometry":{"type":"Point","coordinates":[-0.34682,51.09091]},"properties":{"name":"Warnham","category":"village","osm_type":"node","osm_id":"270891544"}},{"type":"Feature","geometry":{"type":"Point","coordinates":[-0.55026,51.0298]},"properties":{"name":"Kirdford","category":"village","osm_type":"node","osm_id":"273194379"}},{"type":"Feature","geometry":{"type":"Point","coordinates":[-0.61257,51.48003]},"properties":{"name":"Windsor","category":"town","osm_type":"node","osm_id":"275803060"}},{"type":"Feature","geometry":{"type":"Point","coordinates":[-0.78519,51.22953]},"properties":{"name":"Hale","category":"village","osm_type":"node","osm_id":"276679822"}},{"type":"Feature","geometry":{"type":"Point","coordinates":[-0.61986,51.28391]},"properties":{"name":"Fox Corner","category":"village","osm_type":"node","osm_id":"281187934"}},{"type":"Feature","geometry":{"type":"Point","coordinates":[-0.57494,51.42828]},"properties":{"name":"Englefield Green","category":"village","osm_type":"node","osm_id":"282857185"}},{"type":"Feature","geometry":{"type":"Point","coordinates":[-0.00558,51.14857]},"properties":{"name":"Dormans Park","category":"village","osm_type":"node","osm_id":"287381608"}},{"type":"Feature","geometry":{"type":"Point","coordinates":[-0.71397,51.49237]},"properties":{"name":"Holyport","category":"village","osm_type":"node","osm_id":"287890111"}},{"type":"Feature","geometry":{"type":"Point","coordinates":[-0.12396,51.15642]},"properties":{"name":"Burstow","category":"village","osm_type":"node","osm_id":"289968639"}},{"type":"Feature","geometry":{"type":"Point","coordinates":[-0.17099,51.26313]},"properties":{"name":"Gatton","category":"village","osm_type":"node","osm_id":"290009321"}},{"type":"Feature","geometry":{"type":"Point","coordinates":[-0.16461,51.20494]},"properties":{"name":"Salfords","category":"village","osm_type":"node","osm_id":"290010970"}},{"type":"Feature","geometry":{"type":"Point","coordinates":[-0.22477,51.17757]},"properties":{"name":"Norwood Hill","category":"village","osm_type":"node","osm_id":"292070225"}},{"type":"Feature","geometry":{"type":"Point","coordinates":[-0.97356,51.40737]},"properties":{"name":"Three Mile Cross","category":"village","osm_type":"node","osm_id":"296519932"}},{"type":"Feature","geometry":{"type":"Point","coordinates":[-0.81597,51.19795]},"properties":{"name":"Wrecclesham","category":"village","osm_type":"node","osm_id":"296611669"}},{"type":"Feature","geometry":{"type":"Point","coordinates":[-0.77696,51.2345]},"properties":{"name":"Weybourne","category":"village","osm_type":"node","osm_id":"297060401"}},{"type":"Feature","geometry":{"type":"Point","coordinates":[-0.30717,51.30552]},"properties":{"name":"Ashtead","category":"town","osm_type":"node","osm_id":"297957507"}},{"type":"Feature","geometry":{"type":"Point","coordinates":[-0.31902,51.17871]},"properties":{"name":"Beare Green","category":"village","osm_type":"node","osm_id":"297964794"}},{"type":"Feature","geometry":{"type":"Point","coordinates":[-0.43448,51.30872]},"properties":{"name":"Hatchford","category":"village","osm_type":"node","osm_id":"298116215"}},{"type":"Feature","geometry":{"type":"Point","coordinates":[-0.32814,51.2118]},"properties":{"name":"North Holmwood","category":"village","osm_type":"node","osm_id":"298135719"}},{"type":"Feature","geometry":{"type":"Point","coordinates":[-0.50583,51.15862]},"properties":{"name":"Rowly","category":"village","osm_type":"node","osm_id":"299829538"}},{"type":"Feature","geometry":{"type":"Point","coordinates":[-0.64387,51.08906]},"properties":{"name":"Ramsnest Common","category":"village","osm_type":"node","osm_id":"301425802"}},{"type":"Feature","geometry":{"type":"Point","coordinates":[-0.65859,51.13465]},"properties":{"name":"Sandhills","category":"village","osm_type":"node","osm_id":"301430995"}},{"type":"Feature","geometry":{"type":"Point","coordinates":[-0.76211,51.23074]},"properties":{"name":"Badshot Lea","category":"village","osm_type":"node","osm_id":"301598422"}},{"type":"Feature","geometry":{"type":"Point","coordinates":[-0.5672,51.39604]},"properties":{"name":"Trumps Green","category":"village","osm_type":"node","osm_id":"302318878"}},{"type":"Feature","geometry":{"type":"Point","coordinates":[-0.54297,51.38587]},"properties":{"name":"Lyne","category":"village","osm_type":"node","osm_id":"302322143"}},{"type":"Feature","geometry":{"type":"Point","coordinates":[-0.86187,51.23235]},"properties":{"name":"Crondall","category":"village","osm_type":"node","osm_id":"306499342"}},{"type":"Feature","geometry":{"type":"Point","coordinates":[-0.33028,51.2534]},"properties":{"name":"Westhumble","category":"village","osm_type":"node","osm_id":"311355967"}},{"type":"Feature","geometry":{"type":"Point","coordinates":[-0.82858,51.34023]},"properties":{"name":"Yateley","category":"town","osm_type":"node","osm_id":"317329967"}},{"type":"Feature","geometry":{"type":"Point","coordinates":[-0.49025,51.48079]},"properties":{"name":"Longford","category":"village","osm_type":"node","osm_id":"318696154"}},{"type":"Feature","geometry":{"type":"Point","coordinates":[-0.85934,51.10912]},"properties":{"name":"Bordon","category":"town","osm_type":"node","osm_id":"319946647"}},{"type":"Feature","geometry":{"type":"Point","coordinates":[-0.44648,51.19162]},"properties":{"name":"Peaslake","category":"village","osm_type":"node","osm_id":"331804476"}},{"type":"Feature","geometry":{"type":"Point","coordinates":[-0.88536,51.05452]},"properties":{"name":"Liss Forest","category":"village","osm_type":"node","osm_id":"336055454"}},{"type":"Feature","geometry":{"type":"Point","coordinates":[-0.82434,51.10296]},"properties":{"name":"Passfield","category":"village","osm_type":"node","osm_id":"337247146"}},{"type":"Feature","geometry":{"type":"Point","coordinates":[-0.83705,51.10607]},"properties":{"name":"Standford","category":"village","osm_type":"node","osm_id":"337248230"}},{"type":"Feature","geometry":{"type":"Point","coordinates":[-0.82488,51.1176]},"properties":{"name":"Headley","category":"village","osm_type":"node","osm_id":"344991140"}},{"type":"Feature","geometry":{"type":"Point","coordinates":[-0.80223,51.11957]},"properties":{"name":"Headley Down","category":"village","osm_type":"node","osm_id":"344991505"}},{"type":"Feature","geometry":{"type":"Point","coordinates":[-0.84431,51.11828]},"properties":{"name":"Lindford","category":"village","osm_type":"node","osm_id":"344992975"}},{"type":"Feature","geometry":{"type":"Point","coordinates":[-0.19778,51.11769]},"properties":{"name":"West Green","category":"village","osm_type":"node","osm_id":"361187693"}},{"type":"Feature","geometry":{"type":"Point","coordinates":[-0.86481,51.47881]},"properties":{"name":"Twyford","category":"village","osm_type":"node","osm_id":"364554434"}},{"type":"Feature","geometry":{"type":"Point","coordinates":[-0.40511,51.4202]},"properties":{"name":"Kempton Park","category":"village","osm_type":"node","osm_id":"373502926"}},{"type":"Feature","geometry":{"type":"Point","coordinates":[-0.28198,51.25284]},"properties":{"name":"Box Hill Village","category":"village","osm_type":"node","osm_id":"377707747"}},{"type":"Feature","geometry":{"type":"Point","coordinates":[-0.89192,51.04254]},"properties":{"name":"Liss","category":"village","osm_type":"node","osm_id":"378726805"}},{"type":"Feature","geometry":{"type":"Point","coordinates":[-0.4352,51.04474]},"properties":{"name":"Five Oaks","category":"village","osm_type":"node","osm_id":"395337897"}},{"type":"Feature","geometry":{"type":"Point","coordinates":[-0.40625,51.07192]},"properties":{"name":"Slinfold","category":"village","osm_type":"node","osm_id":"405157790"}},{"type":"Feature","geometry":{"type":"Point","coordinates":[-0.87863,51.19046]},"properties":{"name":"Bentley","category":"village","osm_type":"node","osm_id":"421268909"}},{"type":"Feature","geometry":{"type":"Point","coordinates":[-0.2064,51.42148]},"properties":{"name":"Wimbledon","category":"town","osm_type":"node","osm_id":"423749783"}},{"type":"Feature","geometry":{"type":"Point","coordinates":[-0.19818,51.1278]},"properties":{"name":"Langley Green","category":"village","osm_type":"node","osm_id":"423810671"}},{"type":"Feature","geometry":{"type":"Point","coordinates":[-0.14818,51.26076]},"properties":{"name":"Merstham","category":"village","osm_type":"node","osm_id":"425242925"}},{"type":"Feature","geometry":{"type":"Point","coordinates":[-0.90543,51.39634]},"properties":{"name":"Arborfield","category":"village","osm_type":"node","osm_id":"428173203"}},{"type":"Feature","geometry":{"type":"Point","coordinates":[-0.52414,51.48383]},"properties":{"name":"Colnbrook","category":"village","osm_type":"node","osm_id":"429662984"}},{"type":"Feature","geometry":{"type":"Point","coordinates":[-0.69505,51.48346]},"properties":{"name":"Fifield","category":"village","osm_type":"node","osm_id":"474725871"}},{"type":"Feature","geometry":{"type":"Point","coordinates":[-0.95378,51.25762]},"properties":{"name":"North Warnborough","category":"village","osm_type":"node","osm_id":"480304579"}},{"type":"Feature","geometry":{"type":"Point","coordinates":[-0.31774,51.24227]},"properties":{"name":"Pixham","category":"village","osm_type":"node","osm_id":"491571917","website":"https://www.pixhamresidents.org/"}},{"type":"Feature","geometry":{"type":"Point","coordinates":[-0.10176,51.19317]},"properties":{"name":"Outwood","category":"village","osm_type":"node","osm_id":"492061029"}},{"type":"Feature","geometry":{"type":"Point","coordinates":[-0.774,51.34347]},"properties":{"name":"Sandhurst","category":"town","osm_type":"node","osm_id":"493147725"}},{"type":"Feature","geometry":{"type":"Point","coordinates":[-0.23008,51.11101]},"properties":{"name":"Ifield West","category":"village","osm_type":"node","osm_id":"538224892"}},{"type":"Feature","geometry":{"type":"Point","coordinates":[-0.90991,51.47359]},"properties":{"name":"Sonning","category":"village","osm_type":"node","osm_id":"558816949"}},{"type":"Feature","geometry":{"type":"Point","coordinates":[-0.40224,51.13136]},"properties":{"name":"Walliswood","category":"village","osm_type":"node","osm_id":"574278776"}},{"type":"Feature","geometry":{"type":"Point","coordinates":[-0.88558,51.42282]},"properties":{"name":"Sindlesham","category":"village","osm_type":"node","osm_id":"610201249"}},{"type":"Feature","geometry":{"type":"Point","coordinates":[-0.85422,51.4566]},"properties":{"name":"Hurst","category":"village","osm_type":"node","osm_id":"625749873"}},{"type":"Feature","geometry":{"type":"Point","coordinates":[-0.83163,51.24292]},"properties":{"name":"Ewshot","category":"village","osm_type":"node","osm_id":"638774157"}},{"type":"Feature","geometry":{"type":"Point","coordinates":[-0.87962,51.27164]},"properties":{"name":"Dogmersfield","category":"village","osm_type":"node","osm_id":"638774435"}},{"type":"Feature","geometry":{"type":"Point","coordinates":[-0.91115,51.28542]},"properties":{"name":"Winchfield","category":"village","osm_type":"node","osm_id":"638774436"}},{"type":"Feature","geometry":{"type":"Point","coordinates":[-0.91212,51.29753]},"properties":{"name":"Phoenix Green","category":"village","osm_type":"node","osm_id":"638775312"}},{"type":"Feature","geometry":{"type":"Point","coordinates":[-0.86412,51.26661]},"properties":{"name":"Crookham Village","category":"village","osm_type":"node","osm_id":"652553191"}},{"type":"Feature","geometry":{"type":"Point","coordinates":[-0.35232,51.02421]},"properties":{"name":"Southwater","category":"village","osm_type":"node","osm_id":"679999675"}},{"type":"Feature","geometry":{"type":"Point","coordinates":[-0.38602,51.04689]},"properties":{"name":"Itchingfield","category":"village","osm_type":"node","osm_id":"683641042"}},{"type":"Feature","geometry":{"type":"Point","coordinates":[-0.30626,51.40963]},"properties":{"name":"Kingston upon Thames","category":"town","osm_type":"node","osm_id":"701379193"}},{"type":"Feature","geometry":{"type":"Point","coordinates":[-0.65655,51.15845]},"properties":{"name":"Cramhurst","category":"village","osm_type":"node","osm_id":"718492126"}},{"type":"Feature","geometry":{"type":"Point","coordinates":[-0.6315,51.15699]},"properties":{"name":"Enton Green","category":"village","osm_type":"node","osm_id":"718492392"}},{"type":"Feature","geometry":{"type":"Point","coordinates":[-0.64671,51.13541]},"properties":{"name":"Wormley","category":"village","osm_type":"node","osm_id":"722744569"}},{"type":"Feature","geometry":{"type":"Point","coordinates":[-0.87337,51.40311]},"properties":{"name":"Barkham","category":"village","osm_type":"node","osm_id":"754123400"}},{"type":"Feature","geometry":{"type":"Point","coordinates":[-0.85663,51.38002]},"properties":{"name":"California","category":"village","osm_type":"node","osm_id":"767510343"}},{"type":"Feature","geometry":{"type":"Point","coordinates":[-0.86065,51.34778]},"properties":{"name":"Eversley Cross","category":"village","osm_type":"node","osm_id":"851925993"}},{"type":"Feature","geometry":{"type":"Point","coordinates":[-0.79173,51.33525]},"properties":{"name":"Frogmore","category":"village","osm_type":"node","osm_id":"963958961"}},{"type":"Feature","geometry":{"type":"Point","coordinates":[-0.77884,51.33056]},"properties":{"name":"Blackwater","category":"town","osm_type":"node","osm_id":"963958962"}},{"type":"Feature","geometry":{"type":"Point","coordinates":[-0.77633,51.32522]},"properties":{"name":"Hawley","category":"village","osm_type":"node","osm_id":"966045244"}},{"type":"Feature","geometry":{"type":"Point","coordinates":[-0.35655,51.33329]},"properties":{"name":"Oxshott","category":"village","osm_type":"node","osm_id":"977659244"}},{"type":"Feature","geometry":{"type":"Point","coordinates":[-0.75115,51.40424]},"properties":{"name":"Easthampstead","category":"village","osm_type":"node","osm_id":"1104931652"}},{"type":"Feature","geometry":{"type":"Point","coordinates":[-0.8977,51.1637]},"properties":{"name":"Binsted","category":"village","osm_type":"node","osm_id":"1133579076"}},{"type":"Feature","geometry":{"type":"Point","coordinates":[-0.28175,51.04551]},"properties":{"name":"Mannings Heath","category":"village","osm_type":"node","osm_id":"1135876345"}},{"type":"Feature","geometry":{"type":"Point","coordinates":[-0.32203,51.26839]},"properties":{"name":"Mickleham","category":"village","osm_type":"node","osm_id":"1148035572"}},{"type":"Feature","geometry":{"type":"Point","coordinates":[-0.21866,51.31453]},"properties":{"name":"Burgh Heath","category":"village","osm_type":"node","osm_id":"1275642534"}},{"type":"Feature","geometry":{"type":"Point","coordinates":[-0.24025,51.30904]},"properties":{"name":"Tattenham Corner","category":"village","osm_type":"node","osm_id":"1275642546"}},{"type":"Feature","geometry":{"type":"Point","coordinates":[-0.23267,51.29122]},"properties":{"name":"Tadworth","category":"village","osm_type":"node","osm_id":"1275642566"}},{"type":"Feature","geometry":{"type":"Point","coordinates":[-0.13959,51.00783]},"properties":{"name":"Cuckfield","category":"village","osm_type":"node","osm_id":"1366491282"}},{"type":"Feature","geometry":{"type":"Point","coordinates":[-0.14551,51.01495]},"properties":{"name":"Whitemans Green","category":"village","osm_type":"node","osm_id":"1366491286"}},{"type":"Feature","geometry":{"type":"Point","coordinates":[-0.87786,51.43088]},"properties":{"name":"Winnersh","category":"village","osm_type":"node","osm_id":"1378707457"}},{"type":"Feature","geometry":{"type":"Point","coordinates":[-0.5669,51.06901]},"properties":{"name":"Plaistow","category":"village","osm_type":"node","osm_id":"1449573125"}},{"type":"Feature","geometry":{"type":"Point","coordinates":[-0.87293,51.13881]},"properties":{"name":"Kingsley","category":"village","osm_type":"node","osm_id":"1516354348"}},{"type":"Feature","geometry":{"type":"Point","coordinates":[-0.25118,51.35024]},"properties":{"name":"Ewell","category":"town","osm_type":"node","osm_id":"1588340035"}},{"type":"Feature","geometry":{"type":"Point","coordinates":[-0.26782,51.33261]},"properties":{"name":"Epsom","category":"town","osm_type":"node","osm_id":"1588340047"}},{"type":"Feature","geometry":{"type":"Point","coordinates":[-0.39779,51.27186]},"properties":{"name":"Effingham","category":"village","osm_type":"node","osm_id":"1588532087"}},{"type":"Feature","geometry":{"type":"Point","coordinates":[-0.38681,51.32103]},"properties":{"name":"Stoke D'Abernon","category":"village","osm_type":"node","osm_id":"1588532090"}},{"type":"Feature","geometry":{"type":"Point","coordinates":[-0.41208,51.33001]},"properties":{"name":"Cobham","category":"town","osm_type":"node","osm_id":"1588532106"}},{"type":"Feature","geometry":{"type":"Point","coordinates":[-0.40817,51.31137]},"properties":{"name":"Downside","category":"village","osm_type":"node","osm_id":"1588713209"}},{"type":"Feature","geometry":{"type":"Point","coordinates":[-0.96404,51.36397]},"properties":{"name":"Riseley","category":"village","osm_type":"node","osm_id":"1590399108"}},{"type":"Feature","geometry":{"type":"Point","coordinates":[-0.45493,51.37272]},"properties":{"name":"Weybridge","category":"town","osm_type":"node","osm_id":"1598181905"}},{"type":"Feature","geometry":{"type":"Point","coordinates":[-0.89971,51.30615]},"properties":{"name":"Hartley Wintney","category":"village","osm_type":"node","osm_id":"1600203576"}},{"type":"Feature","geometry":{"type":"Point","coordinates":[-0.5408,51.06919]},"properties":{"name":"Ifold","category":"village","osm_type":"node","osm_id":"1604025152"}},{"type":"Feature","geometry":{"type":"Point","coordinates":[-0.99894,51.37334]},"properties":{"name":"Beech Hill","category":"village","osm_type":"node","osm_id":"1610961667"}},{"type":"Feature","geometry":{"type":"Point","coordinates":[-0.79286,51.3691]},"properties":{"name":"Crowthorne","category":"village","osm_type":"node","osm_id":"1622191502"}},{"type":"Feature","geometry":{"type":"Point","coordinates":[-0.60917,51.48854]},"properties":{"name":"Eton","category":"town","osm_type":"node","osm_id":"1625181370"}},{"type":"Feature","geometry":{"type":"Point","coordinates":[-0.70356,51.18345]},"properties":{"name":"Elstead","category":"village","osm_type":"node","osm_id":"1633109790"}},{"type":"Feature","geometry":{"type":"Point","coordinates":[-0.84419,51.49516]},"properties":{"name":"Hare Hatch","category":"village","osm_type":"node","osm_id":"1633878722"}},{"type":"Feature","geometry":{"type":"Point","coordinates":[-0.44051,51.1521]},"properties":{"name":"Ewhurst","category":"village","osm_type":"node","osm_id":"1635077373"}},{"type":"Feature","geometry":{"type":"Point","coordinates":[-0.60101,51.34777]},"properties":{"name":"Chobham","category":"village","osm_type":"node","osm_id":"1649469045"}},{"type":"Feature","geometry":{"type":"Point","coordinates":[-0.53191,51.21419]},"properties":{"name":"Chilworth","category":"village","osm_type":"node","osm_id":"1659145889"}},{"type":"Feature","geometry":{"type":"Point","coordinates":[-0.64308,51.29247]},"properties":{"name":"Pirbright","category":"village","osm_type":"node","osm_id":"1667559809"}},{"type":"Feature","geometry":{"type":"Point","coordinates":[-0.60578,51.27373]},"properties":{"name":"Worplesdon","category":"village","osm_type":"node","osm_id":"1667559810"}},{"type":"Feature","geometry":{"type":"Point","coordinates":[-0.64799,51.17123]},"properties":{"name":"Milford","category":"village","osm_type":"node","osm_id":"1670354244"}},{"type":"Feature","geometry":{"type":"Point","coordinates":[-0.66988,51.39868]},"properties":{"name":"South Ascot","category":"village","osm_type":"node","osm_id":"1672597584"}},{"type":"Feature","geometry":{"type":"Point","coordinates":[-0.64462,51.41804]},"properties":{"name":"Cheapside","category":"village","osm_type":"node","osm_id":"1675107321"}},{"type":"Feature","geometry":{"type":"Point","coordinates":[-0.44393,51.41065]},"properties":{"name":"Charlton","category":"village","osm_type":"node","osm_id":"1676498735"}},{"type":"Feature","geometry":{"type":"Point","coordinates":[-0.36113,51.07051]},"properties":{"name":"Broadbridge Heath","category":"village","osm_type":"node","osm_id":"1681645173"}},{"type":"Feature","geometry":{"type":"Point","coordinates":[-0.41392,51.18943]},"properties":{"name":"Holmbury St Mary","category":"village","osm_type":"node","osm_id":"1684790600"}},{"type":"Feature","geometry":{"type":"Point","coordinates":[-0.74407,51.31402]},"properties":{"name":"Frimley","category":"town","osm_type":"node","osm_id":"1687441519"}},{"type":"Feature","geometry":{"type":"Point","coordinates":[-0.76301,51.24942]},"properties":{"name":"Aldershot","category":"town","osm_type":"node","osm_id":"1688815997"}},{"type":"Feature","geometry":{"type":"Point","coordinates":[-0.72372,51.26849]},"properties":{"name":"Ash Vale","category":"village","osm_type":"node","osm_id":"1688818573"}},{"type":"Feature","geometry":{"type":"Point","coordinates":[-0.72108,51.24947]},"properties":{"name":"Ash","category":"village","osm_type":"node","osm_id":"1688818577"}},{"type":"Feature","geometry":{"type":"Point","coordinates":[-0.57321,51.23561]},"properties":{"name":"Guildford","category":"town","osm_type":"node","osm_id":"1688821544"}},{"type":"Feature","geometry":{"type":"Point","coordinates":[-0.67386,51.25508]},"properties":{"name":"Normandy","category":"village","osm_type":"node","osm_id":"1688821548"}},{"type":"Feature","geometry":{"type":"Point","coordinates":[-0.43318,51.21695]},"properties":{"name":"Abinger Hammer","category":"village","osm_type":"node","osm_id":"1691984081"}},{"type":"Feature","geometry":{"type":"Point","coordinates":[-0.20571,51.23766]},"properties":{"name":"Reigate","category":"town","osm_type":"node","osm_id":"1692549353"}},{"type":"Feature","geometry":{"type":"Point","coordinates":[-0.53296,51.40891]},"properties":{"name":"Thorpe","category":"village","osm_type":"node","osm_id":"1699126964"}},{"type":"Feature","geometry":{"type":"Point","coordinates":[-0.48958,51.37112]},"properties":{"name":"Addlestone","category":"town","osm_type":"node","osm_id":"1699989038"}},{"type":"Feature","geometry":{"type":"Point","coordinates":[-0.50383,51.3923]},"properties":{"name":"Chertsey","category":"town","osm_type":"node","osm_id":"1699989053"}},{"type":"Feature","geometry":{"type":"Point","coordinates":[-0.53033,51.36504]},"properties":{"name":"Ottershaw","category":"village","osm_type":"node","osm_id":"1699989057"}},{"type":"Feature","geometry":{"type":"Point","coordinates":[-0.44867,51.39392]},"properties":{"name":"Shepperton","category":"village","osm_type":"node","osm_id":"1699989059"}},{"type":"Feature","geometry":{"type":"Point","coordinates":[-0.41186,51.40771]},"properties":{"name":"Sunbury-on-Thames","category":"town","osm_type":"node","osm_id":"1699989060"}},{"type":"Feature","geometry":{"type":"Point","coordinates":[-0.41981,51.38568]},"properties":{"name":"Walton-on-Thames","category":"town","osm_type":"node","osm_id":"1712794721"}},{"type":"Feature","geometry":{"type":"Point","coordinates":[-0.07775,51.12485]},"properties":{"name":"Crawley Down","category":"village","osm_type":"node","osm_id":"1717568368"}},{"type":"Feature","geometry":{"type":"Point","coordinates":[-0.19868,51.3239]},"properties":{"name":"Banstead","category":"town","osm_type":"node","osm_id":"1726232156"}},{"type":"Feature","geometry":{"type":"Point","coordinates":[-0.32841,51.20252]},"properties":{"name":"Mid Holmwood","category":"village","osm_type":"node","osm_id":"1741811676"}},{"type":"Feature","geometry":{"type":"Point","coordinates":[-0.01358,51.24305]},"properties":{"name":"Broadham Green","category":"village","osm_type":"node","osm_id":"1741918933"}},{"type":"Feature","geometry":{"type":"Point","coordinates":[-0.33738,51.36035]},"properties":{"name":"Claygate","category":"village","osm_type":"node","osm_id":"1744225322"}},{"type":"Feature","geometry":{"type":"Point","coordinates":[-0.52986,51.42717]},"properties":{"name":"Pooley Green","category":"village","osm_type":"node","osm_id":"1779141259"}},{"type":"Feature","geometry":{"type":"Point","coordinates":[-0.62646,51.48517]},"properties":{"name":"Clewer Village","category":"village","osm_type":"node","osm_id":"1781275849"}},{"type":"Feature","geometry":{"type":"Point","coordinates":[-0.93053,51.13717]},"properties":{"name":"East Worldham","category":"village","osm_type":"node","osm_id":"1795920804"}},{"type":"Feature","geometry":{"type":"Point","coordinates":[-0.9938,51.11051]},"properties":{"name":"Lower Farringdon","category":"village","osm_type":"node","osm_id":"1814702570"}},{"type":"Feature","geometry":{"type":"Point","coordinates":[-0.19215,51.36122]},"properties":{"name":"Sutton","category":"town","osm_type":"node","osm_id":"1835118621"}},{"type":"Feature","geometry":{"type":"Point","coordinates":[-0.21207,51.26947]},"properties":{"name":"Lower Kingswood","category":"village","osm_type":"node","osm_id":"1845463944"}},{"type":"Feature","geometry":{"type":"Point","coordinates":[-0.75061,51.1101]},"properties":{"name":"Grayshott","category":"village","osm_type":"node","osm_id":"1937990914"}},{"type":"Feature","geometry":{"type":"Point","coordinates":[-0.92158,51.17952]},"properties":{"name":"Upper Froyle","category":"village","osm_type":"node","osm_id":"1965179788"}},{"type":"Feature","geometry":{"type":"Point","coordinates":[-0.01592,51.25198]},"properties":{"name":"Old Oxted","category":"village","osm_type":"node","osm_id":"1998850200"}},{"type":"Feature","geometry":{"type":"Point","coordinates":[-0.63317,51.36842]},"properties":{"name":"Valley End","category":"village","osm_type":"node","osm_id":"2018025860"}},{"type":"Feature","geometry":{"type":"Point","coordinates":[-0.03395,51.31545]},"properties":{"name":"Chelsham","category":"village","osm_type":"node","osm_id":"2048760787"}},{"type":"Feature","geometry":{"type":"Point","coordinates":[-0.63562,51.49734]},"properties":{"name":"Eton Wick","category":"village","osm_type":"node","osm_id":"2054830640"}},{"type":"Feature","geometry":{"type":"Point","coordinates":[-0.95418,51.32646]},"properties":{"name":"Hound Green","category":"village","osm_type":"node","osm_id":"2061402271"}},{"type":"Feature","geometry":{"type":"Point","coordinates":[-0.4729,51.34017]},"properties":{"name":"Byfleet","category":"village","osm_type":"node","osm_id":"2097898133"}},{"type":"Feature","geometry":{"type":"Point","coordinates":[-0.16976,51.32481]},"properties":{"name":"Woodmansterne","category":"village","osm_type":"node","osm_id":"2137389675"}},{"type":"Feature","geometry":{"type":"Point","coordinates":[-0.32908,51.38918]},"properties":{"name":"Thames Ditton","category":"village","osm_type":"node","osm_id":"2142743531"}},{"type":"Feature","geometry":{"type":"Point","coordinates":[-0.37131,51.4029]},"properties":{"name":"Molesey","category":"town","osm_type":"node","osm_id":"2143774046"}},{"type":"Feature","geometry":{"type":"Point","coordinates":[-0.36542,51.36939]},"properties":{"name":"Esher","category":"town","osm_type":"node","osm_id":"2143774725"}},{"type":"Feature","geometry":{"type":"Point","coordinates":[-0.37929,51.36275]},"properties":{"name":"West End","category":"village","osm_type":"node","osm_id":"2143774856"}},{"type":"Feature","geometry":{"type":"Point","coordinates":[-0.29091,51.32736]},"properties":{"name":"The Wells","category":"village","osm_type":"node","osm_id":"2143929925"}},{"type":"Feature","geometry":{"type":"Point","coordinates":[-0.00172,51.03021]},"properties":{"name":"Danehill","category":"village","osm_type":"node","osm_id":"2169471411"}},{"type":"Feature","geometry":{"type":"Point","coordinates":[-0.26019,51.03265]},"properties":{"name":"Lower Beeding","category":"village","osm_type":"node","osm_id":"2212753158"}},{"type":"Feature","geometry":{"type":"Point","coordinates":[-0.20771,51.03926]},"properties":{"name":"Slaugham","category":"village","osm_type":"node","osm_id":"2212870116"}},{"type":"Feature","geometry":{"type":"Point","coordinates":[-0.89912,51.4995]},"properties":{"name":"Shiplake","category":"village","osm_type":"node","osm_id":"2264618717"}},{"type":"Feature","geometry":{"type":"Point","coordinates":[-0.25258,51.24366]},"properties":{"name":"Buckland","category":"village","osm_type":"node","osm_id":"2276485443"}},{"type":"Feature","geometry":{"type":"Point","coordinates":[-0.49268,51.30021]},"properties":{"name":"Ripley","category":"village","osm_type":"node","osm_id":"2279905929"}},{"type":"Feature","geometry":{"type":"Point","coordinates":[-0.51854,51.07309]},"properties":{"name":"Loxwood","category":"village","osm_type":"node","osm_id":"2337466243"}},{"type":"Feature","geometry":{"type":"Point","coordinates":[-0.50652,51.3374]},"properties":{"name":"West Byfleet","category":"village","osm_type":"node","osm_id":"2345895100","website":"https://www.woking.gov.uk/council/planning/localplan/westbyfleet"}},{"type":"Feature","geometry":{"type":"Point","coordinates":[-0.4775,51.32338]},"properties":{"name":"Wisley","category":"village","osm_type":"node","osm_id":"2349996154"}},{"type":"Feature","geometry":{"type":"Point","coordinates":[-0.55715,51.19455]},"properties":{"name":"Bramley","category":"village","osm_type":"node","osm_id":"2352603611"}},{"type":"Feature","geometry":{"type":"Point","coordinates":[-0.82386,51.15923]},"properties":{"name":"Dockenfield","category":"village","osm_type":"node","osm_id":"2354012110"}},{"type":"Feature","geometry":{"type":"Point","coordinates":[-0.79512,51.1655]},"properties":{"name":"Frensham","category":"village","osm_type":"node","osm_id":"2447631940"}},{"type":"Feature","geometry":{"type":"Point","coordinates":[-0.91229,51.19118]},"properties":{"name":"Lower Froyle","category":"village","osm_type":"node","osm_id":"2450044334"}},{"type":"Feature","geometry":{"type":"Point","coordinates":[-0.75025,51.12564]},"properties":{"name":"Beacon Hill","category":"village","osm_type":"node","osm_id":"2530836088"}},{"type":"Feature","geometry":{"type":"Point","coordinates":[-0.49027,51.4089]},"properties":{"name":"Laleham","category":"village","osm_type":"node","osm_id":"2669075054"}},{"type":"Feature","geometry":{"type":"Point","coordinates":[-0.58886,51.4399]},"properties":{"name":"Bishopsgate","category":"village","osm_type":"node","osm_id":"2735006681"}},{"type":"Feature","geometry":{"type":"Point","coordinates":[-0.84614,51.15192]},"properties":{"name":"Frith End","category":"village","osm_type":"node","osm_id":"2743475436"}},{"type":"Feature","geometry":{"type":"Point","coordinates":[-0.77622,51.13769]},"properties":{"name":"Churt","category":"village","osm_type":"node","osm_id":"2748242973"}},{"type":"Feature","geometry":{"type":"Point","coordinates":[-0.26119,51.01485]},"properties":{"name":"Crabtree","category":"village","osm_type":"node","osm_id":"2864544789"}},{"type":"Feature","geometry":{"type":"Point","coordinates":[-0.30418,51.00918]},"properties":{"name":"Maplehurst","category":"village","osm_type":"node","osm_id":"2872965765"}},{"type":"Feature","geometry":{"type":"Point","coordinates":[-0.83478,51.18645]},"properties":{"name":"Holt Pound","category":"village","osm_type":"node","osm_id":"2935703299"}},{"type":"Feature","geometry":{"type":"Point","coordinates":[-0.79136,51.43211]},"properties":{"name":"Binfield","category":"village","osm_type":"node","osm_id":"2951041675"}},{"type":"Feature","geometry":{"type":"Point","coordinates":[-0.85668,51.48121]},"properties":{"name":"Ruscombe","category":"village","osm_type":"node","osm_id":"2956220804"}},{"type":"Feature","geometry":{"type":"Point","coordinates":[-0.81911,51.31546]},"properties":{"name":"Minley","category":"village","osm_type":"node","osm_id":"3307357618"}},{"type":"Feature","geometry":{"type":"Point","coordinates":[-0.36938,51.49661]},"properties":{"name":"Norwood Green","category":"village","osm_type":"node","osm_id":"3307642157"}},{"type":"Feature","geometry":{"type":"Point","coordinates":[-0.88809,51.35333]},"properties":{"name":"Eversley","category":"village","osm_type":"node","osm_id":"3308066982"}},{"type":"Feature","geometry":{"type":"Point","coordinates":[-0.86876,51.34868]},"properties":{"name":"Eversley Centre","category":"village","osm_type":"node","osm_id":"3308066983"}},{"type":"Feature","geometry":{"type":"Point","coordinates":[-0.74939,51.41657]},"properties":{"name":"Bracknell","category":"town","osm_type":"node","osm_id":"3362343487"}},{"type":"Feature","geometry":{"type":"Point","coordinates":[-0.07798,51.2786]},"properties":{"name":"Caterham Valley","category":"village","osm_type":"node","osm_id":"3379583331"}},{"type":"Feature","geometry":{"type":"Point","coordinates":[-0.70597,51.30617]},"properties":{"name":"Deepcut","category":"village","osm_type":"node","osm_id":"3470411237"}},{"type":"Feature","geometry":{"type":"Point","coordinates":[-0.72802,51.30272]},"properties":{"name":"Frimley Green","category":"village","osm_type":"node","osm_id":"3470411249"}},{"type":"Feature","geometry":{"type":"Point","coordinates":[-0.85112,51.10144]},"properties":{"name":"Hollywater","category":"village","osm_type":"node","osm_id":"3470411262"}},{"type":"Feature","geometry":{"type":"Point","coordinates":[-0.54496,51.40325]},"properties":{"name":"Thorpe Green","category":"village","osm_type":"node","osm_id":"3470411313"}},{"type":"Feature","geometry":{"type":"Point","coordinates":[-0.5236,51.42862]},"properties":{"name":"Egham Hythe","category":"village","osm_type":"node","osm_id":"3471197731"}},{"type":"Feature","geometry":{"type":"Point","coordinates":[-0.6244,51.40899]},"properties":{"name":"Blacknest","category":"village","osm_type":"node","osm_id":"3471213289"}},{"type":"Feature","geometry":{"type":"Point","coordinates":[-0.53785,51.44324]},"properties":{"name":"Hythe End","category":"village","osm_type":"node","osm_id":"3471216199"}},{"type":"Feature","geometry":{"type":"Point","coordinates":[-0.56034,51.46866]},"properties":{"name":"Sunnymeads","category":"village","osm_type":"node","osm_id":"3471216210"}},{"type":"Feature","geometry":{"type":"Point","coordinates":[-0.88735,51.09418]},"properties":{"name":"Blackmoor","category":"village","osm_type":"node","osm_id":"3473086278"}},{"type":"Feature","geometry":{"type":"Point","coordinates":[-0.66429,51.47959]},"properties":{"name":"Oakley Green","category":"village","osm_type":"node","osm_id":"3501029019"}},{"type":"Feature","geometry":{"type":"Point","coordinates":[-0.6653,51.4428]},"properties":{"name":"Cranbourne","category":"village","osm_type":"node","osm_id":"3501052178"}},{"type":"Feature","geometry":{"type":"Point","coordinates":[-0.70571,51.4471]},"properties":{"name":"Winkfield Street","category":"village","osm_type":"node","osm_id":"3501068906"}},{"type":"Feature","geometry":{"type":"Point","coordinates":[-0.66083,51.43398]},"properties":{"name":"Woodside","category":"village","osm_type":"node","osm_id":"3501068907"}},{"type":"Feature","geometry":{"type":"Point","coordinates":[-0.67877,51.4289]},"properties":{"name":"Brookside","category":"village","osm_type":"node","osm_id":"3501129515"}},{"type":"Feature","geometry":{"type":"Point","coordinates":[-0.71025,51.41845]},"properties":{"name":"Chavey Down","category":"village","osm_type":"node","osm_id":"3501165944"}},{"type":"Feature","geometry":{"type":"Point","coordinates":[-0.74293,51.47274]},"properties":{"name":"Braywoodside","category":"village","osm_type":"node","osm_id":"3501184231"}},{"type":"Feature","geometry":{"type":"Point","coordinates":[-0.743,51.43342]},"properties":{"name":"Newell Green","category":"village","osm_type":"node","osm_id":"3501415072"}},{"type":"Feature","geometry":{"type":"Point","coordinates":[-0.63837,51.40636]},"properties":{"name":"Beggar's Bush","category":"village","osm_type":"node","osm_id":"3501428328"}},{"type":"Feature","geometry":{"type":"Point","coordinates":[-0.55451,51.41205]},"properties":{"name":"Stroude","category":"village","osm_type":"node","osm_id":"3512621546"}},{"type":"Feature","geometry":{"type":"Point","coordinates":[-0.16797,51.42782]},"properties":{"name":"Tooting","category":"town","osm_type":"node","osm_id":"4001592824"}},{"type":"Feature","geometry":{"type":"Point","coordinates":[-0.36624,51.06354]},"properties":{"name":"Wickhurst Green","category":"village","osm_type":"node","osm_id":"4092270789"}},{"type":"Feature","geometry":{"type":"Point","coordinates":[-0.32203,51.28022]},"properties":{"name":"Givons Grove","category":"village","osm_type":"node","osm_id":"4155135818"}},{"type":"Feature","geometry":{"type":"Point","coordinates":[-0.23759,51.10116]},"properties":{"name":"Kilnwood Vale","category":"village","osm_type":"node","osm_id":"4226599859"}},{"type":"Feature","geometry":{"type":"Point","coordinates":[-0.15336,51.10401]},"properties":{"name":"Maidenbower","category":"village","osm_type":"node","osm_id":"4227376463"}},{"type":"Feature","geometry":{"type":"Point","coordinates":[-0.15954,51.14075]},"properties":{"name":"Tinsley Green","category":"village","osm_type":"node","osm_id":"4243494428"}},{"type":"Feature","geometry":{"type":"Point","coordinates":[-0.18688,51.16668]},"properties":{"name":"Hookwood","category":"village","osm_type":"node","osm_id":"4264761393"}},{"type":"Feature","geometry":{"type":"Point","coordinates":[-0.33153,51.11575]},"properties":{"name":"Kingsfold","category":"village","osm_type":"node","osm_id":"4337661487"}},{"type":"Feature","geometry":{"type":"Point","coordinates":[-0.38367,51.12457]},"properties":{"name":"Okewood Hill","category":"village","osm_type":"node","osm_id":"4382056338"}},{"type":"Feature","geometry":{"type":"Point","coordinates":[-0.14281,51.29189]},"properties":{"name":"Netherne-on-the-Hill","category":"village","osm_type":"node","osm_id":"4910992023"}},{"type":"Feature","geometry":{"type":"Point","coordinates":[-0.89437,51.3849]},"properties":{"name":"Arborfield Green","category":"village","osm_type":"node","osm_id":"4921123495"}},{"type":"Feature","geometry":{"type":"Point","coordinates":[-0.14838,51.13697]},"properties":{"name":"Forge Wood","category":"village","osm_type":"node","osm_id":"5082547915"}},{"type":"Feature","geometry":{"type":"Point","coordinates":[-0.87157,51.10007]},"properties":{"name":"Whitehill","category":"village","osm_type":"node","osm_id":"6033070463"}},{"type":"Feature","geometry":{"type":"Point","coordinates":[-0.0895,51.28845]},"properties":{"name":"Caterham on the Hill","category":"village","osm_type":"node","osm_id":"6191803137"}},{"type":"Feature","geometry":{"type":"Point","coordinates":[-0.85853,51.36154]},"properties":{"name":"Finchampstead","category":"village","osm_type":"node","osm_id":"6275141543"}},{"type":"Feature","geometry":{"type":"Point","coordinates":[-0.74656,51.18619]},"properties":{"name":"Tilford","category":"village","osm_type":"node","osm_id":"6601170529"}},{"type":"Feature","geometry":{"type":"Point","coordinates":[-0.7966,51.23354]},"properties":{"name":"Upper Hale","category":"village","osm_type":"node","osm_id":"6967545728"}},{"type":"Feature","geometry":{"type":"Point","coordinates":[-0.43243,51.40171]},"properties":{"name":"Upper Halliford","category":"village","osm_type":"node","osm_id":"7815438958"}},{"type":"Feature","geometry":{"type":"Point","coordinates":[-0.8301,51.49969]},"properties":{"name":"Kiln Green","category":"village","osm_type":"node","osm_id":"7929146670"}},{"type":"Feature","geometry":{"type":"Point","coordinates":[-0.52016,51.08912]},"properties":{"name":"Alfold Bars","category":"village","osm_type":"node","osm_id":"9232822617"}},{"type":"Feature","geometry":{"type":"Point","coordinates":[-0.53795,51.16563]},"properties":{"name":"Grafham","category":"village","osm_type":"node","osm_id":"9383334416"}},{"type":"Feature","geometry":{"type":"Point","coordinates":[-0.43364,51.48046]},"properties":{"name":"Harlington Corner","category":"village","osm_type":"node","osm_id":"9806660915"}},{"type":"Feature","geometry":{"type":"Point","coordinates":[-0.43006,51.35126]},"properties":{"name":"Whiteley Village","category":"village","osm_type":"node","osm_id":"9998334930"}},{"type":"Feature","geometry":{"type":"Point","coordinates":[-0.6696,51.22128]},"properties":{"name":"Puttenham","category":"village","osm_type":"node","osm_id":"10296066156"}},{"type":"Feature","geometry":{"type":"Point","coordinates":[-0.9359,51.48849]},"properties":{"name":"Dunsden Green","category":"village","osm_type":"node","osm_id":"10296080290"}},{"type":"Feature","geometry":{"type":"Point","coordinates":[-0.51451,51.47982]},"properties":{"name":"Poyle","category":"village","osm_type":"node","osm_id":"11087232693"}},{"type":"Feature","geometry":{"type":"Point","coordinates":[-0.50205,51.46215]},"properties":{"name":"Stanwell Moor","category":"village","osm_type":"node","osm_id":"11087232694"}},{"type":"Feature","geometry":{"type":"Point","coordinates":[-0.13292,51.15198]},"properties":{"name":"Shipley Bridge","category":"village","osm_type":"node","osm_id":"11968981214"}},{"type":"Feature","geometry":{"type":"Point","coordinates":[-0.33507,51.29346]},"properties":{"name":"Fetcham Grove","category":"village","osm_type":"node","osm_id":"12539095156"}},{"type":"Feature","geometry":{"type":"Point","coordinates":[-0.3422,51.28622]},"properties":{"name":"Hawk's Hill","category":"village","osm_type":"node","osm_id":"12539095174"}},{"type":"Feature","geometry":{"type":"Point","coordinates":[-0.38487,51.49314]},"properties":{"name":"North Hyde","category":"village","osm_type":"node","osm_id":"12692729062"}},{"type":"Feature","geometry":{"type":"Point","coordinates":[-0.676,51.34881]},"properties":{"name":"Lightwater","category":"town","osm_type":"relation","osm_id":"901728"}},{"type":"Feature","geometry":{"type":"Point","coordinates":[-0.73962,51.31613]},"properties":{"name":"Frimley","category":"town","osm_type":"relation","osm_id":"901870"}},{"type":"Feature","geometry":{"type":"Point","coordinates":[-0.86551,51.11422]},"properties":{"name":"Bordon","category":"town","osm_type":"relation","osm_id":"9274001"}},{"type":"Feature","geometry":{"type":"Point","coordinates":[-0.45275,51.36221]},"properties":{"name":"Weybridge","category":"town","osm_type":"relation","osm_id":"9274277"}},{"type":"Feature","geometry":{"type":"Point","coordinates":[-0.41538,51.38656]},"properties":{"name":"Walton-on-Thames","category":"town","osm_type":"relation","osm_id":"9274278"}},{"type":"Feature","geometry":{"type":"Point","coordinates":[-0.40915,51.41239]},"properties":{"name":"Sunbury-on-Thames","category":"town","osm_type":"relation","osm_id":"9274279"}},{"type":"Feature","geometry":{"type":"Point","coordinates":[-0.49614,51.42685]},"properties":{"name":"Staines-upon-Thames","category":"town","osm_type":"relation","osm_id":"9274280"}},{"type":"Feature","geometry":{"type":"Point","coordinates":[-0.44699,51.39131]},"properties":{"name":"Shepperton","category":"village","osm_type":"relation","osm_id":"9274281"}},{"type":"Feature","geometry":{"type":"Point","coordinates":[-0.36577,51.40293]},"properties":{"name":"Molesey","category":"town","osm_type":"relation","osm_id":"9274283"}},{"type":"Feature","geometry":{"type":"Point","coordinates":[-0.33049,51.29939]},"properties":{"name":"Leatherhead","category":"town","osm_type":"relation","osm_id":"9274284"}},{"type":"Feature","geometry":{"type":"Point","coordinates":[-0.36493,51.37282]},"properties":{"name":"Esher","category":"town","osm_type":"relation","osm_id":"9274285"}},{"type":"Feature","geometry":{"type":"Point","coordinates":[-0.2602,51.3307]},"properties":{"name":"Towns and villages","category":"town","osm_type":"relation","osm_id":"9274286"}},{"type":"Feature","geometry":{"type":"Point","coordinates":[-0.551,51.42915]},"properties":{"name":"Egham","category":"town","osm_type":"relation","osm_id":"9274287"}},{"type":"Feature","geometry":{"type":"Point","coordinates":[-0.33676,51.22906]},"properties":{"name":"Dorking","category":"town","osm_type":"relation","osm_id":"9274288"}},{"type":"Feature","geometry":{"type":"Point","coordinates":[-0.41462,51.33111]},"properties":{"name":"Cobham","category":"town","osm_type":"relation","osm_id":"9274289"}},{"type":"Feature","geometry":{"type":"Point","coordinates":[-0.50265,51.38759]},"properties":{"name":"Chertsey","category":"town","osm_type":"relation","osm_id":"9274290"}},{"type":"Feature","geometry":{"type":"Point","coordinates":[-0.21151,51.32269]},"properties":{"name":"Banstead","category":"town","osm_type":"relation","osm_id":"9274291"}},{"type":"Feature","geometry":{"type":"Point","coordinates":[-0.46323,51.4331]},"properties":{"name":"Ashford","category":"town","osm_type":"relation","osm_id":"9274292"}},{"type":"Feature","geometry":{"type":"Point","coordinates":[-0.48987,51.37106]},"properties":{"name":"Addlestone","category":"town","osm_type":"relation","osm_id":"9274293"}},{"type":"Feature","geometry":{"type":"Point","coordinates":[-0.61988,51.46968]},"properties":{"name":"Windsor","category":"town","osm_type":"relation","osm_id":"14215419"}},{"type":"Feature","geometry":{"type":"Point","coordinates":[-0.17298,51.43746]},"properties":{"name":"Springfield Village","category":"village","osm_type":"way","osm_id":"36540721","website":"https://www.springfieldvillage.info","addr:city":"London"}},{"type":"Feature","geometry":{"type":"Point","coordinates":[-0.34446,51.383]},"properties":{"name":"Weston Green","category":"village","osm_type":"way","osm_id":"767649957"}},{"type":"Feature","geometry":{"type":"Point","coordinates":[-0.70611,51.30801]},"properties":{"name":"Deepcut","category":"village","osm_type":"way","osm_id":"784756662"}},{"type":"Feature","geometry":{"type":"Point","coordinates":[-0.52,51.42926]},"properties":{"name":"Egham Hythe","category":"village","osm_type":"way","osm_id":"902860270"}},{"type":"Feature","geometry":{"type":"Point","coordinates":[-0.995,51.3966]},"properties":{"name":"Grazeley","category":"village","osm_type":"way","osm_id":"956515866"}},{"type":"Feature","geometry":{"type":"Point","coordinates":[-0.63628,51.49781]},"properties":{"name":"Eton Wick","category":"village","osm_type":"way","osm_id":"1312886482"}}]}