{"type":"FeatureCollection","features":[{"type":"Feature","geometry":{"type":"Point","coordinates":[-0.0742,52.32391]},"properties":{"name":"St Ives","category":"town","osm_type":"node","osm_id":"215666"}},{"type":"Feature","geometry":{"type":"Point","coordinates":[-0.52437,52.17107]},"properties":{"name":"Oakley","category":"village","osm_type":"node","osm_id":"4085935"}},{"type":"Feature","geometry":{"type":"Point","coordinates":[-0.49873,52.16277]},"properties":{"name":"Clapham","category":"village","osm_type":"node","osm_id":"4085939"}},{"type":"Feature","geometry":{"type":"Point","coordinates":[-0.4675,52.13638]},"properties":{"name":"Bedford","category":"town","osm_type":"node","osm_id":"4085941"}},{"type":"Feature","geometry":{"type":"Point","coordinates":[-0.47628,52.0625]},"properties":{"name":"Houghton Conquest","category":"village","osm_type":"node","osm_id":"8344214"}},{"type":"Feature","geometry":{"type":"Point","coordinates":[-0.99229,52.09019]},"properties":{"name":"Whittlebury","category":"village","osm_type":"node","osm_id":"10800407"}},{"type":"Feature","geometry":{"type":"Point","coordinates":[-0.625,52.16226]},"properties":{"name":"Turvey","category":"village","osm_type":"node","osm_id":"12141097"}},{"type":"Feature","geometry":{"type":"Point","coordinates":[-0.60871,52.20175]},"properties":{"name":"Harrold","category":"village","osm_type":"node","osm_id":"12619748"}},{"type":"Feature","geometry":{"type":"Point","coordinates":[-0.53056,52.09605]},"properties":{"name":"Wootton","category":"village","osm_type":"node","osm_id":"12711805"}},{"type":"Feature","geometry":{"type":"Point","coordinates":[-0.60793,52.06902]},"properties":{"name":"Cranfield","category":"village","osm_type":"node","osm_id":"12722785"}},{"type":"Feature","geometry":{"type":"Point","coordinates":[-0.39602,52.18277]},"properties":{"name":"Wilden","category":"village","osm_type":"node","osm_id":"14676757"}},{"type":"Feature","geometry":{"type":"Point","coordinates":[-0.44271,52.17789]},"properties":{"name":"Ravensden","category":"village","osm_type":"node","osm_id":"14676769"}},{"type":"Feature","geometry":{"type":"Point","coordinates":[-0.46813,52.11533]},"properties":{"name":"Elstow","category":"village","osm_type":"node","osm_id":"14725289"}},{"type":"Feature","geometry":{"type":"Point","coordinates":[-0.41729,52.09398]},"properties":{"name":"Cotton End","category":"village","osm_type":"node","osm_id":"14852698"}},{"type":"Feature","geometry":{"type":"Point","coordinates":[-0.44847,52.07949]},"properties":{"name":"Wilstead","category":"village","osm_type":"node","osm_id":"14852700"}},{"type":"Feature","geometry":{"type":"Point","coordinates":[-0.41379,52.11794]},"properties":{"name":"Cardington","category":"village","osm_type":"node","osm_id":"14956587"}},{"type":"Feature","geometry":{"type":"Point","coordinates":[-0.66033,52.17341]},"properties":{"name":"Lavendon","category":"village","osm_type":"node","osm_id":"16215891"}},{"type":"Feature","geometry":{"type":"Point","coordinates":[-0.98948,52.13276]},"properties":{"name":"Towcester","category":"town","osm_type":"node","osm_id":"16664272"}},{"type":"Feature","geometry":{"type":"Point","coordinates":[-0.26553,52.00711]},"properties":{"name":"Arlesey","category":"town","osm_type":"node","osm_id":"16890040"}},{"type":"Feature","geometry":{"type":"Point","coordinates":[-0.22972,52.0123]},"properties":{"name":"Stotfold","category":"village","osm_type":"node","osm_id":"16890268"}},{"type":"Feature","geometry":{"type":"Point","coordinates":[-0.13021,52.33464]},"properties":{"name":"Wyton","category":"village","osm_type":"node","osm_id":"19793890"}},{"type":"Feature","geometry":{"type":"Point","coordinates":[-0.11502,52.33032]},"properties":{"name":"Houghton","category":"village","osm_type":"node","osm_id":"19793891"}},{"type":"Feature","geometry":{"type":"Point","coordinates":[-0.75941,52.04065]},"properties":{"name":"Milton Keynes","category":"city","osm_type":"node","osm_id":"20455353"}},{"type":"Feature","geometry":{"type":"Point","coordinates":[-0.12137,52.41002]},"properties":{"name":"Wistow","category":"village","osm_type":"node","osm_id":"20698650"}},{"type":"Feature","geometry":{"type":"Point","coordinates":[-0.81186,52.06094]},"properties":{"name":"Wolverton","category":"town","osm_type":"node","osm_id":"20992709"}},{"type":"Feature","geometry":{"type":"Point","coordinates":[-0.89414,52.1588]},"properties":{"name":"Roade","category":"village","osm_type":"node","osm_id":"20992713"}},{"type":"Feature","geometry":{"type":"Point","coordinates":[-0.89636,52.23789]},"properties":{"name":"Northampton","category":"town","osm_type":"node","osm_id":"20995224"}},{"type":"Feature","geometry":{"type":"Point","coordinates":[-0.94674,52.28639]},"properties":{"name":"Church Brampton","category":"village","osm_type":"node","osm_id":"20995451"}},{"type":"Feature","geometry":{"type":"Point","coordinates":[-0.9328,52.2904]},"properties":{"name":"Chapel Brampton","category":"village","osm_type":"node","osm_id":"20995452"}},{"type":"Feature","geometry":{"type":"Point","coordinates":[-0.35354,52.02936]},"properties":{"name":"Campton","category":"village","osm_type":"node","osm_id":"21519275"}},{"type":"Feature","geometry":{"type":"Point","coordinates":[-0.26,52.02142]},"properties":{"name":"Church End","category":"village","osm_type":"node","osm_id":"21539678"}},{"type":"Feature","geometry":{"type":"Point","coordinates":[-0.728,52.39942]},"properties":{"name":"Kettering","category":"town","osm_type":"node","osm_id":"23807219"}},{"type":"Feature","geometry":{"type":"Point","coordinates":[-0.03158,52.32983]},"properties":{"name":"Needingworth","category":"village","osm_type":"node","osm_id":"24966026"}},{"type":"Feature","geometry":{"type":"Point","coordinates":[-0.15895,52.41354]},"properties":{"name":"Great Raveley","category":"village","osm_type":"node","osm_id":"24973127"}},{"type":"Feature","geometry":{"type":"Point","coordinates":[-0.15388,52.40454]},"properties":{"name":"Little Raveley","category":"village","osm_type":"node","osm_id":"24973129"}},{"type":"Feature","geometry":{"type":"Point","coordinates":[-0.11905,52.38389]},"properties":{"name":"Broughton","category":"village","osm_type":"node","osm_id":"24973130"}},{"type":"Feature","geometry":{"type":"Point","coordinates":[-0.07192,52.36611]},"properties":{"name":"Woodhurst","category":"village","osm_type":"node","osm_id":"24973131"}},{"type":"Feature","geometry":{"type":"Point","coordinates":[-0.14704,52.37099]},"properties":{"name":"Kings Ripton","category":"village","osm_type":"node","osm_id":"24973132"}},{"type":"Feature","geometry":{"type":"Point","coordinates":[-0.21084,52.41388]},"properties":{"name":"Woodwalton","category":"village","osm_type":"node","osm_id":"24973133"}},{"type":"Feature","geometry":{"type":"Point","coordinates":[-0.22989,52.25936]},"properties":{"name":"Great Paxton","category":"village","osm_type":"node","osm_id":"24978376"}},{"type":"Feature","geometry":{"type":"Point","coordinates":[-0.21368,52.28222]},"properties":{"name":"Offord D'Arcy","category":"village","osm_type":"node","osm_id":"24978377"}},{"type":"Feature","geometry":{"type":"Point","coordinates":[-0.2131,52.2879]},"properties":{"name":"Offord Cluny","category":"village","osm_type":"node","osm_id":"24978378"}},{"type":"Feature","geometry":{"type":"Point","coordinates":[-0.17471,52.31961]},"properties":{"name":"Godmanchester","category":"town","osm_type":"node","osm_id":"24978379"}},{"type":"Feature","geometry":{"type":"Point","coordinates":[-0.18435,52.33051]},"properties":{"name":"Huntingdon","category":"town","osm_type":"node","osm_id":"24978380"}},{"type":"Feature","geometry":{"type":"Point","coordinates":[-0.97261,52.1857]},"properties":{"name":"Gayton","category":"village","osm_type":"node","osm_id":"25283324"}},{"type":"Feature","geometry":{"type":"Point","coordinates":[-0.99918,52.18065]},"properties":{"name":"Dalscote","category":"village","osm_type":"node","osm_id":"25283334"}},{"type":"Feature","geometry":{"type":"Point","coordinates":[-0.07059,52.29793]},"properties":{"name":"Fenstanton","category":"village","osm_type":"node","osm_id":"25297039"}},{"type":"Feature","geometry":{"type":"Point","coordinates":[-0.00523,52.30075]},"properties":{"name":"Swavesey","category":"village","osm_type":"node","osm_id":"25297041"}},{"type":"Feature","geometry":{"type":"Point","coordinates":[-0.92086,52.47771]},"properties":{"name":"Market Harborough","category":"town","osm_type":"node","osm_id":"25626681"}},{"type":"Feature","geometry":{"type":"Point","coordinates":[-0.98395,52.28232]},"properties":{"name":"Althorp","category":"village","osm_type":"node","osm_id":"25717162"}},{"type":"Feature","geometry":{"type":"Point","coordinates":[-0.96562,52.27415]},"properties":{"name":"Lower Harlestone","category":"village","osm_type":"node","osm_id":"25717163"}},{"type":"Feature","geometry":{"type":"Point","coordinates":[-0.09496,52.20602]},"properties":{"name":"Caxton","category":"village","osm_type":"node","osm_id":"25720273"}},{"type":"Feature","geometry":{"type":"Point","coordinates":[-0.08515,52.17906]},"properties":{"name":"Longstowe","category":"village","osm_type":"node","osm_id":"25720275"}},{"type":"Feature","geometry":{"type":"Point","coordinates":[-0.06292,52.13496]},"properties":{"name":"Arrington","category":"village","osm_type":"node","osm_id":"25720276"}},{"type":"Feature","geometry":{"type":"Point","coordinates":[-0.11844,52.25046]},"properties":{"name":"Papworth Everard","category":"village","osm_type":"node","osm_id":"25720373"}},{"type":"Feature","geometry":{"type":"Point","coordinates":[-0.18167,52.39924]},"properties":{"name":"Wennington","category":"village","osm_type":"node","osm_id":"25720602"}},{"type":"Feature","geometry":{"type":"Point","coordinates":[-0.19232,52.38709]},"properties":{"name":"Abbots Ripton","category":"village","osm_type":"node","osm_id":"25720603"}},{"type":"Feature","geometry":{"type":"Point","coordinates":[-0.02465,52.04727]},"properties":{"name":"Royston","category":"town","osm_type":"node","osm_id":"25965417"}},{"type":"Feature","geometry":{"type":"Point","coordinates":[-0.79702,52.22168]},"properties":{"name":"Brafield-on-the-Green","category":"village","osm_type":"node","osm_id":"26514048"}},{"type":"Feature","geometry":{"type":"Point","coordinates":[-0.70327,52.48773]},"properties":{"name":"Corby","category":"town","osm_type":"node","osm_id":"26679133"}},{"type":"Feature","geometry":{"type":"Point","coordinates":[-0.95465,52.09999]},"properties":{"name":"Paulerspury","category":"village","osm_type":"node","osm_id":"26711927"}},{"type":"Feature","geometry":{"type":"Point","coordinates":[-0.69373,52.30189]},"properties":{"name":"Wellingborough","category":"town","osm_type":"node","osm_id":"26984900"}},{"type":"Feature","geometry":{"type":"Point","coordinates":[-0.59882,52.29116]},"properties":{"name":"Rushden","category":"town","osm_type":"node","osm_id":"26984902"}},{"type":"Feature","geometry":{"type":"Point","coordinates":[-0.59233,52.30603]},"properties":{"name":"Higham Ferrers","category":"town","osm_type":"node","osm_id":"26984903"}},{"type":"Feature","geometry":{"type":"Point","coordinates":[-0.27038,52.22758]},"properties":{"name":"St Neots","category":"town","osm_type":"node","osm_id":"26985004"}},{"type":"Feature","geometry":{"type":"Point","coordinates":[-0.54818,52.06297]},"properties":{"name":"Marston Moretaine","category":"village","osm_type":"node","osm_id":"26999751"}},{"type":"Feature","geometry":{"type":"Point","coordinates":[-0.32123,52.06487]},"properties":{"name":"Southill","category":"village","osm_type":"node","osm_id":"27000828"}},{"type":"Feature","geometry":{"type":"Point","coordinates":[-0.96371,52.47891]},"properties":{"name":"Lubenham","category":"village","osm_type":"node","osm_id":"27188936"}},{"type":"Feature","geometry":{"type":"Point","coordinates":[-0.49373,52.00432]},"properties":{"name":"Flitwick","category":"town","osm_type":"node","osm_id":"27301916"}},{"type":"Feature","geometry":{"type":"Point","coordinates":[-0.90393,52.49299]},"properties":{"name":"Great Bowden","category":"village","osm_type":"node","osm_id":"27303722"}},{"type":"Feature","geometry":{"type":"Point","coordinates":[-0.81488,52.48376]},"properties":{"name":"Stoke Albany","category":"village","osm_type":"node","osm_id":"27304769"}},{"type":"Feature","geometry":{"type":"Point","coordinates":[-0.80253,52.48603]},"properties":{"name":"Wilbarston","category":"village","osm_type":"node","osm_id":"27304827"}},{"type":"Feature","geometry":{"type":"Point","coordinates":[-0.78015,52.49382]},"properties":{"name":"East Carlton","category":"village","osm_type":"node","osm_id":"27304833"}},{"type":"Feature","geometry":{"type":"Point","coordinates":[-0.55802,52.0402]},"properties":{"name":"Lidlington","category":"village","osm_type":"node","osm_id":"27457652"}},{"type":"Feature","geometry":{"type":"Point","coordinates":[-0.58088,52.01519]},"properties":{"name":"Ridgmont","category":"village","osm_type":"node","osm_id":"27457674"}},{"type":"Feature","geometry":{"type":"Point","coordinates":[-0.49291,52.03189]},"properties":{"name":"Ampthill","category":"town","osm_type":"node","osm_id":"27457675"}},{"type":"Feature","geometry":{"type":"Point","coordinates":[-0.45683,52.01107]},"properties":{"name":"Flitton","category":"village","osm_type":"node","osm_id":"27457676"}},{"type":"Feature","geometry":{"type":"Point","coordinates":[-0.72373,52.08639]},"properties":{"name":"Newport Pagnell","category":"town","osm_type":"node","osm_id":"27457679"}},{"type":"Feature","geometry":{"type":"Point","coordinates":[-0.70221,52.11065]},"properties":{"name":"Sherington","category":"village","osm_type":"node","osm_id":"27457680"}},{"type":"Feature","geometry":{"type":"Point","coordinates":[-0.85258,52.05675]},"properties":{"name":"Stony Stratford","category":"town","osm_type":"node","osm_id":"27457682"}},{"type":"Feature","geometry":{"type":"Point","coordinates":[-0.84775,52.07647]},"properties":{"name":"Cosgrove","category":"village","osm_type":"node","osm_id":"27457683"}},{"type":"Feature","geometry":{"type":"Point","coordinates":[-0.82694,52.11459]},"properties":{"name":"Hanslope","category":"village","osm_type":"node","osm_id":"27457684"}},{"type":"Feature","geometry":{"type":"Point","coordinates":[-0.98881,52.24122]},"properties":{"name":"Harpole","category":"village","osm_type":"node","osm_id":"28296289"}},{"type":"Feature","geometry":{"type":"Point","coordinates":[-0.97929,52.22863]},"properties":{"name":"Kislingbury","category":"village","osm_type":"node","osm_id":"29162037"}},{"type":"Feature","geometry":{"type":"Point","coordinates":[-0.95682,52.20361]},"properties":{"name":"Rothersthorpe","category":"village","osm_type":"node","osm_id":"29163715"}},{"type":"Feature","geometry":{"type":"Point","coordinates":[-0.79873,52.42251]},"properties":{"name":"Rothwell","category":"town","osm_type":"node","osm_id":"29342605"}},{"type":"Feature","geometry":{"type":"Point","coordinates":[-0.8627,52.00144]},"properties":{"name":"Nash","category":"village","osm_type":"node","osm_id":"29358628"}},{"type":"Feature","geometry":{"type":"Point","coordinates":[-0.68004,52.00248]},"properties":{"name":"Bow Brickhill","category":"village","osm_type":"node","osm_id":"29358801"}},{"type":"Feature","geometry":{"type":"Point","coordinates":[-0.32057,52.00126]},"properties":{"name":"Lower Stondon","category":"village","osm_type":"node","osm_id":"29359056"}},{"type":"Feature","geometry":{"type":"Point","coordinates":[-0.01475,52.00713]},"properties":{"name":"Reed","category":"village","osm_type":"node","osm_id":"29359208"}},{"type":"Feature","geometry":{"type":"Point","coordinates":[-0.98881,52.39655]},"properties":{"name":"Naseby","category":"village","osm_type":"node","osm_id":"29621778"}},{"type":"Feature","geometry":{"type":"Point","coordinates":[-0.96332,52.35581]},"properties":{"name":"Cottesbrooke","category":"village","osm_type":"node","osm_id":"29621784"}},{"type":"Feature","geometry":{"type":"Point","coordinates":[-0.90256,52.33101]},"properties":{"name":"Brixworth","category":"village","osm_type":"node","osm_id":"29621875"}},{"type":"Feature","geometry":{"type":"Point","coordinates":[-0.87361,52.34565]},"properties":{"name":"Scaldwell","category":"village","osm_type":"node","osm_id":"29621876"}},{"type":"Feature","geometry":{"type":"Point","coordinates":[-0.8481,52.35227]},"properties":{"name":"Old","category":"village","osm_type":"node","osm_id":"29621877"}},{"type":"Feature","geometry":{"type":"Point","coordinates":[-0.82393,52.34186]},"properties":{"name":"Walgrave","category":"village","osm_type":"node","osm_id":"29621878"}},{"type":"Feature","geometry":{"type":"Point","coordinates":[-0.83821,52.32045]},"properties":{"name":"Holcot","category":"village","osm_type":"node","osm_id":"29621879"}},{"type":"Feature","geometry":{"type":"Point","coordinates":[-0.89288,52.30446]},"properties":{"name":"Pitsford","category":"village","osm_type":"node","osm_id":"29621880"}},{"type":"Feature","geometry":{"type":"Point","coordinates":[-0.89829,52.28545]},"properties":{"name":"Boughton","category":"village","osm_type":"node","osm_id":"29622133"}},{"type":"Feature","geometry":{"type":"Point","coordinates":[-0.84701,52.29094]},"properties":{"name":"Moulton","category":"village","osm_type":"node","osm_id":"29622135"}},{"type":"Feature","geometry":{"type":"Point","coordinates":[-0.81618,52.29025]},"properties":{"name":"Overstone","category":"village","osm_type":"node","osm_id":"29622161"}},{"type":"Feature","geometry":{"type":"Point","coordinates":[-0.79823,52.29712]},"properties":{"name":"Sywell","category":"village","osm_type":"node","osm_id":"29622197"}},{"type":"Feature","geometry":{"type":"Point","coordinates":[-0.77278,52.29239]},"properties":{"name":"Mears Ashby","category":"village","osm_type":"node","osm_id":"29622198"}},{"type":"Feature","geometry":{"type":"Point","coordinates":[-0.75232,52.26416]},"properties":{"name":"Earls Barton","category":"village","osm_type":"node","osm_id":"29622199"}},{"type":"Feature","geometry":{"type":"Point","coordinates":[-0.78915,52.26514]},"properties":{"name":"Ecton","category":"village","osm_type":"node","osm_id":"29622200"}},{"type":"Feature","geometry":{"type":"Point","coordinates":[-0.71039,52.27452]},"properties":{"name":"Great Doddington","category":"village","osm_type":"node","osm_id":"29622201"}},{"type":"Feature","geometry":{"type":"Point","coordinates":[-0.73001,52.28725]},"properties":{"name":"Wilby","category":"village","osm_type":"node","osm_id":"29622202"}},{"type":"Feature","geometry":{"type":"Point","coordinates":[-0.71066,52.32847]},"properties":{"name":"Great Harrowden","category":"village","osm_type":"node","osm_id":"29622271"}},{"type":"Feature","geometry":{"type":"Point","coordinates":[-0.7251,52.33522]},"properties":{"name":"Little Harrowden","category":"village","osm_type":"node","osm_id":"29622272"}},{"type":"Feature","geometry":{"type":"Point","coordinates":[-0.67771,52.36387]},"properties":{"name":"Burton Latimer","category":"town","osm_type":"node","osm_id":"29622273"}},{"type":"Feature","geometry":{"type":"Point","coordinates":[-0.70336,52.35652]},"properties":{"name":"Isham","category":"village","osm_type":"node","osm_id":"29622274"}},{"type":"Feature","geometry":{"type":"Point","coordinates":[-0.73777,52.34191]},"properties":{"name":"Orlingbury","category":"village","osm_type":"node","osm_id":"29622275"}},{"type":"Feature","geometry":{"type":"Point","coordinates":[-0.73994,52.36359]},"properties":{"name":"Pytchley","category":"village","osm_type":"node","osm_id":"29622276"}},{"type":"Feature","geometry":{"type":"Point","coordinates":[-0.61284,52.32619]},"properties":{"name":"Irthlingborough","category":"town","osm_type":"node","osm_id":"29622278"}},{"type":"Feature","geometry":{"type":"Point","coordinates":[-0.64677,52.28174]},"properties":{"name":"Irchester","category":"village","osm_type":"node","osm_id":"29622291"}},{"type":"Feature","geometry":{"type":"Point","coordinates":[-0.67101,52.25438]},"properties":{"name":"Wollaston","category":"village","osm_type":"node","osm_id":"29622292"}},{"type":"Feature","geometry":{"type":"Point","coordinates":[-0.71495,52.2339]},"properties":{"name":"Grendon","category":"village","osm_type":"node","osm_id":"29622293"}},{"type":"Feature","geometry":{"type":"Point","coordinates":[-0.67531,52.22238]},"properties":{"name":"Bozeat","category":"village","osm_type":"node","osm_id":"29622957"}},{"type":"Feature","geometry":{"type":"Point","coordinates":[-0.70085,52.21998]},"properties":{"name":"Easton Maudit","category":"village","osm_type":"node","osm_id":"29622958"}},{"type":"Feature","geometry":{"type":"Point","coordinates":[-0.62298,52.25472]},"properties":{"name":"Podington","category":"village","osm_type":"node","osm_id":"29622961"}},{"type":"Feature","geometry":{"type":"Point","coordinates":[-0.63206,52.24449]},"properties":{"name":"Hinwick","category":"village","osm_type":"node","osm_id":"29622972"}},{"type":"Feature","geometry":{"type":"Point","coordinates":[-0.60117,52.19243]},"properties":{"name":"Chellington","category":"village","osm_type":"node","osm_id":"29622973"}},{"type":"Feature","geometry":{"type":"Point","coordinates":[-0.55544,52.1689]},"properties":{"name":"Stevington","category":"village","osm_type":"node","osm_id":"29622982"}},{"type":"Feature","geometry":{"type":"Point","coordinates":[-0.5543,52.18964]},"properties":{"name":"Pavenham","category":"village","osm_type":"node","osm_id":"29622984"}},{"type":"Feature","geometry":{"type":"Point","coordinates":[-0.51009,52.19321]},"properties":{"name":"Milton Ernest","category":"village","osm_type":"node","osm_id":"29623504"}},{"type":"Feature","geometry":{"type":"Point","coordinates":[-0.50376,52.21329]},"properties":{"name":"Bletsoe","category":"village","osm_type":"node","osm_id":"29623505"}},{"type":"Feature","geometry":{"type":"Point","coordinates":[-0.54878,52.20893]},"properties":{"name":"Felmersham","category":"village","osm_type":"node","osm_id":"29623506"}},{"type":"Feature","geometry":{"type":"Point","coordinates":[-0.55089,52.22555]},"properties":{"name":"Sharnbrook","category":"village","osm_type":"node","osm_id":"29623507"}},{"type":"Feature","geometry":{"type":"Point","coordinates":[-0.45963,52.21523]},"properties":{"name":"Thurleigh","category":"village","osm_type":"node","osm_id":"29623508"}},{"type":"Feature","geometry":{"type":"Point","coordinates":[-0.3858,52.25138]},"properties":{"name":"Little Staughton","category":"village","osm_type":"node","osm_id":"29623509"}},{"type":"Feature","geometry":{"type":"Point","coordinates":[-0.3445,52.26856]},"properties":{"name":"Great Staughton","category":"village","osm_type":"node","osm_id":"29623510"}},{"type":"Feature","geometry":{"type":"Point","coordinates":[-0.47582,52.25288]},"properties":{"name":"Riseley","category":"village","osm_type":"node","osm_id":"29624506"}},{"type":"Feature","geometry":{"type":"Point","coordinates":[-0.49125,52.27875]},"properties":{"name":"Melchbourne","category":"village","osm_type":"node","osm_id":"29624508"}},{"type":"Feature","geometry":{"type":"Point","coordinates":[-0.51656,52.28979]},"properties":{"name":"Yelden","category":"village","osm_type":"node","osm_id":"29624510"}},{"type":"Feature","geometry":{"type":"Point","coordinates":[-0.46721,52.29773]},"properties":{"name":"Upper Dean","category":"village","osm_type":"node","osm_id":"29624511"}},{"type":"Feature","geometry":{"type":"Point","coordinates":[-0.45056,52.27908]},"properties":{"name":"Swineshead","category":"village","osm_type":"node","osm_id":"29624513"}},{"type":"Feature","geometry":{"type":"Point","coordinates":[-0.4142,52.27563]},"properties":{"name":"Pertenhall","category":"village","osm_type":"node","osm_id":"29624515"}},{"type":"Feature","geometry":{"type":"Point","coordinates":[-0.42505,52.25549]},"properties":{"name":"Keysoe","category":"village","osm_type":"node","osm_id":"29624517"}},{"type":"Feature","geometry":{"type":"Point","coordinates":[-0.38826,52.29792]},"properties":{"name":"Kimbolton","category":"village","osm_type":"node","osm_id":"29624518"}},{"type":"Feature","geometry":{"type":"Point","coordinates":[-0.41798,52.31004]},"properties":{"name":"Tilbrook","category":"village","osm_type":"node","osm_id":"29624520"}},{"type":"Feature","geometry":{"type":"Point","coordinates":[-0.45328,52.3251]},"properties":{"name":"Covington","category":"village","osm_type":"node","osm_id":"29624523"}},{"type":"Feature","geometry":{"type":"Point","coordinates":[-0.53448,52.34222]},"properties":{"name":"Raunds","category":"town","osm_type":"node","osm_id":"29624526"}},{"type":"Feature","geometry":{"type":"Point","coordinates":[-0.48099,52.32512]},"properties":{"name":"Hargrave","category":"village","osm_type":"node","osm_id":"29624529"}},{"type":"Feature","geometry":{"type":"Point","coordinates":[-0.48496,52.30787]},"properties":{"name":"Shelton","category":"village","osm_type":"node","osm_id":"29624532"}},{"type":"Feature","geometry":{"type":"Point","coordinates":[-0.55387,52.36597]},"properties":{"name":"Ringstead","category":"village","osm_type":"node","osm_id":"29624535"}},{"type":"Feature","geometry":{"type":"Point","coordinates":[-0.74089,52.2285]},"properties":{"name":"Castle Ashby","category":"village","osm_type":"node","osm_id":"29671463"}},{"type":"Feature","geometry":{"type":"Point","coordinates":[-0.95616,52.42839]},"properties":{"name":"Clipston","category":"village","osm_type":"node","osm_id":"29673185"}},{"type":"Feature","geometry":{"type":"Point","coordinates":[-0.94587,52.45943]},"properties":{"name":"East Farndon","category":"village","osm_type":"node","osm_id":"29673187"}},{"type":"Feature","geometry":{"type":"Point","coordinates":[-0.98251,52.46603]},"properties":{"name":"Marston Trussell","category":"village","osm_type":"node","osm_id":"29673188"}},{"type":"Feature","geometry":{"type":"Point","coordinates":[-0.89305,52.42648]},"properties":{"name":"Arthingworth","category":"village","osm_type":"node","osm_id":"29673189"}},{"type":"Feature","geometry":{"type":"Point","coordinates":[-0.86486,52.4126]},"properties":{"name":"Harrington","category":"village","osm_type":"node","osm_id":"29673378"}},{"type":"Feature","geometry":{"type":"Point","coordinates":[-0.91672,52.4087]},"properties":{"name":"Kelmarsh","category":"village","osm_type":"node","osm_id":"29673379"}},{"type":"Feature","geometry":{"type":"Point","coordinates":[-0.90586,52.38496]},"properties":{"name":"Maidwell","category":"village","osm_type":"node","osm_id":"29673380"}},{"type":"Feature","geometry":{"type":"Point","coordinates":[-0.88175,52.38407]},"properties":{"name":"Draughton","category":"village","osm_type":"node","osm_id":"29673382"}},{"type":"Feature","geometry":{"type":"Point","coordinates":[-0.77669,52.37547]},"properties":{"name":"Broughton","category":"village","osm_type":"node","osm_id":"29673502"}},{"type":"Feature","geometry":{"type":"Point","coordinates":[-0.80168,52.39795]},"properties":{"name":"Loddington","category":"village","osm_type":"node","osm_id":"29673503"}},{"type":"Feature","geometry":{"type":"Point","coordinates":[-0.77422,52.40348]},"properties":{"name":"Thorpe Malsor","category":"village","osm_type":"node","osm_id":"29673504"}},{"type":"Feature","geometry":{"type":"Point","coordinates":[-0.87591,52.45135]},"properties":{"name":"Braybrooke","category":"village","osm_type":"node","osm_id":"29673506"}},{"type":"Feature","geometry":{"type":"Point","coordinates":[-0.86876,52.4802]},"properties":{"name":"Dingley","category":"village","osm_type":"node","osm_id":"29673642"}},{"type":"Feature","geometry":{"type":"Point","coordinates":[-0.83806,52.47927]},"properties":{"name":"Brampton Ash","category":"village","osm_type":"node","osm_id":"29673643"}},{"type":"Feature","geometry":{"type":"Point","coordinates":[-0.26051,52.3678]},"properties":{"name":"Alconbury","category":"village","osm_type":"node","osm_id":"29677581"}},{"type":"Feature","geometry":{"type":"Point","coordinates":[-0.21196,52.3573]},"properties":{"name":"Great Stukeley","category":"village","osm_type":"node","osm_id":"29677582"}},{"type":"Feature","geometry":{"type":"Point","coordinates":[-0.22722,52.36482]},"properties":{"name":"Little Stukeley","category":"village","osm_type":"node","osm_id":"29677583"}},{"type":"Feature","geometry":{"type":"Point","coordinates":[-0.25138,52.29499]},"properties":{"name":"Buckden","category":"village","osm_type":"node","osm_id":"29677585"}},{"type":"Feature","geometry":{"type":"Point","coordinates":[-0.23312,52.32392]},"properties":{"name":"Brampton","category":"village","osm_type":"node","osm_id":"29677586"}},{"type":"Feature","geometry":{"type":"Point","coordinates":[-0.73313,52.2029]},"properties":{"name":"Yardley Hastings","category":"village","osm_type":"node","osm_id":"29798078"}},{"type":"Feature","geometry":{"type":"Point","coordinates":[-0.287,52.48926]},"properties":{"name":"Stilton","category":"village","osm_type":"node","osm_id":"29810826"}},{"type":"Feature","geometry":{"type":"Point","coordinates":[-0.53143,52.20579]},"properties":{"name":"Radwell","category":"village","osm_type":"node","osm_id":"29869200"}},{"type":"Feature","geometry":{"type":"Point","coordinates":[-0.01239,52.13502]},"properties":{"name":"Orwell","category":"village","osm_type":"node","osm_id":"32041091"}},{"type":"Feature","geometry":{"type":"Point","coordinates":[-0.01138,52.18528]},"properties":{"name":"Toft","category":"village","osm_type":"node","osm_id":"32041309"}},{"type":"Feature","geometry":{"type":"Point","coordinates":[-0.2589,52.0882]},"properties":{"name":"Biggleswade","category":"town","osm_type":"node","osm_id":"32062097"}},{"type":"Feature","geometry":{"type":"Point","coordinates":[-0.00917,52.163]},"properties":{"name":"Great Eversden","category":"village","osm_type":"node","osm_id":"32129173"}},{"type":"Feature","geometry":{"type":"Point","coordinates":[-0.07008,52.21998]},"properties":{"name":"Cambourne","category":"town","osm_type":"node","osm_id":"32533983"}},{"type":"Feature","geometry":{"type":"Point","coordinates":[-0.02437,52.20961]},"properties":{"name":"Highfields Caldecote","category":"village","osm_type":"node","osm_id":"32534135"}},{"type":"Feature","geometry":{"type":"Point","coordinates":[-0.06563,52.19202]},"properties":{"name":"Bourn","category":"village","osm_type":"node","osm_id":"32534162"}},{"type":"Feature","geometry":{"type":"Point","coordinates":[-0.15379,52.47054]},"properties":{"name":"Ramsey Saint Mary's","category":"village","osm_type":"node","osm_id":"32909739"}},{"type":"Feature","geometry":{"type":"Point","coordinates":[-0.15939,52.45544]},"properties":{"name":"Ramsey Heights","category":"village","osm_type":"node","osm_id":"32909740"}},{"type":"Feature","geometry":{"type":"Point","coordinates":[-0.11748,52.43662]},"properties":{"name":"Bury","category":"village","osm_type":"node","osm_id":"32909741"}},{"type":"Feature","geometry":{"type":"Point","coordinates":[-0.24795,52.47551]},"properties":{"name":"Holme","category":"village","osm_type":"node","osm_id":"32909934"}},{"type":"Feature","geometry":{"type":"Point","coordinates":[-0.10211,52.44941]},"properties":{"name":"Ramsey","category":"town","osm_type":"node","osm_id":"32910082"}},{"type":"Feature","geometry":{"type":"Point","coordinates":[-0.29188,52.07149]},"properties":{"name":"Broom","category":"village","osm_type":"node","osm_id":"33591217"}},{"type":"Feature","geometry":{"type":"Point","coordinates":[-0.3034,52.03791]},"properties":{"name":"Clifton","category":"village","osm_type":"node","osm_id":"33695190"}},{"type":"Feature","geometry":{"type":"Point","coordinates":[-0.30465,52.05608]},"properties":{"name":"Stanford","category":"village","osm_type":"node","osm_id":"33695191"}},{"type":"Feature","geometry":{"type":"Point","coordinates":[-0.33552,52.03841]},"properties":{"name":"Shefford","category":"town","osm_type":"node","osm_id":"33695192"}},{"type":"Feature","geometry":{"type":"Point","coordinates":[-0.28925,52.03231]},"properties":{"name":"Henlow","category":"village","osm_type":"node","osm_id":"33695193"}},{"type":"Feature","geometry":{"type":"Point","coordinates":[-0.26996,52.05818]},"properties":{"name":"Langford","category":"village","osm_type":"node","osm_id":"33695194"}},{"type":"Feature","geometry":{"type":"Point","coordinates":[-0.34526,52.01232]},"properties":{"name":"Meppershall","category":"village","osm_type":"node","osm_id":"33695196"}},{"type":"Feature","geometry":{"type":"Point","coordinates":[-0.29945,52.09875]},"properties":{"name":"Upper Caldecote","category":"village","osm_type":"node","osm_id":"33695198"}},{"type":"Feature","geometry":{"type":"Point","coordinates":[-0.51118,52.12785]},"properties":{"name":"Great Denham","category":"village","osm_type":"node","osm_id":"34818033"}},{"type":"Feature","geometry":{"type":"Point","coordinates":[-0.21411,52.12764]},"properties":{"name":"Potton","category":"village","osm_type":"node","osm_id":"34857186"}},{"type":"Feature","geometry":{"type":"Point","coordinates":[-0.03061,52.10023]},"properties":{"name":"Whaddon","category":"village","osm_type":"node","osm_id":"34956468"}},{"type":"Feature","geometry":{"type":"Point","coordinates":[-0.38987,52.12403]},"properties":{"name":"Cople","category":"village","osm_type":"node","osm_id":"35133275"}},{"type":"Feature","geometry":{"type":"Point","coordinates":[-0.34846,52.15691]},"properties":{"name":"Great Barford","category":"village","osm_type":"node","osm_id":"35133381"}},{"type":"Feature","geometry":{"type":"Point","coordinates":[-0.3763,52.13686]},"properties":{"name":"Willington","category":"village","osm_type":"node","osm_id":"35133889"}},{"type":"Feature","geometry":{"type":"Point","coordinates":[-0.49302,52.1192]},"properties":{"name":"Kempston","category":"town","osm_type":"node","osm_id":"35143455"}},{"type":"Feature","geometry":{"type":"Point","coordinates":[-0.53399,52.14511]},"properties":{"name":"Bromham","category":"village","osm_type":"node","osm_id":"35179911"}},{"type":"Feature","geometry":{"type":"Point","coordinates":[-0.43301,52.11057]},"properties":{"name":"Shortstown","category":"village","osm_type":"node","osm_id":"35182763"}},{"type":"Feature","geometry":{"type":"Point","coordinates":[-0.63692,52.04353]},"properties":{"name":"Salford","category":"village","osm_type":"node","osm_id":"36427483"}},{"type":"Feature","geometry":{"type":"Point","coordinates":[-0.64729,52.01199]},"properties":{"name":"Woburn Sands","category":"town","osm_type":"node","osm_id":"36427617"}},{"type":"Feature","geometry":{"type":"Point","coordinates":[-0.10657,52.48369]},"properties":{"name":"Ramsey Mereside","category":"village","osm_type":"node","osm_id":"36637050"}},{"type":"Feature","geometry":{"type":"Point","coordinates":[-0.16458,52.11089]},"properties":{"name":"Wrestlingworth","category":"village","osm_type":"node","osm_id":"37220101"}},{"type":"Feature","geometry":{"type":"Point","coordinates":[-0.19166,52.15666]},"properties":{"name":"Gamlingay","category":"village","osm_type":"node","osm_id":"38460106"}},{"type":"Feature","geometry":{"type":"Point","coordinates":[-0.17391,52.17592]},"properties":{"name":"Waresley","category":"village","osm_type":"node","osm_id":"38684252"}},{"type":"Feature","geometry":{"type":"Point","coordinates":[-0.14042,52.18018]},"properties":{"name":"Little Gransden","category":"village","osm_type":"node","osm_id":"38712167"}},{"type":"Feature","geometry":{"type":"Point","coordinates":[-0.15959,52.13149]},"properties":{"name":"Cockayne Hatley","category":"village","osm_type":"node","osm_id":"38902819"}},{"type":"Feature","geometry":{"type":"Point","coordinates":[-0.20387,52.19346]},"properties":{"name":"Abbotsley","category":"village","osm_type":"node","osm_id":"39036600"}},{"type":"Feature","geometry":{"type":"Point","coordinates":[-0.15502,52.04022]},"properties":{"name":"Ashwell","category":"village","osm_type":"node","osm_id":"40004494"}},{"type":"Feature","geometry":{"type":"Point","coordinates":[-0.12328,52.06727]},"properties":{"name":"Steeple Morden","category":"village","osm_type":"node","osm_id":"40117609"}},{"type":"Feature","geometry":{"type":"Point","coordinates":[-0.08682,52.0666]},"properties":{"name":"Litlington","category":"village","osm_type":"node","osm_id":"40121626"}},{"type":"Feature","geometry":{"type":"Point","coordinates":[-0.50964,52.06792]},"properties":{"name":"Stewartby","category":"village","osm_type":"node","osm_id":"49569712"}},{"type":"Feature","geometry":{"type":"Point","coordinates":[-0.42339,52.02826]},"properties":{"name":"Clophill","category":"village","osm_type":"node","osm_id":"49579791"}},{"type":"Feature","geometry":{"type":"Point","coordinates":[-0.46882,52.031]},"properties":{"name":"Maulden","category":"village","osm_type":"node","osm_id":"49581987"}},{"type":"Feature","geometry":{"type":"Point","coordinates":[-0.56673,52.13093]},"properties":{"name":"Stagsden","category":"village","osm_type":"node","osm_id":"53662291"}},{"type":"Feature","geometry":{"type":"Point","coordinates":[-0.03215,52.17919]},"properties":{"name":"Kingston","category":"village","osm_type":"node","osm_id":"60851365"}},{"type":"Feature","geometry":{"type":"Point","coordinates":[-0.91322,52.04797]},"properties":{"name":"Wicken","category":"village","osm_type":"node","osm_id":"61777679"}},{"type":"Feature","geometry":{"type":"Point","coordinates":[-0.88925,52.05162]},"properties":{"name":"Deanshanger","category":"village","osm_type":"node","osm_id":"62137148"}},{"type":"Feature","geometry":{"type":"Point","coordinates":[-0.8951,52.08247]},"properties":{"name":"Potterspury","category":"village","osm_type":"node","osm_id":"62165617"}},{"type":"Feature","geometry":{"type":"Point","coordinates":[-0.88677,52.09595]},"properties":{"name":"Yardley Gobion","category":"village","osm_type":"node","osm_id":"67080240"}},{"type":"Feature","geometry":{"type":"Point","coordinates":[-0.05759,52.07987]},"properties":{"name":"Bassingbourn","category":"village","osm_type":"node","osm_id":"84588326"}},{"type":"Feature","geometry":{"type":"Point","coordinates":[-0.13532,52.08124]},"properties":{"name":"Guilden Morden","category":"village","osm_type":"node","osm_id":"84588348"}},{"type":"Feature","geometry":{"type":"Point","coordinates":[-0.03743,52.08234]},"properties":{"name":"Bassingbourn-cum-Kneesworth","category":"village","osm_type":"node","osm_id":"87304848"}},{"type":"Feature","geometry":{"type":"Point","coordinates":[-0.70038,52.03609]},"properties":{"name":"Monkston","category":"village","osm_type":"node","osm_id":"89389739","addr:city":"Milton Keynes"}},{"type":"Feature","geometry":{"type":"Point","coordinates":[-0.3191,52.28877]},"properties":{"name":"Perry","category":"village","osm_type":"node","osm_id":"90779748"}},{"type":"Feature","geometry":{"type":"Point","coordinates":[-0.44494,52.48273]},"properties":{"name":"Ashton","category":"village","osm_type":"node","osm_id":"107984032"}},{"type":"Feature","geometry":{"type":"Point","coordinates":[-0.42787,52.47039]},"properties":{"name":"Polebrook","category":"village","osm_type":"node","osm_id":"107984039"}},{"type":"Feature","geometry":{"type":"Point","coordinates":[-0.45942,52.45325]},"properties":{"name":"Barnwell","category":"village","osm_type":"node","osm_id":"107986230"}},{"type":"Feature","geometry":{"type":"Point","coordinates":[-0.46742,52.48087]},"properties":{"name":"Oundle","category":"town","osm_type":"node","osm_id":"107986814"}},{"type":"Feature","geometry":{"type":"Point","coordinates":[-0.76002,52.1488]},"properties":{"name":"Ravenstone","category":"village","osm_type":"node","osm_id":"112245839"}},{"type":"Feature","geometry":{"type":"Point","coordinates":[-0.7775,52.13085]},"properties":{"name":"Stoke Goldington","category":"village","osm_type":"node","osm_id":"112248925"}},{"type":"Feature","geometry":{"type":"Point","coordinates":[-0.73638,52.14747]},"properties":{"name":"Weston Underwood","category":"village","osm_type":"node","osm_id":"112250568"}},{"type":"Feature","geometry":{"type":"Point","coordinates":[-0.05619,52.01849]},"properties":{"name":"Therfield","category":"village","osm_type":"node","osm_id":"119698303"}},{"type":"Feature","geometry":{"type":"Point","coordinates":[-0.33593,52.12894]},"properties":{"name":"Moggerhanger","category":"village","osm_type":"node","osm_id":"130011638"}},{"type":"Feature","geometry":{"type":"Point","coordinates":[-0.52846,52.00804]},"properties":{"name":"Steppingley","category":"village","osm_type":"node","osm_id":"130080509"}},{"type":"Feature","geometry":{"type":"Point","coordinates":[-0.06533,52.27863]},"properties":{"name":"Conington","category":"village","osm_type":"node","osm_id":"132349504"}},{"type":"Feature","geometry":{"type":"Point","coordinates":[-0.0253,52.26138]},"properties":{"name":"Boxworth","category":"village","osm_type":"node","osm_id":"132349743"}},{"type":"Feature","geometry":{"type":"Point","coordinates":[-0.04669,52.249]},"properties":{"name":"Knapwell","category":"village","osm_type":"node","osm_id":"132349847"}},{"type":"Feature","geometry":{"type":"Point","coordinates":[-0.07104,52.25513]},"properties":{"name":"Elsworth","category":"village","osm_type":"node","osm_id":"132349991"}},{"type":"Feature","geometry":{"type":"Point","coordinates":[-0.10937,52.28]},"properties":{"name":"Hilton","category":"village","osm_type":"node","osm_id":"132350308"}},{"type":"Feature","geometry":{"type":"Point","coordinates":[-0.70174,52.15396]},"properties":{"name":"Olney","category":"town","osm_type":"node","osm_id":"142797333"}},{"type":"Feature","geometry":{"type":"Point","coordinates":[-0.70669,52.13758]},"properties":{"name":"Emberton","category":"village","osm_type":"node","osm_id":"142797753"}},{"type":"Feature","geometry":{"type":"Point","coordinates":[-0.68297,52.15285]},"properties":{"name":"Clifton Reynes","category":"village","osm_type":"node","osm_id":"142798241"}},{"type":"Feature","geometry":{"type":"Point","coordinates":[-0.64849,52.15404]},"properties":{"name":"Newton Blossomville","category":"village","osm_type":"node","osm_id":"142798608"}},{"type":"Feature","geometry":{"type":"Point","coordinates":[-0.8032,52.18319]},"properties":{"name":"Horton","category":"village","osm_type":"node","osm_id":"142821443"}},{"type":"Feature","geometry":{"type":"Point","coordinates":[-0.84966,52.14765]},"properties":{"name":"Hartwell","category":"village","osm_type":"node","osm_id":"149220868"}},{"type":"Feature","geometry":{"type":"Point","coordinates":[-0.83458,52.09195]},"properties":{"name":"Castlethorpe","category":"village","osm_type":"node","osm_id":"149222450"}},{"type":"Feature","geometry":{"type":"Point","coordinates":[-0.34115,52.08309]},"properties":{"name":"Old Warden","category":"village","osm_type":"node","osm_id":"158583887"}},{"type":"Feature","geometry":{"type":"Point","coordinates":[-0.92021,52.11426]},"properties":{"name":"Alderton","category":"village","osm_type":"node","osm_id":"190470987"}},{"type":"Feature","geometry":{"type":"Point","coordinates":[-0.83832,52.21982]},"properties":{"name":"Great Houghton","category":"village","osm_type":"node","osm_id":"191162927"}},{"type":"Feature","geometry":{"type":"Point","coordinates":[-0.82384,52.22906]},"properties":{"name":"Little Houghton","category":"village","osm_type":"node","osm_id":"191163070"}},{"type":"Feature","geometry":{"type":"Point","coordinates":[-0.82006,52.18804]},"properties":{"name":"Hackleton","category":"village","osm_type":"node","osm_id":"191163220"}},{"type":"Feature","geometry":{"type":"Point","coordinates":[-0.82641,52.18309]},"properties":{"name":"Piddington","category":"village","osm_type":"node","osm_id":"191163438"}},{"type":"Feature","geometry":{"type":"Point","coordinates":[-0.78751,52.23709]},"properties":{"name":"Cogenhoe","category":"village","osm_type":"node","osm_id":"191164630"}},{"type":"Feature","geometry":{"type":"Point","coordinates":[-0.67806,52.06668]},"properties":{"name":"Moulsoe","category":"village","osm_type":"node","osm_id":"192291090"}},{"type":"Feature","geometry":{"type":"Point","coordinates":[-0.80473,52.07593]},"properties":{"name":"New Haversham","category":"village","osm_type":"node","osm_id":"194191341"}},{"type":"Feature","geometry":{"type":"Point","coordinates":[-0.79091,52.07901]},"properties":{"name":"Old Haversham","category":"village","osm_type":"node","osm_id":"194191593"}},{"type":"Feature","geometry":{"type":"Point","coordinates":[-0.15894,52.24884]},"properties":{"name":"Yelling","category":"village","osm_type":"node","osm_id":"242766528"}},{"type":"Feature","geometry":{"type":"Point","coordinates":[-0.17453,52.26196]},"properties":{"name":"Graveley","category":"village","osm_type":"node","osm_id":"242766543"}},{"type":"Feature","geometry":{"type":"Point","coordinates":[-0.11952,52.32087]},"properties":{"name":"Hemingford Abbots","category":"village","osm_type":"node","osm_id":"242767260"}},{"type":"Feature","geometry":{"type":"Point","coordinates":[-0.10393,52.31824]},"properties":{"name":"Hemingford Grey","category":"village","osm_type":"node","osm_id":"242767261"}},{"type":"Feature","geometry":{"type":"Point","coordinates":[-0.04214,52.38271]},"properties":{"name":"Pidley","category":"village","osm_type":"node","osm_id":"243493350"}},{"type":"Feature","geometry":{"type":"Point","coordinates":[-0.07936,52.40415]},"properties":{"name":"Warboys","category":"village","osm_type":"node","osm_id":"243493655"}},{"type":"Feature","geometry":{"type":"Point","coordinates":[-0.18413,52.24683]},"properties":{"name":"Toseland","category":"village","osm_type":"node","osm_id":"243754274"}},{"type":"Feature","geometry":{"type":"Point","coordinates":[-0.14218,52.26393]},"properties":{"name":"Papworth St Agnes","category":"village","osm_type":"node","osm_id":"243754308"}},{"type":"Feature","geometry":{"type":"Point","coordinates":[-0.42857,52.01127]},"properties":{"name":"Silsoe","category":"village","osm_type":"node","osm_id":"243943920"}},{"type":"Feature","geometry":{"type":"Point","coordinates":[-0.32496,52.00464]},"properties":{"name":"Upper Stondon","category":"village","osm_type":"node","osm_id":"245804894"}},{"type":"Feature","geometry":{"type":"Point","coordinates":[-0.00071,52.38316]},"properties":{"name":"Somersham","category":"village","osm_type":"node","osm_id":"249354114"}},{"type":"Feature","geometry":{"type":"Point","coordinates":[-0.31748,52.14634]},"properties":{"name":"Blunham","category":"village","osm_type":"node","osm_id":"252989033"}},{"type":"Feature","geometry":{"type":"Point","coordinates":[-0.86466,52.18232]},"properties":{"name":"Quinton","category":"village","osm_type":"node","osm_id":"253783867"}},{"type":"Feature","geometry":{"type":"Point","coordinates":[-0.65101,52.09399]},"properties":{"name":"North Crawley","category":"village","osm_type":"node","osm_id":"254055352"}},{"type":"Feature","geometry":{"type":"Point","coordinates":[-0.93793,52.17479]},"properties":{"name":"Blisworth","category":"village","osm_type":"node","osm_id":"258963919"}},{"type":"Feature","geometry":{"type":"Point","coordinates":[-0.98282,52.26894]},"properties":{"name":"Upper Harlestone","category":"village","osm_type":"node","osm_id":"267078396"}},{"type":"Feature","geometry":{"type":"Point","coordinates":[-0.8139,52.37551]},"properties":{"name":"Mawsley","category":"village","osm_type":"node","osm_id":"271844195"}},{"type":"Feature","geometry":{"type":"Point","coordinates":[-0.0327,52.13163]},"properties":{"name":"Wimpole","category":"village","osm_type":"node","osm_id":"275941797"}},{"type":"Feature","geometry":{"type":"Point","coordinates":[-0.08131,52.12777]},"properties":{"name":"Croydon","category":"village","osm_type":"node","osm_id":"275941855"}},{"type":"Feature","geometry":{"type":"Point","coordinates":[-0.06892,52.11134]},"properties":{"name":"Wendy","category":"village","osm_type":"node","osm_id":"275941900"}},{"type":"Feature","geometry":{"type":"Point","coordinates":[-0.6015,52.26875]},"properties":{"name":"Wymington","category":"village","osm_type":"node","osm_id":"287121754"}},{"type":"Feature","geometry":{"type":"Point","coordinates":[-0.13971,52.22083]},"properties":{"name":"Eltisley","category":"village","osm_type":"node","osm_id":"289034199"}},{"type":"Feature","geometry":{"type":"Point","coordinates":[-0.21533,52.11105]},"properties":{"name":"Sutton","category":"village","osm_type":"node","osm_id":"293523483"}},{"type":"Feature","geometry":{"type":"Point","coordinates":[-0.24301,52.1462]},"properties":{"name":"Everton","category":"village","osm_type":"node","osm_id":"293523486"}},{"type":"Feature","geometry":{"type":"Point","coordinates":[-0.91543,52.1422]},"properties":{"name":"Stoke Bruerne","category":"village","osm_type":"node","osm_id":"294183063"}},{"type":"Feature","geometry":{"type":"Point","coordinates":[-0.8834,52.14183]},"properties":{"name":"Ashton","category":"village","osm_type":"node","osm_id":"294183340"}},{"type":"Feature","geometry":{"type":"Point","coordinates":[-0.17256,52.22239]},"properties":{"name":"Croxton","category":"village","osm_type":"node","osm_id":"294954952"}},{"type":"Feature","geometry":{"type":"Point","coordinates":[-0.02429,52.49371]},"properties":{"name":"Benwick","category":"village","osm_type":"node","osm_id":"296066760"}},{"type":"Feature","geometry":{"type":"Point","coordinates":[-0.68572,52.43882]},"properties":{"name":"Geddington","category":"village","osm_type":"node","osm_id":"296172509"}},{"type":"Feature","geometry":{"type":"Point","coordinates":[-0.61004,52.45771]},"properties":{"name":"Brigstock","category":"village","osm_type":"node","osm_id":"296174042"}},{"type":"Feature","geometry":{"type":"Point","coordinates":[-0.13128,52.11071]},"properties":{"name":"Tadlow","category":"village","osm_type":"node","osm_id":"298925644"}},{"type":"Feature","geometry":{"type":"Point","coordinates":[-0.12225,52.13724]},"properties":{"name":"East Hatley","category":"village","osm_type":"node","osm_id":"298933994"}},{"type":"Feature","geometry":{"type":"Point","coordinates":[-0.13165,52.14265]},"properties":{"name":"Hatley St George","category":"village","osm_type":"node","osm_id":"298934002"}},{"type":"Feature","geometry":{"type":"Point","coordinates":[-0.19982,52.04915]},"properties":{"name":"Hinxworth","category":"village","osm_type":"node","osm_id":"299853797"}},{"type":"Feature","geometry":{"type":"Point","coordinates":[-0.26142,52.24729]},"properties":{"name":"Little Paxton","category":"village","osm_type":"node","osm_id":"301825161"}},{"type":"Feature","geometry":{"type":"Point","coordinates":[-0.29871,52.19713]},"properties":{"name":"Wyboston","category":"village","osm_type":"node","osm_id":"306030229"}},{"type":"Feature","geometry":{"type":"Point","coordinates":[-0.19633,52.08333]},"properties":{"name":"Dunton","category":"village","osm_type":"node","osm_id":"309353430"}},{"type":"Feature","geometry":{"type":"Point","coordinates":[-0.17547,52.09568]},"properties":{"name":"Eyeworth","category":"village","osm_type":"node","osm_id":"309353481"}},{"type":"Feature","geometry":{"type":"Point","coordinates":[-0.64472,52.41322]},"properties":{"name":"Grafton Underwood","category":"village","osm_type":"node","osm_id":"309792712"}},{"type":"Feature","geometry":{"type":"Point","coordinates":[-0.51364,52.44091]},"properties":{"name":"Wadenhoe","category":"village","osm_type":"node","osm_id":"312354714"}},{"type":"Feature","geometry":{"type":"Point","coordinates":[-0.88367,52.21221]},"properties":{"name":"Hardingstone","category":"village","osm_type":"node","osm_id":"312354734"}},{"type":"Feature","geometry":{"type":"Point","coordinates":[-0.76563,52.4394]},"properties":{"name":"Rushton","category":"village","osm_type":"node","osm_id":"317767681"}},{"type":"Feature","geometry":{"type":"Point","coordinates":[-0.3351,52.4186]},"properties":{"name":"Steeple Gidding","category":"village","osm_type":"node","osm_id":"322101579"}},{"type":"Feature","geometry":{"type":"Point","coordinates":[-0.34333,52.42195]},"properties":{"name":"Little Gidding","category":"village","osm_type":"node","osm_id":"322101580"}},{"type":"Feature","geometry":{"type":"Point","coordinates":[-0.33187,52.40532]},"properties":{"name":"Hamerton","category":"village","osm_type":"node","osm_id":"322101612"}},{"type":"Feature","geometry":{"type":"Point","coordinates":[-0.27433,52.38043]},"properties":{"name":"Alconbury Weston","category":"village","osm_type":"node","osm_id":"322109264"}},{"type":"Feature","geometry":{"type":"Point","coordinates":[-0.29486,52.24489]},"properties":{"name":"Hail Weston","category":"village","osm_type":"node","osm_id":"322477175"}},{"type":"Feature","geometry":{"type":"Point","coordinates":[-0.625,52.03873]},"properties":{"name":"Hulcote","category":"village","osm_type":"node","osm_id":"323316187"}},{"type":"Feature","geometry":{"type":"Point","coordinates":[-0.61116,52.11544]},"properties":{"name":"Astwood","category":"village","osm_type":"node","osm_id":"323323247"}},{"type":"Feature","geometry":{"type":"Point","coordinates":[-0.59046,52.20991]},"properties":{"name":"Odell","category":"village","osm_type":"node","osm_id":"323327295"}},{"type":"Feature","geometry":{"type":"Point","coordinates":[-0.55722,52.24506]},"properties":{"name":"Souldrop","category":"village","osm_type":"node","osm_id":"323341721"}},{"type":"Feature","geometry":{"type":"Point","coordinates":[-0.53091,52.26003]},"properties":{"name":"Knotting","category":"village","osm_type":"node","osm_id":"323346225"}},{"type":"Feature","geometry":{"type":"Point","coordinates":[-0.52895,52.25027]},"properties":{"name":"Knotting Green","category":"village","osm_type":"node","osm_id":"323346227"}},{"type":"Feature","geometry":{"type":"Point","coordinates":[-0.33186,52.36488]},"properties":{"name":"Barham","category":"village","osm_type":"node","osm_id":"344748132"}},{"type":"Feature","geometry":{"type":"Point","coordinates":[-0.34523,52.34233]},"properties":{"name":"Spaldwick","category":"village","osm_type":"node","osm_id":"344748314"}},{"type":"Feature","geometry":{"type":"Point","coordinates":[-0.36608,52.36581]},"properties":{"name":"Leighton Bromswold","category":"village","osm_type":"node","osm_id":"344751828"}},{"type":"Feature","geometry":{"type":"Point","coordinates":[-0.37472,52.32544]},"properties":{"name":"Stow Longa","category":"village","osm_type":"node","osm_id":"344766434"}},{"type":"Feature","geometry":{"type":"Point","coordinates":[-0.3309,52.33196]},"properties":{"name":"Easton","category":"village","osm_type":"node","osm_id":"344777867"}},{"type":"Feature","geometry":{"type":"Point","coordinates":[-0.31229,52.35571]},"properties":{"name":"Woolley","category":"village","osm_type":"node","osm_id":"344779881"}},{"type":"Feature","geometry":{"type":"Point","coordinates":[-0.24567,52.27786]},"properties":{"name":"Diddington","category":"village","osm_type":"node","osm_id":"344793477"}},{"type":"Feature","geometry":{"type":"Point","coordinates":[-0.26699,52.26455]},"properties":{"name":"Southoe","category":"village","osm_type":"node","osm_id":"344794558"}},{"type":"Feature","geometry":{"type":"Point","coordinates":[-0.46846,52.36621]},"properties":{"name":"Keyston","category":"village","osm_type":"node","osm_id":"346384521"}},{"type":"Feature","geometry":{"type":"Point","coordinates":[-0.45746,52.31062]},"properties":{"name":"Lower Dean","category":"village","osm_type":"node","osm_id":"346394337"}},{"type":"Feature","geometry":{"type":"Point","coordinates":[-0.56341,52.4172]},"properties":{"name":"Lowick","category":"village","osm_type":"node","osm_id":"346410165"}},{"type":"Feature","geometry":{"type":"Point","coordinates":[-0.54274,52.48681]},"properties":{"name":"Lower Benefield","category":"village","osm_type":"node","osm_id":"346417119"}},{"type":"Feature","geometry":{"type":"Point","coordinates":[-0.56018,52.49281]},"properties":{"name":"Upper Benefield","category":"village","osm_type":"node","osm_id":"346417706"}},{"type":"Feature","geometry":{"type":"Point","coordinates":[-0.42697,52.37049]},"properties":{"name":"Molesworth","category":"village","osm_type":"node","osm_id":"346426307"}},{"type":"Feature","geometry":{"type":"Point","coordinates":[-0.41,52.36972]},"properties":{"name":"Brington","category":"village","osm_type":"node","osm_id":"346426889"}},{"type":"Feature","geometry":{"type":"Point","coordinates":[-0.53689,52.39686]},"properties":{"name":"Thrapston","category":"town","osm_type":"node","osm_id":"346598529"}},{"type":"Feature","geometry":{"type":"Point","coordinates":[-0.55017,52.40263]},"properties":{"name":"Islip","category":"village","osm_type":"node","osm_id":"346601589"}},{"type":"Feature","geometry":{"type":"Point","coordinates":[-0.29823,52.33291]},"properties":{"name":"Ellington","category":"village","osm_type":"node","osm_id":"346609327"}},{"type":"Feature","geometry":{"type":"Point","coordinates":[-0.29775,52.30859]},"properties":{"name":"Grafham","category":"village","osm_type":"node","osm_id":"353684588"}},{"type":"Feature","geometry":{"type":"Point","coordinates":[-0.56562,52.33297]},"properties":{"name":"Stanwick","category":"village","osm_type":"node","osm_id":"360622232"}},{"type":"Feature","geometry":{"type":"Point","coordinates":[-0.60495,52.19037]},"properties":{"name":"Carlton","category":"village","osm_type":"node","osm_id":"362856346"}},{"type":"Feature","geometry":{"type":"Point","coordinates":[-0.64282,52.26334]},"properties":{"name":"Farndish","category":"village","osm_type":"node","osm_id":"365231530"}},{"type":"Feature","geometry":{"type":"Point","coordinates":[-0.49816,52.405]},"properties":{"name":"Titchmarsh","category":"village","osm_type":"node","osm_id":"365752260"}},{"type":"Feature","geometry":{"type":"Point","coordinates":[-0.30277,52.16221]},"properties":{"name":"Tempsford","category":"village","osm_type":"node","osm_id":"385442867"}},{"type":"Feature","geometry":{"type":"Point","coordinates":[-0.31543,52.17629]},"properties":{"name":"Roxton","category":"village","osm_type":"node","osm_id":"385444388"}},{"type":"Feature","geometry":{"type":"Point","coordinates":[-0.19974,52.02967]},"properties":{"name":"Caldecote","category":"village","osm_type":"node","osm_id":"385566337"}},{"type":"Feature","geometry":{"type":"Point","coordinates":[-0.1853,52.02099]},"properties":{"name":"Newnham","category":"village","osm_type":"node","osm_id":"385566338"}},{"type":"Feature","geometry":{"type":"Point","coordinates":[-0.03732,52.3182]},"properties":{"name":"Holywell","category":"village","osm_type":"node","osm_id":"391655256"}},{"type":"Feature","geometry":{"type":"Point","coordinates":[-0.09169,52.37659]},"properties":{"name":"Old Hurst","category":"village","osm_type":"node","osm_id":"391663141"}},{"type":"Feature","geometry":{"type":"Point","coordinates":[-0.4098,52.22533]},"properties":{"name":"Bolnhurst","category":"village","osm_type":"node","osm_id":"415270984"}},{"type":"Feature","geometry":{"type":"Point","coordinates":[-0.54338,52.37832]},"properties":{"name":"Denford","category":"village","osm_type":"node","osm_id":"415462184"}},{"type":"Feature","geometry":{"type":"Point","coordinates":[-0.59374,52.36579]},"properties":{"name":"Great Addington","category":"village","osm_type":"node","osm_id":"416880244"}},{"type":"Feature","geometry":{"type":"Point","coordinates":[-0.58061,52.38199]},"properties":{"name":"Woodford","category":"village","osm_type":"node","osm_id":"416880270"}},{"type":"Feature","geometry":{"type":"Point","coordinates":[-0.59323,52.3517]},"properties":{"name":"Little Addington","category":"village","osm_type":"node","osm_id":"416880276"}},{"type":"Feature","geometry":{"type":"Point","coordinates":[-0.63984,52.38314]},"properties":{"name":"Cranford St. John","category":"village","osm_type":"node","osm_id":"418438449"}},{"type":"Feature","geometry":{"type":"Point","coordinates":[-0.40782,52.3467]},"properties":{"name":"Catworth","category":"village","osm_type":"node","osm_id":"437564704"}},{"type":"Feature","geometry":{"type":"Point","coordinates":[-0.38785,52.38277]},"properties":{"name":"Old Weston","category":"village","osm_type":"node","osm_id":"437564786"}},{"type":"Feature","geometry":{"type":"Point","coordinates":[-0.35828,52.4333]},"properties":{"name":"Great Gidding","category":"village","osm_type":"node","osm_id":"437565493"}},{"type":"Feature","geometry":{"type":"Point","coordinates":[-0.54732,52.31484]},"properties":{"name":"Chelveston","category":"village","osm_type":"node","osm_id":"441230506"}},{"type":"Feature","geometry":{"type":"Point","coordinates":[-0.30295,52.46037]},"properties":{"name":"Glatton","category":"village","osm_type":"node","osm_id":"442714874"}},{"type":"Feature","geometry":{"type":"Point","coordinates":[-0.37904,52.4142]},"properties":{"name":"Winwick","category":"village","osm_type":"node","osm_id":"442715368"}},{"type":"Feature","geometry":{"type":"Point","coordinates":[-0.40221,52.43366]},"properties":{"name":"Thurning","category":"village","osm_type":"node","osm_id":"442715375"}},{"type":"Feature","geometry":{"type":"Point","coordinates":[-0.37406,52.44015]},"properties":{"name":"Luddington in the Brook","category":"village","osm_type":"node","osm_id":"442715383"}},{"type":"Feature","geometry":{"type":"Point","coordinates":[-0.86495,52.0634]},"properties":{"name":"Old Stratford","category":"village","osm_type":"node","osm_id":"461884850"}},{"type":"Feature","geometry":{"type":"Point","coordinates":[-0.90536,52.47462]},"properties":{"name":"Little Bowden","category":"village","osm_type":"node","osm_id":"461977694"}},{"type":"Feature","geometry":{"type":"Point","coordinates":[-0.31315,52.49576]},"properties":{"name":"Folksworth","category":"village","osm_type":"node","osm_id":"491460292"}},{"type":"Feature","geometry":{"type":"Point","coordinates":[-0.36184,52.47516]},"properties":{"name":"Lutton","category":"village","osm_type":"node","osm_id":"491540055"}},{"type":"Feature","geometry":{"type":"Point","coordinates":[-0.37562,52.28987]},"properties":{"name":"Stonely","category":"village","osm_type":"node","osm_id":"528869188"}},{"type":"Feature","geometry":{"type":"Point","coordinates":[-0.33609,52.27741]},"properties":{"name":"Dillington","category":"village","osm_type":"node","osm_id":"528878575"}},{"type":"Feature","geometry":{"type":"Point","coordinates":[-0.65628,52.47199]},"properties":{"name":"Stanion","category":"village","osm_type":"node","osm_id":"530688084"}},{"type":"Feature","geometry":{"type":"Point","coordinates":[-0.68881,52.40977]},"properties":{"name":"Warkton","category":"village","osm_type":"node","osm_id":"530693553"}},{"type":"Feature","geometry":{"type":"Point","coordinates":[-0.70564,52.44165]},"properties":{"name":"Newton","category":"village","osm_type":"node","osm_id":"530693980"}},{"type":"Feature","geometry":{"type":"Point","coordinates":[-0.69637,52.41825]},"properties":{"name":"Weekley","category":"village","osm_type":"node","osm_id":"530693984"}},{"type":"Feature","geometry":{"type":"Point","coordinates":[-0.45011,52.37075]},"properties":{"name":"Bythorn","category":"village","osm_type":"node","osm_id":"534935777"}},{"type":"Feature","geometry":{"type":"Point","coordinates":[-0.86146,52.0474]},"properties":{"name":"Passenham","category":"village","osm_type":"node","osm_id":"594742529"}},{"type":"Feature","geometry":{"type":"Point","coordinates":[-0.94415,52.24294]},"properties":{"name":"Duston","category":"village","osm_type":"node","osm_id":"603369060"}},{"type":"Feature","geometry":{"type":"Point","coordinates":[-0.32201,52.10562]},"properties":{"name":"Northill","category":"village","osm_type":"node","osm_id":"610667325"}},{"type":"Feature","geometry":{"type":"Point","coordinates":[-0.29383,52.11917]},"properties":{"name":"Beeston","category":"village","osm_type":"node","osm_id":"614857120"}},{"type":"Feature","geometry":{"type":"Point","coordinates":[-0.88079,52.18817]},"properties":{"name":"Grange Park","category":"village","osm_type":"node","osm_id":"631779835"}},{"type":"Feature","geometry":{"type":"Point","coordinates":[-0.94969,52.32424]},"properties":{"name":"Spratton","category":"village","osm_type":"node","osm_id":"679991639"}},{"type":"Feature","geometry":{"type":"Point","coordinates":[-0.98956,52.34189]},"properties":{"name":"Hollowell","category":"village","osm_type":"node","osm_id":"679991661"}},{"type":"Feature","geometry":{"type":"Point","coordinates":[-0.98146,52.30399]},"properties":{"name":"Holdenby","category":"village","osm_type":"node","osm_id":"679991672"}},{"type":"Feature","geometry":{"type":"Point","coordinates":[-0.96283,52.34143]},"properties":{"name":"Great Creaton","category":"village","osm_type":"node","osm_id":"679991675"}},{"type":"Feature","geometry":{"type":"Point","coordinates":[-0.98426,52.32623]},"properties":{"name":"Teeton","category":"village","osm_type":"node","osm_id":"679991683"}},{"type":"Feature","geometry":{"type":"Point","coordinates":[-0.60366,52.39474]},"properties":{"name":"Twywell","category":"village","osm_type":"node","osm_id":"685192123"}},{"type":"Feature","geometry":{"type":"Point","coordinates":[-0.60412,52.40211]},"properties":{"name":"Slipton","category":"village","osm_type":"node","osm_id":"685192124"}},{"type":"Feature","geometry":{"type":"Point","coordinates":[-0.46242,52.09384]},"properties":{"name":"Wixams","category":"village","osm_type":"node","osm_id":"701547562"}},{"type":"Feature","geometry":{"type":"Point","coordinates":[-0.87422,52.02419]},"properties":{"name":"Beachampton","category":"village","osm_type":"node","osm_id":"765644560"}},{"type":"Feature","geometry":{"type":"Point","coordinates":[-0.1432,52.18628]},"properties":{"name":"Great Gransden","category":"village","osm_type":"node","osm_id":"765951155"}},{"type":"Feature","geometry":{"type":"Point","coordinates":[-0.82128,52.4418]},"properties":{"name":"Desborough","category":"town","osm_type":"node","osm_id":"920367356"}},{"type":"Feature","geometry":{"type":"Point","coordinates":[-0.84956,52.04253]},"properties":{"name":"Lower Weald","category":"village","osm_type":"node","osm_id":"925114176"}},{"type":"Feature","geometry":{"type":"Point","coordinates":[-0.54681,52.07368]},"properties":{"name":"Lower Shelton","category":"village","osm_type":"node","osm_id":"927329419"}},{"type":"Feature","geometry":{"type":"Point","coordinates":[-0.55453,52.08025]},"properties":{"name":"Upper Shelton","category":"village","osm_type":"node","osm_id":"954356792"}},{"type":"Feature","geometry":{"type":"Point","coordinates":[-0.3983,52.0666]},"properties":{"name":"Haynes","category":"village","osm_type":"node","osm_id":"975173099"}},{"type":"Feature","geometry":{"type":"Point","coordinates":[-0.46583,52.0025]},"properties":{"name":"Greenfield","category":"village","osm_type":"node","osm_id":"978965930"}},{"type":"Feature","geometry":{"type":"Point","coordinates":[-0.38138,52.01054]},"properties":{"name":"Upper Gravenhurst","category":"village","osm_type":"node","osm_id":"979064327"}},{"type":"Feature","geometry":{"type":"Point","coordinates":[-0.40254,52.16251]},"properties":{"name":"Renhold","category":"village","osm_type":"node","osm_id":"1000243498"}},{"type":"Feature","geometry":{"type":"Point","coordinates":[-0.37833,52.21764]},"properties":{"name":"Colmworth","category":"village","osm_type":"node","osm_id":"1009583428"}},{"type":"Feature","geometry":{"type":"Point","coordinates":[-0.62932,52.0139]},"properties":{"name":"Aspley Guise","category":"village","osm_type":"node","osm_id":"1023229819"}},{"type":"Feature","geometry":{"type":"Point","coordinates":[-0.53766,52.28215]},"properties":{"name":"Newton Bromswold","category":"village","osm_type":"node","osm_id":"1073984360"}},{"type":"Feature","geometry":{"type":"Point","coordinates":[-0.65561,52.33915]},"properties":{"name":"Finedon","category":"town","osm_type":"node","osm_id":"1110862540"}},{"type":"Feature","geometry":{"type":"Point","coordinates":[-0.6712,52.47553]},"properties":{"name":"Little Stanion","category":"village","osm_type":"node","osm_id":"1119901769"}},{"type":"Feature","geometry":{"type":"Point","coordinates":[-0.80972,52.3318]},"properties":{"name":"Hannington","category":"village","osm_type":"node","osm_id":"1121982996"}},{"type":"Feature","geometry":{"type":"Point","coordinates":[-0.31428,52.37683]},"properties":{"name":"Buckworth","category":"village","osm_type":"node","osm_id":"1127020030"}},{"type":"Feature","geometry":{"type":"Point","coordinates":[-0.75422,52.32053]},"properties":{"name":"Hardwick","category":"village","osm_type":"node","osm_id":"1138201547"}},{"type":"Feature","geometry":{"type":"Point","coordinates":[-0.65288,52.00339]},"properties":{"name":"Aspley Heath","category":"village","osm_type":"node","osm_id":"1203450752"}},{"type":"Feature","geometry":{"type":"Point","coordinates":[-0.92754,52.19408]},"properties":{"name":"Milton Malsor","category":"village","osm_type":"node","osm_id":"1214239731"}},{"type":"Feature","geometry":{"type":"Point","coordinates":[-0.67831,52.28723]},"properties":{"name":"Little Irchester","category":"village","osm_type":"node","osm_id":"1223432102"}},{"type":"Feature","geometry":{"type":"Point","coordinates":[-0.16041,52.33809]},"properties":{"name":"Hartford","category":"village","osm_type":"node","osm_id":"1233351990"}},{"type":"Feature","geometry":{"type":"Point","coordinates":[-0.77518,52.21393]},"properties":{"name":"Denton","category":"village","osm_type":"node","osm_id":"1269598414"}},{"type":"Feature","geometry":{"type":"Point","coordinates":[-0.69259,52.37838]},"properties":{"name":"Barton Seagrave","category":"village","osm_type":"node","osm_id":"1271970859"}},{"type":"Feature","geometry":{"type":"Point","coordinates":[-0.43371,52.41079]},"properties":{"name":"Clopton","category":"village","osm_type":"node","osm_id":"1311053706"}},{"type":"Feature","geometry":{"type":"Point","coordinates":[-0.2763,52.39186]},"properties":{"name":"Upton","category":"village","osm_type":"node","osm_id":"1372483996"}},{"type":"Feature","geometry":{"type":"Point","coordinates":[-0.68801,52.4613]},"properties":{"name":"Little Oakley","category":"village","osm_type":"node","osm_id":"1407532653"}},{"type":"Feature","geometry":{"type":"Point","coordinates":[-0.72419,52.46384]},"properties":{"name":"Great Oakley","category":"village","osm_type":"node","osm_id":"1407532657"}},{"type":"Feature","geometry":{"type":"Point","coordinates":[-0.52233,52.42594]},"properties":{"name":"Aldwincle","category":"village","osm_type":"node","osm_id":"1505483825"}},{"type":"Feature","geometry":{"type":"Point","coordinates":[-0.28842,52.12923]},"properties":{"name":"Sandy","category":"town","osm_type":"node","osm_id":"1565068016"}},{"type":"Feature","geometry":{"type":"Point","coordinates":[-0.28206,52.43807]},"properties":{"name":"Sawtry","category":"village","osm_type":"node","osm_id":"1589843076"}},{"type":"Feature","geometry":{"type":"Point","coordinates":[-0.95518,52.39074]},"properties":{"name":"Haselbech","category":"village","osm_type":"node","osm_id":"1705960493"}},{"type":"Feature","geometry":{"type":"Point","coordinates":[-0.96805,52.03351]},"properties":{"name":"Akeley","category":"village","osm_type":"node","osm_id":"1803601383"}},{"type":"Feature","geometry":{"type":"Point","coordinates":[-0.8822,52.17057]},"properties":{"name":"Courteenhall","category":"village","osm_type":"node","osm_id":"1906863462"}},{"type":"Feature","geometry":{"type":"Point","coordinates":[-0.32195,52.09637]},"properties":{"name":"Ickwell","category":"village","osm_type":"node","osm_id":"1975707008"}},{"type":"Feature","geometry":{"type":"Point","coordinates":[-0.75703,52.23728]},"properties":{"name":"Whiston","category":"village","osm_type":"node","osm_id":"2083704620"}},{"type":"Feature","geometry":{"type":"Point","coordinates":[-0.2486,52.00042]},"properties":{"name":"Fairfield","category":"village","osm_type":"node","osm_id":"2322078718"}},{"type":"Feature","geometry":{"type":"Point","coordinates":[-0.48225,52.4413]},"properties":{"name":"Lilford","category":"village","osm_type":"node","osm_id":"2419344180"}},{"type":"Feature","geometry":{"type":"Point","coordinates":[-0.59583,52.03417]},"properties":{"name":"Brogborough","category":"village","osm_type":"node","osm_id":"2435635027"}},{"type":"Feature","geometry":{"type":"Point","coordinates":[-0.97449,52.01316]},"properties":{"name":"Maids Moreton","category":"village","osm_type":"node","osm_id":"2450770331"}},{"type":"Feature","geometry":{"type":"Point","coordinates":[-0.63926,52.49597]},"properties":{"name":"Weldon","category":"village","osm_type":"node","osm_id":"2613176678"}},{"type":"Feature","geometry":{"type":"Point","coordinates":[-0.15981,52.00991]},"properties":{"name":"Bygrave","category":"village","osm_type":"node","osm_id":"2784837650"}},{"type":"Feature","geometry":{"type":"Point","coordinates":[-0.20539,52.0072]},"properties":{"name":"Radwell","category":"village","osm_type":"node","osm_id":"2786536301"}},{"type":"Feature","geometry":{"type":"Point","coordinates":[-0.93922,52.14254]},"properties":{"name":"Shutlanger","category":"village","osm_type":"node","osm_id":"2872240586"}},{"type":"Feature","geometry":{"type":"Point","coordinates":[-0.98014,52.05115]},"properties":{"name":"Lillingstone Dayrell","category":"village","osm_type":"node","osm_id":"3493920884"}},{"type":"Feature","geometry":{"type":"Point","coordinates":[-0.27395,52.19886]},"properties":{"name":"Little Barford","category":"village","osm_type":"node","osm_id":"3595164536"}},{"type":"Feature","geometry":{"type":"Point","coordinates":[-0.69081,52.17742]},"properties":{"name":"Warrington","category":"village","osm_type":"node","osm_id":"3639907763"}},{"type":"Feature","geometry":{"type":"Point","coordinates":[-0.4961,52.42271]},"properties":{"name":"Thorpe Waterville","category":"village","osm_type":"node","osm_id":"4218750516"}},{"type":"Feature","geometry":{"type":"Point","coordinates":[-0.78248,52.38292]},"properties":{"name":"Great Cransley","category":"village","osm_type":"node","osm_id":"4396322887"}},{"type":"Feature","geometry":{"type":"Point","coordinates":[-0.58057,52.42876]},"properties":{"name":"Sudborough","category":"village","osm_type":"node","osm_id":"4401654890"}},{"type":"Feature","geometry":{"type":"Point","coordinates":[-0.91923,52.44344]},"properties":{"name":"Great Oxendon","category":"village","osm_type":"node","osm_id":"4427619539"}},{"type":"Feature","geometry":{"type":"Point","coordinates":[-0.50517,52.14048]},"properties":{"name":"Biddenham","category":"village","osm_type":"node","osm_id":"4639818820"}},{"type":"Feature","geometry":{"type":"Point","coordinates":[-0.9047,52.19426]},"properties":{"name":"Collingtree","category":"village","osm_type":"node","osm_id":"5569931924"}},{"type":"Feature","geometry":{"type":"Point","coordinates":[-0.94628,52.23463]},"properties":{"name":"Upton","category":"village","osm_type":"node","osm_id":"5569967548"}},{"type":"Feature","geometry":{"type":"Point","coordinates":[-0.8845,52.20295]},"properties":{"name":"Wootton","category":"village","osm_type":"node","osm_id":"5569986305"}},{"type":"Feature","geometry":{"type":"Point","coordinates":[-0.03803,52.29692]},"properties":{"name":"Fen Drayton","category":"village","osm_type":"node","osm_id":"5586420812"}},{"type":"Feature","geometry":{"type":"Point","coordinates":[-0.15174,52.42613]},"properties":{"name":"Upwood","category":"village","osm_type":"node","osm_id":"7535923455"}},{"type":"Feature","geometry":{"type":"Point","coordinates":[-0.90358,52.2246]},"properties":{"name":"Far Cotton","category":"village","osm_type":"node","osm_id":"8007758909"}},{"type":"Feature","geometry":{"type":"Point","coordinates":[-0.07754,52.47268]},"properties":{"name":"Ramsey Forty Foot","category":"village","osm_type":"node","osm_id":"8507033376"}},{"type":"Feature","geometry":{"type":"Point","coordinates":[-0.97958,52.1597]},"properties":{"name":"Tiffield","category":"village","osm_type":"node","osm_id":"10296124014"}},{"type":"Feature","geometry":{"type":"Point","coordinates":[-0.64839,52.38723]},"properties":{"name":"Cranford St. Andrew","category":"village","osm_type":"node","osm_id":"10723911252"}},{"type":"Feature","geometry":{"type":"Point","coordinates":[-0.11829,52.34738]},"properties":{"name":"Wyton-on-the-Hill","category":"village","osm_type":"node","osm_id":"12306025483"}},{"type":"Feature","geometry":{"type":"Point","coordinates":[-0.73652,52.03617]},"properties":{"name":"Milton Keynes","category":"city","osm_type":"relation","osm_id":"14186936"}},{"type":"Feature","geometry":{"type":"Point","coordinates":[-0.34515,52.34102]},"properties":{"name":"Spaldwick","category":"village","osm_type":"way","osm_id":"31005296"}},{"type":"Feature","geometry":{"type":"Point","coordinates":[-0.33047,52.33057]},"properties":{"name":"Easton","category":"village","osm_type":"way","osm_id":"31007129"}},{"type":"Feature","geometry":{"type":"Point","coordinates":[-0.31194,52.35592]},"properties":{"name":"Woolley","category":"village","osm_type":"way","osm_id":"31007304"}},{"type":"Feature","geometry":{"type":"Point","coordinates":[-0.45694,52.31081]},"properties":{"name":"Lower Dean","category":"village","osm_type":"way","osm_id":"31144514"}},{"type":"Feature","geometry":{"type":"Point","coordinates":[-0.29915,52.33171]},"properties":{"name":"Ellington","category":"village","osm_type":"way","osm_id":"31151450"}},{"type":"Feature","geometry":{"type":"Point","coordinates":[-0.26144,52.24811]},"properties":{"name":"Little Paxton","category":"village","osm_type":"way","osm_id":"31151576"}},{"type":"Feature","geometry":{"type":"Point","coordinates":[-0.24889,52.29417]},"properties":{"name":"Buckden","category":"village","osm_type":"way","osm_id":"58796835"}},{"type":"Feature","geometry":{"type":"Point","coordinates":[-0.25453,52.27641]},"properties":{"name":"Diddington","category":"village","osm_type":"way","osm_id":"58796839"}},{"type":"Feature","geometry":{"type":"Point","coordinates":[-0.2627,52.22107]},"properties":{"name":"St Neots","category":"town","osm_type":"way","osm_id":"58800387"}},{"type":"Feature","geometry":{"type":"Point","coordinates":[-0.17187,52.25997]},"properties":{"name":"Graveley","category":"village","osm_type":"way","osm_id":"58800388"}},{"type":"Feature","geometry":{"type":"Point","coordinates":[-0.06924,52.21764]},"properties":{"name":"Cambourne","category":"town","osm_type":"way","osm_id":"58821388"}},{"type":"Feature","geometry":{"type":"Point","coordinates":[-0.04705,52.24725]},"properties":{"name":"Knapwell","category":"village","osm_type":"way","osm_id":"58821389"}},{"type":"Feature","geometry":{"type":"Point","coordinates":[-0.06114,52.27967]},"properties":{"name":"Conington","category":"village","osm_type":"way","osm_id":"58821390"}},{"type":"Feature","geometry":{"type":"Point","coordinates":[-0.02595,52.2602]},"properties":{"name":"Boxworth","category":"village","osm_type":"way","osm_id":"58821391"}},{"type":"Feature","geometry":{"type":"Point","coordinates":[-0.1516,52.42651]},"properties":{"name":"Upwood","category":"village","osm_type":"way","osm_id":"161706485"}},{"type":"Feature","geometry":{"type":"Point","coordinates":[-0.07976,52.40578]},"properties":{"name":"Warboys","category":"village","osm_type":"way","osm_id":"161706487"}},{"type":"Feature","geometry":{"type":"Point","coordinates":[-0.56023,52.49335]},"properties":{"name":"Upper Benefield","category":"village","osm_type":"way","osm_id":"233432830"}},{"type":"Feature","geometry":{"type":"Point","coordinates":[-0.54066,52.48736]},"properties":{"name":"Lower Benefield","category":"village","osm_type":"way","osm_id":"233432831"}},{"type":"Feature","geometry":{"type":"Point","coordinates":[-0.48226,52.44114]},"properties":{"name":"Lilford","category":"village","osm_type":"way","osm_id":"233568609"}},{"type":"Feature","geometry":{"type":"Point","coordinates":[-0.14248,52.1798]},"properties":{"name":"Little Gransden","category":"village","osm_type":"way","osm_id":"652825249"}},{"type":"Feature","geometry":{"type":"Point","coordinates":[-0.56554,52.33366]},"properties":{"name":"Stanwick","category":"village","osm_type":"way","osm_id":"713119375"}},{"type":"Feature","geometry":{"type":"Point","coordinates":[-0.00684,52.29483]},"properties":{"name":"Swavesey","category":"village","osm_type":"way","osm_id":"815964512"}},{"type":"Feature","geometry":{"type":"Point","coordinates":[-0.09334,52.20826]},"properties":{"name":"Caxton","category":"village","osm_type":"way","osm_id":"852052125"}},{"type":"Feature","geometry":{"type":"Point","coordinates":[-0.28358,52.43654]},"properties":{"name":"Sawtry","category":"village","osm_type":"way","osm_id":"900728939"}},{"type":"Feature","geometry":{"type":"Point","coordinates":[-0.26046,52.01414]},"properties":{"name":"Arlesey","category":"town","osm_type":"way","osm_id":"918237297"}},{"type":"Feature","geometry":{"type":"Point","coordinates":[-0.23212,52.01798]},"properties":{"name":"Stotfold","category":"town","osm_type":"way","osm_id":"918259494"}},{"type":"Feature","geometry":{"type":"Point","coordinates":[-0.03202,52.17858]},"properties":{"name":"Kingston","category":"village","osm_type":"way","osm_id":"1041181089"}},{"type":"Feature","geometry":{"type":"Point","coordinates":[-0.10781,52.48461]},"properties":{"name":"Ramsey Mereside","category":"village","osm_type":"way","osm_id":"1270682075"}}]}