{"type":"FeatureCollection","features":[{"type":"Feature","geometry":{"type":"Point","coordinates":[-0.77246,50.9941]},"properties":{"name":"Stedham","category":"village","osm_type":"node","osm_id":"262719"}},{"type":"Feature","geometry":{"type":"Point","coordinates":[-0.83894,50.9697]},"properties":{"name":"Elsted","category":"village","osm_type":"node","osm_id":"262769"}},{"type":"Feature","geometry":{"type":"Point","coordinates":[-0.88191,50.96943]},"properties":{"name":"South Harting","category":"village","osm_type":"node","osm_id":"262782"}},{"type":"Feature","geometry":{"type":"Point","coordinates":[-0.85956,50.9888]},"properties":{"name":"Nyewood","category":"village","osm_type":"node","osm_id":"262803"}},{"type":"Feature","geometry":{"type":"Point","coordinates":[-0.94989,50.97705]},"properties":{"name":"Buriton","category":"village","osm_type":"node","osm_id":"262817"}},{"type":"Feature","geometry":{"type":"Point","coordinates":[-0.45555,50.91845]},"properties":{"name":"Storrington","category":"town","osm_type":"node","osm_id":"10006533"}},{"type":"Feature","geometry":{"type":"Point","coordinates":[-0.54244,50.80958]},"properties":{"name":"Littlehampton","category":"town","osm_type":"node","osm_id":"17511394"}},{"type":"Feature","geometry":{"type":"Point","coordinates":[-0.10497,50.99996]},"properties":{"name":"Haywards Heath","category":"town","osm_type":"node","osm_id":"17723703"}},{"type":"Feature","geometry":{"type":"Point","coordinates":[-0.13329,50.95754]},"properties":{"name":"Burgess Hill","category":"town","osm_type":"node","osm_id":"17723728"}},{"type":"Feature","geometry":{"type":"Point","coordinates":[-0.61011,50.98629]},"properties":{"name":"Petworth","category":"town","osm_type":"node","osm_id":"18339022"}},{"type":"Feature","geometry":{"type":"Point","coordinates":[-0.5394,50.96124]},"properties":{"name":"Stopham","category":"village","osm_type":"node","osm_id":"18675412"}},{"type":"Feature","geometry":{"type":"Point","coordinates":[-0.50977,50.95756]},"properties":{"name":"Pulborough","category":"village","osm_type":"node","osm_id":"18676047"}},{"type":"Feature","geometry":{"type":"Point","coordinates":[-0.74043,50.98419]},"properties":{"name":"Midhurst","category":"town","osm_type":"node","osm_id":"19049662"}},{"type":"Feature","geometry":{"type":"Point","coordinates":[-0.98213,50.85194]},"properties":{"name":"Havant","category":"town","osm_type":"node","osm_id":"21301585"}},{"type":"Feature","geometry":{"type":"Point","coordinates":[-0.96044,50.93932]},"properties":{"name":"Chalton","category":"village","osm_type":"node","osm_id":"26997609"}},{"type":"Feature","geometry":{"type":"Point","coordinates":[-0.77917,50.83649]},"properties":{"name":"Chichester","category":"city","osm_type":"node","osm_id":"27209507"}},{"type":"Feature","geometry":{"type":"Point","coordinates":[-0.5632,50.91262]},"properties":{"name":"Bury","category":"village","osm_type":"node","osm_id":"27209508"}},{"type":"Feature","geometry":{"type":"Point","coordinates":[-0.63265,50.86603]},"properties":{"name":"Slindon","category":"village","osm_type":"node","osm_id":"27428317"}},{"type":"Feature","geometry":{"type":"Point","coordinates":[-0.93713,50.84732]},"properties":{"name":"Emsworth","category":"town","osm_type":"node","osm_id":"27540250"}},{"type":"Feature","geometry":{"type":"Point","coordinates":[-0.99672,50.91398]},"properties":{"name":"Horndean","category":"village","osm_type":"node","osm_id":"29211917"}},{"type":"Feature","geometry":{"type":"Point","coordinates":[-0.96014,50.89116]},"properties":{"name":"Rowlands Castle","category":"village","osm_type":"node","osm_id":"29213499"}},{"type":"Feature","geometry":{"type":"Point","coordinates":[-0.72277,50.99721]},"properties":{"name":"Easebourne","category":"village","osm_type":"node","osm_id":"29213827"}},{"type":"Feature","geometry":{"type":"Point","coordinates":[-0.73445,50.98001]},"properties":{"name":"West Lavington","category":"village","osm_type":"node","osm_id":"29213947"}},{"type":"Feature","geometry":{"type":"Point","coordinates":[-0.75153,50.95095]},"properties":{"name":"Cocking","category":"village","osm_type":"node","osm_id":"29219526"}},{"type":"Feature","geometry":{"type":"Point","coordinates":[-0.72342,50.95552]},"properties":{"name":"Heyshott","category":"village","osm_type":"node","osm_id":"29219527"}},{"type":"Feature","geometry":{"type":"Point","coordinates":[-0.67692,50.95163]},"properties":{"name":"Graffham","category":"village","osm_type":"node","osm_id":"29219860"}},{"type":"Feature","geometry":{"type":"Point","coordinates":[-0.89695,50.92741]},"properties":{"name":"Compton","category":"village","osm_type":"node","osm_id":"29267224"}},{"type":"Feature","geometry":{"type":"Point","coordinates":[-0.90165,50.91724]},"properties":{"name":"West Marden","category":"village","osm_type":"node","osm_id":"29267276"}},{"type":"Feature","geometry":{"type":"Point","coordinates":[-0.75392,50.91157]},"properties":{"name":"Singleton","category":"village","osm_type":"node","osm_id":"29268820"}},{"type":"Feature","geometry":{"type":"Point","coordinates":[-0.78231,50.90459]},"properties":{"name":"West Dean","category":"village","osm_type":"node","osm_id":"29269161"}},{"type":"Feature","geometry":{"type":"Point","coordinates":[-0.78399,50.87152]},"properties":{"name":"Lavant","category":"village","osm_type":"node","osm_id":"29269251"}},{"type":"Feature","geometry":{"type":"Point","coordinates":[-0.86117,50.89649]},"properties":{"name":"Stoughton","category":"village","osm_type":"node","osm_id":"29277962"}},{"type":"Feature","geometry":{"type":"Point","coordinates":[-0.87924,50.89012]},"properties":{"name":"Walderton","category":"village","osm_type":"node","osm_id":"29277976"}},{"type":"Feature","geometry":{"type":"Point","coordinates":[-0.92573,50.86416]},"properties":{"name":"Westbourne","category":"village","osm_type":"node","osm_id":"29278009"}},{"type":"Feature","geometry":{"type":"Point","coordinates":[-0.85547,50.83219]},"properties":{"name":"Bosham","category":"village","osm_type":"node","osm_id":"29278022"}},{"type":"Feature","geometry":{"type":"Point","coordinates":[-0.88401,50.82983]},"properties":{"name":"Chidham","category":"village","osm_type":"node","osm_id":"29278023"}},{"type":"Feature","geometry":{"type":"Point","coordinates":[-0.8657,50.86912]},"properties":{"name":"Funtington","category":"village","osm_type":"node","osm_id":"29278043"}},{"type":"Feature","geometry":{"type":"Point","coordinates":[-0.90936,50.84494]},"properties":{"name":"Southbourne","category":"village","osm_type":"node","osm_id":"29278118"}},{"type":"Feature","geometry":{"type":"Point","coordinates":[-0.89609,50.84386]},"properties":{"name":"Nutbourne","category":"village","osm_type":"node","osm_id":"29278120"}},{"type":"Feature","geometry":{"type":"Point","coordinates":[-0.73762,50.90946]},"properties":{"name":"Charlton","category":"village","osm_type":"node","osm_id":"29278139"}},{"type":"Feature","geometry":{"type":"Point","coordinates":[-0.71579,50.90865]},"properties":{"name":"East Dean","category":"village","osm_type":"node","osm_id":"29278140"}},{"type":"Feature","geometry":{"type":"Point","coordinates":[-0.66652,50.87695]},"properties":{"name":"Eartham","category":"village","osm_type":"node","osm_id":"29278145"}},{"type":"Feature","geometry":{"type":"Point","coordinates":[-0.7128,50.86034]},"properties":{"name":"Boxgrove","category":"village","osm_type":"node","osm_id":"29278146"}},{"type":"Feature","geometry":{"type":"Point","coordinates":[-0.71026,50.86593]},"properties":{"name":"Halnaker","category":"village","osm_type":"node","osm_id":"29278149"}},{"type":"Feature","geometry":{"type":"Point","coordinates":[-0.80554,50.8222]},"properties":{"name":"Apuldram","category":"village","osm_type":"node","osm_id":"29336306"}},{"type":"Feature","geometry":{"type":"Point","coordinates":[-0.7881,50.81173]},"properties":{"name":"Donnington","category":"village","osm_type":"node","osm_id":"29336410"}},{"type":"Feature","geometry":{"type":"Point","coordinates":[-0.7763,50.8111]},"properties":{"name":"Hunston","category":"village","osm_type":"node","osm_id":"29336439"}},{"type":"Feature","geometry":{"type":"Point","coordinates":[-0.83202,50.79527]},"properties":{"name":"Birdham","category":"village","osm_type":"node","osm_id":"29336540"}},{"type":"Feature","geometry":{"type":"Point","coordinates":[-0.86628,50.80577]},"properties":{"name":"West Itchenor","category":"village","osm_type":"node","osm_id":"29336549"}},{"type":"Feature","geometry":{"type":"Point","coordinates":[-0.89546,50.78056]},"properties":{"name":"West Wittering","category":"village","osm_type":"node","osm_id":"29336736"}},{"type":"Feature","geometry":{"type":"Point","coordinates":[-0.87322,50.76697]},"properties":{"name":"East Wittering","category":"village","osm_type":"node","osm_id":"29336783"}},{"type":"Feature","geometry":{"type":"Point","coordinates":[-0.85883,50.76236]},"properties":{"name":"Bracklesham","category":"village","osm_type":"node","osm_id":"29336862"}},{"type":"Feature","geometry":{"type":"Point","coordinates":[-0.803,50.77795]},"properties":{"name":"Highleigh","category":"village","osm_type":"node","osm_id":"29336947"}},{"type":"Feature","geometry":{"type":"Point","coordinates":[-0.79101,50.7824]},"properties":{"name":"Sidlesham","category":"village","osm_type":"node","osm_id":"29336976"}},{"type":"Feature","geometry":{"type":"Point","coordinates":[-0.79229,50.73278]},"properties":{"name":"Selsey","category":"town","osm_type":"node","osm_id":"29337049"}},{"type":"Feature","geometry":{"type":"Point","coordinates":[-0.67307,50.7835]},"properties":{"name":"Bognor Regis","category":"town","osm_type":"node","osm_id":"29337621"}},{"type":"Feature","geometry":{"type":"Point","coordinates":[-0.70651,50.78152]},"properties":{"name":"Aldwick","category":"village","osm_type":"node","osm_id":"29337644"}},{"type":"Feature","geometry":{"type":"Point","coordinates":[-0.73523,50.77879]},"properties":{"name":"Nyetimber","category":"village","osm_type":"node","osm_id":"29337645"}},{"type":"Feature","geometry":{"type":"Point","coordinates":[-0.73941,50.77069]},"properties":{"name":"Pagham","category":"village","osm_type":"node","osm_id":"29337661"}},{"type":"Feature","geometry":{"type":"Point","coordinates":[-0.74685,50.84926]},"properties":{"name":"Westhampnett","category":"village","osm_type":"node","osm_id":"29337805"}},{"type":"Feature","geometry":{"type":"Point","coordinates":[-0.71653,50.84974]},"properties":{"name":"Tangmere","category":"village","osm_type":"node","osm_id":"29337807"}},{"type":"Feature","geometry":{"type":"Point","coordinates":[-0.72152,50.838]},"properties":{"name":"Oving","category":"village","osm_type":"node","osm_id":"29337809"}},{"type":"Feature","geometry":{"type":"Point","coordinates":[-0.63053,50.989]},"properties":{"name":"Tillington","category":"village","osm_type":"node","osm_id":"29356140"}},{"type":"Feature","geometry":{"type":"Point","coordinates":[-0.40534,50.99392]},"properties":{"name":"Coolham","category":"village","osm_type":"node","osm_id":"29356234"}},{"type":"Feature","geometry":{"type":"Point","coordinates":[-0.64791,50.85524]},"properties":{"name":"Fontwell","category":"village","osm_type":"node","osm_id":"29382428"}},{"type":"Feature","geometry":{"type":"Point","coordinates":[-0.68915,50.84159]},"properties":{"name":"Aldingbourne","category":"village","osm_type":"node","osm_id":"29382469"}},{"type":"Feature","geometry":{"type":"Point","coordinates":[-0.64846,50.83796]},"properties":{"name":"Eastergate","category":"village","osm_type":"node","osm_id":"29382503"}},{"type":"Feature","geometry":{"type":"Point","coordinates":[-0.66904,50.83827]},"properties":{"name":"Westergate","category":"village","osm_type":"node","osm_id":"29382513"}},{"type":"Feature","geometry":{"type":"Point","coordinates":[-0.61996,50.84475]},"properties":{"name":"Walberton","category":"village","osm_type":"node","osm_id":"29382614"}},{"type":"Feature","geometry":{"type":"Point","coordinates":[-0.62975,50.82816]},"properties":{"name":"Barnham","category":"village","osm_type":"node","osm_id":"29382615"}},{"type":"Feature","geometry":{"type":"Point","coordinates":[-0.61382,50.82121]},"properties":{"name":"Yapton","category":"village","osm_type":"node","osm_id":"29382618"}},{"type":"Feature","geometry":{"type":"Point","coordinates":[-0.68688,50.80421]},"properties":{"name":"North Bersted","category":"village","osm_type":"node","osm_id":"29382633"}},{"type":"Feature","geometry":{"type":"Point","coordinates":[-0.65412,50.79046]},"properties":{"name":"Felpham","category":"town","osm_type":"node","osm_id":"29382634","website":"https://felphampc.gov.uk/"}},{"type":"Feature","geometry":{"type":"Point","coordinates":[-0.62096,50.79055]},"properties":{"name":"Middleton on Sea","category":"village","osm_type":"node","osm_id":"29382635"}},{"type":"Feature","geometry":{"type":"Point","coordinates":[-0.57966,50.82432]},"properties":{"name":"Ford","category":"village","osm_type":"node","osm_id":"29382638"}},{"type":"Feature","geometry":{"type":"Point","coordinates":[-0.54754,50.834]},"properties":{"name":"Lyminster","category":"village","osm_type":"node","osm_id":"29542852"}},{"type":"Feature","geometry":{"type":"Point","coordinates":[-0.5152,50.83294]},"properties":{"name":"Poling","category":"village","osm_type":"node","osm_id":"29542853"}},{"type":"Feature","geometry":{"type":"Point","coordinates":[-0.53961,50.84614]},"properties":{"name":"Crossbush","category":"village","osm_type":"node","osm_id":"29542864"}},{"type":"Feature","geometry":{"type":"Point","coordinates":[-0.53279,50.8554]},"properties":{"name":"Warningcamp","category":"village","osm_type":"node","osm_id":"29542888"}},{"type":"Feature","geometry":{"type":"Point","coordinates":[-0.52264,50.8703]},"properties":{"name":"Burpham","category":"village","osm_type":"node","osm_id":"29542894"}},{"type":"Feature","geometry":{"type":"Point","coordinates":[-0.51775,50.86679]},"properties":{"name":"Wepham","category":"village","osm_type":"node","osm_id":"29542898"}},{"type":"Feature","geometry":{"type":"Point","coordinates":[-0.53465,50.90891]},"properties":{"name":"Amberley","category":"village","osm_type":"node","osm_id":"29542906"}},{"type":"Feature","geometry":{"type":"Point","coordinates":[-0.57785,50.91704]},"properties":{"name":"West Burton","category":"village","osm_type":"node","osm_id":"29542907"}},{"type":"Feature","geometry":{"type":"Point","coordinates":[-0.60319,50.92236]},"properties":{"name":"Bignor","category":"village","osm_type":"node","osm_id":"29542916"}},{"type":"Feature","geometry":{"type":"Point","coordinates":[-0.60712,50.92804]},"properties":{"name":"Sutton","category":"village","osm_type":"node","osm_id":"29542917"}},{"type":"Feature","geometry":{"type":"Point","coordinates":[-0.63455,50.94673]},"properties":{"name":"Duncton","category":"village","osm_type":"node","osm_id":"29542959"}},{"type":"Feature","geometry":{"type":"Point","coordinates":[-0.47068,50.99831]},"properties":{"name":"Adversane","category":"village","osm_type":"node","osm_id":"29543125"}},{"type":"Feature","geometry":{"type":"Point","coordinates":[-0.44852,50.95589]},"properties":{"name":"West Chiltington","category":"village","osm_type":"node","osm_id":"29543138"}},{"type":"Feature","geometry":{"type":"Point","coordinates":[-0.42856,50.94642]},"properties":{"name":"Thakeham","category":"village","osm_type":"node","osm_id":"29543149"}},{"type":"Feature","geometry":{"type":"Point","coordinates":[-0.40789,50.90403]},"properties":{"name":"Washington","category":"village","osm_type":"node","osm_id":"29543181"}},{"type":"Feature","geometry":{"type":"Point","coordinates":[-0.38952,50.9356]},"properties":{"name":"Ashington","category":"village","osm_type":"node","osm_id":"29543229"}},{"type":"Feature","geometry":{"type":"Point","coordinates":[-0.35785,50.96335]},"properties":{"name":"Dial Post","category":"village","osm_type":"node","osm_id":"29543277"}},{"type":"Feature","geometry":{"type":"Point","coordinates":[-0.3255,50.97801]},"properties":{"name":"West Grinstead","category":"village","osm_type":"node","osm_id":"29543341"}},{"type":"Feature","geometry":{"type":"Point","coordinates":[-0.30804,50.95904]},"properties":{"name":"Partridge Green","category":"village","osm_type":"node","osm_id":"29543342"}},{"type":"Feature","geometry":{"type":"Point","coordinates":[-0.32277,50.93253]},"properties":{"name":"Ashurst","category":"village","osm_type":"node","osm_id":"29543343"}},{"type":"Feature","geometry":{"type":"Point","coordinates":[-0.31344,50.88293]},"properties":{"name":"Bramber","category":"village","osm_type":"node","osm_id":"29543350"}},{"type":"Feature","geometry":{"type":"Point","coordinates":[-0.29752,50.87976]},"properties":{"name":"Upper Beeding","category":"village","osm_type":"node","osm_id":"29543351"}},{"type":"Feature","geometry":{"type":"Point","coordinates":[-0.19525,50.96599]},"properties":{"name":"Hickstead","category":"village","osm_type":"node","osm_id":"29543387"}},{"type":"Feature","geometry":{"type":"Point","coordinates":[-0.22718,50.88936]},"properties":{"name":"Fulking","category":"village","osm_type":"node","osm_id":"29543394"}},{"type":"Feature","geometry":{"type":"Point","coordinates":[-0.20406,50.89426]},"properties":{"name":"Poynings","category":"village","osm_type":"node","osm_id":"29543399"}},{"type":"Feature","geometry":{"type":"Point","coordinates":[-0.14533,50.92428]},"properties":{"name":"Hassocks","category":"village","osm_type":"node","osm_id":"29543429"}},{"type":"Feature","geometry":{"type":"Point","coordinates":[-0.15327,50.91064]},"properties":{"name":"Clayton","category":"village","osm_type":"node","osm_id":"29543430"}},{"type":"Feature","geometry":{"type":"Point","coordinates":[-0.16137,50.99461]},"properties":{"name":"Ansty","category":"village","osm_type":"node","osm_id":"29543431"}},{"type":"Feature","geometry":{"type":"Point","coordinates":[-0.13275,50.92206]},"properties":{"name":"Keymer","category":"village","osm_type":"node","osm_id":"29543432"}},{"type":"Feature","geometry":{"type":"Point","coordinates":[-0.11432,50.92119]},"properties":{"name":"Ditchling","category":"village","osm_type":"node","osm_id":"29543433"}},{"type":"Feature","geometry":{"type":"Point","coordinates":[-0.09844,50.90661]},"properties":{"name":"Westmeston","category":"village","osm_type":"node","osm_id":"29543434"}},{"type":"Feature","geometry":{"type":"Point","coordinates":[-0.06231,50.90256]},"properties":{"name":"Plumpton","category":"village","osm_type":"node","osm_id":"29543435"}},{"type":"Feature","geometry":{"type":"Point","coordinates":[-0.05227,50.91959]},"properties":{"name":"East Chiltington","category":"village","osm_type":"node","osm_id":"29543437"}},{"type":"Feature","geometry":{"type":"Point","coordinates":[-0.01812,50.95733]},"properties":{"name":"Chailey","category":"village","osm_type":"node","osm_id":"29543439"}},{"type":"Feature","geometry":{"type":"Point","coordinates":[-0.05106,50.9928]},"properties":{"name":"Scaynes Hill","category":"village","osm_type":"node","osm_id":"29543440"}},{"type":"Feature","geometry":{"type":"Point","coordinates":[-0.07319,50.96324]},"properties":{"name":"Wivelsfield Green","category":"village","osm_type":"node","osm_id":"29543443"}},{"type":"Feature","geometry":{"type":"Point","coordinates":[-0.0864,50.96431]},"properties":{"name":"Wivelsfield","category":"village","osm_type":"node","osm_id":"29543447"}},{"type":"Feature","geometry":{"type":"Point","coordinates":[-0.00739,50.90425]},"properties":{"name":"Cooksbridge","category":"village","osm_type":"node","osm_id":"29543456"}},{"type":"Feature","geometry":{"type":"Point","coordinates":[-0.01044,50.89221]},"properties":{"name":"Offham","category":"village","osm_type":"node","osm_id":"29543529"}},{"type":"Feature","geometry":{"type":"Point","coordinates":[-0.00091,50.84843]},"properties":{"name":"Iford","category":"village","osm_type":"node","osm_id":"29543771"}},{"type":"Feature","geometry":{"type":"Point","coordinates":[-0.00632,50.81339]},"properties":{"name":"Telscombe","category":"village","osm_type":"node","osm_id":"29543875"}},{"type":"Feature","geometry":{"type":"Point","coordinates":[-0.05721,50.80341]},"properties":{"name":"Rottingdean","category":"village","osm_type":"node","osm_id":"29544004"}},{"type":"Feature","geometry":{"type":"Point","coordinates":[-0.07653,50.8169]},"properties":{"name":"Ovingdean","category":"village","osm_type":"node","osm_id":"29544036"}},{"type":"Feature","geometry":{"type":"Point","coordinates":[-0.07624,50.8624]},"properties":{"name":"Falmer","category":"village","osm_type":"node","osm_id":"29544208"}},{"type":"Feature","geometry":{"type":"Point","coordinates":[-0.44687,50.84628]},"properties":{"name":"Clapham","category":"village","osm_type":"node","osm_id":"29591046"}},{"type":"Feature","geometry":{"type":"Point","coordinates":[-0.10195,50.87099]},"properties":{"name":"Stanmer","category":"village","osm_type":"node","osm_id":"29797246"}},{"type":"Feature","geometry":{"type":"Point","coordinates":[-0.14589,50.86348]},"properties":{"name":"Patcham","category":"village","osm_type":"node","osm_id":"29797247"}},{"type":"Feature","geometry":{"type":"Point","coordinates":[-0.20702,50.83296]},"properties":{"name":"Portslade by Sea","category":"town","osm_type":"node","osm_id":"29801809"}},{"type":"Feature","geometry":{"type":"Point","coordinates":[-0.23833,50.83453]},"properties":{"name":"Southwick","category":"town","osm_type":"node","osm_id":"29801810"}},{"type":"Feature","geometry":{"type":"Point","coordinates":[-0.27467,50.83223]},"properties":{"name":"Shoreham-by-Sea","category":"town","osm_type":"node","osm_id":"29801811"}},{"type":"Feature","geometry":{"type":"Point","coordinates":[-0.32255,50.82587]},"properties":{"name":"Lancing","category":"village","osm_type":"node","osm_id":"29801812"}},{"type":"Feature","geometry":{"type":"Point","coordinates":[-0.35315,50.83479]},"properties":{"name":"Sompting","category":"village","osm_type":"node","osm_id":"29801813"}},{"type":"Feature","geometry":{"type":"Point","coordinates":[-0.36997,50.81154]},"properties":{"name":"Worthing","category":"town","osm_type":"node","osm_id":"29801815"}},{"type":"Feature","geometry":{"type":"Point","coordinates":[-0.4562,50.84594]},"properties":{"name":"Patching","category":"village","osm_type":"node","osm_id":"29802083"}},{"type":"Feature","geometry":{"type":"Point","coordinates":[-0.48401,50.82835]},"properties":{"name":"Angmering","category":"village","osm_type":"node","osm_id":"29802093"}},{"type":"Feature","geometry":{"type":"Point","coordinates":[-0.42146,50.81267]},"properties":{"name":"Goring-by-Sea","category":"village","osm_type":"node","osm_id":"29802095"}},{"type":"Feature","geometry":{"type":"Point","coordinates":[-0.44933,50.80854]},"properties":{"name":"Ferring","category":"village","osm_type":"node","osm_id":"29802096"}},{"type":"Feature","geometry":{"type":"Point","coordinates":[-0.47666,50.80431]},"properties":{"name":"Angmering on Sea","category":"village","osm_type":"node","osm_id":"29802104"}},{"type":"Feature","geometry":{"type":"Point","coordinates":[-0.48322,50.80879]},"properties":{"name":"East Preston","category":"village","osm_type":"node","osm_id":"29802106"}},{"type":"Feature","geometry":{"type":"Point","coordinates":[-0.51017,50.81108]},"properties":{"name":"Rustington","category":"village","osm_type":"node","osm_id":"29802115"}},{"type":"Feature","geometry":{"type":"Point","coordinates":[-0.97913,50.81673]},"properties":{"name":"Stoke","category":"village","osm_type":"node","osm_id":"29802566"}},{"type":"Feature","geometry":{"type":"Point","coordinates":[-0.9629,50.82854]},"properties":{"name":"Northney","category":"village","osm_type":"node","osm_id":"29802567"}},{"type":"Feature","geometry":{"type":"Point","coordinates":[-0.96313,50.82373]},"properties":{"name":"North Hayling","category":"village","osm_type":"node","osm_id":"29802573"}},{"type":"Feature","geometry":{"type":"Point","coordinates":[-0.98261,50.83974]},"properties":{"name":"Langstone","category":"village","osm_type":"node","osm_id":"29802839"}},{"type":"Feature","geometry":{"type":"Point","coordinates":[-0.09629,50.97117]},"properties":{"name":"Old Wivelsfield","category":"village","osm_type":"node","osm_id":"36300509"}},{"type":"Feature","geometry":{"type":"Point","coordinates":[-0.5449,50.93747]},"properties":{"name":"Coldwaltham","category":"village","osm_type":"node","osm_id":"61085308"}},{"type":"Feature","geometry":{"type":"Point","coordinates":[-0.24405,50.91853]},"properties":{"name":"Woodmancote","category":"village","osm_type":"node","osm_id":"221125874"}},{"type":"Feature","geometry":{"type":"Point","coordinates":[-0.06063,50.93524]},"properties":{"name":"Plumpton Green","category":"village","osm_type":"node","osm_id":"262679566"}},{"type":"Feature","geometry":{"type":"Point","coordinates":[-0.00274,50.79622]},"properties":{"name":"Peacehaven","category":"town","osm_type":"node","osm_id":"292845730"}},{"type":"Feature","geometry":{"type":"Point","coordinates":[-0.55345,50.85406]},"properties":{"name":"Arundel","category":"town","osm_type":"node","osm_id":"294132646"}},{"type":"Feature","geometry":{"type":"Point","coordinates":[-0.17146,50.96603]},"properties":{"name":"Goddards' Green","category":"village","osm_type":"node","osm_id":"321324614"}},{"type":"Feature","geometry":{"type":"Point","coordinates":[-0.67021,50.81171]},"properties":{"name":"Shripney","category":"village","osm_type":"node","osm_id":"360844770"}},{"type":"Feature","geometry":{"type":"Point","coordinates":[-0.56007,50.96223]},"properties":{"name":"Fittleworth","category":"village","osm_type":"node","osm_id":"361528044"}},{"type":"Feature","geometry":{"type":"Point","coordinates":[-0.20262,50.9954]},"properties":{"name":"Bolney","category":"village","osm_type":"node","osm_id":"446646789"}},{"type":"Feature","geometry":{"type":"Point","coordinates":[-0.99005,50.79145]},"properties":{"name":"West Town","category":"village","osm_type":"node","osm_id":"472633911"}},{"type":"Feature","geometry":{"type":"Point","coordinates":[-0.45874,50.94308]},"properties":{"name":"West Chiltington Common","category":"village","osm_type":"node","osm_id":"561255307"}},{"type":"Feature","geometry":{"type":"Point","coordinates":[-0.17457,50.82869]},"properties":{"name":"Hove","category":"town","osm_type":"node","osm_id":"596240485"}},{"type":"Feature","geometry":{"type":"Point","coordinates":[-0.24727,50.83338]},"properties":{"name":"Kingston Buci","category":"village","osm_type":"node","osm_id":"614408882"}},{"type":"Feature","geometry":{"type":"Point","coordinates":[-0.1991,50.94897]},"properties":{"name":"Sayers Common","category":"village","osm_type":"node","osm_id":"679754080"}},{"type":"Feature","geometry":{"type":"Point","coordinates":[-0.16314,50.89827]},"properties":{"name":"Pyecombe","category":"village","osm_type":"node","osm_id":"679953986"}},{"type":"Feature","geometry":{"type":"Point","coordinates":[-0.17814,50.93346]},"properties":{"name":"Hurstpierpoint","category":"village","osm_type":"node","osm_id":"679972778"}},{"type":"Feature","geometry":{"type":"Point","coordinates":[-0.20042,50.93478]},"properties":{"name":"Albourne","category":"village","osm_type":"node","osm_id":"704002392"}},{"type":"Feature","geometry":{"type":"Point","coordinates":[-0.1011,50.94675]},"properties":{"name":"Ditchling Common","category":"village","osm_type":"node","osm_id":"734643525"}},{"type":"Feature","geometry":{"type":"Point","coordinates":[-0.9628,50.81587]},"properties":{"name":"Tye","category":"village","osm_type":"node","osm_id":"751697098"}},{"type":"Feature","geometry":{"type":"Point","coordinates":[-0.97632,50.81103]},"properties":{"name":"Fleet","category":"village","osm_type":"node","osm_id":"751697115"}},{"type":"Feature","geometry":{"type":"Point","coordinates":[-0.0408,50.97298]},"properties":{"name":"Chailey Common","category":"village","osm_type":"node","osm_id":"766606071"}},{"type":"Feature","geometry":{"type":"Point","coordinates":[-0.01815,50.97189]},"properties":{"name":"North Chailey","category":"village","osm_type":"node","osm_id":"766606072"}},{"type":"Feature","geometry":{"type":"Point","coordinates":[-0.95237,50.90995]},"properties":{"name":"Finchdean","category":"village","osm_type":"node","osm_id":"845129190"}},{"type":"Feature","geometry":{"type":"Point","coordinates":[-0.02369,50.9412]},"properties":{"name":"South Chailey","category":"village","osm_type":"node","osm_id":"1152087261"}},{"type":"Feature","geometry":{"type":"Point","coordinates":[-0.14006,50.82146]},"properties":{"name":"Brighton","category":"city","osm_type":"node","osm_id":"1326762432"}},{"type":"Feature","geometry":{"type":"Point","coordinates":[-0.09153,50.81497]},"properties":{"name":"Roedean","category":"village","osm_type":"node","osm_id":"1342547426"}},{"type":"Feature","geometry":{"type":"Point","coordinates":[-0.71722,50.78431]},"properties":{"name":"Rose Green","category":"village","osm_type":"node","osm_id":"1584402759"}},{"type":"Feature","geometry":{"type":"Point","coordinates":[-0.27197,50.9897]},"properties":{"name":"Cowfold","category":"village","osm_type":"node","osm_id":"1681662575"}},{"type":"Feature","geometry":{"type":"Point","coordinates":[-0.33022,50.89022]},"properties":{"name":"Steyning","category":"town","osm_type":"node","osm_id":"1700859908"}},{"type":"Feature","geometry":{"type":"Point","coordinates":[-0.60594,50.79264]},"properties":{"name":"Elmer","category":"village","osm_type":"node","osm_id":"1961577268"}},{"type":"Feature","geometry":{"type":"Point","coordinates":[-0.27499,50.93074]},"properties":{"name":"Henfield","category":"village","osm_type":"node","osm_id":"1972815869"}},{"type":"Feature","geometry":{"type":"Point","coordinates":[-0.27339,50.90312]},"properties":{"name":"Small Dole","category":"village","osm_type":"node","osm_id":"1976793597"}},{"type":"Feature","geometry":{"type":"Point","coordinates":[-0.02668,50.85967]},"properties":{"name":"Kingston near Lewes","category":"village","osm_type":"node","osm_id":"2183355803"}},{"type":"Feature","geometry":{"type":"Point","coordinates":[-0.40726,50.86803]},"properties":{"name":"Findon","category":"village","osm_type":"node","osm_id":"2312625027"}},{"type":"Feature","geometry":{"type":"Point","coordinates":[-0.37126,50.98517]},"properties":{"name":"Shipley","category":"village","osm_type":"node","osm_id":"2312777935"}},{"type":"Feature","geometry":{"type":"Point","coordinates":[-0.57723,50.81275]},"properties":{"name":"Climping","category":"village","osm_type":"node","osm_id":"2320433964"}},{"type":"Feature","geometry":{"type":"Point","coordinates":[-0.55252,50.89429]},"properties":{"name":"Houghton","category":"village","osm_type":"node","osm_id":"2322283781"}},{"type":"Feature","geometry":{"type":"Point","coordinates":[-0.84509,50.76665]},"properties":{"name":"Earnley","category":"village","osm_type":"node","osm_id":"2338075511"}},{"type":"Feature","geometry":{"type":"Point","coordinates":[-0.81478,50.83985]},"properties":{"name":"Fishbourne","category":"village","osm_type":"node","osm_id":"2338418714"}},{"type":"Feature","geometry":{"type":"Point","coordinates":[-0.82925,50.77269]},"properties":{"name":"Almodington","category":"village","osm_type":"node","osm_id":"3416823374"}},{"type":"Feature","geometry":{"type":"Point","coordinates":[-0.96853,50.8484]},"properties":{"name":"Warblington","category":"village","osm_type":"node","osm_id":"3471260710"}},{"type":"Feature","geometry":{"type":"Point","coordinates":[-0.84207,50.78047]},"properties":{"name":"Somerley","category":"village","osm_type":"node","osm_id":"3650584513"}},{"type":"Feature","geometry":{"type":"Point","coordinates":[-0.75869,50.81238]},"properties":{"name":"North Mundham","category":"village","osm_type":"node","osm_id":"4637937166"}},{"type":"Feature","geometry":{"type":"Point","coordinates":[-0.9139,50.84439]},"properties":{"name":"Prinsted","category":"village","osm_type":"node","osm_id":"5316536890"}},{"type":"Feature","geometry":{"type":"Point","coordinates":[-0.47123,50.95782]},"properties":{"name":"Nutbourne","category":"village","osm_type":"node","osm_id":"11112733507"}},{"type":"Feature","geometry":{"type":"Point","coordinates":[-0.48502,50.95483]},"properties":{"name":"Marehill","category":"village","osm_type":"node","osm_id":"11314924796"}},{"type":"Feature","geometry":{"type":"Point","coordinates":[-0.91155,50.81573]},"properties":{"name":"West Thorney","category":"village","osm_type":"node","osm_id":"13688545664"}},{"type":"Feature","geometry":{"type":"Point","coordinates":[-0.88192,50.85282]},"properties":{"name":"Hambrook","category":"village","osm_type":"node","osm_id":"13903016518"}},{"type":"Feature","geometry":{"type":"Point","coordinates":[-0.9449,50.84729]},"properties":{"name":"Emsworth","category":"town","osm_type":"relation","osm_id":"9274000"}},{"type":"Feature","geometry":{"type":"Point","coordinates":[-0.18358,50.84527]},"properties":{"name":"Hove","category":"town","osm_type":"relation","osm_id":"19288099"}},{"type":"Feature","geometry":{"type":"Point","coordinates":[-0.50589,50.81063]},"properties":{"name":"Rustington","category":"village","osm_type":"way","osm_id":"332136909"}},{"type":"Feature","geometry":{"type":"Point","coordinates":[-0.15109,50.84321]},"properties":{"name":"Preston","category":"village","osm_type":"way","osm_id":"1409465749"}}]}