{"type":"FeatureCollection","features":[{"type":"Feature","geometry":{"type":"Point","coordinates":[-0.44497,52.60998]},"properties":{"name":"Wittering","category":"village","osm_type":"node","osm_id":"11531158"}},{"type":"Feature","geometry":{"type":"Point","coordinates":[-0.47019,52.68512]},"properties":{"name":"Ryhall","category":"village","osm_type":"node","osm_id":"14584519"}},{"type":"Feature","geometry":{"type":"Point","coordinates":[-0.66283,52.71351]},"properties":{"name":"Cottesmore","category":"village","osm_type":"node","osm_id":"14588091"}},{"type":"Feature","geometry":{"type":"Point","coordinates":[-0.48046,52.652]},"properties":{"name":"Stamford","category":"town","osm_type":"node","osm_id":"15195729"}},{"type":"Feature","geometry":{"type":"Point","coordinates":[-0.24273,52.57258]},"properties":{"name":"Peterborough","category":"city","osm_type":"node","osm_id":"17951258"}},{"type":"Feature","geometry":{"type":"Point","coordinates":[-0.67204,52.57538]},"properties":{"name":"Seaton","category":"village","osm_type":"node","osm_id":"18288057"}},{"type":"Feature","geometry":{"type":"Point","coordinates":[-0.68388,52.5591]},"properties":{"name":"Thorpe by Water","category":"village","osm_type":"node","osm_id":"18288393"}},{"type":"Feature","geometry":{"type":"Point","coordinates":[-0.71199,52.56542]},"properties":{"name":"Lyddington","category":"village","osm_type":"node","osm_id":"18288394"}},{"type":"Feature","geometry":{"type":"Point","coordinates":[-0.69423,52.58761]},"properties":{"name":"Bisbrooke","category":"village","osm_type":"node","osm_id":"18288441"}},{"type":"Feature","geometry":{"type":"Point","coordinates":[-0.73857,52.56374]},"properties":{"name":"Stoke Dry","category":"village","osm_type":"node","osm_id":"18288457"}},{"type":"Feature","geometry":{"type":"Point","coordinates":[-0.72105,52.53342]},"properties":{"name":"Caldecott","category":"village","osm_type":"node","osm_id":"18288458"}},{"type":"Feature","geometry":{"type":"Point","coordinates":[-0.59343,52.58464]},"properties":{"name":"Wakerley","category":"village","osm_type":"node","osm_id":"18311871"}},{"type":"Feature","geometry":{"type":"Point","coordinates":[-0.60201,52.59135]},"properties":{"name":"Barrowden","category":"village","osm_type":"node","osm_id":"18311872"}},{"type":"Feature","geometry":{"type":"Point","coordinates":[-0.67687,52.59479]},"properties":{"name":"Glaston","category":"village","osm_type":"node","osm_id":"18311971"}},{"type":"Feature","geometry":{"type":"Point","coordinates":[-0.64894,52.56597]},"properties":{"name":"Harringworth","category":"village","osm_type":"node","osm_id":"18311974"}},{"type":"Feature","geometry":{"type":"Point","coordinates":[-0.80188,52.68362]},"properties":{"name":"Cold Overton","category":"village","osm_type":"node","osm_id":"18312504"}},{"type":"Feature","geometry":{"type":"Point","coordinates":[-0.7536,52.69113]},"properties":{"name":"Langham","category":"village","osm_type":"node","osm_id":"18316256"}},{"type":"Feature","geometry":{"type":"Point","coordinates":[-0.51445,52.64618]},"properties":{"name":"Tinwell","category":"village","osm_type":"node","osm_id":"18337211"}},{"type":"Feature","geometry":{"type":"Point","coordinates":[-0.7457,52.67865]},"properties":{"name":"Barleythorpe","category":"village","osm_type":"node","osm_id":"18341502"}},{"type":"Feature","geometry":{"type":"Point","coordinates":[-0.7065,52.65726]},"properties":{"name":"Egleton","category":"village","osm_type":"node","osm_id":"18347922"}},{"type":"Feature","geometry":{"type":"Point","coordinates":[-0.7693,52.65197]},"properties":{"name":"Braunston in Rutland","category":"village","osm_type":"node","osm_id":"18348891"}},{"type":"Feature","geometry":{"type":"Point","coordinates":[-0.52969,52.61379]},"properties":{"name":"Collyweston","category":"village","osm_type":"node","osm_id":"18375340"}},{"type":"Feature","geometry":{"type":"Point","coordinates":[-0.55216,52.62772]},"properties":{"name":"Ketton","category":"village","osm_type":"node","osm_id":"18375341"}},{"type":"Feature","geometry":{"type":"Point","coordinates":[-0.65832,52.62953]},"properties":{"name":"Lyndon","category":"village","osm_type":"node","osm_id":"18377634"}},{"type":"Feature","geometry":{"type":"Point","coordinates":[-0.68477,52.618]},"properties":{"name":"Wing","category":"village","osm_type":"node","osm_id":"18379752"}},{"type":"Feature","geometry":{"type":"Point","coordinates":[-0.63127,52.69102]},"properties":{"name":"Exton","category":"village","osm_type":"node","osm_id":"18459236"}},{"type":"Feature","geometry":{"type":"Point","coordinates":[-0.73063,52.60033]},"properties":{"name":"Ayston","category":"village","osm_type":"node","osm_id":"18466535"}},{"type":"Feature","geometry":{"type":"Point","coordinates":[-0.63682,52.59618]},"properties":{"name":"Morcott","category":"village","osm_type":"node","osm_id":"18660086"}},{"type":"Feature","geometry":{"type":"Point","coordinates":[-0.72013,52.73516]},"properties":{"name":"Teigh","category":"village","osm_type":"node","osm_id":"18660323"}},{"type":"Feature","geometry":{"type":"Point","coordinates":[-0.53624,52.75496]},"properties":{"name":"Castle Bytham","category":"village","osm_type":"node","osm_id":"18712963"}},{"type":"Feature","geometry":{"type":"Point","coordinates":[-0.56528,52.73479]},"properties":{"name":"Clipsham","category":"village","osm_type":"node","osm_id":"18716823"}},{"type":"Feature","geometry":{"type":"Point","coordinates":[-0.59579,52.73205]},"properties":{"name":"Stretton","category":"village","osm_type":"node","osm_id":"18716856"}},{"type":"Feature","geometry":{"type":"Point","coordinates":[-0.52166,52.67043]},"properties":{"name":"Great Casterton","category":"village","osm_type":"node","osm_id":"18836598"}},{"type":"Feature","geometry":{"type":"Point","coordinates":[-0.45851,52.67978]},"properties":{"name":"Belmesthorpe","category":"village","osm_type":"node","osm_id":"18845933"}},{"type":"Feature","geometry":{"type":"Point","coordinates":[-0.49478,52.67658]},"properties":{"name":"Little Casterton","category":"village","osm_type":"node","osm_id":"18851350"}},{"type":"Feature","geometry":{"type":"Point","coordinates":[-0.71428,52.61264]},"properties":{"name":"Preston","category":"village","osm_type":"node","osm_id":"18899044"}},{"type":"Feature","geometry":{"type":"Point","coordinates":[-0.44735,52.71397]},"properties":{"name":"Carlby","category":"village","osm_type":"node","osm_id":"18958294"}},{"type":"Feature","geometry":{"type":"Point","coordinates":[-0.45232,52.70149]},"properties":{"name":"Essendine","category":"village","osm_type":"node","osm_id":"18958296"}},{"type":"Feature","geometry":{"type":"Point","coordinates":[-0.70012,52.63204]},"properties":{"name":"Manton","category":"village","osm_type":"node","osm_id":"19022660"}},{"type":"Feature","geometry":{"type":"Point","coordinates":[-0.77478,52.71948]},"properties":{"name":"Whissendine","category":"village","osm_type":"node","osm_id":"20484751"}},{"type":"Feature","geometry":{"type":"Point","coordinates":[-0.93889,52.75215]},"properties":{"name":"Kirby Bellars","category":"village","osm_type":"node","osm_id":"25052848"}},{"type":"Feature","geometry":{"type":"Point","coordinates":[-0.89875,52.72157]},"properties":{"name":"Great Dalby","category":"village","osm_type":"node","osm_id":"25052862"}},{"type":"Feature","geometry":{"type":"Point","coordinates":[-0.8526,52.72079]},"properties":{"name":"Little Dalby","category":"village","osm_type":"node","osm_id":"25052877"}},{"type":"Feature","geometry":{"type":"Point","coordinates":[-0.97146,52.7536]},"properties":{"name":"Frisby on the Wreake","category":"village","osm_type":"node","osm_id":"25082038"}},{"type":"Feature","geometry":{"type":"Point","coordinates":[-0.90469,52.64383]},"properties":{"name":"Tilton on the Hill","category":"village","osm_type":"node","osm_id":"25310698"}},{"type":"Feature","geometry":{"type":"Point","coordinates":[-0.9545,52.70194]},"properties":{"name":"Ashby Folville","category":"village","osm_type":"node","osm_id":"25310700"}},{"type":"Feature","geometry":{"type":"Point","coordinates":[-0.98187,52.71178]},"properties":{"name":"Gaddesby","category":"village","osm_type":"node","osm_id":"25310701"}},{"type":"Feature","geometry":{"type":"Point","coordinates":[-0.41675,52.58105]},"properties":{"name":"Wansford","category":"village","osm_type":"node","osm_id":"25388934"}},{"type":"Feature","geometry":{"type":"Point","coordinates":[-0.72727,52.66966]},"properties":{"name":"Oakham","category":"town","osm_type":"node","osm_id":"26033957"}},{"type":"Feature","geometry":{"type":"Point","coordinates":[-0.88689,52.76457]},"properties":{"name":"Melton Mowbray","category":"town","osm_type":"node","osm_id":"26679128"}},{"type":"Feature","geometry":{"type":"Point","coordinates":[-0.92391,52.68444]},"properties":{"name":"Twyford","category":"village","osm_type":"node","osm_id":"26852406"}},{"type":"Feature","geometry":{"type":"Point","coordinates":[-0.93865,52.61845]},"properties":{"name":"Billesdon","category":"village","osm_type":"node","osm_id":"26852429"}},{"type":"Feature","geometry":{"type":"Point","coordinates":[-0.90504,52.61646]},"properties":{"name":"Skeffington","category":"village","osm_type":"node","osm_id":"26852480"}},{"type":"Feature","geometry":{"type":"Point","coordinates":[-0.83608,52.61348]},"properties":{"name":"Loddington","category":"village","osm_type":"node","osm_id":"26852505"}},{"type":"Feature","geometry":{"type":"Point","coordinates":[-0.99348,52.53741]},"properties":{"name":"Kibworth Beauchamp","category":"village","osm_type":"node","osm_id":"26852514"}},{"type":"Feature","geometry":{"type":"Point","coordinates":[-0.87721,52.60057]},"properties":{"name":"Tugby","category":"village","osm_type":"node","osm_id":"26852526"}},{"type":"Feature","geometry":{"type":"Point","coordinates":[-0.9931,52.54421]},"properties":{"name":"Kibworth Harcourt","category":"village","osm_type":"node","osm_id":"26852556"}},{"type":"Feature","geometry":{"type":"Point","coordinates":[-0.99879,52.62546]},"properties":{"name":"Houghton on the Hill","category":"village","osm_type":"node","osm_id":"26852563"}},{"type":"Feature","geometry":{"type":"Point","coordinates":[-0.84356,52.59636]},"properties":{"name":"East Norton","category":"village","osm_type":"node","osm_id":"26852582"}},{"type":"Feature","geometry":{"type":"Point","coordinates":[-0.83554,52.56175]},"properties":{"name":"Hallaton","category":"village","osm_type":"node","osm_id":"26852592"}},{"type":"Feature","geometry":{"type":"Point","coordinates":[-0.98376,52.68476]},"properties":{"name":"South Croxton","category":"village","osm_type":"node","osm_id":"26951309"}},{"type":"Feature","geometry":{"type":"Point","coordinates":[-0.98011,52.65905]},"properties":{"name":"Hungarton","category":"village","osm_type":"node","osm_id":"26951310"}},{"type":"Feature","geometry":{"type":"Point","coordinates":[-0.95678,52.5874]},"properties":{"name":"Illston on the Hill","category":"village","osm_type":"node","osm_id":"26951312"}},{"type":"Feature","geometry":{"type":"Point","coordinates":[-0.91715,52.6982]},"properties":{"name":"Thorpe Satchville","category":"village","osm_type":"node","osm_id":"26951314"}},{"type":"Feature","geometry":{"type":"Point","coordinates":[-0.97049,52.69526]},"properties":{"name":"Barsby","category":"village","osm_type":"node","osm_id":"26951315"}},{"type":"Feature","geometry":{"type":"Point","coordinates":[-0.94544,52.6506]},"properties":{"name":"Cold Newton","category":"village","osm_type":"node","osm_id":"26951316"}},{"type":"Feature","geometry":{"type":"Point","coordinates":[-0.92208,52.59685]},"properties":{"name":"Rolleston","category":"village","osm_type":"node","osm_id":"26951317"}},{"type":"Feature","geometry":{"type":"Point","coordinates":[-0.97568,52.60238]},"properties":{"name":"Gaulby","category":"village","osm_type":"node","osm_id":"26951318"}},{"type":"Feature","geometry":{"type":"Point","coordinates":[-0.84878,52.68728]},"properties":{"name":"Somerby","category":"village","osm_type":"node","osm_id":"26951319"}},{"type":"Feature","geometry":{"type":"Point","coordinates":[-0.79568,52.60312]},"properties":{"name":"Belton-in-Rutland","category":"village","osm_type":"node","osm_id":"26951321"}},{"type":"Feature","geometry":{"type":"Point","coordinates":[-0.8154,52.67003]},"properties":{"name":"Knossington","category":"village","osm_type":"node","osm_id":"26951323"}},{"type":"Feature","geometry":{"type":"Point","coordinates":[-0.7517,52.52854]},"properties":{"name":"Great Easton","category":"village","osm_type":"node","osm_id":"26951325"}},{"type":"Feature","geometry":{"type":"Point","coordinates":[-0.7614,52.52162]},"properties":{"name":"Bringhurst","category":"village","osm_type":"node","osm_id":"26951326"}},{"type":"Feature","geometry":{"type":"Point","coordinates":[-0.67617,52.53871]},"properties":{"name":"Gretton","category":"village","osm_type":"node","osm_id":"26951329"}},{"type":"Feature","geometry":{"type":"Point","coordinates":[-0.61719,52.61966]},"properties":{"name":"North Luffenham","category":"village","osm_type":"node","osm_id":"26951376"}},{"type":"Feature","geometry":{"type":"Point","coordinates":[-0.61175,52.60761]},"properties":{"name":"South Luffenham","category":"village","osm_type":"node","osm_id":"26951377"}},{"type":"Feature","geometry":{"type":"Point","coordinates":[-0.63037,52.63708]},"properties":{"name":"Edith Weston","category":"village","osm_type":"node","osm_id":"26951378"}},{"type":"Feature","geometry":{"type":"Point","coordinates":[-0.67011,52.65862]},"properties":{"name":"Upper Hambleton","category":"village","osm_type":"node","osm_id":"26951726"}},{"type":"Feature","geometry":{"type":"Point","coordinates":[-0.6439,52.91319]},"properties":{"name":"Grantham","category":"town","osm_type":"node","osm_id":"26984591"}},{"type":"Feature","geometry":{"type":"Point","coordinates":[-0.98631,52.82937]},"properties":{"name":"Upper Broughton","category":"village","osm_type":"node","osm_id":"27030531"}},{"type":"Feature","geometry":{"type":"Point","coordinates":[-0.96956,52.82539]},"properties":{"name":"Nether Broughton","category":"village","osm_type":"node","osm_id":"27030533"}},{"type":"Feature","geometry":{"type":"Point","coordinates":[-0.98946,52.77623]},"properties":{"name":"Shoby","category":"village","osm_type":"node","osm_id":"27149759"}},{"type":"Feature","geometry":{"type":"Point","coordinates":[-0.96308,52.78228]},"properties":{"name":"Saxelbye","category":"village","osm_type":"node","osm_id":"27149808"}},{"type":"Feature","geometry":{"type":"Point","coordinates":[-0.15261,52.78763]},"properties":{"name":"Spalding","category":"town","osm_type":"node","osm_id":"27160820"}},{"type":"Feature","geometry":{"type":"Point","coordinates":[-0.16841,52.67573]},"properties":{"name":"Crowland","category":"town","osm_type":"node","osm_id":"27161651"}},{"type":"Feature","geometry":{"type":"Point","coordinates":[-0.31747,52.67537]},"properties":{"name":"Market Deeping","category":"town","osm_type":"node","osm_id":"27161724"}},{"type":"Feature","geometry":{"type":"Point","coordinates":[-0.22121,52.63928]},"properties":{"name":"Newborough","category":"village","osm_type":"node","osm_id":"27161873"}},{"type":"Feature","geometry":{"type":"Point","coordinates":[-0.94834,52.54498]},"properties":{"name":"Tur Langton","category":"village","osm_type":"node","osm_id":"27187433"}},{"type":"Feature","geometry":{"type":"Point","coordinates":[-0.93332,52.5341]},"properties":{"name":"Church Langton","category":"village","osm_type":"node","osm_id":"27187435"}},{"type":"Feature","geometry":{"type":"Point","coordinates":[-0.93089,52.52624]},"properties":{"name":"East Langton","category":"village","osm_type":"node","osm_id":"27187438"}},{"type":"Feature","geometry":{"type":"Point","coordinates":[-0.9678,52.50353]},"properties":{"name":"Foxton","category":"village","osm_type":"node","osm_id":"27188935"}},{"type":"Feature","geometry":{"type":"Point","coordinates":[-0.85572,52.51428]},"properties":{"name":"Weston by Welland","category":"village","osm_type":"node","osm_id":"27303720"}},{"type":"Feature","geometry":{"type":"Point","coordinates":[-0.86573,52.50506]},"properties":{"name":"Sutton Bassett","category":"village","osm_type":"node","osm_id":"27303721"}},{"type":"Feature","geometry":{"type":"Point","coordinates":[-0.87299,52.52518]},"properties":{"name":"Welham","category":"village","osm_type":"node","osm_id":"27303723"}},{"type":"Feature","geometry":{"type":"Point","coordinates":[-0.75579,52.50265]},"properties":{"name":"Cottingham","category":"village","osm_type":"node","osm_id":"27304830"}},{"type":"Feature","geometry":{"type":"Point","coordinates":[-0.72473,52.51711]},"properties":{"name":"Rockingham","category":"village","osm_type":"node","osm_id":"27305835"}},{"type":"Feature","geometry":{"type":"Point","coordinates":[-0.81393,52.55138]},"properties":{"name":"Blaston","category":"village","osm_type":"node","osm_id":"27306177"}},{"type":"Feature","geometry":{"type":"Point","coordinates":[-0.27352,52.64472]},"properties":{"name":"Peakirk","category":"village","osm_type":"node","osm_id":"27407517"}},{"type":"Feature","geometry":{"type":"Point","coordinates":[-0.36002,52.66681]},"properties":{"name":"West Deeping","category":"village","osm_type":"node","osm_id":"27408106"}},{"type":"Feature","geometry":{"type":"Point","coordinates":[-0.29996,52.98167]},"properties":{"name":"Heckington","category":"village","osm_type":"node","osm_id":"27409172"}},{"type":"Feature","geometry":{"type":"Point","coordinates":[-0.1583,52.94536]},"properties":{"name":"Swineshead","category":"village","osm_type":"node","osm_id":"27409520"}},{"type":"Feature","geometry":{"type":"Point","coordinates":[-0.40956,52.99965]},"properties":{"name":"Sleaford","category":"town","osm_type":"node","osm_id":"27409527"}},{"type":"Feature","geometry":{"type":"Point","coordinates":[-0.59491,52.97744]},"properties":{"name":"Honington","category":"village","osm_type":"node","osm_id":"27409563"}},{"type":"Feature","geometry":{"type":"Point","coordinates":[-0.6187,52.95747]},"properties":{"name":"Syston","category":"village","osm_type":"node","osm_id":"27409573"}},{"type":"Feature","geometry":{"type":"Point","coordinates":[-0.61531,52.96484]},"properties":{"name":"Barkston","category":"village","osm_type":"node","osm_id":"27409574"}},{"type":"Feature","geometry":{"type":"Point","coordinates":[-0.66644,52.9351]},"properties":{"name":"Great Gonerby","category":"village","osm_type":"node","osm_id":"27409680"}},{"type":"Feature","geometry":{"type":"Point","coordinates":[-0.80178,52.94186]},"properties":{"name":"Bottesford","category":"village","osm_type":"node","osm_id":"27410454"}},{"type":"Feature","geometry":{"type":"Point","coordinates":[-0.95224,52.95157]},"properties":{"name":"Bingham","category":"town","osm_type":"node","osm_id":"27410455"}},{"type":"Feature","geometry":{"type":"Point","coordinates":[-0.89198,52.94716]},"properties":{"name":"Whatton-in-the-Vale","category":"village","osm_type":"node","osm_id":"27410456"}},{"type":"Feature","geometry":{"type":"Point","coordinates":[-0.8545,52.96083]},"properties":{"name":"Orston","category":"village","osm_type":"node","osm_id":"27410489"}},{"type":"Feature","geometry":{"type":"Point","coordinates":[-0.86011,52.94067]},"properties":{"name":"Elton on the Hill","category":"village","osm_type":"node","osm_id":"27410490"}},{"type":"Feature","geometry":{"type":"Point","coordinates":[-0.96839,52.98129]},"properties":{"name":"East Bridgford","category":"village","osm_type":"node","osm_id":"27410491"}},{"type":"Feature","geometry":{"type":"Point","coordinates":[-0.9964,52.50339]},"properties":{"name":"Gumley","category":"village","osm_type":"node","osm_id":"27415376"}},{"type":"Feature","geometry":{"type":"Point","coordinates":[-0.88099,52.68877]},"properties":{"name":"Burrough on the Hill","category":"village","osm_type":"node","osm_id":"28786231"}},{"type":"Feature","geometry":{"type":"Point","coordinates":[-0.25301,52.51888]},"properties":{"name":"Yaxley","category":"town","osm_type":"node","osm_id":"29264158"}},{"type":"Feature","geometry":{"type":"Point","coordinates":[-0.0238,52.97766]},"properties":{"name":"Boston","category":"town","osm_type":"node","osm_id":"29277992"}},{"type":"Feature","geometry":{"type":"Point","coordinates":[-0.81074,52.56683]},"properties":{"name":"Horninghold","category":"village","osm_type":"node","osm_id":"29341252"}},{"type":"Feature","geometry":{"type":"Point","coordinates":[-0.89513,52.58206]},"properties":{"name":"Goadby","category":"village","osm_type":"node","osm_id":"29341255"}},{"type":"Feature","geometry":{"type":"Point","coordinates":[-0.86249,52.74415]},"properties":{"name":"Burton Lazars","category":"village","osm_type":"node","osm_id":"29344239"}},{"type":"Feature","geometry":{"type":"Point","coordinates":[-0.85989,52.77366]},"properties":{"name":"Thorpe Arnold","category":"village","osm_type":"node","osm_id":"29344241"}},{"type":"Feature","geometry":{"type":"Point","coordinates":[-0.87068,52.80886]},"properties":{"name":"Scalford","category":"village","osm_type":"node","osm_id":"29344242"}},{"type":"Feature","geometry":{"type":"Point","coordinates":[-0.81023,52.81629]},"properties":{"name":"Waltham on the Wolds","category":"village","osm_type":"node","osm_id":"29344243"}},{"type":"Feature","geometry":{"type":"Point","coordinates":[-0.78077,52.81417]},"properties":{"name":"Stonesby","category":"village","osm_type":"node","osm_id":"29345003"}},{"type":"Feature","geometry":{"type":"Point","coordinates":[-0.81814,52.85337]},"properties":{"name":"Eaton","category":"village","osm_type":"node","osm_id":"29345005"}},{"type":"Feature","geometry":{"type":"Point","coordinates":[-0.81395,52.91118]},"properties":{"name":"Redmile","category":"village","osm_type":"node","osm_id":"29345006"}},{"type":"Feature","geometry":{"type":"Point","coordinates":[-0.84139,52.90516]},"properties":{"name":"Barkestone","category":"village","osm_type":"node","osm_id":"29345007"}},{"type":"Feature","geometry":{"type":"Point","coordinates":[-0.42787,52.97323]},"properties":{"name":"Silk Willoughby","category":"village","osm_type":"node","osm_id":"29458794"}},{"type":"Feature","geometry":{"type":"Point","coordinates":[-0.36365,52.99998]},"properties":{"name":"Kirkby la Thorpe","category":"village","osm_type":"node","osm_id":"29458823"}},{"type":"Feature","geometry":{"type":"Point","coordinates":[-0.37226,52.95099]},"properties":{"name":"Scredington","category":"village","osm_type":"node","osm_id":"29458894"}},{"type":"Feature","geometry":{"type":"Point","coordinates":[-0.30629,52.95169]},"properties":{"name":"Helpringham","category":"village","osm_type":"node","osm_id":"29458920"}},{"type":"Feature","geometry":{"type":"Point","coordinates":[-0.31672,52.92464]},"properties":{"name":"Swaton","category":"village","osm_type":"node","osm_id":"29459037"}},{"type":"Feature","geometry":{"type":"Point","coordinates":[-0.2061,52.90464]},"properties":{"name":"Donington","category":"village","osm_type":"node","osm_id":"29459069"}},{"type":"Feature","geometry":{"type":"Point","coordinates":[-0.18369,52.88208]},"properties":{"name":"Quadring","category":"village","osm_type":"node","osm_id":"29459238"}},{"type":"Feature","geometry":{"type":"Point","coordinates":[-0.16109,52.86906]},"properties":{"name":"Gosberton","category":"village","osm_type":"node","osm_id":"29459250"}},{"type":"Feature","geometry":{"type":"Point","coordinates":[-0.90695,52.52521]},"properties":{"name":"Thorpe Langton","category":"village","osm_type":"node","osm_id":"29673644"}},{"type":"Feature","geometry":{"type":"Point","coordinates":[-0.91563,52.54904]},"properties":{"name":"Stonton Wyville","category":"village","osm_type":"node","osm_id":"29673645"}},{"type":"Feature","geometry":{"type":"Point","coordinates":[-0.88212,52.54907]},"properties":{"name":"Cranoe","category":"village","osm_type":"node","osm_id":"29673646"}},{"type":"Feature","geometry":{"type":"Point","coordinates":[-0.89552,52.55616]},"properties":{"name":"Glooston","category":"village","osm_type":"node","osm_id":"29673647"}},{"type":"Feature","geometry":{"type":"Point","coordinates":[-0.76433,52.56885]},"properties":{"name":"Stockerston","category":"village","osm_type":"node","osm_id":"29673821"}},{"type":"Feature","geometry":{"type":"Point","coordinates":[-0.85346,52.66319]},"properties":{"name":"Owston","category":"village","osm_type":"node","osm_id":"29766303"}},{"type":"Feature","geometry":{"type":"Point","coordinates":[-0.03606,52.79946]},"properties":{"name":"Whaplode","category":"village","osm_type":"node","osm_id":"29805440"}},{"type":"Feature","geometry":{"type":"Point","coordinates":[-0.93026,52.66041]},"properties":{"name":"Lowesby","category":"village","osm_type":"node","osm_id":"30149406"}},{"type":"Feature","geometry":{"type":"Point","coordinates":[-0.99974,52.74343]},"properties":{"name":"Rotherby","category":"village","osm_type":"node","osm_id":"30150589"}},{"type":"Feature","geometry":{"type":"Point","coordinates":[-0.98485,52.59868]},"properties":{"name":"King's Norton","category":"village","osm_type":"node","osm_id":"30791094"}},{"type":"Feature","geometry":{"type":"Point","coordinates":[-0.68393,52.78648]},"properties":{"name":"Sewstern","category":"village","osm_type":"node","osm_id":"30867074"}},{"type":"Feature","geometry":{"type":"Point","coordinates":[-0.64971,52.78441]},"properties":{"name":"Gunby","category":"village","osm_type":"node","osm_id":"30867075"}},{"type":"Feature","geometry":{"type":"Point","coordinates":[-0.04116,52.95448]},"properties":{"name":"Wyberton","category":"village","osm_type":"node","osm_id":"31508611"}},{"type":"Feature","geometry":{"type":"Point","coordinates":[-0.03211,52.93423]},"properties":{"name":"Frampton","category":"village","osm_type":"node","osm_id":"31508612"}},{"type":"Feature","geometry":{"type":"Point","coordinates":[-0.69602,52.79674]},"properties":{"name":"Buckminster","category":"village","osm_type":"node","osm_id":"31822054"}},{"type":"Feature","geometry":{"type":"Point","coordinates":[-0.73095,52.80984]},"properties":{"name":"Sproxton","category":"village","osm_type":"node","osm_id":"31822059"}},{"type":"Feature","geometry":{"type":"Point","coordinates":[-0.73837,52.82769]},"properties":{"name":"Saltby","category":"village","osm_type":"node","osm_id":"31822513"}},{"type":"Feature","geometry":{"type":"Point","coordinates":[-0.76056,52.85246]},"properties":{"name":"Croxton Kerrial","category":"village","osm_type":"node","osm_id":"31822640"}},{"type":"Feature","geometry":{"type":"Point","coordinates":[-0.75528,52.87795]},"properties":{"name":"Harston","category":"village","osm_type":"node","osm_id":"31822642"}},{"type":"Feature","geometry":{"type":"Point","coordinates":[-0.77566,52.87278]},"properties":{"name":"Knipton","category":"village","osm_type":"node","osm_id":"31822644"}},{"type":"Feature","geometry":{"type":"Point","coordinates":[-0.88558,52.91833]},"properties":{"name":"Granby","category":"village","osm_type":"node","osm_id":"31823969"}},{"type":"Feature","geometry":{"type":"Point","coordinates":[-0.89285,52.87202]},"properties":{"name":"Harby","category":"village","osm_type":"node","osm_id":"31823973"}},{"type":"Feature","geometry":{"type":"Point","coordinates":[-0.90652,52.85706]},"properties":{"name":"Hose","category":"village","osm_type":"node","osm_id":"31823978"}},{"type":"Feature","geometry":{"type":"Point","coordinates":[-0.96012,52.8933]},"properties":{"name":"Colston Bassett","category":"village","osm_type":"node","osm_id":"31823982"}},{"type":"Feature","geometry":{"type":"Point","coordinates":[-0.78151,52.89668]},"properties":{"name":"Belvoir","category":"village","osm_type":"node","osm_id":"31824091"}},{"type":"Feature","geometry":{"type":"Point","coordinates":[-0.76831,52.93368]},"properties":{"name":"Muston","category":"village","osm_type":"node","osm_id":"31825175"}},{"type":"Feature","geometry":{"type":"Point","coordinates":[-0.72427,52.95297]},"properties":{"name":"Allington","category":"village","osm_type":"node","osm_id":"31825238"}},{"type":"Feature","geometry":{"type":"Point","coordinates":[-0.85967,52.89736]},"properties":{"name":"Plungar","category":"village","osm_type":"node","osm_id":"31825457"}},{"type":"Feature","geometry":{"type":"Point","coordinates":[-0.97537,52.85297]},"properties":{"name":"Hickling","category":"village","osm_type":"node","osm_id":"31825645"}},{"type":"Feature","geometry":{"type":"Point","coordinates":[-0.71102,52.88359]},"properties":{"name":"Denton","category":"village","osm_type":"node","osm_id":"33687243"}},{"type":"Feature","geometry":{"type":"Point","coordinates":[-0.14199,52.51214]},"properties":{"name":"Pondersbridge","category":"village","osm_type":"node","osm_id":"36637047"}},{"type":"Feature","geometry":{"type":"Point","coordinates":[-0.53453,52.98574]},"properties":{"name":"Ancaster","category":"village","osm_type":"node","osm_id":"68329606"}},{"type":"Feature","geometry":{"type":"Point","coordinates":[-0.37177,52.80266]},"properties":{"name":"Morton","category":"village","osm_type":"node","osm_id":"81758504"}},{"type":"Feature","geometry":{"type":"Point","coordinates":[-0.54818,52.82053]},"properties":{"name":"Burton le Coggles","category":"village","osm_type":"node","osm_id":"82536354"}},{"type":"Feature","geometry":{"type":"Point","coordinates":[-0.53239,52.79373]},"properties":{"name":"Swayfield","category":"village","osm_type":"node","osm_id":"82536355"}},{"type":"Feature","geometry":{"type":"Point","coordinates":[-0.50248,52.76766]},"properties":{"name":"Creeton","category":"village","osm_type":"node","osm_id":"82536357"}},{"type":"Feature","geometry":{"type":"Point","coordinates":[-0.42741,52.78387]},"properties":{"name":"Edenham","category":"village","osm_type":"node","osm_id":"82536358"}},{"type":"Feature","geometry":{"type":"Point","coordinates":[-0.44974,52.79439]},"properties":{"name":"Grimsthorpe","category":"village","osm_type":"node","osm_id":"82536359"}},{"type":"Feature","geometry":{"type":"Point","coordinates":[-0.48149,52.82894]},"properties":{"name":"Irnham","category":"village","osm_type":"node","osm_id":"82536362"}},{"type":"Feature","geometry":{"type":"Point","coordinates":[-0.51977,52.81339]},"properties":{"name":"Corby Glen","category":"village","osm_type":"node","osm_id":"82536363"}},{"type":"Feature","geometry":{"type":"Point","coordinates":[-0.38979,52.8021]},"properties":{"name":"Hanthorpe","category":"village","osm_type":"node","osm_id":"82536364"}},{"type":"Feature","geometry":{"type":"Point","coordinates":[-0.36173,52.8145]},"properties":{"name":"Haconby","category":"village","osm_type":"node","osm_id":"82536366"}},{"type":"Feature","geometry":{"type":"Point","coordinates":[-0.35939,52.8279]},"properties":{"name":"Dunsby","category":"village","osm_type":"node","osm_id":"82536368"}},{"type":"Feature","geometry":{"type":"Point","coordinates":[-0.39077,52.85992]},"properties":{"name":"Aslackby","category":"village","osm_type":"node","osm_id":"82536372"}},{"type":"Feature","geometry":{"type":"Point","coordinates":[-0.34298,52.87265]},"properties":{"name":"Pointon","category":"village","osm_type":"node","osm_id":"82536373"}},{"type":"Feature","geometry":{"type":"Point","coordinates":[-0.34099,52.89386]},"properties":{"name":"Billingborough","category":"village","osm_type":"node","osm_id":"82536374"}},{"type":"Feature","geometry":{"type":"Point","coordinates":[-0.33755,52.90383]},"properties":{"name":"Horbling","category":"village","osm_type":"node","osm_id":"82536376"}},{"type":"Feature","geometry":{"type":"Point","coordinates":[-0.38147,52.91232]},"properties":{"name":"Threekingham","category":"village","osm_type":"node","osm_id":"82536377"}},{"type":"Feature","geometry":{"type":"Point","coordinates":[-0.44443,52.91357]},"properties":{"name":"Newton","category":"village","osm_type":"node","osm_id":"82536381"}},{"type":"Feature","geometry":{"type":"Point","coordinates":[-0.45064,52.88969]},"properties":{"name":"Pickworth","category":"village","osm_type":"node","osm_id":"82536387"}},{"type":"Feature","geometry":{"type":"Point","coordinates":[-0.49932,52.85926]},"properties":{"name":"Ingoldsby","category":"village","osm_type":"node","osm_id":"82536392"}},{"type":"Feature","geometry":{"type":"Point","coordinates":[-0.40665,52.83207]},"properties":{"name":"Kirkby Underwood","category":"village","osm_type":"node","osm_id":"82536396"}},{"type":"Feature","geometry":{"type":"Point","coordinates":[-0.57413,52.89225]},"properties":{"name":"Old Somerby","category":"village","osm_type":"node","osm_id":"82536397"}},{"type":"Feature","geometry":{"type":"Point","coordinates":[-0.55929,52.86685]},"properties":{"name":"Boothby Pagnell","category":"village","osm_type":"node","osm_id":"82536398"}},{"type":"Feature","geometry":{"type":"Point","coordinates":[-0.62615,52.86307]},"properties":{"name":"Great Ponton","category":"village","osm_type":"node","osm_id":"82536401"}},{"type":"Feature","geometry":{"type":"Point","coordinates":[-0.19858,52.85291]},"properties":{"name":"Risegate","category":"village","osm_type":"node","osm_id":"82536402"}},{"type":"Feature","geometry":{"type":"Point","coordinates":[-0.9744,52.96912]},"properties":{"name":"Newton","category":"village","osm_type":"node","osm_id":"151230251"}},{"type":"Feature","geometry":{"type":"Point","coordinates":[-0.92859,52.97878]},"properties":{"name":"Car Colston","category":"village","osm_type":"node","osm_id":"153502055"}},{"type":"Feature","geometry":{"type":"Point","coordinates":[-0.98565,52.98907]},"properties":{"name":"Gunthorpe","category":"village","osm_type":"node","osm_id":"162769866"}},{"type":"Feature","geometry":{"type":"Point","coordinates":[-0.90956,52.96605]},"properties":{"name":"Scarrington","category":"village","osm_type":"node","osm_id":"193589967"}},{"type":"Feature","geometry":{"type":"Point","coordinates":[-0.22894,52.5365]},"properties":{"name":"Farcet","category":"village","osm_type":"node","osm_id":"196249427"}},{"type":"Feature","geometry":{"type":"Point","coordinates":[-0.07448,52.56226]},"properties":{"name":"Coates","category":"village","osm_type":"node","osm_id":"196401678"}},{"type":"Feature","geometry":{"type":"Point","coordinates":[-0.34048,52.57225]},"properties":{"name":"Castor","category":"village","osm_type":"node","osm_id":"198231836"}},{"type":"Feature","geometry":{"type":"Point","coordinates":[-0.30685,52.60413]},"properties":{"name":"Marholm","category":"village","osm_type":"node","osm_id":"198242235"}},{"type":"Feature","geometry":{"type":"Point","coordinates":[-0.47017,52.99667]},"properties":{"name":"South Rauceby","category":"village","osm_type":"node","osm_id":"243511398"}},{"type":"Feature","geometry":{"type":"Point","coordinates":[-0.50515,52.97543]},"properties":{"name":"Wilsford","category":"village","osm_type":"node","osm_id":"243511401"}},{"type":"Feature","geometry":{"type":"Point","coordinates":[-0.58696,52.99437]},"properties":{"name":"Carlton Scroop","category":"village","osm_type":"node","osm_id":"243511436"}},{"type":"Feature","geometry":{"type":"Point","coordinates":[-0.67844,52.9895]},"properties":{"name":"Hougham","category":"village","osm_type":"node","osm_id":"243748112"}},{"type":"Feature","geometry":{"type":"Point","coordinates":[-0.67358,52.98181]},"properties":{"name":"Marston","category":"village","osm_type":"node","osm_id":"243748113"}},{"type":"Feature","geometry":{"type":"Point","coordinates":[-0.72294,52.97661]},"properties":{"name":"Foston","category":"village","osm_type":"node","osm_id":"243748120"}},{"type":"Feature","geometry":{"type":"Point","coordinates":[-0.73337,52.99264]},"properties":{"name":"Westborough","category":"village","osm_type":"node","osm_id":"243748121"}},{"type":"Feature","geometry":{"type":"Point","coordinates":[-0.75698,52.99208]},"properties":{"name":"Long Bennington","category":"village","osm_type":"node","osm_id":"243748122"}},{"type":"Feature","geometry":{"type":"Point","coordinates":[-0.80111,52.98486]},"properties":{"name":"Staunton in the Vale","category":"village","osm_type":"node","osm_id":"243748126"}},{"type":"Feature","geometry":{"type":"Point","coordinates":[-0.79328,52.95831]},"properties":{"name":"Normanton","category":"village","osm_type":"node","osm_id":"244180860"}},{"type":"Feature","geometry":{"type":"Point","coordinates":[-0.7919,52.93759]},"properties":{"name":"Easthorpe","category":"village","osm_type":"node","osm_id":"244180863"}},{"type":"Feature","geometry":{"type":"Point","coordinates":[-0.6869,52.88404]},"properties":{"name":"Harlaxton","category":"village","osm_type":"node","osm_id":"244180864"}},{"type":"Feature","geometry":{"type":"Point","coordinates":[-0.68878,52.91617]},"properties":{"name":"Barrowby","category":"village","osm_type":"node","osm_id":"244180867"}},{"type":"Feature","geometry":{"type":"Point","coordinates":[-0.72704,52.93209]},"properties":{"name":"Sedgebrook","category":"village","osm_type":"node","osm_id":"244180869"}},{"type":"Feature","geometry":{"type":"Point","coordinates":[-0.6324,52.92927]},"properties":{"name":"Manthorpe","category":"village","osm_type":"node","osm_id":"244180871"}},{"type":"Feature","geometry":{"type":"Point","coordinates":[-0.75681,52.89698]},"properties":{"name":"Woolsthorpe-by-Belvoir","category":"village","osm_type":"node","osm_id":"244180879"}},{"type":"Feature","geometry":{"type":"Point","coordinates":[-0.68532,52.73955]},"properties":{"name":"Market Overton","category":"village","osm_type":"node","osm_id":"244180884"}},{"type":"Feature","geometry":{"type":"Point","coordinates":[-0.68301,52.72713]},"properties":{"name":"Barrow","category":"village","osm_type":"node","osm_id":"244180886"}},{"type":"Feature","geometry":{"type":"Point","coordinates":[-0.64788,52.75153]},"properties":{"name":"Thistleton","category":"village","osm_type":"node","osm_id":"244180888"}},{"type":"Feature","geometry":{"type":"Point","coordinates":[-0.62789,52.76456]},"properties":{"name":"South Witham","category":"village","osm_type":"node","osm_id":"244180890"}},{"type":"Feature","geometry":{"type":"Point","coordinates":[-0.62628,52.78554]},"properties":{"name":"North Witham","category":"village","osm_type":"node","osm_id":"244180891"}},{"type":"Feature","geometry":{"type":"Point","coordinates":[-0.61905,52.80657]},"properties":{"name":"Colsterworth","category":"village","osm_type":"node","osm_id":"244180892"}},{"type":"Feature","geometry":{"type":"Point","coordinates":[-0.63222,52.80963]},"properties":{"name":"Woolsthorpe","category":"village","osm_type":"node","osm_id":"244180893"}},{"type":"Feature","geometry":{"type":"Point","coordinates":[-0.62952,52.71973]},"properties":{"name":"Greetham","category":"village","osm_type":"node","osm_id":"244180895"}},{"type":"Feature","geometry":{"type":"Point","coordinates":[-0.624,52.83078]},"properties":{"name":"Easton","category":"village","osm_type":"node","osm_id":"244180896"}},{"type":"Feature","geometry":{"type":"Point","coordinates":[-0.52556,52.89729]},"properties":{"name":"Ropsley","category":"village","osm_type":"node","osm_id":"244180897"}},{"type":"Feature","geometry":{"type":"Point","coordinates":[-0.6171,52.94585]},"properties":{"name":"Belton","category":"village","osm_type":"node","osm_id":"244180900"}},{"type":"Feature","geometry":{"type":"Point","coordinates":[-0.55076,52.93352]},"properties":{"name":"Welby","category":"village","osm_type":"node","osm_id":"244180903"}},{"type":"Feature","geometry":{"type":"Point","coordinates":[-0.50874,52.93975]},"properties":{"name":"Oasby","category":"village","osm_type":"node","osm_id":"244180904"}},{"type":"Feature","geometry":{"type":"Point","coordinates":[-0.49543,52.93719]},"properties":{"name":"Aisby","category":"village","osm_type":"node","osm_id":"244180907"}},{"type":"Feature","geometry":{"type":"Point","coordinates":[-0.41054,52.93054]},"properties":{"name":"Osbournby","category":"village","osm_type":"node","osm_id":"244180912"}},{"type":"Feature","geometry":{"type":"Point","coordinates":[-0.49141,52.79059]},"properties":{"name":"Swinstead","category":"village","osm_type":"node","osm_id":"244180915"}},{"type":"Feature","geometry":{"type":"Point","coordinates":[-0.49855,52.75093]},"properties":{"name":"Little Bytham","category":"village","osm_type":"node","osm_id":"244180917"}},{"type":"Feature","geometry":{"type":"Point","coordinates":[-0.44264,52.73707]},"properties":{"name":"Witham on the Hill","category":"village","osm_type":"node","osm_id":"244180924"}},{"type":"Feature","geometry":{"type":"Point","coordinates":[-0.41774,52.74223]},"properties":{"name":"Toft","category":"village","osm_type":"node","osm_id":"244180928"}},{"type":"Feature","geometry":{"type":"Point","coordinates":[-0.41606,52.7313]},"properties":{"name":"Manthorpe","category":"village","osm_type":"node","osm_id":"244180930"}},{"type":"Feature","geometry":{"type":"Point","coordinates":[-0.40209,52.70587]},"properties":{"name":"Braceborough","category":"village","osm_type":"node","osm_id":"244180932"}},{"type":"Feature","geometry":{"type":"Point","coordinates":[-0.29535,52.96064]},"properties":{"name":"Little Hale","category":"village","osm_type":"node","osm_id":"244452628"}},{"type":"Feature","geometry":{"type":"Point","coordinates":[-0.17982,52.92123]},"properties":{"name":"Bicker","category":"village","osm_type":"node","osm_id":"244452633"}},{"type":"Feature","geometry":{"type":"Point","coordinates":[-0.16773,52.9556]},"properties":{"name":"North End","category":"village","osm_type":"node","osm_id":"244452634"}},{"type":"Feature","geometry":{"type":"Point","coordinates":[-0.09048,52.90296]},"properties":{"name":"Sutterton","category":"village","osm_type":"node","osm_id":"244452637"}},{"type":"Feature","geometry":{"type":"Point","coordinates":[-0.12399,52.90833]},"properties":{"name":"Wigtoft","category":"village","osm_type":"node","osm_id":"244452638"}},{"type":"Feature","geometry":{"type":"Point","coordinates":[-0.07956,52.89972]},"properties":{"name":"Algarkirk","category":"village","osm_type":"node","osm_id":"244452644"}},{"type":"Feature","geometry":{"type":"Point","coordinates":[-0.05788,52.92835]},"properties":{"name":"Kirton","category":"village","osm_type":"node","osm_id":"244452646"}},{"type":"Feature","geometry":{"type":"Point","coordinates":[-0.89771,52.95253]},"properties":{"name":"Aslockton","category":"village","osm_type":"node","osm_id":"252816123"}},{"type":"Feature","geometry":{"type":"Point","coordinates":[-0.74755,52.64275]},"properties":{"name":"Brooke","category":"village","osm_type":"node","osm_id":"253252558"}},{"type":"Feature","geometry":{"type":"Point","coordinates":[-0.74814,52.61563]},"properties":{"name":"Ridlington","category":"village","osm_type":"node","osm_id":"253253073"}},{"type":"Feature","geometry":{"type":"Point","coordinates":[-0.71833,52.71351]},"properties":{"name":"Ashwell","category":"village","osm_type":"node","osm_id":"253254397"}},{"type":"Feature","geometry":{"type":"Point","coordinates":[-0.94809,52.55937]},"properties":{"name":"Shangton","category":"village","osm_type":"node","osm_id":"253331406"}},{"type":"Feature","geometry":{"type":"Point","coordinates":[-0.97547,52.56774]},"properties":{"name":"Carlton Curlieu","category":"village","osm_type":"node","osm_id":"253331408"}},{"type":"Feature","geometry":{"type":"Point","coordinates":[-0.94215,52.52974]},"properties":{"name":"West Langton","category":"village","osm_type":"node","osm_id":"253331651"}},{"type":"Feature","geometry":{"type":"Point","coordinates":[-0.79525,52.59555]},"properties":{"name":"Allexton","category":"village","osm_type":"node","osm_id":"253549617"}},{"type":"Feature","geometry":{"type":"Point","coordinates":[-0.92482,52.83872]},"properties":{"name":"Long Clawson","category":"village","osm_type":"node","osm_id":"256318206"}},{"type":"Feature","geometry":{"type":"Point","coordinates":[-0.98173,52.92679]},"properties":{"name":"Cropwell Butler","category":"village","osm_type":"node","osm_id":"279119088"}},{"type":"Feature","geometry":{"type":"Point","coordinates":[-0.98482,52.91364]},"properties":{"name":"Cropwell Bishop","category":"village","osm_type":"node","osm_id":"279119416"}},{"type":"Feature","geometry":{"type":"Point","coordinates":[-0.923,52.90459]},"properties":{"name":"Langar","category":"village","osm_type":"node","osm_id":"279119433"}},{"type":"Feature","geometry":{"type":"Point","coordinates":[-0.90978,52.9113]},"properties":{"name":"Barnstone","category":"village","osm_type":"node","osm_id":"279119493"}},{"type":"Feature","geometry":{"type":"Point","coordinates":[-0.90834,52.98682]},"properties":{"name":"Screveton","category":"village","osm_type":"node","osm_id":"279125556"}},{"type":"Feature","geometry":{"type":"Point","coordinates":[-0.8792,52.98317]},"properties":{"name":"Hawksworth","category":"village","osm_type":"node","osm_id":"279125795"}},{"type":"Feature","geometry":{"type":"Point","coordinates":[-0.86567,52.97428]},"properties":{"name":"Thoroton","category":"village","osm_type":"node","osm_id":"279125903"}},{"type":"Feature","geometry":{"type":"Point","coordinates":[-0.3696,52.83816]},"properties":{"name":"Rippingale","category":"village","osm_type":"node","osm_id":"297047899"}},{"type":"Feature","geometry":{"type":"Point","coordinates":[-0.16268,52.81369]},"properties":{"name":"Pinchbeck","category":"village","osm_type":"node","osm_id":"297234132"}},{"type":"Feature","geometry":{"type":"Point","coordinates":[-0.8394,52.69449]},"properties":{"name":"Pickwell","category":"village","osm_type":"node","osm_id":"300463614"}},{"type":"Feature","geometry":{"type":"Point","coordinates":[-0.85458,52.54338]},"properties":{"name":"Slawston","category":"village","osm_type":"node","osm_id":"306899159"}},{"type":"Feature","geometry":{"type":"Point","coordinates":[-0.94722,52.80087]},"properties":{"name":"Wartnaby","category":"village","osm_type":"node","osm_id":"313789127"}},{"type":"Feature","geometry":{"type":"Point","coordinates":[-0.93838,52.76666]},"properties":{"name":"Asfordby Valley","category":"village","osm_type":"node","osm_id":"313789254"}},{"type":"Feature","geometry":{"type":"Point","coordinates":[-0.92773,52.7666]},"properties":{"name":"Asfordby Hill","category":"village","osm_type":"node","osm_id":"313789264"}},{"type":"Feature","geometry":{"type":"Point","coordinates":[-0.04405,52.8796]},"properties":{"name":"Fosdyke","category":"village","osm_type":"node","osm_id":"330102422"}},{"type":"Feature","geometry":{"type":"Point","coordinates":[-0.06332,52.79763]},"properties":{"name":"Moulton","category":"village","osm_type":"node","osm_id":"330112979"}},{"type":"Feature","geometry":{"type":"Point","coordinates":[-0.0866,52.80568]},"properties":{"name":"Weston","category":"village","osm_type":"node","osm_id":"330112999"}},{"type":"Feature","geometry":{"type":"Point","coordinates":[-0.02003,52.68417]},"properties":{"name":"Gedney Hill","category":"village","osm_type":"node","osm_id":"330721579"}},{"type":"Feature","geometry":{"type":"Point","coordinates":[-0.04959,52.70311]},"properties":{"name":"Whaplode Drove","category":"village","osm_type":"node","osm_id":"331816987"}},{"type":"Feature","geometry":{"type":"Point","coordinates":[-0.36683,52.56107]},"properties":{"name":"Water Newton","category":"village","osm_type":"node","osm_id":"345853284"}},{"type":"Feature","geometry":{"type":"Point","coordinates":[-0.83829,52.99428]},"properties":{"name":"Shelton","category":"village","osm_type":"node","osm_id":"346191742"}},{"type":"Feature","geometry":{"type":"Point","coordinates":[-0.73838,52.75956]},"properties":{"name":"Wymondham","category":"village","osm_type":"node","osm_id":"353481804"}},{"type":"Feature","geometry":{"type":"Point","coordinates":[-0.42541,52.59222]},"properties":{"name":"Thornhaugh","category":"village","osm_type":"node","osm_id":"354906142"}},{"type":"Feature","geometry":{"type":"Point","coordinates":[-0.77697,52.52183]},"properties":{"name":"Drayton","category":"village","osm_type":"node","osm_id":"354977158"}},{"type":"Feature","geometry":{"type":"Point","coordinates":[-0.82992,52.50969]},"properties":{"name":"Ashley","category":"village","osm_type":"node","osm_id":"360835341"}},{"type":"Feature","geometry":{"type":"Point","coordinates":[-0.40839,52.63331]},"properties":{"name":"Barnack","category":"village","osm_type":"node","osm_id":"373464049"}},{"type":"Feature","geometry":{"type":"Point","coordinates":[-0.42658,52.63805]},"properties":{"name":"Pilsgate","category":"village","osm_type":"node","osm_id":"385456937"}},{"type":"Feature","geometry":{"type":"Point","coordinates":[-0.32929,52.52052]},"properties":{"name":"Haddon","category":"village","osm_type":"node","osm_id":"391086441"}},{"type":"Feature","geometry":{"type":"Point","coordinates":[-0.3766,52.7387]},"properties":{"name":"Thurlby","category":"village","osm_type":"node","osm_id":"435246731"}},{"type":"Feature","geometry":{"type":"Point","coordinates":[-0.34489,52.63561]},"properties":{"name":"Helpston","category":"village","osm_type":"node","osm_id":"437569821"}},{"type":"Feature","geometry":{"type":"Point","coordinates":[-0.38636,52.62369]},"properties":{"name":"Ufford","category":"village","osm_type":"node","osm_id":"439190515"}},{"type":"Feature","geometry":{"type":"Point","coordinates":[-0.38446,52.64084]},"properties":{"name":"Bainton","category":"village","osm_type":"node","osm_id":"439190591"}},{"type":"Feature","geometry":{"type":"Point","coordinates":[-0.39833,52.5324]},"properties":{"name":"Elton","category":"village","osm_type":"node","osm_id":"442711819"}},{"type":"Feature","geometry":{"type":"Point","coordinates":[-0.21803,52.80579]},"properties":{"name":"West Pinchbeck","category":"village","osm_type":"node","osm_id":"449275792"}},{"type":"Feature","geometry":{"type":"Point","coordinates":[-0.7975,52.85796]},"properties":{"name":"Branston","category":"village","osm_type":"node","osm_id":"454620900"}},{"type":"Feature","geometry":{"type":"Point","coordinates":[-0.76514,52.77958]},"properties":{"name":"Garthorpe","category":"village","osm_type":"node","osm_id":"454625056"}},{"type":"Feature","geometry":{"type":"Point","coordinates":[-0.78351,52.77065]},"properties":{"name":"Saxby","category":"village","osm_type":"node","osm_id":"454625059"}},{"type":"Feature","geometry":{"type":"Point","coordinates":[-0.65465,52.79529]},"properties":{"name":"Stainby","category":"village","osm_type":"node","osm_id":"454625063"}},{"type":"Feature","geometry":{"type":"Point","coordinates":[-0.84205,52.83027]},"properties":{"name":"Goadby Marwood","category":"village","osm_type":"node","osm_id":"454625509"}},{"type":"Feature","geometry":{"type":"Point","coordinates":[-0.98426,52.79041]},"properties":{"name":"Grimston","category":"village","osm_type":"node","osm_id":"455111521"}},{"type":"Feature","geometry":{"type":"Point","coordinates":[-0.32335,52.51008]},"properties":{"name":"Morborne","category":"village","osm_type":"node","osm_id":"496359474"}},{"type":"Feature","geometry":{"type":"Point","coordinates":[-0.32907,52.54957]},"properties":{"name":"Alwalton","category":"village","osm_type":"node","osm_id":"496361644"}},{"type":"Feature","geometry":{"type":"Point","coordinates":[-0.69654,52.68625]},"properties":{"name":"Burley on the Hill","category":"village","osm_type":"node","osm_id":"538257838"}},{"type":"Feature","geometry":{"type":"Point","coordinates":[-0.59803,52.55483]},"properties":{"name":"Laxton","category":"village","osm_type":"node","osm_id":"539388410"}},{"type":"Feature","geometry":{"type":"Point","coordinates":[-0.77172,52.59279]},"properties":{"name":"Wardley","category":"village","osm_type":"node","osm_id":"574325839"}},{"type":"Feature","geometry":{"type":"Point","coordinates":[-0.5362,52.67398]},"properties":{"name":"Tickencote","category":"village","osm_type":"node","osm_id":"633787450"}},{"type":"Feature","geometry":{"type":"Point","coordinates":[-0.54098,52.59656]},"properties":{"name":"Duddington","category":"village","osm_type":"node","osm_id":"633788938"}},{"type":"Feature","geometry":{"type":"Point","coordinates":[-0.40794,52.88972]},"properties":{"name":"Folkingham","category":"village","osm_type":"node","osm_id":"643429748"}},{"type":"Feature","geometry":{"type":"Point","coordinates":[-0.50776,52.62673]},"properties":{"name":"Easton on the Hill","category":"village","osm_type":"node","osm_id":"644877495"}},{"type":"Feature","geometry":{"type":"Point","coordinates":[-0.83474,52.97731]},"properties":{"name":"Flawborough","category":"village","osm_type":"node","osm_id":"659966169"}},{"type":"Feature","geometry":{"type":"Point","coordinates":[-0.3564,52.71096]},"properties":{"name":"Baston","category":"village","osm_type":"node","osm_id":"728195353"}},{"type":"Feature","geometry":{"type":"Point","coordinates":[-0.33955,52.69899]},"properties":{"name":"Langtoft","category":"village","osm_type":"node","osm_id":"728259508"}},{"type":"Feature","geometry":{"type":"Point","coordinates":[-0.28987,52.97169]},"properties":{"name":"Great Hale","category":"village","osm_type":"node","osm_id":"769321223"}},{"type":"Feature","geometry":{"type":"Point","coordinates":[-0.76524,52.50051]},"properties":{"name":"Middleton","category":"village","osm_type":"node","osm_id":"851231089"}},{"type":"Feature","geometry":{"type":"Point","coordinates":[-0.95418,52.76445]},"properties":{"name":"Asfordby","category":"village","osm_type":"node","osm_id":"1083537669"}},{"type":"Feature","geometry":{"type":"Point","coordinates":[-0.43759,52.52601]},"properties":{"name":"Fotheringhay","category":"village","osm_type":"node","osm_id":"1200546694"}},{"type":"Feature","geometry":{"type":"Point","coordinates":[-0.52086,52.56571]},"properties":{"name":"King's Cliffe","category":"village","osm_type":"node","osm_id":"1274929753"}},{"type":"Feature","geometry":{"type":"Point","coordinates":[-0.10682,52.62217]},"properties":{"name":"Thorney","category":"village","osm_type":"node","osm_id":"1277035064"}},{"type":"Feature","geometry":{"type":"Point","coordinates":[-0.18902,52.60887]},"properties":{"name":"Eye","category":"village","osm_type":"node","osm_id":"1277035254"}},{"type":"Feature","geometry":{"type":"Point","coordinates":[-0.33696,52.54471]},"properties":{"name":"Chesterton","category":"village","osm_type":"node","osm_id":"1386698170"}},{"type":"Feature","geometry":{"type":"Point","coordinates":[-0.45177,52.98365]},"properties":{"name":"Greylees","category":"village","osm_type":"node","osm_id":"1419284975"}},{"type":"Feature","geometry":{"type":"Point","coordinates":[-0.42089,52.56688]},"properties":{"name":"Yarwell","category":"village","osm_type":"node","osm_id":"1435577218"}},{"type":"Feature","geometry":{"type":"Point","coordinates":[-0.43025,52.55266]},"properties":{"name":"Nassington","category":"village","osm_type":"node","osm_id":"1435579224"}},{"type":"Feature","geometry":{"type":"Point","coordinates":[-0.99978,52.57643]},"properties":{"name":"Burton Overy","category":"village","osm_type":"node","osm_id":"1470829742"}},{"type":"Feature","geometry":{"type":"Point","coordinates":[-0.72342,52.58872]},"properties":{"name":"Uppingham","category":"town","osm_type":"node","osm_id":"1523018083"}},{"type":"Feature","geometry":{"type":"Point","coordinates":[-0.12871,52.74321]},"properties":{"name":"Cowbit","category":"village","osm_type":"node","osm_id":"1588255333"}},{"type":"Feature","geometry":{"type":"Point","coordinates":[-0.19869,52.78157]},"properties":{"name":"Pode Hole","category":"village","osm_type":"node","osm_id":"1588256324"}},{"type":"Feature","geometry":{"type":"Point","coordinates":[-0.12264,52.55501]},"properties":{"name":"Whittlesey","category":"town","osm_type":"node","osm_id":"1589771003"}},{"type":"Feature","geometry":{"type":"Point","coordinates":[-0.01085,52.8241]},"properties":{"name":"Saracen's Head","category":"village","osm_type":"node","osm_id":"1599348563"}},{"type":"Feature","geometry":{"type":"Point","coordinates":[-0.08407,52.7467]},"properties":{"name":"Moulton Chapel","category":"village","osm_type":"node","osm_id":"1599459544"}},{"type":"Feature","geometry":{"type":"Point","coordinates":[-0.59667,52.66648]},"properties":{"name":"Empingham","category":"village","osm_type":"node","osm_id":"1673179590"}},{"type":"Feature","geometry":{"type":"Point","coordinates":[-0.63415,52.66901]},"properties":{"name":"Whitwell","category":"village","osm_type":"node","osm_id":"1676685394"}},{"type":"Feature","geometry":{"type":"Point","coordinates":[-0.56764,52.55061]},"properties":{"name":"Blatherwycke","category":"village","osm_type":"node","osm_id":"1756680985"}},{"type":"Feature","geometry":{"type":"Point","coordinates":[-0.47715,52.53847]},"properties":{"name":"Woodnewton","category":"village","osm_type":"node","osm_id":"1775997866"}},{"type":"Feature","geometry":{"type":"Point","coordinates":[-0.49793,52.51734]},"properties":{"name":"Southwick","category":"village","osm_type":"node","osm_id":"1778494095"}},{"type":"Feature","geometry":{"type":"Point","coordinates":[-0.392,52.69465]},"properties":{"name":"Greatford","category":"village","osm_type":"node","osm_id":"1779058316"}},{"type":"Feature","geometry":{"type":"Point","coordinates":[-0.38542,52.71022]},"properties":{"name":"Wilsthorpe","category":"village","osm_type":"node","osm_id":"1779198536"}},{"type":"Feature","geometry":{"type":"Point","coordinates":[-0.46323,52.5048]},"properties":{"name":"Cotterstock","category":"village","osm_type":"node","osm_id":"1779481998"}},{"type":"Feature","geometry":{"type":"Point","coordinates":[-0.29588,52.63922]},"properties":{"name":"Glinton","category":"village","osm_type":"node","osm_id":"1783161819"}},{"type":"Feature","geometry":{"type":"Point","coordinates":[-0.00314,52.74636]},"properties":{"name":"Holbeach St Johns","category":"village","osm_type":"node","osm_id":"1979859391"}},{"type":"Feature","geometry":{"type":"Point","coordinates":[-0.2087,52.72234]},"properties":{"name":"Deeping St Nicholas","category":"village","osm_type":"node","osm_id":"2015820249"}},{"type":"Feature","geometry":{"type":"Point","coordinates":[-0.91239,52.80596]},"properties":{"name":"Holwell","category":"village","osm_type":"node","osm_id":"2031728241"}},{"type":"Feature","geometry":{"type":"Point","coordinates":[-0.40539,52.61505]},"properties":{"name":"Southorpe","category":"village","osm_type":"node","osm_id":"2031829375"}},{"type":"Feature","geometry":{"type":"Point","coordinates":[-0.43132,52.65743]},"properties":{"name":"Uffington","category":"village","osm_type":"node","osm_id":"2031829390"}},{"type":"Feature","geometry":{"type":"Point","coordinates":[-0.29856,52.65921]},"properties":{"name":"Northborough","category":"village","osm_type":"node","osm_id":"2091819801"}},{"type":"Feature","geometry":{"type":"Point","coordinates":[-0.37716,52.76823]},"properties":{"name":"Bourne","category":"town","osm_type":"node","osm_id":"2364650564"}},{"type":"Feature","geometry":{"type":"Point","coordinates":[-0.4955,52.50153]},"properties":{"name":"Glapthorn","category":"village","osm_type":"node","osm_id":"2373196956"}},{"type":"Feature","geometry":{"type":"Point","coordinates":[-0.14378,52.83525]},"properties":{"name":"Surfleet","category":"village","osm_type":"node","osm_id":"2602229319"}},{"type":"Feature","geometry":{"type":"Point","coordinates":[-0.11083,52.97522]},"properties":{"name":"Hubbert's Bridge","category":"village","osm_type":"node","osm_id":"2616350886"}},{"type":"Feature","geometry":{"type":"Point","coordinates":[-0.03918,52.82859]},"properties":{"name":"Moulton Seas End","category":"village","osm_type":"node","osm_id":"2631470285"}},{"type":"Feature","geometry":{"type":"Point","coordinates":[-0.42885,52.98761]},"properties":{"name":"Quarrington","category":"village","osm_type":"node","osm_id":"2663176066"}},{"type":"Feature","geometry":{"type":"Point","coordinates":[-0.37416,52.74445]},"properties":{"name":"Northorpe","category":"village","osm_type":"node","osm_id":"2699887939"}},{"type":"Feature","geometry":{"type":"Point","coordinates":[-0.38583,52.65953]},"properties":{"name":"Tallington","category":"village","osm_type":"node","osm_id":"2699887957"}},{"type":"Feature","geometry":{"type":"Point","coordinates":[-0.32535,52.68328]},"properties":{"name":"Towngate","category":"village","osm_type":"node","osm_id":"2699897566"}},{"type":"Feature","geometry":{"type":"Point","coordinates":[-0.22656,52.82079]},"properties":{"name":"Northgate","category":"village","osm_type":"node","osm_id":"2795326633"}},{"type":"Feature","geometry":{"type":"Point","coordinates":[-0.22955,52.85219]},"properties":{"name":"Gosberton Clough","category":"village","osm_type":"node","osm_id":"2795341914"}},{"type":"Feature","geometry":{"type":"Point","coordinates":[-0.15632,52.82418]},"properties":{"name":"Crossgate","category":"village","osm_type":"node","osm_id":"2886134993"}},{"type":"Feature","geometry":{"type":"Point","coordinates":[-0.51745,52.66587]},"properties":{"name":"Toll Bar","category":"village","osm_type":"node","osm_id":"2901483231"}},{"type":"Feature","geometry":{"type":"Point","coordinates":[-0.30606,52.67306]},"properties":{"name":"Deeping St James","category":"village","osm_type":"node","osm_id":"2901501251"}},{"type":"Feature","geometry":{"type":"Point","coordinates":[-0.28141,52.67771]},"properties":{"name":"Frognall","category":"village","osm_type":"node","osm_id":"2901501252"}},{"type":"Feature","geometry":{"type":"Point","coordinates":[-0.11101,52.76243]},"properties":{"name":"Weston Hills","category":"village","osm_type":"node","osm_id":"2905014978"}},{"type":"Feature","geometry":{"type":"Point","coordinates":[-0.01421,52.76164]},"properties":{"name":"Whaplode St Catherine","category":"village","osm_type":"node","osm_id":"2917412104"}},{"type":"Feature","geometry":{"type":"Point","coordinates":[-0.03835,52.69291]},"properties":{"name":"Holbeach Drove","category":"village","osm_type":"node","osm_id":"2917531432"}},{"type":"Feature","geometry":{"type":"Point","coordinates":[-0.5802,52.53753]},"properties":{"name":"Bulwick","category":"village","osm_type":"node","osm_id":"2925174774"}},{"type":"Feature","geometry":{"type":"Point","coordinates":[-0.5458,52.62792]},"properties":{"name":"Aldgate","category":"village","osm_type":"node","osm_id":"2930914476"}},{"type":"Feature","geometry":{"type":"Point","coordinates":[-0.54572,52.62423]},"properties":{"name":"Geeston","category":"village","osm_type":"node","osm_id":"2930920122"}},{"type":"Feature","geometry":{"type":"Point","coordinates":[-0.31591,52.64499]},"properties":{"name":"Etton","category":"village","osm_type":"node","osm_id":"2989198998"}},{"type":"Feature","geometry":{"type":"Point","coordinates":[-0.36728,52.59072]},"properties":{"name":"Upton","category":"village","osm_type":"node","osm_id":"3021158777"}},{"type":"Feature","geometry":{"type":"Point","coordinates":[-0.34979,52.5764]},"properties":{"name":"Ailsworth","category":"village","osm_type":"node","osm_id":"3021264554"}},{"type":"Feature","geometry":{"type":"Point","coordinates":[-0.38088,52.57788]},"properties":{"name":"Sutton","category":"village","osm_type":"node","osm_id":"3021433181"}},{"type":"Feature","geometry":{"type":"Point","coordinates":[-0.37469,52.63787]},"properties":{"name":"Ashton","category":"village","osm_type":"node","osm_id":"3034500921"}},{"type":"Feature","geometry":{"type":"Point","coordinates":[-0.33445,52.6596]},"properties":{"name":"Maxey","category":"village","osm_type":"node","osm_id":"3060360392"}},{"type":"Feature","geometry":{"type":"Point","coordinates":[-0.30019,52.6686]},"properties":{"name":"Deeping Gate","category":"village","osm_type":"node","osm_id":"3062557548"}},{"type":"Feature","geometry":{"type":"Point","coordinates":[-0.60502,52.52415]},"properties":{"name":"Deene","category":"village","osm_type":"node","osm_id":"3103659322"}},{"type":"Feature","geometry":{"type":"Point","coordinates":[-0.59116,52.51678]},"properties":{"name":"Deenethorpe","category":"village","osm_type":"node","osm_id":"3103722735"}},{"type":"Feature","geometry":{"type":"Point","coordinates":[-0.86878,52.92912]},"properties":{"name":"Sutton","category":"village","osm_type":"node","osm_id":"3157091671"}},{"type":"Feature","geometry":{"type":"Point","coordinates":[-0.41127,52.50711]},"properties":{"name":"Warmington","category":"village","osm_type":"node","osm_id":"3176294376"}},{"type":"Feature","geometry":{"type":"Point","coordinates":[-0.80372,52.94521]},"properties":{"name":"Beckingthorpe","category":"village","osm_type":"node","osm_id":"3668525636"}},{"type":"Feature","geometry":{"type":"Point","coordinates":[-0.97643,52.81685]},"properties":{"name":"Queensway Old Dalby","category":"village","osm_type":"node","osm_id":"4059766964"}},{"type":"Feature","geometry":{"type":"Point","coordinates":[-0.99779,52.86954]},"properties":{"name":"Kinoulton","category":"village","osm_type":"node","osm_id":"4351989218"}},{"type":"Feature","geometry":{"type":"Point","coordinates":[-0.4919,52.54994]},"properties":{"name":"Apethorpe","category":"village","osm_type":"node","osm_id":"4406158212"}},{"type":"Feature","geometry":{"type":"Point","coordinates":[-0.85494,52.87211]},"properties":{"name":"Stathern","category":"village","osm_type":"node","osm_id":"4511952361"}},{"type":"Feature","geometry":{"type":"Point","coordinates":[-0.39669,52.57523]},"properties":{"name":"Stibbington","category":"village","osm_type":"node","osm_id":"5059990483"}},{"type":"Feature","geometry":{"type":"Point","coordinates":[-0.66843,52.82135]},"properties":{"name":"Skillington","category":"village","osm_type":"node","osm_id":"5835977500"}},{"type":"Feature","geometry":{"type":"Point","coordinates":[-0.9066,52.76329]},"properties":{"name":"Sysonby","category":"village","osm_type":"node","osm_id":"6915929238"}},{"type":"Feature","geometry":{"type":"Point","coordinates":[-0.928,52.80009]},"properties":{"name":"Ab Kettleby","category":"village","osm_type":"node","osm_id":"8922463658"}},{"type":"Feature","geometry":{"type":"Point","coordinates":[-0.46951,52.56507]},"properties":{"name":"Towns and villages","category":"village","osm_type":"node","osm_id":"9252976138"}},{"type":"Feature","geometry":{"type":"Point","coordinates":[-0.3706,52.76396]},"properties":{"name":"Austerby","category":"village","osm_type":"node","osm_id":"9358004438"}},{"type":"Feature","geometry":{"type":"Point","coordinates":[-0.36552,52.76541]},"properties":{"name":"Eastgate","category":"village","osm_type":"node","osm_id":"9964327229"}},{"type":"Feature","geometry":{"type":"Point","coordinates":[-0.36185,52.78911]},"properties":{"name":"Dyke","category":"village","osm_type":"node","osm_id":"10096025975"}},{"type":"Feature","geometry":{"type":"Point","coordinates":[-0.8484,52.84921]},"properties":{"name":"Eastwell","category":"village","osm_type":"node","osm_id":"10296124015"}},{"type":"Feature","geometry":{"type":"Point","coordinates":[-0.03153,52.97884]},"properties":{"name":"Boston","category":"town","osm_type":"relation","osm_id":"2776224"}},{"type":"Feature","geometry":{"type":"Point","coordinates":[-0.14853,52.78657]},"properties":{"name":"Spalding","category":"town","osm_type":"relation","osm_id":"9255882"}},{"type":"Feature","geometry":{"type":"Point","coordinates":[-0.64871,52.90996]},"properties":{"name":"Grantham","category":"town","osm_type":"relation","osm_id":"9255885"}},{"type":"Feature","geometry":{"type":"Point","coordinates":[-0.72139,52.63275]},"properties":{"name":"Martinsthorpe","category":"village","osm_type":"way","osm_id":"169098718"}},{"type":"Feature","geometry":{"type":"Point","coordinates":[-0.12559,52.80054]},"properties":{"name":"Springfields","category":"village","osm_type":"way","osm_id":"1331673800"}},{"type":"Feature","geometry":{"type":"Point","coordinates":[-0.86074,52.64507]},"properties":{"name":"Whatborough Deserted Village","category":"village","osm_type":"way","osm_id":"1460602543"}},{"type":"Feature","geometry":{"type":"Point","coordinates":[-0.01379,52.76143]},"properties":{"name":"Whaplode St Catherine","category":"village","osm_type":"way","osm_id":"1468432813"}},{"type":"Feature","geometry":{"type":"Point","coordinates":[-0.95878,52.6075]},"properties":{"name":"Frisby Deserted Village","category":"village","osm_type":"way","osm_id":"1474856854"}}]}