{"type":"FeatureCollection","features":[{"type":"Feature","geometry":{"type":"Point","coordinates":[-1.34028,52.06018]},"properties":{"name":"Banbury","category":"town","osm_type":"node","osm_id":"13797765"}},{"type":"Feature","geometry":{"type":"Point","coordinates":[-1.02602,52.09177]},"properties":{"name":"Silverstone","category":"village","osm_type":"node","osm_id":"16662563"}},{"type":"Feature","geometry":{"type":"Point","coordinates":[-1.05289,52.11333]},"properties":{"name":"Abthorpe","category":"village","osm_type":"node","osm_id":"16662564"}},{"type":"Feature","geometry":{"type":"Point","coordinates":[-1.08766,52.10725]},"properties":{"name":"Wappenham","category":"village","osm_type":"node","osm_id":"17502806"}},{"type":"Feature","geometry":{"type":"Point","coordinates":[-1.06426,52.11586]},"properties":{"name":"Slapton","category":"village","osm_type":"node","osm_id":"17504115"}},{"type":"Feature","geometry":{"type":"Point","coordinates":[-1.51048,52.40818]},"properties":{"name":"Coventry","category":"city","osm_type":"node","osm_id":"17859918"}},{"type":"Feature","geometry":{"type":"Point","coordinates":[-1.86958,52.21502]},"properties":{"name":"Alcester","category":"town","osm_type":"node","osm_id":"20625176"}},{"type":"Feature","geometry":{"type":"Point","coordinates":[-1.77689,52.41302]},"properties":{"name":"Solihull","category":"town","osm_type":"node","osm_id":"20980396"}},{"type":"Feature","geometry":{"type":"Point","coordinates":[-1.5364,52.29134]},"properties":{"name":"Royal Leamington Spa","category":"town","osm_type":"node","osm_id":"20982632"}},{"type":"Feature","geometry":{"type":"Point","coordinates":[-1.72728,52.34309]},"properties":{"name":"Kingswood","category":"village","osm_type":"node","osm_id":"20983008"}},{"type":"Feature","geometry":{"type":"Point","coordinates":[-1.08068,52.30256]},"properties":{"name":"Long Buckby","category":"village","osm_type":"node","osm_id":"21001348"}},{"type":"Feature","geometry":{"type":"Point","coordinates":[-1.17739,52.33498]},"properties":{"name":"Kilsby","category":"village","osm_type":"node","osm_id":"21001437"}},{"type":"Feature","geometry":{"type":"Point","coordinates":[-1.94831,52.09402]},"properties":{"name":"Evesham","category":"town","osm_type":"node","osm_id":"21279378"}},{"type":"Feature","geometry":{"type":"Point","coordinates":[-1.06647,52.21314]},"properties":{"name":"Church Stowe","category":"village","osm_type":"node","osm_id":"21299697"}},{"type":"Feature","geometry":{"type":"Point","coordinates":[-1.02564,52.17986]},"properties":{"name":"Fosters Booth","category":"village","osm_type":"node","osm_id":"25283326"}},{"type":"Feature","geometry":{"type":"Point","coordinates":[-1.0202,52.1825]},"properties":{"name":"Pattishall","category":"village","osm_type":"node","osm_id":"25283328"}},{"type":"Feature","geometry":{"type":"Point","coordinates":[-1.01157,52.17219]},"properties":{"name":"Astcote","category":"village","osm_type":"node","osm_id":"25283329"}},{"type":"Feature","geometry":{"type":"Point","coordinates":[-1.00696,52.17971]},"properties":{"name":"Eastcote","category":"village","osm_type":"node","osm_id":"25283331"}},{"type":"Feature","geometry":{"type":"Point","coordinates":[-1.03285,52.17627]},"properties":{"name":"Cold Higham","category":"village","osm_type":"node","osm_id":"25283491"}},{"type":"Feature","geometry":{"type":"Point","coordinates":[-1.17597,52.05928]},"properties":{"name":"Halse","category":"village","osm_type":"node","osm_id":"25374713"}},{"type":"Feature","geometry":{"type":"Point","coordinates":[-1.22074,52.05284]},"properties":{"name":"Farthinghoe","category":"village","osm_type":"node","osm_id":"25374726"}},{"type":"Feature","geometry":{"type":"Point","coordinates":[-1.19713,52.07786]},"properties":{"name":"Greatworth","category":"village","osm_type":"node","osm_id":"25397195"}},{"type":"Feature","geometry":{"type":"Point","coordinates":[-1.21711,52.07661]},"properties":{"name":"Marston St. Lawrence","category":"village","osm_type":"node","osm_id":"25397420"}},{"type":"Feature","geometry":{"type":"Point","coordinates":[-1.84608,52.05427]},"properties":{"name":"Willersey","category":"village","osm_type":"node","osm_id":"25510165"}},{"type":"Feature","geometry":{"type":"Point","coordinates":[-1.81807,52.06824]},"properties":{"name":"Weston-sub-Edge","category":"village","osm_type":"node","osm_id":"25510166"}},{"type":"Feature","geometry":{"type":"Point","coordinates":[-1.78139,52.04967]},"properties":{"name":"Chipping Campden","category":"town","osm_type":"node","osm_id":"25510167"}},{"type":"Feature","geometry":{"type":"Point","coordinates":[-1.86186,52.03538]},"properties":{"name":"Broadway","category":"village","osm_type":"node","osm_id":"25510176"}},{"type":"Feature","geometry":{"type":"Point","coordinates":[-1.771,52.49845]},"properties":{"name":"Shard End","category":"village","osm_type":"node","osm_id":"25522858"}},{"type":"Feature","geometry":{"type":"Point","coordinates":[-1.7758,52.48347]},"properties":{"name":"Kitts Green","category":"village","osm_type":"node","osm_id":"25522885"}},{"type":"Feature","geometry":{"type":"Point","coordinates":[-1.78033,52.47083]},"properties":{"name":"Garretts Green","category":"village","osm_type":"node","osm_id":"25522966"}},{"type":"Feature","geometry":{"type":"Point","coordinates":[-1.73896,52.39327]},"properties":{"name":"Knowle","category":"village","osm_type":"node","osm_id":"25523915"}},{"type":"Feature","geometry":{"type":"Point","coordinates":[-1.13717,52.34846]},"properties":{"name":"Crick","category":"village","osm_type":"node","osm_id":"25717159"}},{"type":"Feature","geometry":{"type":"Point","coordinates":[-1.07486,52.3412]},"properties":{"name":"West Haddon","category":"village","osm_type":"node","osm_id":"25717160"}},{"type":"Feature","geometry":{"type":"Point","coordinates":[-1.02268,52.30823]},"properties":{"name":"East Haddon","category":"village","osm_type":"node","osm_id":"25717161"}},{"type":"Feature","geometry":{"type":"Point","coordinates":[-1.8598,52.00213]},"properties":{"name":"Snowshill","category":"village","osm_type":"node","osm_id":"25987476"}},{"type":"Feature","geometry":{"type":"Point","coordinates":[-1.89792,52.08694]},"properties":{"name":"Badsey","category":"village","osm_type":"node","osm_id":"26085248"}},{"type":"Feature","geometry":{"type":"Point","coordinates":[-1.90456,52.07268]},"properties":{"name":"Wickhamford","category":"village","osm_type":"node","osm_id":"26085774"}},{"type":"Feature","geometry":{"type":"Point","coordinates":[-1.02527,52.14278]},"properties":{"name":"Greens Norton","category":"village","osm_type":"node","osm_id":"26200758"}},{"type":"Feature","geometry":{"type":"Point","coordinates":[-1.05966,52.4543]},"properties":{"name":"Husbands Bosworth","category":"village","osm_type":"node","osm_id":"26502417"}},{"type":"Feature","geometry":{"type":"Point","coordinates":[-1.88376,52.02263]},"properties":{"name":"Buckland","category":"village","osm_type":"node","osm_id":"26523574"}},{"type":"Feature","geometry":{"type":"Point","coordinates":[-1.93517,52.04189]},"properties":{"name":"Aston Somerville","category":"village","osm_type":"node","osm_id":"26523891"}},{"type":"Feature","geometry":{"type":"Point","coordinates":[-1.94458,52.02558]},"properties":{"name":"Wormington","category":"village","osm_type":"node","osm_id":"26523892"}},{"type":"Feature","geometry":{"type":"Point","coordinates":[-1.15439,52.23152]},"properties":{"name":"Newnham","category":"village","osm_type":"node","osm_id":"26540673"}},{"type":"Feature","geometry":{"type":"Point","coordinates":[-1.9101,52.05894]},"properties":{"name":"Murcot","category":"village","osm_type":"node","osm_id":"26548463"}},{"type":"Feature","geometry":{"type":"Point","coordinates":[-1.89362,52.0466]},"properties":{"name":"Childswickham","category":"village","osm_type":"node","osm_id":"26548497"}},{"type":"Feature","geometry":{"type":"Point","coordinates":[-1.13096,52.21245]},"properties":{"name":"Everdon","category":"village","osm_type":"node","osm_id":"26568770"}},{"type":"Feature","geometry":{"type":"Point","coordinates":[-1.20755,52.29196]},"properties":{"name":"Braunston","category":"village","osm_type":"node","osm_id":"26616836"}},{"type":"Feature","geometry":{"type":"Point","coordinates":[-1.1509,52.28993]},"properties":{"name":"Welton","category":"village","osm_type":"node","osm_id":"26624825"}},{"type":"Feature","geometry":{"type":"Point","coordinates":[-1.89336,52.01777]},"properties":{"name":"Laverton","category":"village","osm_type":"node","osm_id":"26902904"}},{"type":"Feature","geometry":{"type":"Point","coordinates":[-1.90147,52.00556]},"properties":{"name":"Stanton","category":"village","osm_type":"node","osm_id":"26902977"}},{"type":"Feature","geometry":{"type":"Point","coordinates":[-1.64848,52.3903]},"properties":{"name":"Balsall Common","category":"village","osm_type":"node","osm_id":"27039252"}},{"type":"Feature","geometry":{"type":"Point","coordinates":[-1.5816,52.34505]},"properties":{"name":"Kenilworth","category":"town","osm_type":"node","osm_id":"27039253"}},{"type":"Feature","geometry":{"type":"Point","coordinates":[-1.04734,52.49474]},"properties":{"name":"Mowsley","category":"village","osm_type":"node","osm_id":"27041521"}},{"type":"Feature","geometry":{"type":"Point","coordinates":[-1.02786,52.49604]},"properties":{"name":"Laughton","category":"village","osm_type":"node","osm_id":"27041522"}},{"type":"Feature","geometry":{"type":"Point","coordinates":[-1.15835,52.48614]},"properties":{"name":"Gilmorton","category":"village","osm_type":"node","osm_id":"27041721"}},{"type":"Feature","geometry":{"type":"Point","coordinates":[-1.14189,52.47246]},"properties":{"name":"Kimcote","category":"village","osm_type":"node","osm_id":"27041722"}},{"type":"Feature","geometry":{"type":"Point","coordinates":[-1.12433,52.47818]},"properties":{"name":"Walton","category":"village","osm_type":"node","osm_id":"27041723"}},{"type":"Feature","geometry":{"type":"Point","coordinates":[-1.25587,52.48468]},"properties":{"name":"Ullesthorpe","category":"village","osm_type":"node","osm_id":"27042102"}},{"type":"Feature","geometry":{"type":"Point","coordinates":[-1.22495,52.49193]},"properties":{"name":"Ashby Parva","category":"village","osm_type":"node","osm_id":"27042103"}},{"type":"Feature","geometry":{"type":"Point","coordinates":[-1.27528,52.49369]},"properties":{"name":"Claybrooke Magna","category":"village","osm_type":"node","osm_id":"27042105"}},{"type":"Feature","geometry":{"type":"Point","coordinates":[-1.27443,52.48614]},"properties":{"name":"Claybrooke Parva","category":"village","osm_type":"node","osm_id":"27042106"}},{"type":"Feature","geometry":{"type":"Point","coordinates":[-1.09543,52.44594]},"properties":{"name":"North Kilworth","category":"village","osm_type":"node","osm_id":"27150756"}},{"type":"Feature","geometry":{"type":"Point","coordinates":[-1.11211,52.42923]},"properties":{"name":"South Kilworth","category":"village","osm_type":"node","osm_id":"27150757"}},{"type":"Feature","geometry":{"type":"Point","coordinates":[-1.16528,52.44936]},"properties":{"name":"Walcote","category":"village","osm_type":"node","osm_id":"27151002"}},{"type":"Feature","geometry":{"type":"Point","coordinates":[-1.17508,52.389]},"properties":{"name":"Lilbourne","category":"village","osm_type":"node","osm_id":"27151003"}},{"type":"Feature","geometry":{"type":"Point","coordinates":[-1.18887,52.39866]},"properties":{"name":"Catthorpe","category":"village","osm_type":"node","osm_id":"27151004"}},{"type":"Feature","geometry":{"type":"Point","coordinates":[-1.16455,52.41048]},"properties":{"name":"Swinford","category":"village","osm_type":"node","osm_id":"27151005"}},{"type":"Feature","geometry":{"type":"Point","coordinates":[-1.20092,52.41773]},"properties":{"name":"Shawell","category":"village","osm_type":"node","osm_id":"27151006"}},{"type":"Feature","geometry":{"type":"Point","coordinates":[-1.22202,52.3985]},"properties":{"name":"Newton","category":"village","osm_type":"node","osm_id":"27151007"}},{"type":"Feature","geometry":{"type":"Point","coordinates":[-1.25051,52.42209]},"properties":{"name":"Churchover","category":"village","osm_type":"node","osm_id":"27151008"}},{"type":"Feature","geometry":{"type":"Point","coordinates":[-1.12019,52.3747]},"properties":{"name":"Yelvertoft","category":"village","osm_type":"node","osm_id":"27151009"}},{"type":"Feature","geometry":{"type":"Point","coordinates":[-1.13684,52.40284]},"properties":{"name":"Stanford on Avon","category":"village","osm_type":"node","osm_id":"27151010"}},{"type":"Feature","geometry":{"type":"Point","coordinates":[-1.14847,52.0279]},"properties":{"name":"Brackley","category":"town","osm_type":"node","osm_id":"27151399"}},{"type":"Feature","geometry":{"type":"Point","coordinates":[-1.14668,52.00879]},"properties":{"name":"Evenley","category":"village","osm_type":"node","osm_id":"27151403"}},{"type":"Feature","geometry":{"type":"Point","coordinates":[-1.12563,52.03385]},"properties":{"name":"Turweston","category":"village","osm_type":"node","osm_id":"27151406"}},{"type":"Feature","geometry":{"type":"Point","coordinates":[-1.11477,52.00104]},"properties":{"name":"Mixbury","category":"village","osm_type":"node","osm_id":"27151409"}},{"type":"Feature","geometry":{"type":"Point","coordinates":[-1.09675,52.01677]},"properties":{"name":"Westbury","category":"village","osm_type":"node","osm_id":"27151413"}},{"type":"Feature","geometry":{"type":"Point","coordinates":[-1.21742,52.17024]},"properties":{"name":"Hinton","category":"village","osm_type":"node","osm_id":"27151892"}},{"type":"Feature","geometry":{"type":"Point","coordinates":[-1.50745,52.31254]},"properties":{"name":"Cubbington","category":"village","osm_type":"node","osm_id":"27191364"}},{"type":"Feature","geometry":{"type":"Point","coordinates":[-1.16266,52.25787]},"properties":{"name":"Daventry","category":"town","osm_type":"node","osm_id":"27415963"}},{"type":"Feature","geometry":{"type":"Point","coordinates":[-1.20497,52.32837]},"properties":{"name":"Barby","category":"village","osm_type":"node","osm_id":"27416017"}},{"type":"Feature","geometry":{"type":"Point","coordinates":[-1.32071,52.24567]},"properties":{"name":"Napton on the Hill","category":"village","osm_type":"node","osm_id":"27416125"}},{"type":"Feature","geometry":{"type":"Point","coordinates":[-1.59056,52.28214]},"properties":{"name":"Warwick","category":"town","osm_type":"node","osm_id":"27416735"}},{"type":"Feature","geometry":{"type":"Point","coordinates":[-1.47437,52.2898]},"properties":{"name":"Offchurch","category":"village","osm_type":"node","osm_id":"27416788"}},{"type":"Feature","geometry":{"type":"Point","coordinates":[-1.46632,52.47928]},"properties":{"name":"Bedworth","category":"town","osm_type":"node","osm_id":"27437323"}},{"type":"Feature","geometry":{"type":"Point","coordinates":[-1.42313,52.47579]},"properties":{"name":"Bulkington","category":"village","osm_type":"node","osm_id":"27438570"}},{"type":"Feature","geometry":{"type":"Point","coordinates":[-1.3679,52.48702]},"properties":{"name":"Wolvey","category":"village","osm_type":"node","osm_id":"27438571"}},{"type":"Feature","geometry":{"type":"Point","coordinates":[-1.97392,52.49682]},"properties":{"name":"Smethwick","category":"town","osm_type":"node","osm_id":"27457929"}},{"type":"Feature","geometry":{"type":"Point","coordinates":[-1.94174,52.30577]},"properties":{"name":"Redditch","category":"town","osm_type":"node","osm_id":"27458461"}},{"type":"Feature","geometry":{"type":"Point","coordinates":[-1.50807,52.15747]},"properties":{"name":"Kineton","category":"village","osm_type":"node","osm_id":"27504323"}},{"type":"Feature","geometry":{"type":"Point","coordinates":[-1.46892,52.18375]},"properties":{"name":"Gaydon","category":"village","osm_type":"node","osm_id":"27504798"}},{"type":"Feature","geometry":{"type":"Point","coordinates":[-1.42773,52.16998]},"properties":{"name":"Northend","category":"village","osm_type":"node","osm_id":"27505045"}},{"type":"Feature","geometry":{"type":"Point","coordinates":[-1.38059,52.10648]},"properties":{"name":"Shotteswell","category":"village","osm_type":"node","osm_id":"27512217"}},{"type":"Feature","geometry":{"type":"Point","coordinates":[-1.39788,52.07304]},"properties":{"name":"Wroxton","category":"village","osm_type":"node","osm_id":"28212097"}},{"type":"Feature","geometry":{"type":"Point","coordinates":[-1.37529,52.07273]},"properties":{"name":"Drayton","category":"village","osm_type":"node","osm_id":"28212785"}},{"type":"Feature","geometry":{"type":"Point","coordinates":[-1.39105,52.09098]},"properties":{"name":"Horley","category":"village","osm_type":"node","osm_id":"28213344"}},{"type":"Feature","geometry":{"type":"Point","coordinates":[-1.40029,52.12662]},"properties":{"name":"Warmington","category":"village","osm_type":"node","osm_id":"28214558"}},{"type":"Feature","geometry":{"type":"Point","coordinates":[-1.02514,52.27915]},"properties":{"name":"Great Brington","category":"village","osm_type":"node","osm_id":"28296284"}},{"type":"Feature","geometry":{"type":"Point","coordinates":[-1.37518,52.01809]},"properties":{"name":"Bloxham","category":"village","osm_type":"node","osm_id":"28328008"}},{"type":"Feature","geometry":{"type":"Point","coordinates":[-1.08777,52.14674]},"properties":{"name":"Blakesley","category":"village","osm_type":"node","osm_id":"29022919"}},{"type":"Feature","geometry":{"type":"Point","coordinates":[-1.00795,52.20953]},"properties":{"name":"Bugbrooke","category":"village","osm_type":"node","osm_id":"29158893"}},{"type":"Feature","geometry":{"type":"Point","coordinates":[-1.01567,52.37451]},"properties":{"name":"Thornby","category":"village","osm_type":"node","osm_id":"29621779"}},{"type":"Feature","geometry":{"type":"Point","coordinates":[-1.0379,52.38108]},"properties":{"name":"Cold Ashby","category":"village","osm_type":"node","osm_id":"29621780"}},{"type":"Feature","geometry":{"type":"Point","coordinates":[-1.00262,52.4375]},"properties":{"name":"Sibbertoft","category":"village","osm_type":"node","osm_id":"29673184"}},{"type":"Feature","geometry":{"type":"Point","coordinates":[-1.51891,52.35147]},"properties":{"name":"Stoneleigh","category":"village","osm_type":"node","osm_id":"29900310"}},{"type":"Feature","geometry":{"type":"Point","coordinates":[-1.20669,52.17061]},"properties":{"name":"Woodford Halse","category":"village","osm_type":"node","osm_id":"30233567"}},{"type":"Feature","geometry":{"type":"Point","coordinates":[-1.22245,52.38308]},"properties":{"name":"Clifton-upon-Dunsmore","category":"village","osm_type":"node","osm_id":"30403734"}},{"type":"Feature","geometry":{"type":"Point","coordinates":[-1.2901,52.33708]},"properties":{"name":"Dunchurch","category":"village","osm_type":"node","osm_id":"30932466"}},{"type":"Feature","geometry":{"type":"Point","coordinates":[-1.27282,52.07405]},"properties":{"name":"Middleton Cheney","category":"village","osm_type":"node","osm_id":"31424607"}},{"type":"Feature","geometry":{"type":"Point","coordinates":[-1.27333,52.02239]},"properties":{"name":"Kings Sutton","category":"village","osm_type":"node","osm_id":"31425332"}},{"type":"Feature","geometry":{"type":"Point","coordinates":[-1.13867,52.11795]},"properties":{"name":"Weston","category":"village","osm_type":"node","osm_id":"31843521"}},{"type":"Feature","geometry":{"type":"Point","coordinates":[-1.23175,52.02019]},"properties":{"name":"Charlton","category":"village","osm_type":"node","osm_id":"31926063"}},{"type":"Feature","geometry":{"type":"Point","coordinates":[-1.31674,52.11568]},"properties":{"name":"Cropredy","category":"village","osm_type":"node","osm_id":"31945595"}},{"type":"Feature","geometry":{"type":"Point","coordinates":[-1.29732,52.48465]},"properties":{"name":"Wibtoft","category":"village","osm_type":"node","osm_id":"31954938"}},{"type":"Feature","geometry":{"type":"Point","coordinates":[-1.29854,52.06322]},"properties":{"name":"Overthorpe","category":"village","osm_type":"node","osm_id":"31959315"}},{"type":"Feature","geometry":{"type":"Point","coordinates":[-1.19151,52.1062]},"properties":{"name":"Sulgrave","category":"village","osm_type":"node","osm_id":"33248786"}},{"type":"Feature","geometry":{"type":"Point","coordinates":[-1.13801,52.08603]},"properties":{"name":"Helmdon","category":"village","osm_type":"node","osm_id":"33324600"}},{"type":"Feature","geometry":{"type":"Point","coordinates":[-1.11019,52.16754]},"properties":{"name":"Maidford","category":"village","osm_type":"node","osm_id":"33503900"}},{"type":"Feature","geometry":{"type":"Point","coordinates":[-1.13068,52.159]},"properties":{"name":"Adstone","category":"village","osm_type":"node","osm_id":"33594718"}},{"type":"Feature","geometry":{"type":"Point","coordinates":[-1.64897,52.02473]},"properties":{"name":"Todenham","category":"village","osm_type":"node","osm_id":"33689854"}},{"type":"Feature","geometry":{"type":"Point","coordinates":[-1.63982,52.00939]},"properties":{"name":"Great Wolford","category":"village","osm_type":"node","osm_id":"33689855"}},{"type":"Feature","geometry":{"type":"Point","coordinates":[-1.61752,52.01574]},"properties":{"name":"Little Wolford","category":"village","osm_type":"node","osm_id":"33689856"}},{"type":"Feature","geometry":{"type":"Point","coordinates":[-1.20882,52.14839]},"properties":{"name":"Eydon","category":"village","osm_type":"node","osm_id":"34241652"}},{"type":"Feature","geometry":{"type":"Point","coordinates":[-1.16241,52.13834]},"properties":{"name":"Moreton Pinkney","category":"village","osm_type":"node","osm_id":"34522862"}},{"type":"Feature","geometry":{"type":"Point","coordinates":[-1.54695,52.20106]},"properties":{"name":"Moreton Morrell","category":"village","osm_type":"node","osm_id":"48198201"}},{"type":"Feature","geometry":{"type":"Point","coordinates":[-1.59112,52.1948]},"properties":{"name":"Wellesbourne","category":"town","osm_type":"node","osm_id":"48200399"}},{"type":"Feature","geometry":{"type":"Point","coordinates":[-1.61439,52.20824]},"properties":{"name":"Charlecote","category":"village","osm_type":"node","osm_id":"48233375"}},{"type":"Feature","geometry":{"type":"Point","coordinates":[-1.83669,52.45444]},"properties":{"name":"Tyseley","category":"village","osm_type":"node","osm_id":"59974652"}},{"type":"Feature","geometry":{"type":"Point","coordinates":[-1.27427,52.15462]},"properties":{"name":"Aston le Walls","category":"village","osm_type":"node","osm_id":"69018096"}},{"type":"Feature","geometry":{"type":"Point","coordinates":[-1.29268,52.18034]},"properties":{"name":"Upper Boddington","category":"village","osm_type":"node","osm_id":"69018103"}},{"type":"Feature","geometry":{"type":"Point","coordinates":[-1.29424,52.16577]},"properties":{"name":"Lower Boddington","category":"village","osm_type":"node","osm_id":"69018110"}},{"type":"Feature","geometry":{"type":"Point","coordinates":[-1.27199,52.1353]},"properties":{"name":"Chipping Warden","category":"village","osm_type":"node","osm_id":"83643839"}},{"type":"Feature","geometry":{"type":"Point","coordinates":[-1.20807,52.12092]},"properties":{"name":"Culworth","category":"village","osm_type":"node","osm_id":"91556084"}},{"type":"Feature","geometry":{"type":"Point","coordinates":[-1.85409,52.45367]},"properties":{"name":"Greet","category":"village","osm_type":"node","osm_id":"94867877"}},{"type":"Feature","geometry":{"type":"Point","coordinates":[-1.64712,52.43732]},"properties":{"name":"Meriden","category":"village","osm_type":"node","osm_id":"95066757"}},{"type":"Feature","geometry":{"type":"Point","coordinates":[-1.65472,52.47928]},"properties":{"name":"Maxstoke","category":"village","osm_type":"node","osm_id":"95071665"}},{"type":"Feature","geometry":{"type":"Point","coordinates":[-1.75169,52.46846]},"properties":{"name":"Marston Green","category":"village","osm_type":"node","osm_id":"95076225"}},{"type":"Feature","geometry":{"type":"Point","coordinates":[-1.81141,52.12003]},"properties":{"name":"Pebworth","category":"village","osm_type":"node","osm_id":"96095223"}},{"type":"Feature","geometry":{"type":"Point","coordinates":[-1.8404,52.4285]},"properties":{"name":"Hall Green","category":"village","osm_type":"node","osm_id":"97635852"}},{"type":"Feature","geometry":{"type":"Point","coordinates":[-1.81252,52.37932]},"properties":{"name":"Cheswick Green","category":"village","osm_type":"node","osm_id":"105507457"}},{"type":"Feature","geometry":{"type":"Point","coordinates":[-1.87583,52.46397]},"properties":{"name":"Sparkbrook","category":"village","osm_type":"node","osm_id":"107429248"}},{"type":"Feature","geometry":{"type":"Point","coordinates":[-1.83695,52.38651]},"properties":{"name":"Dickens Heath","category":"village","osm_type":"node","osm_id":"110045674"}},{"type":"Feature","geometry":{"type":"Point","coordinates":[-1.77673,52.35157]},"properties":{"name":"Hockley Heath","category":"village","osm_type":"node","osm_id":"115121291"}},{"type":"Feature","geometry":{"type":"Point","coordinates":[-1.83833,52.33374]},"properties":{"name":"Tanworth-in-Arden","category":"village","osm_type":"node","osm_id":"115179693"}},{"type":"Feature","geometry":{"type":"Point","coordinates":[-1.66088,52.21702]},"properties":{"name":"Hatton Rock","category":"village","osm_type":"node","osm_id":"119446710"}},{"type":"Feature","geometry":{"type":"Point","coordinates":[-1.82773,52.41122]},"properties":{"name":"Shirley","category":"town","osm_type":"node","osm_id":"130238099"}},{"type":"Feature","geometry":{"type":"Point","coordinates":[-1.78069,52.29071]},"properties":{"name":"Henley-in-Arden","category":"town","osm_type":"node","osm_id":"142477242"}},{"type":"Feature","geometry":{"type":"Point","coordinates":[-1.15811,52.15029]},"properties":{"name":"Canons Ashby","category":"village","osm_type":"node","osm_id":"146701689"}},{"type":"Feature","geometry":{"type":"Point","coordinates":[-1.67963,52.20073]},"properties":{"name":"Tiddington","category":"village","osm_type":"node","osm_id":"148062024"}},{"type":"Feature","geometry":{"type":"Point","coordinates":[-1.66041,52.20652]},"properties":{"name":"Alveston","category":"village","osm_type":"node","osm_id":"148062025"}},{"type":"Feature","geometry":{"type":"Point","coordinates":[-1.73925,52.47991]},"properties":{"name":"Chelmsley Wood","category":"town","osm_type":"node","osm_id":"150540169"}},{"type":"Feature","geometry":{"type":"Point","coordinates":[-1.76475,52.47845]},"properties":{"name":"Tile Cross","category":"village","osm_type":"node","osm_id":"168873105"}},{"type":"Feature","geometry":{"type":"Point","coordinates":[-1.93915,52.26134]},"properties":{"name":"Astwood Bank","category":"village","osm_type":"node","osm_id":"192464409"}},{"type":"Feature","geometry":{"type":"Point","coordinates":[-1.8959,52.26912]},"properties":{"name":"Studley","category":"village","osm_type":"node","osm_id":"192481615"}},{"type":"Feature","geometry":{"type":"Point","coordinates":[-1.97843,52.21177]},"properties":{"name":"Inkberrow","category":"village","osm_type":"node","osm_id":"192494823"}},{"type":"Feature","geometry":{"type":"Point","coordinates":[-1.724,52.4391]},"properties":{"name":"Bickenhill","category":"village","osm_type":"node","osm_id":"208569112"}},{"type":"Feature","geometry":{"type":"Point","coordinates":[-1.88321,52.45722]},"properties":{"name":"Balsall Heath","category":"village","osm_type":"node","osm_id":"212454850"}},{"type":"Feature","geometry":{"type":"Point","coordinates":[-1.80821,52.44032]},"properties":{"name":"Olton","category":"village","osm_type":"node","osm_id":"235228057"}},{"type":"Feature","geometry":{"type":"Point","coordinates":[-1.1599,52.18823]},"properties":{"name":"Preston Capes","category":"village","osm_type":"node","osm_id":"242983601"}},{"type":"Feature","geometry":{"type":"Point","coordinates":[-1.33044,52.03597]},"properties":{"name":"Bodicote","category":"village","osm_type":"node","osm_id":"243518722"}},{"type":"Feature","geometry":{"type":"Point","coordinates":[-1.33384,52.09386]},"properties":{"name":"Little Bourton","category":"village","osm_type":"node","osm_id":"243882786"}},{"type":"Feature","geometry":{"type":"Point","coordinates":[-1.18149,52.22618]},"properties":{"name":"Badby","category":"village","osm_type":"node","osm_id":"247248088"}},{"type":"Feature","geometry":{"type":"Point","coordinates":[-1.78837,52.18508]},"properties":{"name":"Binton","category":"village","osm_type":"node","osm_id":"249269725"}},{"type":"Feature","geometry":{"type":"Point","coordinates":[-1.82228,52.19171]},"properties":{"name":"Temple Grafton","category":"village","osm_type":"node","osm_id":"249269726"}},{"type":"Feature","geometry":{"type":"Point","coordinates":[-1.78471,52.16548]},"properties":{"name":"Welford-on-Avon","category":"village","osm_type":"node","osm_id":"249269727"}},{"type":"Feature","geometry":{"type":"Point","coordinates":[-1.85589,52.16561]},"properties":{"name":"Bidford on Avon","category":"village","osm_type":"node","osm_id":"249269876"}},{"type":"Feature","geometry":{"type":"Point","coordinates":[-1.07548,52.18343]},"properties":{"name":"Litchborough","category":"village","osm_type":"node","osm_id":"249830845"}},{"type":"Feature","geometry":{"type":"Point","coordinates":[-1.76109,52.42523]},"properties":{"name":"Elmdon Heath","category":"village","osm_type":"node","osm_id":"252181908"}},{"type":"Feature","geometry":{"type":"Point","coordinates":[-1.05333,52.13127]},"properties":{"name":"Bradden","category":"village","osm_type":"node","osm_id":"252792224"}},{"type":"Feature","geometry":{"type":"Point","coordinates":[-1.75807,52.37469]},"properties":{"name":"Dorridge","category":"village","osm_type":"node","osm_id":"253152291"}},{"type":"Feature","geometry":{"type":"Point","coordinates":[-1.97678,52.02243]},"properties":{"name":"Dumbleton","category":"village","osm_type":"node","osm_id":"253832705"}},{"type":"Feature","geometry":{"type":"Point","coordinates":[-1.10363,52.18997]},"properties":{"name":"Farthingstone","category":"village","osm_type":"node","osm_id":"254139602"}},{"type":"Feature","geometry":{"type":"Point","coordinates":[-1.14335,52.06095]},"properties":{"name":"Radstone","category":"village","osm_type":"node","osm_id":"255685959"}},{"type":"Feature","geometry":{"type":"Point","coordinates":[-1.99655,52.37761]},"properties":{"name":"Cofton Hackett","category":"village","osm_type":"node","osm_id":"256371010"}},{"type":"Feature","geometry":{"type":"Point","coordinates":[-1.8767,52.38829]},"properties":{"name":"Hollywood","category":"village","osm_type":"node","osm_id":"257415733"}},{"type":"Feature","geometry":{"type":"Point","coordinates":[-1.85716,52.48883]},"properties":{"name":"Saltley","category":"village","osm_type":"node","osm_id":"259078483"}},{"type":"Feature","geometry":{"type":"Point","coordinates":[-1.85389,52.49572]},"properties":{"name":"Washwood Heath","category":"village","osm_type":"node","osm_id":"259079381"}},{"type":"Feature","geometry":{"type":"Point","coordinates":[-1.43144,52.45916]},"properties":{"name":"Barnacle","category":"village","osm_type":"node","osm_id":"260248366"}},{"type":"Feature","geometry":{"type":"Point","coordinates":[-1.40654,52.45737]},"properties":{"name":"Shilton","category":"village","osm_type":"node","osm_id":"260254267"}},{"type":"Feature","geometry":{"type":"Point","coordinates":[-1.36163,52.45624]},"properties":{"name":"Withybrook","category":"village","osm_type":"node","osm_id":"260254271"}},{"type":"Feature","geometry":{"type":"Point","coordinates":[-1.18633,52.02849]},"properties":{"name":"Hinton-in-the-Hedges","category":"village","osm_type":"node","osm_id":"260381436"}},{"type":"Feature","geometry":{"type":"Point","coordinates":[-1.36328,52.41181]},"properties":{"name":"Brinklow","category":"village","osm_type":"node","osm_id":"260471070"}},{"type":"Feature","geometry":{"type":"Point","coordinates":[-1.57768,52.31905]},"properties":{"name":"Leek Wootton","category":"village","osm_type":"node","osm_id":"260488205"}},{"type":"Feature","geometry":{"type":"Point","coordinates":[-1.31667,52.4444]},"properties":{"name":"Monks Kirby","category":"village","osm_type":"node","osm_id":"260493310"}},{"type":"Feature","geometry":{"type":"Point","coordinates":[-1.33981,52.42871]},"properties":{"name":"Stretton under Fosse","category":"village","osm_type":"node","osm_id":"260493313"}},{"type":"Feature","geometry":{"type":"Point","coordinates":[-1.36945,52.39147]},"properties":{"name":"Bretford","category":"village","osm_type":"node","osm_id":"260493315"}},{"type":"Feature","geometry":{"type":"Point","coordinates":[-1.3993,52.38411]},"properties":{"name":"Brandon","category":"village","osm_type":"node","osm_id":"260493316"}},{"type":"Feature","geometry":{"type":"Point","coordinates":[-1.42154,52.39317]},"properties":{"name":"Binley Woods","category":"village","osm_type":"node","osm_id":"260493318"}},{"type":"Feature","geometry":{"type":"Point","coordinates":[-1.77872,52.2676]},"properties":{"name":"Wootton Wawen","category":"village","osm_type":"node","osm_id":"261034284"}},{"type":"Feature","geometry":{"type":"Point","coordinates":[-1.75027,52.49391]},"properties":{"name":"Kingshurst","category":"village","osm_type":"node","osm_id":"262947840"}},{"type":"Feature","geometry":{"type":"Point","coordinates":[-1.30631,52.43365]},"properties":{"name":"Pailton","category":"village","osm_type":"node","osm_id":"264272881"}},{"type":"Feature","geometry":{"type":"Point","coordinates":[-1.29937,52.40812]},"properties":{"name":"Harborough Magna","category":"village","osm_type":"node","osm_id":"264272912"}},{"type":"Feature","geometry":{"type":"Point","coordinates":[-1.88652,52.46592]},"properties":{"name":"Highgate","category":"village","osm_type":"node","osm_id":"269968781"}},{"type":"Feature","geometry":{"type":"Point","coordinates":[-1.82212,52.30403]},"properties":{"name":"Ullenhall","category":"village","osm_type":"node","osm_id":"274076879"}},{"type":"Feature","geometry":{"type":"Point","coordinates":[-1.16286,52.30783]},"properties":{"name":"Ashby St Ledgers","category":"village","osm_type":"node","osm_id":"276666384"}},{"type":"Feature","geometry":{"type":"Point","coordinates":[-1.85297,52.41892]},"properties":{"name":"Yardley Wood","category":"village","osm_type":"node","osm_id":"276869182"}},{"type":"Feature","geometry":{"type":"Point","coordinates":[-1.85777,52.40489]},"properties":{"name":"Solihull Lodge","category":"village","osm_type":"node","osm_id":"276870453"}},{"type":"Feature","geometry":{"type":"Point","coordinates":[-1.84867,52.40527]},"properties":{"name":"Haslucks Green","category":"village","osm_type":"node","osm_id":"277244944"}},{"type":"Feature","geometry":{"type":"Point","coordinates":[-1.23754,52.30178]},"properties":{"name":"Willoughby","category":"village","osm_type":"node","osm_id":"277349342"}},{"type":"Feature","geometry":{"type":"Point","coordinates":[-1.24729,52.32389]},"properties":{"name":"Onley","category":"village","osm_type":"node","osm_id":"277349389"}},{"type":"Feature","geometry":{"type":"Point","coordinates":[-1.76233,52.01343]},"properties":{"name":"Blockley","category":"village","osm_type":"node","osm_id":"278978890"}},{"type":"Feature","geometry":{"type":"Point","coordinates":[-1.76929,52.03816]},"properties":{"name":"Broad Campden","category":"village","osm_type":"node","osm_id":"278979787"}},{"type":"Feature","geometry":{"type":"Point","coordinates":[-1.38614,52.04318]},"properties":{"name":"Broughton","category":"village","osm_type":"node","osm_id":"279095060"}},{"type":"Feature","geometry":{"type":"Point","coordinates":[-1.48557,52.06161]},"properties":{"name":"Epwell","category":"village","osm_type":"node","osm_id":"279097595"}},{"type":"Feature","geometry":{"type":"Point","coordinates":[-1.54348,52.05066]},"properties":{"name":"Lower Brailes","category":"village","osm_type":"node","osm_id":"279128245"}},{"type":"Feature","geometry":{"type":"Point","coordinates":[-1.558,52.05885]},"properties":{"name":"Upper Brailes","category":"village","osm_type":"node","osm_id":"279128251"}},{"type":"Feature","geometry":{"type":"Point","coordinates":[-1.64004,52.11459]},"properties":{"name":"Newbold on Stour","category":"village","osm_type":"node","osm_id":"279129516"}},{"type":"Feature","geometry":{"type":"Point","coordinates":[-1.10087,52.24036]},"properties":{"name":"Dodford","category":"village","osm_type":"node","osm_id":"279269130"}},{"type":"Feature","geometry":{"type":"Point","coordinates":[-1.66633,52.13591]},"properties":{"name":"Alderminster","category":"village","osm_type":"node","osm_id":"279293251"}},{"type":"Feature","geometry":{"type":"Point","coordinates":[-1.70392,52.14734]},"properties":{"name":"Preston-on-Stour","category":"village","osm_type":"node","osm_id":"279293299"}},{"type":"Feature","geometry":{"type":"Point","coordinates":[-1.70066,52.15698]},"properties":{"name":"Atherstone on Stour","category":"village","osm_type":"node","osm_id":"279293376"}},{"type":"Feature","geometry":{"type":"Point","coordinates":[-1.71447,52.16841]},"properties":{"name":"Clifford Chambers","category":"village","osm_type":"node","osm_id":"279293439"}},{"type":"Feature","geometry":{"type":"Point","coordinates":[-1.74078,52.12185]},"properties":{"name":"Lower Quinton","category":"village","osm_type":"node","osm_id":"279293896"}},{"type":"Feature","geometry":{"type":"Point","coordinates":[-1.73113,52.05793]},"properties":{"name":"Ebrington","category":"village","osm_type":"node","osm_id":"279294763"}},{"type":"Feature","geometry":{"type":"Point","coordinates":[-1.73164,52.03919]},"properties":{"name":"Paxford","category":"village","osm_type":"node","osm_id":"279295000"}},{"type":"Feature","geometry":{"type":"Point","coordinates":[-1.70996,52.01998]},"properties":{"name":"Aston Magna","category":"village","osm_type":"node","osm_id":"279295026"}},{"type":"Feature","geometry":{"type":"Point","coordinates":[-1.28152,52.29788]},"properties":{"name":"Grandborough","category":"village","osm_type":"node","osm_id":"279534967"}},{"type":"Feature","geometry":{"type":"Point","coordinates":[-1.26073,52.28994]},"properties":{"name":"Sawbridge","category":"village","osm_type":"node","osm_id":"279535094"}},{"type":"Feature","geometry":{"type":"Point","coordinates":[-1.30635,52.38085]},"properties":{"name":"Long Lawford","category":"village","osm_type":"node","osm_id":"279535743"}},{"type":"Feature","geometry":{"type":"Point","coordinates":[-1.33651,52.39047]},"properties":{"name":"Kings Newnham","category":"village","osm_type":"node","osm_id":"279535760"}},{"type":"Feature","geometry":{"type":"Point","coordinates":[-1.34126,52.38417]},"properties":{"name":"Church Lawford","category":"village","osm_type":"node","osm_id":"279535811"}},{"type":"Feature","geometry":{"type":"Point","coordinates":[-1.39513,52.37595]},"properties":{"name":"Wolston","category":"village","osm_type":"node","osm_id":"279537237"}},{"type":"Feature","geometry":{"type":"Point","coordinates":[-1.36947,52.31136]},"properties":{"name":"Birdingbury","category":"village","osm_type":"node","osm_id":"279537781"}},{"type":"Feature","geometry":{"type":"Point","coordinates":[-1.39823,52.28413]},"properties":{"name":"Long Itchington","category":"village","osm_type":"node","osm_id":"279548212"}},{"type":"Feature","geometry":{"type":"Point","coordinates":[-1.02903,52.23004]},"properties":{"name":"Upper Heyford","category":"village","osm_type":"node","osm_id":"279555730"}},{"type":"Feature","geometry":{"type":"Point","coordinates":[-1.28341,52.25927]},"properties":{"name":"Lower Shuckburgh","category":"village","osm_type":"node","osm_id":"280156414"}},{"type":"Feature","geometry":{"type":"Point","coordinates":[-1.42031,52.23175]},"properties":{"name":"Deppers Bridge","category":"village","osm_type":"node","osm_id":"280156415"}},{"type":"Feature","geometry":{"type":"Point","coordinates":[-1.43098,52.21684]},"properties":{"name":"Bishop's Itchington","category":"village","osm_type":"node","osm_id":"280156416"}},{"type":"Feature","geometry":{"type":"Point","coordinates":[-1.24522,52.26632]},"properties":{"name":"Flecknoe","category":"village","osm_type":"node","osm_id":"280157586"}},{"type":"Feature","geometry":{"type":"Point","coordinates":[-1.21082,52.24631]},"properties":{"name":"Staverton","category":"village","osm_type":"node","osm_id":"280157626"}},{"type":"Feature","geometry":{"type":"Point","coordinates":[-1.66679,52.26694]},"properties":{"name":"Norton Lindsey","category":"village","osm_type":"node","osm_id":"280459489"}},{"type":"Feature","geometry":{"type":"Point","coordinates":[-1.68603,52.23634]},"properties":{"name":"Snitterfield","category":"village","osm_type":"node","osm_id":"280459541"}},{"type":"Feature","geometry":{"type":"Point","coordinates":[-1.7358,52.24381]},"properties":{"name":"Bearley","category":"village","osm_type":"node","osm_id":"280462420"}},{"type":"Feature","geometry":{"type":"Point","coordinates":[-1.72747,52.47141]},"properties":{"name":"Coleshill Heath","category":"village","osm_type":"node","osm_id":"281230649"}},{"type":"Feature","geometry":{"type":"Point","coordinates":[-1.33316,52.14708]},"properties":{"name":"Claydon","category":"village","osm_type":"node","osm_id":"281249893"}},{"type":"Feature","geometry":{"type":"Point","coordinates":[-1.08488,52.22762]},"properties":{"name":"Weedon Bec","category":"village","osm_type":"node","osm_id":"288174224"}},{"type":"Feature","geometry":{"type":"Point","coordinates":[-1.88894,52.11484]},"properties":{"name":"South Littleton","category":"village","osm_type":"node","osm_id":"289646031"}},{"type":"Feature","geometry":{"type":"Point","coordinates":[-1.92278,52.11609]},"properties":{"name":"Offenham","category":"village","osm_type":"node","osm_id":"289646041"}},{"type":"Feature","geometry":{"type":"Point","coordinates":[-1.87078,52.09375]},"properties":{"name":"Bretforton","category":"village","osm_type":"node","osm_id":"289653557"}},{"type":"Feature","geometry":{"type":"Point","coordinates":[-1.69344,52.08904]},"properties":{"name":"Ilmington","category":"village","osm_type":"node","osm_id":"289656204"}},{"type":"Feature","geometry":{"type":"Point","coordinates":[-1.96289,52.1594]},"properties":{"name":"Church Lench","category":"village","osm_type":"node","osm_id":"289661630"}},{"type":"Feature","geometry":{"type":"Point","coordinates":[-1.98161,52.17807]},"properties":{"name":"Rous Lench","category":"village","osm_type":"node","osm_id":"289662259"}},{"type":"Feature","geometry":{"type":"Point","coordinates":[-1.61298,52.22702]},"properties":{"name":"Wasperton","category":"village","osm_type":"node","osm_id":"289820174"}},{"type":"Feature","geometry":{"type":"Point","coordinates":[-1.42749,52.3189]},"properties":{"name":"Eathorpe","category":"village","osm_type":"node","osm_id":"290181042"}},{"type":"Feature","geometry":{"type":"Point","coordinates":[-1.40318,52.31627]},"properties":{"name":"Marton","category":"village","osm_type":"node","osm_id":"290183630"}},{"type":"Feature","geometry":{"type":"Point","coordinates":[-1.9371,52.34415]},"properties":{"name":"Rowney Green","category":"village","osm_type":"node","osm_id":"290767931"}},{"type":"Feature","geometry":{"type":"Point","coordinates":[-1.95791,52.35071]},"properties":{"name":"Alvechurch","category":"village","osm_type":"node","osm_id":"292936046"}},{"type":"Feature","geometry":{"type":"Point","coordinates":[-1.29283,52.35735]},"properties":{"name":"Bilton","category":"village","osm_type":"node","osm_id":"294719161"}},{"type":"Feature","geometry":{"type":"Point","coordinates":[-1.41925,52.44549]},"properties":{"name":"Ansty","category":"village","osm_type":"node","osm_id":"298290754"}},{"type":"Feature","geometry":{"type":"Point","coordinates":[-1.28221,52.39055]},"properties":{"name":"Newbold on Avon","category":"village","osm_type":"node","osm_id":"298893482"}},{"type":"Feature","geometry":{"type":"Point","coordinates":[-1.31132,52.20109]},"properties":{"name":"Priors Hardwick","category":"village","osm_type":"node","osm_id":"298899035"}},{"type":"Feature","geometry":{"type":"Point","coordinates":[-1.28563,52.21419]},"properties":{"name":"Priors Marston","category":"village","osm_type":"node","osm_id":"299048366"}},{"type":"Feature","geometry":{"type":"Point","coordinates":[-1.27254,52.45901]},"properties":{"name":"Willey","category":"village","osm_type":"node","osm_id":"300455076"}},{"type":"Feature","geometry":{"type":"Point","coordinates":[-1.89155,52.15845]},"properties":{"name":"Salford Priors","category":"village","osm_type":"node","osm_id":"304232651"}},{"type":"Feature","geometry":{"type":"Point","coordinates":[-1.87275,52.14181]},"properties":{"name":"Cleeve Prior","category":"village","osm_type":"node","osm_id":"304232653"}},{"type":"Feature","geometry":{"type":"Point","coordinates":[-1.82175,52.21707]},"properties":{"name":"Haselor","category":"village","osm_type":"node","osm_id":"304232807"}},{"type":"Feature","geometry":{"type":"Point","coordinates":[-1.79237,52.38873]},"properties":{"name":"Monkspath","category":"village","osm_type":"node","osm_id":"310776008"}},{"type":"Feature","geometry":{"type":"Point","coordinates":[-1.88092,52.40514]},"properties":{"name":"Highters Heath","category":"village","osm_type":"node","osm_id":"311082768"}},{"type":"Feature","geometry":{"type":"Point","coordinates":[-1.9869,52.1091]},"properties":{"name":"Charlton","category":"village","osm_type":"node","osm_id":"311607626"}},{"type":"Feature","geometry":{"type":"Point","coordinates":[-1.94996,52.12457]},"properties":{"name":"Lenchwick","category":"village","osm_type":"node","osm_id":"311609097"}},{"type":"Feature","geometry":{"type":"Point","coordinates":[-1.83561,52.46029]},"properties":{"name":"Hay Mills","category":"village","osm_type":"node","osm_id":"311974533"}},{"type":"Feature","geometry":{"type":"Point","coordinates":[-1.82957,52.36339]},"properties":{"name":"Earlswood","category":"village","osm_type":"node","osm_id":"313151434"}},{"type":"Feature","geometry":{"type":"Point","coordinates":[-1.71117,52.2806]},"properties":{"name":"Claverdon","category":"village","osm_type":"node","osm_id":"314412342"}},{"type":"Feature","geometry":{"type":"Point","coordinates":[-1.93711,52.39546]},"properties":{"name":"Hawkesley","category":"village","osm_type":"node","osm_id":"315293443"}},{"type":"Feature","geometry":{"type":"Point","coordinates":[-1.99026,52.48105]},"properties":{"name":"Warley","category":"town","osm_type":"node","osm_id":"315634341"}},{"type":"Feature","geometry":{"type":"Point","coordinates":[-1.76065,52.33861]},"properties":{"name":"Lapworth","category":"village","osm_type":"node","osm_id":"319066899"}},{"type":"Feature","geometry":{"type":"Point","coordinates":[-1.40216,52.0088]},"properties":{"name":"Milcombe","category":"village","osm_type":"node","osm_id":"319540336"}},{"type":"Feature","geometry":{"type":"Point","coordinates":[-1.12272,52.1184]},"properties":{"name":"Weedon Lois","category":"village","osm_type":"node","osm_id":"319782351"}},{"type":"Feature","geometry":{"type":"Point","coordinates":[-1.96849,52.04527]},"properties":{"name":"Sedgeberrow","category":"village","osm_type":"node","osm_id":"319828315"}},{"type":"Feature","geometry":{"type":"Point","coordinates":[-1.12061,52.26795]},"properties":{"name":"Norton","category":"village","osm_type":"node","osm_id":"321521210"}},{"type":"Feature","geometry":{"type":"Point","coordinates":[-1.83196,52.09473]},"properties":{"name":"Honeybourne","category":"village","osm_type":"node","osm_id":"322074533"}},{"type":"Feature","geometry":{"type":"Point","coordinates":[-1.05463,52.23744]},"properties":{"name":"Flore","category":"village","osm_type":"node","osm_id":"322507261"}},{"type":"Feature","geometry":{"type":"Point","coordinates":[-1.98761,52.3624]},"properties":{"name":"Barnt Green","category":"village","osm_type":"node","osm_id":"324651419"}},{"type":"Feature","geometry":{"type":"Point","coordinates":[-1.63243,52.27599]},"properties":{"name":"Hampton on the Hill","category":"village","osm_type":"node","osm_id":"325983517"}},{"type":"Feature","geometry":{"type":"Point","coordinates":[-1.33623,52.28889]},"properties":{"name":"Broadwell","category":"village","osm_type":"node","osm_id":"331283234"}},{"type":"Feature","geometry":{"type":"Point","coordinates":[-1.34775,52.30574]},"properties":{"name":"Leamington Hastings","category":"village","osm_type":"node","osm_id":"333285898"}},{"type":"Feature","geometry":{"type":"Point","coordinates":[-1.08064,52.07056]},"properties":{"name":"Syresham","category":"village","osm_type":"node","osm_id":"334713325"}},{"type":"Feature","geometry":{"type":"Point","coordinates":[-1.88269,52.29267]},"properties":{"name":"Mappleborough Green","category":"village","osm_type":"node","osm_id":"335725722"}},{"type":"Feature","geometry":{"type":"Point","coordinates":[-1.36652,52.09013]},"properties":{"name":"Hanwell","category":"village","osm_type":"node","osm_id":"347777701"}},{"type":"Feature","geometry":{"type":"Point","coordinates":[-1.33557,52.10592]},"properties":{"name":"Great Bourton","category":"village","osm_type":"node","osm_id":"348402053"}},{"type":"Feature","geometry":{"type":"Point","coordinates":[-1.262,52.37267]},"properties":{"name":"Rugby","category":"town","osm_type":"node","osm_id":"348415368"}},{"type":"Feature","geometry":{"type":"Point","coordinates":[-1.10084,52.13788]},"properties":{"name":"Woodend","category":"village","osm_type":"node","osm_id":"351137565"}},{"type":"Feature","geometry":{"type":"Point","coordinates":[-1.01834,52.46507]},"properties":{"name":"Theddingworth","category":"village","osm_type":"node","osm_id":"356064826"}},{"type":"Feature","geometry":{"type":"Point","coordinates":[-1.49488,52.37115]},"properties":{"name":"Baginton","category":"village","osm_type":"node","osm_id":"358485318"}},{"type":"Feature","geometry":{"type":"Point","coordinates":[-1.37659,52.3291]},"properties":{"name":"Frankton","category":"village","osm_type":"node","osm_id":"412199880"}},{"type":"Feature","geometry":{"type":"Point","coordinates":[-1.4021,52.3497]},"properties":{"name":"Stretton on Dunsmore","category":"village","osm_type":"node","osm_id":"412199891"}},{"type":"Feature","geometry":{"type":"Point","coordinates":[-1.02983,52.26864]},"properties":{"name":"Little Brington","category":"village","osm_type":"node","osm_id":"412320181"}},{"type":"Feature","geometry":{"type":"Point","coordinates":[-1.06917,52.27701]},"properties":{"name":"Whilton","category":"village","osm_type":"node","osm_id":"412383768"}},{"type":"Feature","geometry":{"type":"Point","coordinates":[-1.76352,52.22053]},"properties":{"name":"Wilmcote","category":"village","osm_type":"node","osm_id":"433325613"}},{"type":"Feature","geometry":{"type":"Point","coordinates":[-1.79909,52.23775]},"properties":{"name":"Aston Cantlow","category":"village","osm_type":"node","osm_id":"433325616"}},{"type":"Feature","geometry":{"type":"Point","coordinates":[-1.83184,52.2313]},"properties":{"name":"Great Alne","category":"village","osm_type":"node","osm_id":"433325622"}},{"type":"Feature","geometry":{"type":"Point","coordinates":[-1.76883,52.09032]},"properties":{"name":"Mickleton","category":"village","osm_type":"node","osm_id":"433326392"}},{"type":"Feature","geometry":{"type":"Point","coordinates":[-1.28266,52.11147]},"properties":{"name":"Wardington","category":"village","osm_type":"node","osm_id":"456214855"}},{"type":"Feature","geometry":{"type":"Point","coordinates":[-1.83167,52.05475]},"properties":{"name":"Saintbury","category":"village","osm_type":"node","osm_id":"474967574"}},{"type":"Feature","geometry":{"type":"Point","coordinates":[-1.03514,52.22051]},"properties":{"name":"Nether Heyford","category":"village","osm_type":"node","osm_id":"491484931"}},{"type":"Feature","geometry":{"type":"Point","coordinates":[-1.90835,52.09565]},"properties":{"name":"Aldington","category":"village","osm_type":"node","osm_id":"494016161"}},{"type":"Feature","geometry":{"type":"Point","coordinates":[-1.4273,52.10177]},"properties":{"name":"Hornton","category":"village","osm_type":"node","osm_id":"514484964"}},{"type":"Feature","geometry":{"type":"Point","coordinates":[-1.79562,52.43529]},"properties":{"name":"Ulverley Green","category":"village","osm_type":"node","osm_id":"538941720"}},{"type":"Feature","geometry":{"type":"Point","coordinates":[-1.92035,52.4294]},"properties":{"name":"Stirchley","category":"village","osm_type":"node","osm_id":"557948157"}},{"type":"Feature","geometry":{"type":"Point","coordinates":[-1.99489,52.43592]},"properties":{"name":"Bartley Green","category":"village","osm_type":"node","osm_id":"558701597"}},{"type":"Feature","geometry":{"type":"Point","coordinates":[-1.49571,52.27683]},"properties":{"name":"Radford Semele","category":"village","osm_type":"node","osm_id":"571550996"}},{"type":"Feature","geometry":{"type":"Point","coordinates":[-1.86856,52.1785]},"properties":{"name":"Broom","category":"village","osm_type":"node","osm_id":"597266876"}},{"type":"Feature","geometry":{"type":"Point","coordinates":[-1.44593,52.32159]},"properties":{"name":"Wappenbury","category":"village","osm_type":"node","osm_id":"599670309"}},{"type":"Feature","geometry":{"type":"Point","coordinates":[-1.46812,52.31988]},"properties":{"name":"Weston under Wetherley","category":"village","osm_type":"node","osm_id":"599674411"}},{"type":"Feature","geometry":{"type":"Point","coordinates":[-1.45113,52.31259]},"properties":{"name":"Hunningham","category":"village","osm_type":"node","osm_id":"599676558"}},{"type":"Feature","geometry":{"type":"Point","coordinates":[-1.34889,52.32569]},"properties":{"name":"Draycote","category":"village","osm_type":"node","osm_id":"599928810"}},{"type":"Feature","geometry":{"type":"Point","coordinates":[-1.36464,52.33221]},"properties":{"name":"Bourton on Dunsmore","category":"village","osm_type":"node","osm_id":"599928811"}},{"type":"Feature","geometry":{"type":"Point","coordinates":[-1.60798,52.13766]},"properties":{"name":"Ettington","category":"village","osm_type":"node","osm_id":"610645047"}},{"type":"Feature","geometry":{"type":"Point","coordinates":[-1.68701,52.30479]},"properties":{"name":"Shrewley","category":"village","osm_type":"node","osm_id":"617258727"}},{"type":"Feature","geometry":{"type":"Point","coordinates":[-1.91224,52.25472]},"properties":{"name":"Sambourne","category":"village","osm_type":"node","osm_id":"628125238"}},{"type":"Feature","geometry":{"type":"Point","coordinates":[-1.05159,52.00432]},"properties":{"name":"Water Stratford","category":"village","osm_type":"node","osm_id":"653139817"}},{"type":"Feature","geometry":{"type":"Point","coordinates":[-1.45589,52.23644]},"properties":{"name":"Harbury","category":"village","osm_type":"node","osm_id":"673772395"}},{"type":"Feature","geometry":{"type":"Point","coordinates":[-1.70634,52.19278]},"properties":{"name":"Stratford-upon-Avon","category":"town","osm_type":"node","osm_id":"674398223"}},{"type":"Feature","geometry":{"type":"Point","coordinates":[-1.44684,52.25521]},"properties":{"name":"Ufton","category":"village","osm_type":"node","osm_id":"676775838"}},{"type":"Feature","geometry":{"type":"Point","coordinates":[-1.02459,52.32723]},"properties":{"name":"Ravensthorpe","category":"village","osm_type":"node","osm_id":"679991669"}},{"type":"Feature","geometry":{"type":"Point","coordinates":[-1.01111,52.35169]},"properties":{"name":"Guilsborough","category":"village","osm_type":"node","osm_id":"679991678"}},{"type":"Feature","geometry":{"type":"Point","coordinates":[-1.08172,52.35814]},"properties":{"name":"Winwick","category":"village","osm_type":"node","osm_id":"679991680"}},{"type":"Feature","geometry":{"type":"Point","coordinates":[-1.97008,52.28265]},"properties":{"name":"Callow Hill","category":"village","osm_type":"node","osm_id":"693129389"}},{"type":"Feature","geometry":{"type":"Point","coordinates":[-1.46836,52.35]},"properties":{"name":"Bubbenhall","category":"village","osm_type":"node","osm_id":"705016731"}},{"type":"Feature","geometry":{"type":"Point","coordinates":[-1.43674,52.36735]},"properties":{"name":"Ryton-on-Dunsmore","category":"village","osm_type":"node","osm_id":"705017509"}},{"type":"Feature","geometry":{"type":"Point","coordinates":[-1.62019,52.2825]},"properties":{"name":"Hampton Magna","category":"village","osm_type":"node","osm_id":"708997388"}},{"type":"Feature","geometry":{"type":"Point","coordinates":[-1.39198,52.22666]},"properties":{"name":"Ladbroke","category":"village","osm_type":"node","osm_id":"710856355"}},{"type":"Feature","geometry":{"type":"Point","coordinates":[-1.44519,52.16606]},"properties":{"name":"Temple Herdewyke","category":"village","osm_type":"node","osm_id":"719050195"}},{"type":"Feature","geometry":{"type":"Point","coordinates":[-1.31437,52.33578]},"properties":{"name":"Thurlaston","category":"village","osm_type":"node","osm_id":"725360045"}},{"type":"Feature","geometry":{"type":"Point","coordinates":[-1.87086,52.44059]},"properties":{"name":"Wake Green","category":"village","osm_type":"node","osm_id":"731914594"}},{"type":"Feature","geometry":{"type":"Point","coordinates":[-1.10357,52.28381]},"properties":{"name":"Long Buckby Wharf","category":"village","osm_type":"node","osm_id":"739359603"}},{"type":"Feature","geometry":{"type":"Point","coordinates":[-1.43256,52.07303]},"properties":{"name":"Balscote","category":"village","osm_type":"node","osm_id":"742557207"}},{"type":"Feature","geometry":{"type":"Point","coordinates":[-1.48761,52.03828]},"properties":{"name":"Sibford Gower","category":"village","osm_type":"node","osm_id":"742609521"}},{"type":"Feature","geometry":{"type":"Point","coordinates":[-1.48054,52.03366]},"properties":{"name":"Sibford Ferris","category":"village","osm_type":"node","osm_id":"742609542"}},{"type":"Feature","geometry":{"type":"Point","coordinates":[-1.47966,52.0376]},"properties":{"name":"Burdrop","category":"village","osm_type":"node","osm_id":"742609556"}},{"type":"Feature","geometry":{"type":"Point","coordinates":[-1.63935,52.4101]},"properties":{"name":"Berkswell","category":"village","osm_type":"node","osm_id":"745626817"}},{"type":"Feature","geometry":{"type":"Point","coordinates":[-1.88814,52.12162]},"properties":{"name":"Middle Littleton","category":"village","osm_type":"node","osm_id":"748783691"}},{"type":"Feature","geometry":{"type":"Point","coordinates":[-1.88049,52.12489]},"properties":{"name":"North Littleton","category":"village","osm_type":"node","osm_id":"748784689"}},{"type":"Feature","geometry":{"type":"Point","coordinates":[-1.4428,52.12378]},"properties":{"name":"Ratley","category":"village","osm_type":"node","osm_id":"755820220"}},{"type":"Feature","geometry":{"type":"Point","coordinates":[-1.27317,52.30633]},"properties":{"name":"Woolscott","category":"village","osm_type":"node","osm_id":"762516358"}},{"type":"Feature","geometry":{"type":"Point","coordinates":[-1.61698,52.25057]},"properties":{"name":"Sherbourne","category":"village","osm_type":"node","osm_id":"767234051"}},{"type":"Feature","geometry":{"type":"Point","coordinates":[-1.5456,52.33055]},"properties":{"name":"Ashow","category":"village","osm_type":"node","osm_id":"771219593"}},{"type":"Feature","geometry":{"type":"Point","coordinates":[-1.81095,52.43262]},"properties":{"name":"Kineton Green","category":"village","osm_type":"node","osm_id":"778642436"}},{"type":"Feature","geometry":{"type":"Point","coordinates":[-1.31312,52.0165]},"properties":{"name":"Adderbury","category":"village","osm_type":"node","osm_id":"784075802"}},{"type":"Feature","geometry":{"type":"Point","coordinates":[-1.62734,52.21164]},"properties":{"name":"Hampton Lucy","category":"village","osm_type":"node","osm_id":"793247741"}},{"type":"Feature","geometry":{"type":"Point","coordinates":[-1.96729,52.06022]},"properties":{"name":"Hinton on the Green","category":"village","osm_type":"node","osm_id":"800947556"}},{"type":"Feature","geometry":{"type":"Point","coordinates":[-1.48132,52.4633]},"properties":{"name":"Exhall","category":"village","osm_type":"node","osm_id":"807174812"}},{"type":"Feature","geometry":{"type":"Point","coordinates":[-1.88431,52.20739]},"properties":{"name":"Arrow","category":"village","osm_type":"node","osm_id":"809314329"}},{"type":"Feature","geometry":{"type":"Point","coordinates":[-1.96147,52.19266]},"properties":{"name":"Abbots Morton","category":"village","osm_type":"node","osm_id":"809348517"}},{"type":"Feature","geometry":{"type":"Point","coordinates":[-1.80391,52.40726]},"properties":{"name":"Blossomfield","category":"village","osm_type":"node","osm_id":"825628737"}},{"type":"Feature","geometry":{"type":"Point","coordinates":[-1.39284,52.16707]},"properties":{"name":"Fenny Compton","category":"village","osm_type":"node","osm_id":"861614975"}},{"type":"Feature","geometry":{"type":"Point","coordinates":[-1.70668,52.49865]},"properties":{"name":"Coleshill","category":"town","osm_type":"node","osm_id":"867453970"}},{"type":"Feature","geometry":{"type":"Point","coordinates":[-1.90132,52.4147]},"properties":{"name":"Brandwood End","category":"village","osm_type":"node","osm_id":"930618424"}},{"type":"Feature","geometry":{"type":"Point","coordinates":[-1.91983,52.4181]},"properties":{"name":"Lifford","category":"village","osm_type":"node","osm_id":"930618430"}},{"type":"Feature","geometry":{"type":"Point","coordinates":[-1.80625,52.41516]},"properties":{"name":"Sharmans Cross","category":"village","osm_type":"node","osm_id":"930618438"}},{"type":"Feature","geometry":{"type":"Point","coordinates":[-1.83679,52.43786]},"properties":{"name":"Fox Hollies","category":"village","osm_type":"node","osm_id":"930620015"}},{"type":"Feature","geometry":{"type":"Point","coordinates":[-1.9356,52.1312]},"properties":{"name":"Norton","category":"village","osm_type":"node","osm_id":"983580736"}},{"type":"Feature","geometry":{"type":"Point","coordinates":[-1.9198,52.13869]},"properties":{"name":"Harvington","category":"village","osm_type":"node","osm_id":"983580858"}},{"type":"Feature","geometry":{"type":"Point","coordinates":[-1.48688,52.20023]},"properties":{"name":"Lighthorne Heath","category":"village","osm_type":"node","osm_id":"1057264217"}},{"type":"Feature","geometry":{"type":"Point","coordinates":[-1.54172,52.24963]},"properties":{"name":"Bishop's Tachbrook","category":"village","osm_type":"node","osm_id":"1143690282"}},{"type":"Feature","geometry":{"type":"Point","coordinates":[-1.12907,52.38734]},"properties":{"name":"Clay Coton","category":"village","osm_type":"node","osm_id":"1145582073"}},{"type":"Feature","geometry":{"type":"Point","coordinates":[-1.36834,52.1436]},"properties":{"name":"Farnborough","category":"village","osm_type":"node","osm_id":"1197417493"}},{"type":"Feature","geometry":{"type":"Point","coordinates":[-1.8858,52.24237]},"properties":{"name":"Coughton","category":"village","osm_type":"node","osm_id":"1224745240"}},{"type":"Feature","geometry":{"type":"Point","coordinates":[-1.40719,52.49101]},"properties":{"name":"Bramcote","category":"village","osm_type":"node","osm_id":"1382891895"}},{"type":"Feature","geometry":{"type":"Point","coordinates":[-1.41195,52.3341]},"properties":{"name":"Princethorpe","category":"village","osm_type":"node","osm_id":"1404373077"}},{"type":"Feature","geometry":{"type":"Point","coordinates":[-1.77638,52.13456]},"properties":{"name":"Long Marston","category":"village","osm_type":"node","osm_id":"1426984866"}},{"type":"Feature","geometry":{"type":"Point","coordinates":[-1.90304,52.15033]},"properties":{"name":"Abbot's Salford","category":"village","osm_type":"node","osm_id":"1491975464"}},{"type":"Feature","geometry":{"type":"Point","coordinates":[-1.54356,52.00928]},"properties":{"name":"Whichford","category":"village","osm_type":"node","osm_id":"1519529109"}},{"type":"Feature","geometry":{"type":"Point","coordinates":[-1.57143,52.02881]},"properties":{"name":"Stourton","category":"village","osm_type":"node","osm_id":"1520155484"}},{"type":"Feature","geometry":{"type":"Point","coordinates":[-1.57761,52.02535]},"properties":{"name":"Cherington","category":"village","osm_type":"node","osm_id":"1522410345"}},{"type":"Feature","geometry":{"type":"Point","coordinates":[-1.90632,52.47021]},"properties":{"name":"Park Central","category":"village","osm_type":"node","osm_id":"1534269787"}},{"type":"Feature","geometry":{"type":"Point","coordinates":[-1.67742,52.04398]},"properties":{"name":"Stretton on Fosse","category":"village","osm_type":"node","osm_id":"1538269281"}},{"type":"Feature","geometry":{"type":"Point","coordinates":[-1.99974,52.49523]},"properties":{"name":"Rood End","category":"village","osm_type":"node","osm_id":"1540725296"}},{"type":"Feature","geometry":{"type":"Point","coordinates":[-1.66189,52.07734]},"properties":{"name":"Darlingscott","category":"village","osm_type":"node","osm_id":"1540773374"}},{"type":"Feature","geometry":{"type":"Point","coordinates":[-1.02867,52.03967]},"properties":{"name":"Dadford","category":"village","osm_type":"node","osm_id":"1543552613"}},{"type":"Feature","geometry":{"type":"Point","coordinates":[-1.50671,52.09277]},"properties":{"name":"Middle Tysoe","category":"village","osm_type":"node","osm_id":"1545705637"}},{"type":"Feature","geometry":{"type":"Point","coordinates":[-1.50844,52.08947]},"properties":{"name":"Upper Tysoe","category":"village","osm_type":"node","osm_id":"1545705639"}},{"type":"Feature","geometry":{"type":"Point","coordinates":[-1.4288,52.03799]},"properties":{"name":"Tadmarton","category":"village","osm_type":"node","osm_id":"1545888683"}},{"type":"Feature","geometry":{"type":"Point","coordinates":[-1.44954,52.03773]},"properties":{"name":"Swalcliffe","category":"village","osm_type":"node","osm_id":"1546022324"}},{"type":"Feature","geometry":{"type":"Point","coordinates":[-1.43879,52.05896]},"properties":{"name":"Shutford","category":"village","osm_type":"node","osm_id":"1546037100"}},{"type":"Feature","geometry":{"type":"Point","coordinates":[-1.5736,52.1266]},"properties":{"name":"Pillerton Priors","category":"village","osm_type":"node","osm_id":"1547225223"}},{"type":"Feature","geometry":{"type":"Point","coordinates":[-1.56251,52.13633]},"properties":{"name":"Pillerton Hersey","category":"village","osm_type":"node","osm_id":"1547225317"}},{"type":"Feature","geometry":{"type":"Point","coordinates":[-1.5365,52.14755]},"properties":{"name":"Butlers Marston","category":"village","osm_type":"node","osm_id":"1547225673"}},{"type":"Feature","geometry":{"type":"Point","coordinates":[-1.45084,52.08271]},"properties":{"name":"Alkerton","category":"village","osm_type":"node","osm_id":"1550133921"}},{"type":"Feature","geometry":{"type":"Point","coordinates":[-1.45907,52.08224]},"properties":{"name":"Shenington","category":"village","osm_type":"node","osm_id":"1550133952"}},{"type":"Feature","geometry":{"type":"Point","coordinates":[-1.21987,52.19908]},"properties":{"name":"Charwelton","category":"village","osm_type":"node","osm_id":"1573917623"}},{"type":"Feature","geometry":{"type":"Point","coordinates":[-1.96663,52.40351]},"properties":{"name":"Turves Green","category":"village","osm_type":"node","osm_id":"1585565116"}},{"type":"Feature","geometry":{"type":"Point","coordinates":[-1.3176,52.41155]},"properties":{"name":"Easenhall","category":"village","osm_type":"node","osm_id":"1591165289"}},{"type":"Feature","geometry":{"type":"Point","coordinates":[-1.62135,52.10872]},"properties":{"name":"Halford","category":"village","osm_type":"node","osm_id":"1591237460"}},{"type":"Feature","geometry":{"type":"Point","coordinates":[-1.61244,52.04933]},"properties":{"name":"Willington","category":"village","osm_type":"node","osm_id":"1592877827"}},{"type":"Feature","geometry":{"type":"Point","coordinates":[-1.62541,52.09029]},"properties":{"name":"Tredington","category":"village","osm_type":"node","osm_id":"1598981486"}},{"type":"Feature","geometry":{"type":"Point","coordinates":[-1.45891,52.13107]},"properties":{"name":"Radway","category":"village","osm_type":"node","osm_id":"1598986812"}},{"type":"Feature","geometry":{"type":"Point","coordinates":[-1.64624,52.10002]},"properties":{"name":"Armscote","category":"village","osm_type":"node","osm_id":"1608864214"}},{"type":"Feature","geometry":{"type":"Point","coordinates":[-1.6482,52.08878]},"properties":{"name":"Blackwell","category":"village","osm_type":"node","osm_id":"1608932920"}},{"type":"Feature","geometry":{"type":"Point","coordinates":[-1.62473,52.06302]},"properties":{"name":"Shipston-on-Stour","category":"town","osm_type":"node","osm_id":"1609335317"}},{"type":"Feature","geometry":{"type":"Point","coordinates":[-1.61536,52.0393]},"properties":{"name":"Burmington","category":"village","osm_type":"node","osm_id":"1611098449"}},{"type":"Feature","geometry":{"type":"Point","coordinates":[-1.54136,52.10982]},"properties":{"name":"Oxhill","category":"village","osm_type":"node","osm_id":"1611867052"}},{"type":"Feature","geometry":{"type":"Point","coordinates":[-1.56357,52.0987]},"properties":{"name":"Whatcote","category":"village","osm_type":"node","osm_id":"1611870987"}},{"type":"Feature","geometry":{"type":"Point","coordinates":[-1.60605,52.24542]},"properties":{"name":"Barford","category":"village","osm_type":"node","osm_id":"1614188369"}},{"type":"Feature","geometry":{"type":"Point","coordinates":[-1.38841,52.25309]},"properties":{"name":"Southam","category":"town","osm_type":"node","osm_id":"1614276041"}},{"type":"Feature","geometry":{"type":"Point","coordinates":[-1.58763,52.48088]},"properties":{"name":"Fillongley","category":"village","osm_type":"node","osm_id":"1617178063"}},{"type":"Feature","geometry":{"type":"Point","coordinates":[-1.39027,52.05541]},"properties":{"name":"North Newington","category":"village","osm_type":"node","osm_id":"1628471719"}},{"type":"Feature","geometry":{"type":"Point","coordinates":[-1.24806,52.17449]},"properties":{"name":"Byfield","category":"village","osm_type":"node","osm_id":"1640172399"}},{"type":"Feature","geometry":{"type":"Point","coordinates":[-1.28275,52.09113]},"properties":{"name":"Chacombe","category":"village","osm_type":"node","osm_id":"1640172400"}},{"type":"Feature","geometry":{"type":"Point","coordinates":[-1.19978,52.45522]},"properties":{"name":"Lutterworth","category":"town","osm_type":"node","osm_id":"1645273869","website":"http://lutterworth.leicestershireparishcouncils.org"}},{"type":"Feature","geometry":{"type":"Point","coordinates":[-1.21204,52.46822]},"properties":{"name":"Bitteswell","category":"village","osm_type":"node","osm_id":"1656943417"}},{"type":"Feature","geometry":{"type":"Point","coordinates":[-1.21375,52.43604]},"properties":{"name":"Cotesbach","category":"village","osm_type":"node","osm_id":"1672008755"}},{"type":"Feature","geometry":{"type":"Point","coordinates":[-1.6342,52.2996]},"properties":{"name":"Hatton Park","category":"village","osm_type":"node","osm_id":"1672394264","website":"https://www.hattonpark.net/"}},{"type":"Feature","geometry":{"type":"Point","coordinates":[-1.58558,52.09647]},"properties":{"name":"Idlicote","category":"village","osm_type":"node","osm_id":"1681574524"}},{"type":"Feature","geometry":{"type":"Point","coordinates":[-1.01153,52.3387]},"properties":{"name":"Coton","category":"village","osm_type":"node","osm_id":"1705960481"}},{"type":"Feature","geometry":{"type":"Point","coordinates":[-1.85554,52.37744]},"properties":{"name":"Tidbury Green","category":"village","osm_type":"node","osm_id":"1708347110"}},{"type":"Feature","geometry":{"type":"Point","coordinates":[-1.99167,52.47463]},"properties":{"name":"Warley Salop","category":"village","osm_type":"node","osm_id":"1792380042"}},{"type":"Feature","geometry":{"type":"Point","coordinates":[-1.35642,52.12314]},"properties":{"name":"Mollington","category":"village","osm_type":"node","osm_id":"1837807262"}},{"type":"Feature","geometry":{"type":"Point","coordinates":[-1.58785,52.46223]},"properties":{"name":"Corley Moor","category":"village","osm_type":"node","osm_id":"1845178172"}},{"type":"Feature","geometry":{"type":"Point","coordinates":[-1.55944,52.46406]},"properties":{"name":"Corley","category":"village","osm_type":"node","osm_id":"1845183374"}},{"type":"Feature","geometry":{"type":"Point","coordinates":[-1.05709,52.20504]},"properties":{"name":"Upper Stowe","category":"village","osm_type":"node","osm_id":"1971361687"}},{"type":"Feature","geometry":{"type":"Point","coordinates":[-1.95885,52.37759]},"properties":{"name":"Hopwood","category":"village","osm_type":"node","osm_id":"2037515254"}},{"type":"Feature","geometry":{"type":"Point","coordinates":[-1.24638,52.21974]},"properties":{"name":"Hellidon","category":"village","osm_type":"node","osm_id":"2045966117"}},{"type":"Feature","geometry":{"type":"Point","coordinates":[-1.51452,52.42424]},"properties":{"name":"Daimler Green","category":"village","osm_type":"node","osm_id":"2150931078"}},{"type":"Feature","geometry":{"type":"Point","coordinates":[-1.989,52.25095]},"properties":{"name":"Feckenham","category":"village","osm_type":"node","osm_id":"2151571950"}},{"type":"Feature","geometry":{"type":"Point","coordinates":[-1.75573,52.28513]},"properties":{"name":"Preston Green","category":"village","osm_type":"node","osm_id":"2171591492"}},{"type":"Feature","geometry":{"type":"Point","coordinates":[-1.50589,52.19986]},"properties":{"name":"Lighthorne","category":"village","osm_type":"node","osm_id":"2294312379"}},{"type":"Feature","geometry":{"type":"Point","coordinates":[-1.8509,52.19467]},"properties":{"name":"Exhall","category":"village","osm_type":"node","osm_id":"2455305550"}},{"type":"Feature","geometry":{"type":"Point","coordinates":[-1.83191,52.18674]},"properties":{"name":"Ardens Grafton","category":"village","osm_type":"node","osm_id":"2455477115"}},{"type":"Feature","geometry":{"type":"Point","coordinates":[-1.55343,52.1624]},"properties":{"name":"Combrook","category":"village","osm_type":"node","osm_id":"2559858261"}},{"type":"Feature","geometry":{"type":"Point","coordinates":[-1.6058,52.3799]},"properties":{"name":"Burton Green","category":"village","osm_type":"node","osm_id":"2675070234","website":"http://burtongreen.blogspot.co.uk/"}},{"type":"Feature","geometry":{"type":"Point","coordinates":[-1.56352,52.42374]},"properties":{"name":"Allesley","category":"village","osm_type":"node","osm_id":"2675120416"}},{"type":"Feature","geometry":{"type":"Point","coordinates":[-1.5102,52.46182]},"properties":{"name":"Ash Green","category":"village","osm_type":"node","osm_id":"2675540520"}},{"type":"Feature","geometry":{"type":"Point","coordinates":[-1.62281,52.28754]},"properties":{"name":"Budbrooke","category":"village","osm_type":"node","osm_id":"2677637208"}},{"type":"Feature","geometry":{"type":"Point","coordinates":[-1.8255,52.21639]},"properties":{"name":"Upton","category":"village","osm_type":"node","osm_id":"2677695016"}},{"type":"Feature","geometry":{"type":"Point","coordinates":[-1.81681,52.22085]},"properties":{"name":"Walcote","category":"village","osm_type":"node","osm_id":"2677695021"}},{"type":"Feature","geometry":{"type":"Point","coordinates":[-1.72092,52.26402]},"properties":{"name":"Langley","category":"village","osm_type":"node","osm_id":"2677726438"}},{"type":"Feature","geometry":{"type":"Point","coordinates":[-1.82369,52.29217]},"properties":{"name":"Oldberrow","category":"village","osm_type":"node","osm_id":"2681409937"}},{"type":"Feature","geometry":{"type":"Point","coordinates":[-1.82212,52.32408]},"properties":{"name":"Danzey Green","category":"village","osm_type":"node","osm_id":"2681416506"}},{"type":"Feature","geometry":{"type":"Point","coordinates":[-1.4084,52.27028]},"properties":{"name":"Bascote","category":"village","osm_type":"node","osm_id":"2684322764"}},{"type":"Feature","geometry":{"type":"Point","coordinates":[-1.85992,52.33382]},"properties":{"name":"Aspley Heath","category":"village","osm_type":"node","osm_id":"2684393872"}},{"type":"Feature","geometry":{"type":"Point","coordinates":[-1.84494,52.34171]},"properties":{"name":"Wood End","category":"village","osm_type":"node","osm_id":"2684393876"}},{"type":"Feature","geometry":{"type":"Point","coordinates":[-1.88324,52.34834]},"properties":{"name":"Portway","category":"village","osm_type":"node","osm_id":"2684409672"}},{"type":"Feature","geometry":{"type":"Point","coordinates":[-1.67124,52.33956]},"properties":{"name":"Wroxall","category":"village","osm_type":"node","osm_id":"2685015953"}},{"type":"Feature","geometry":{"type":"Point","coordinates":[-1.64326,52.30073]},"properties":{"name":"Hatton","category":"village","osm_type":"node","osm_id":"2685049928"}},{"type":"Feature","geometry":{"type":"Point","coordinates":[-1.57137,52.48882]},"properties":{"name":"Wood End","category":"village","osm_type":"node","osm_id":"2685179293"}},{"type":"Feature","geometry":{"type":"Point","coordinates":[-1.64091,52.42262]},"properties":{"name":"Four Oaks","category":"village","osm_type":"node","osm_id":"2685215351"}},{"type":"Feature","geometry":{"type":"Point","coordinates":[-1.11778,52.31473]},"properties":{"name":"Watford","category":"village","osm_type":"node","osm_id":"2741746209"}},{"type":"Feature","geometry":{"type":"Point","coordinates":[-1.7572,52.38419]},"properties":{"name":"Bentley Heath","category":"village","osm_type":"node","osm_id":"3031324011"}},{"type":"Feature","geometry":{"type":"Point","coordinates":[-1.87018,52.37835]},"properties":{"name":"Wythall","category":"village","osm_type":"node","osm_id":"3031741538"}},{"type":"Feature","geometry":{"type":"Point","coordinates":[-1.70171,52.42647]},"properties":{"name":"Hampton-in-Arden","category":"village","osm_type":"node","osm_id":"3034435643"}},{"type":"Feature","geometry":{"type":"Point","coordinates":[-1.97533,52.47806]},"properties":{"name":"Warley Wigorn","category":"village","osm_type":"node","osm_id":"3317601735"}},{"type":"Feature","geometry":{"type":"Point","coordinates":[-1.22456,52.09919]},"properties":{"name":"Thorpe Mandeville","category":"village","osm_type":"node","osm_id":"3674545094"}},{"type":"Feature","geometry":{"type":"Point","coordinates":[-1.07318,52.25889]},"properties":{"name":"Brockhall","category":"village","osm_type":"node","osm_id":"3714975810"}},{"type":"Feature","geometry":{"type":"Point","coordinates":[-1.89007,52.32518]},"properties":{"name":"Holt End","category":"village","osm_type":"node","osm_id":"3871441869"}},{"type":"Feature","geometry":{"type":"Point","coordinates":[-1.70326,52.32203]},"properties":{"name":"Rowington","category":"village","osm_type":"node","osm_id":"3968909320"}},{"type":"Feature","geometry":{"type":"Point","coordinates":[-1.11183,52.04982]},"properties":{"name":"Whitfield","category":"village","osm_type":"node","osm_id":"5557264744"}},{"type":"Feature","geometry":{"type":"Point","coordinates":[-1.94096,52.45157]},"properties":{"name":"Metchley","category":"village","osm_type":"node","osm_id":"5899898438"}},{"type":"Feature","geometry":{"type":"Point","coordinates":[-1.36066,52.2714]},"properties":{"name":"Stockton","category":"village","osm_type":"node","osm_id":"6281115777"}},{"type":"Feature","geometry":{"type":"Point","coordinates":[-1.76,52.11831]},"properties":{"name":"Meon Vale","category":"village","osm_type":"node","osm_id":"6504308813"}},{"type":"Feature","geometry":{"type":"Point","coordinates":[-1.94368,52.32629]},"properties":{"name":"Bordesley","category":"village","osm_type":"node","osm_id":"8446575817"}},{"type":"Feature","geometry":{"type":"Point","coordinates":[-1.61712,52.08013]},"properties":{"name":"Honington","category":"village","osm_type":"node","osm_id":"9236485079"}},{"type":"Feature","geometry":{"type":"Point","coordinates":[-1.06053,52.41854]},"properties":{"name":"Welford","category":"village","osm_type":"node","osm_id":"10296060699"}},{"type":"Feature","geometry":{"type":"Point","coordinates":[-1.17917,52.20671]},"properties":{"name":"Fawsley","category":"village","osm_type":"node","osm_id":"10937765190"}},{"type":"Feature","geometry":{"type":"Point","coordinates":[-1.22765,52.22993]},"properties":{"name":"Catesby","category":"village","osm_type":"node","osm_id":"10937778980"}},{"type":"Feature","geometry":{"type":"Point","coordinates":[-1.04595,52.17658]},"properties":{"name":"Grimscote","category":"village","osm_type":"node","osm_id":"10943907966"}},{"type":"Feature","geometry":{"type":"Point","coordinates":[-1.74948,52.13499]},"properties":{"name":"Shackleton Village","category":"village","osm_type":"node","osm_id":"11205512150"}},{"type":"Feature","geometry":{"type":"Point","coordinates":[-1.92172,52.22838]},"properties":{"name":"Cookhill","category":"village","osm_type":"node","osm_id":"11395769392"}},{"type":"Feature","geometry":{"type":"Point","coordinates":[-1.96045,52.48679]},"properties":{"name":"Cape Hill","category":"town","osm_type":"node","osm_id":"12874131612"}},{"type":"Feature","geometry":{"type":"Point","coordinates":[-1.85184,52.4949]},"properties":{"name":"Birmingham","category":"city","osm_type":"relation","osm_id":"162378"}},{"type":"Feature","geometry":{"type":"Point","coordinates":[-1.34018,52.06164]},"properties":{"name":"Banbury","category":"town","osm_type":"relation","osm_id":"4195961","website":"https://www.banbury.gov.uk/"}},{"type":"Feature","geometry":{"type":"Point","coordinates":[-1.15618,52.4501]},"properties":{"name":"Walcote","category":"village","osm_type":"relation","osm_id":"17393929"}},{"type":"Feature","geometry":{"type":"Point","coordinates":[-1.09251,52.2631]},"properties":{"name":"Muscott","category":"village","osm_type":"way","osm_id":"1186145212"}},{"type":"Feature","geometry":{"type":"Point","coordinates":[-1.2148,52.43428]},"properties":{"name":"Cotesbach","category":"village","osm_type":"way","osm_id":"1189445908"}},{"type":"Feature","geometry":{"type":"Point","coordinates":[-1.20183,52.41741]},"properties":{"name":"Shawell","category":"village","osm_type":"way","osm_id":"1189445909"}},{"type":"Feature","geometry":{"type":"Point","coordinates":[-1.22164,52.47165]},"properties":{"name":"Bitteswell with Bittesby","category":"village","osm_type":"way","osm_id":"1189445911"}},{"type":"Feature","geometry":{"type":"Point","coordinates":[-1.16789,52.48148]},"properties":{"name":"Gilmorton","category":"village","osm_type":"way","osm_id":"1189445912"}},{"type":"Feature","geometry":{"type":"Point","coordinates":[-1.11386,52.47426]},"properties":{"name":"Kimcote and Walton","category":"village","osm_type":"way","osm_id":"1189445913"}},{"type":"Feature","geometry":{"type":"Point","coordinates":[-1.22121,52.48909]},"properties":{"name":"Ashby Parva","category":"village","osm_type":"way","osm_id":"1189566502"}},{"type":"Feature","geometry":{"type":"Point","coordinates":[-1.2786,52.46039]},"properties":{"name":"Willey","category":"village","osm_type":"way","osm_id":"1189566503"}}]}