{"type":"FeatureCollection","features":[{"type":"Feature","geometry":{"type":"Point","coordinates":[-1.51592,53.61416]},"properties":{"name":"Woolley","category":"village","osm_type":"node","osm_id":"331190"}},{"type":"Feature","geometry":{"type":"Point","coordinates":[-1.4745,53.7132]},"properties":{"name":"Stanley","category":"town","osm_type":"node","osm_id":"331195"}},{"type":"Feature","geometry":{"type":"Point","coordinates":[-1.27517,53.71067]},"properties":{"name":"Ferrybridge","category":"village","osm_type":"node","osm_id":"331202"}},{"type":"Feature","geometry":{"type":"Point","coordinates":[-1.31057,53.69174]},"properties":{"name":"Pontefract","category":"town","osm_type":"node","osm_id":"331203"}},{"type":"Feature","geometry":{"type":"Point","coordinates":[-1.43112,53.7086]},"properties":{"name":"Altofts","category":"village","osm_type":"node","osm_id":"331205"}},{"type":"Feature","geometry":{"type":"Point","coordinates":[-1.54379,53.79742]},"properties":{"name":"Leeds","category":"city","osm_type":"node","osm_id":"358309"}},{"type":"Feature","geometry":{"type":"Point","coordinates":[-1.50319,53.7027]},"properties":{"name":"Newton Hill","category":"village","osm_type":"node","osm_id":"601584"}},{"type":"Feature","geometry":{"type":"Point","coordinates":[-1.46177,53.67566]},"properties":{"name":"Heath","category":"village","osm_type":"node","osm_id":"611111"}},{"type":"Feature","geometry":{"type":"Point","coordinates":[-1.08154,53.95906]},"properties":{"name":"York","category":"city","osm_type":"node","osm_id":"20913294"}},{"type":"Feature","geometry":{"type":"Point","coordinates":[-1.69389,53.90551]},"properties":{"name":"Otley","category":"town","osm_type":"node","osm_id":"20940471"}},{"type":"Feature","geometry":{"type":"Point","coordinates":[-1.7371,53.88968]},"properties":{"name":"Menston","category":"village","osm_type":"node","osm_id":"20940506"}},{"type":"Feature","geometry":{"type":"Point","coordinates":[-1.75007,53.91299]},"properties":{"name":"Burley-in-Wharfedale","category":"village","osm_type":"node","osm_id":"20940507"}},{"type":"Feature","geometry":{"type":"Point","coordinates":[-1.82444,53.92573]},"properties":{"name":"Ilkley","category":"town","osm_type":"node","osm_id":"20940728"}},{"type":"Feature","geometry":{"type":"Point","coordinates":[-1.78335,53.93679]},"properties":{"name":"Denton","category":"village","osm_type":"node","osm_id":"20940957"}},{"type":"Feature","geometry":{"type":"Point","coordinates":[-1.88529,53.94452]},"properties":{"name":"Addingham","category":"village","osm_type":"node","osm_id":"20941138","website":"https://addingham.info/"}},{"type":"Feature","geometry":{"type":"Point","coordinates":[-1.47815,53.74938]},"properties":{"name":"Rothwell","category":"town","osm_type":"node","osm_id":"20977199"}},{"type":"Feature","geometry":{"type":"Point","coordinates":[-1.49673,53.68295]},"properties":{"name":"Wakefield","category":"city","osm_type":"node","osm_id":"21027566"}},{"type":"Feature","geometry":{"type":"Point","coordinates":[-1.62026,53.88552]},"properties":{"name":"Bramhope","category":"village","osm_type":"node","osm_id":"21266485"}},{"type":"Feature","geometry":{"type":"Point","coordinates":[-1.63051,53.90264]},"properties":{"name":"Pool in Wharfedale","category":"village","osm_type":"node","osm_id":"21266486"}},{"type":"Feature","geometry":{"type":"Point","coordinates":[-1.58184,53.9253]},"properties":{"name":"Huby","category":"village","osm_type":"node","osm_id":"21266487"}},{"type":"Feature","geometry":{"type":"Point","coordinates":[-1.49056,53.73939]},"properties":{"name":"Carlton","category":"village","osm_type":"node","osm_id":"21307032"}},{"type":"Feature","geometry":{"type":"Point","coordinates":[-1.25189,53.79764]},"properties":{"name":"Sherburn in Elmet","category":"town","osm_type":"node","osm_id":"21391763"}},{"type":"Feature","geometry":{"type":"Point","coordinates":[-1.24621,53.7788]},"properties":{"name":"South Milford","category":"village","osm_type":"node","osm_id":"21391764"}},{"type":"Feature","geometry":{"type":"Point","coordinates":[-1.58605,53.89764]},"properties":{"name":"Arthington","category":"village","osm_type":"node","osm_id":"21436398"}},{"type":"Feature","geometry":{"type":"Point","coordinates":[-1.06878,53.78401]},"properties":{"name":"Selby","category":"town","osm_type":"node","osm_id":"21448742"}},{"type":"Feature","geometry":{"type":"Point","coordinates":[-1.42302,53.76844]},"properties":{"name":"Swillington","category":"village","osm_type":"node","osm_id":"21458266"}},{"type":"Feature","geometry":{"type":"Point","coordinates":[-1.13038,53.83142]},"properties":{"name":"Cawood","category":"village","osm_type":"node","osm_id":"21479474"}},{"type":"Feature","geometry":{"type":"Point","coordinates":[-1.10036,53.81332]},"properties":{"name":"Wistow","category":"village","osm_type":"node","osm_id":"21479567"}},{"type":"Feature","geometry":{"type":"Point","coordinates":[-1.57659,53.67805]},"properties":{"name":"Ossett","category":"town","osm_type":"node","osm_id":"21556900"}},{"type":"Feature","geometry":{"type":"Point","coordinates":[-1.5391,53.99215]},"properties":{"name":"Harrogate","category":"town","osm_type":"node","osm_id":"26044089"}},{"type":"Feature","geometry":{"type":"Point","coordinates":[-1.93747,53.91319]},"properties":{"name":"Silsden","category":"town","osm_type":"node","osm_id":"26261542"}},{"type":"Feature","geometry":{"type":"Point","coordinates":[-1.41361,53.90768]},"properties":{"name":"Collingham","category":"village","osm_type":"node","osm_id":"26261631"}},{"type":"Feature","geometry":{"type":"Point","coordinates":[-1.38667,53.9284]},"properties":{"name":"Wetherby","category":"town","osm_type":"node","osm_id":"26261700"}},{"type":"Feature","geometry":{"type":"Point","coordinates":[-1.27624,53.94595]},"properties":{"name":"Bilton-in-Ainsty","category":"village","osm_type":"node","osm_id":"26261703"}},{"type":"Feature","geometry":{"type":"Point","coordinates":[-1.2366,53.95442]},"properties":{"name":"Long Marston","category":"village","osm_type":"node","osm_id":"26261704"}},{"type":"Feature","geometry":{"type":"Point","coordinates":[-1.49751,53.72928]},"properties":{"name":"Lofthouse","category":"village","osm_type":"node","osm_id":"26282410"}},{"type":"Feature","geometry":{"type":"Point","coordinates":[-1.49617,53.71734]},"properties":{"name":"Lofthouse Gate","category":"village","osm_type":"node","osm_id":"26282411"}},{"type":"Feature","geometry":{"type":"Point","coordinates":[-1.52452,53.69856]},"properties":{"name":"Wrenthorpe","category":"village","osm_type":"node","osm_id":"26282412"}},{"type":"Feature","geometry":{"type":"Point","coordinates":[-1.45412,53.74927]},"properties":{"name":"Oulton","category":"village","osm_type":"node","osm_id":"26282683"}},{"type":"Feature","geometry":{"type":"Point","coordinates":[-1.44671,53.75445]},"properties":{"name":"Woodlesford","category":"village","osm_type":"node","osm_id":"26282684"}},{"type":"Feature","geometry":{"type":"Point","coordinates":[-1.90205,53.8684]},"properties":{"name":"Keighley","category":"town","osm_type":"node","osm_id":"26453445"}},{"type":"Feature","geometry":{"type":"Point","coordinates":[-1.89123,53.98229]},"properties":{"name":"Bolton Abbey","category":"village","osm_type":"node","osm_id":"26453813"}},{"type":"Feature","geometry":{"type":"Point","coordinates":[-1.59886,53.74407]},"properties":{"name":"Morley","category":"town","osm_type":"node","osm_id":"26678597"}},{"type":"Feature","geometry":{"type":"Point","coordinates":[-1.62764,53.75957]},"properties":{"name":"Gildersome","category":"village","osm_type":"node","osm_id":"26683883"}},{"type":"Feature","geometry":{"type":"Point","coordinates":[-1.55524,53.6603]},"properties":{"name":"Horbury","category":"village","osm_type":"node","osm_id":"26685708"}},{"type":"Feature","geometry":{"type":"Point","coordinates":[-1.75192,53.79442]},"properties":{"name":"Bradford","category":"city","osm_type":"node","osm_id":"26701367"}},{"type":"Feature","geometry":{"type":"Point","coordinates":[-1.86049,53.72292]},"properties":{"name":"Halifax","category":"town","osm_type":"node","osm_id":"26703086"}},{"type":"Feature","geometry":{"type":"Point","coordinates":[-1.78225,53.64666]},"properties":{"name":"Huddersfield","category":"town","osm_type":"node","osm_id":"26703087"}},{"type":"Feature","geometry":{"type":"Point","coordinates":[-1.63021,53.69091]},"properties":{"name":"Dewsbury","category":"town","osm_type":"node","osm_id":"26703088"}},{"type":"Feature","geometry":{"type":"Point","coordinates":[-1.34507,53.50252]},"properties":{"name":"Wath upon Dearne","category":"town","osm_type":"node","osm_id":"27330613"}},{"type":"Feature","geometry":{"type":"Point","coordinates":[-1.48278,53.55277]},"properties":{"name":"Barnsley","category":"town","osm_type":"node","osm_id":"27330615"}},{"type":"Feature","geometry":{"type":"Point","coordinates":[-1.45694,53.5983]},"properties":{"name":"Royston","category":"town","osm_type":"node","osm_id":"27330616"}},{"type":"Feature","geometry":{"type":"Point","coordinates":[-1.41964,53.57338]},"properties":{"name":"Cudworth","category":"town","osm_type":"node","osm_id":"27330617"}},{"type":"Feature","geometry":{"type":"Point","coordinates":[-1.35383,53.61332]},"properties":{"name":"Hemsworth","category":"town","osm_type":"node","osm_id":"27330618"}},{"type":"Feature","geometry":{"type":"Point","coordinates":[-1.30802,53.54525]},"properties":{"name":"Thurnscoe","category":"town","osm_type":"node","osm_id":"27330619"}},{"type":"Feature","geometry":{"type":"Point","coordinates":[-1.31426,53.51905]},"properties":{"name":"Bolton upon Dearne","category":"village","osm_type":"node","osm_id":"27330620"}},{"type":"Feature","geometry":{"type":"Point","coordinates":[-1.18838,53.57339]},"properties":{"name":"Adwick le Street","category":"village","osm_type":"node","osm_id":"27330621"}},{"type":"Feature","geometry":{"type":"Point","coordinates":[-1.70805,53.9301]},"properties":{"name":"Clifton","category":"village","osm_type":"node","osm_id":"27368235"}},{"type":"Feature","geometry":{"type":"Point","coordinates":[-1.94468,53.72323]},"properties":{"name":"Luddendenfoot","category":"village","osm_type":"node","osm_id":"27374731"}},{"type":"Feature","geometry":{"type":"Point","coordinates":[-1.90882,53.70976]},"properties":{"name":"Sowerby Bridge","category":"town","osm_type":"node","osm_id":"27374798"}},{"type":"Feature","geometry":{"type":"Point","coordinates":[-1.81365,53.93924]},"properties":{"name":"Middleton","category":"village","osm_type":"node","osm_id":"27375665"}},{"type":"Feature","geometry":{"type":"Point","coordinates":[-1.09893,53.86021]},"properties":{"name":"Stillingfleet","category":"village","osm_type":"node","osm_id":"27423741"}},{"type":"Feature","geometry":{"type":"Point","coordinates":[-1.5117,53.90107]},"properties":{"name":"Harewood","category":"village","osm_type":"node","osm_id":"27457037"}},{"type":"Feature","geometry":{"type":"Point","coordinates":[-1.56508,53.91684]},"properties":{"name":"Weeton","category":"village","osm_type":"node","osm_id":"27459525"}},{"type":"Feature","geometry":{"type":"Point","coordinates":[-1.45236,53.9301]},"properties":{"name":"Sicklinghall","category":"village","osm_type":"node","osm_id":"27467957"}},{"type":"Feature","geometry":{"type":"Point","coordinates":[-1.50659,53.9384]},"properties":{"name":"Kirkby Overblow","category":"village","osm_type":"node","osm_id":"27470978"}},{"type":"Feature","geometry":{"type":"Point","coordinates":[-1.64774,53.91855]},"properties":{"name":"Leathley","category":"village","osm_type":"node","osm_id":"27471248"}},{"type":"Feature","geometry":{"type":"Point","coordinates":[-1.48283,53.9145]},"properties":{"name":"Kearby","category":"village","osm_type":"node","osm_id":"27474333"}},{"type":"Feature","geometry":{"type":"Point","coordinates":[-1.43381,53.88867]},"properties":{"name":"Rigton","category":"village","osm_type":"node","osm_id":"27480827"}},{"type":"Feature","geometry":{"type":"Point","coordinates":[-1.40648,53.9148]},"properties":{"name":"Linton","category":"village","osm_type":"node","osm_id":"27481009"}},{"type":"Feature","geometry":{"type":"Point","coordinates":[-1.44747,53.8837]},"properties":{"name":"Bardsey","category":"village","osm_type":"node","osm_id":"27481324"}},{"type":"Feature","geometry":{"type":"Point","coordinates":[-1.72643,53.97207]},"properties":{"name":"Timble","category":"village","osm_type":"node","osm_id":"27535525"}},{"type":"Feature","geometry":{"type":"Point","coordinates":[-1.67492,53.92814]},"properties":{"name":"Farnley","category":"village","osm_type":"node","osm_id":"27537141"}},{"type":"Feature","geometry":{"type":"Point","coordinates":[-1.70751,53.87483]},"properties":{"name":"Guiseley","category":"town","osm_type":"node","osm_id":"27670612"}},{"type":"Feature","geometry":{"type":"Point","coordinates":[-1.68508,53.86366]},"properties":{"name":"Yeadon","category":"town","osm_type":"node","osm_id":"27670613"}},{"type":"Feature","geometry":{"type":"Point","coordinates":[-1.74262,53.93044]},"properties":{"name":"Askwith","category":"village","osm_type":"node","osm_id":"27767549"}},{"type":"Feature","geometry":{"type":"Point","coordinates":[-1.74954,53.87225]},"properties":{"name":"Hawksworth","category":"village","osm_type":"node","osm_id":"27791536"}},{"type":"Feature","geometry":{"type":"Point","coordinates":[-1.98589,53.97988]},"properties":{"name":"Embsay","category":"village","osm_type":"node","osm_id":"28323497"}},{"type":"Feature","geometry":{"type":"Point","coordinates":[-1.94259,53.67301]},"properties":{"name":"Ripponden","category":"town","osm_type":"node","osm_id":"28328632"}},{"type":"Feature","geometry":{"type":"Point","coordinates":[-1.93602,53.98191]},"properties":{"name":"Halton East","category":"village","osm_type":"node","osm_id":"28374979"}},{"type":"Feature","geometry":{"type":"Point","coordinates":[-1.94081,53.96797]},"properties":{"name":"Draughton","category":"village","osm_type":"node","osm_id":"28871542"}},{"type":"Feature","geometry":{"type":"Point","coordinates":[-1.77798,53.83218]},"properties":{"name":"Shipley","category":"town","osm_type":"node","osm_id":"28937705"}},{"type":"Feature","geometry":{"type":"Point","coordinates":[-1.67136,53.85022]},"properties":{"name":"Rawdon","category":"village","osm_type":"node","osm_id":"29057254"}},{"type":"Feature","geometry":{"type":"Point","coordinates":[-1.68779,53.82963]},"properties":{"name":"Calverley","category":"village","osm_type":"node","osm_id":"29057410"}},{"type":"Feature","geometry":{"type":"Point","coordinates":[-1.6629,53.79659]},"properties":{"name":"Pudsey","category":"town","osm_type":"node","osm_id":"29057412"}},{"type":"Feature","geometry":{"type":"Point","coordinates":[-1.72442,53.85865]},"properties":{"name":"Esholt","category":"village","osm_type":"node","osm_id":"29066914"}},{"type":"Feature","geometry":{"type":"Point","coordinates":[-1.76568,53.85262]},"properties":{"name":"Baildon","category":"town","osm_type":"node","osm_id":"29066917"}},{"type":"Feature","geometry":{"type":"Point","coordinates":[-1.98837,53.90198]},"properties":{"name":"Crosshills","category":"village","osm_type":"node","osm_id":"29070564"}},{"type":"Feature","geometry":{"type":"Point","coordinates":[-1.94944,53.89667]},"properties":{"name":"Steeton","category":"village","osm_type":"node","osm_id":"29070572"}},{"type":"Feature","geometry":{"type":"Point","coordinates":[-1.91627,53.85319]},"properties":{"name":"Ingrow","category":"village","osm_type":"node","osm_id":"29071030"}},{"type":"Feature","geometry":{"type":"Point","coordinates":[-1.83845,53.84795]},"properties":{"name":"Bingley","category":"town","osm_type":"node","osm_id":"29071050"}},{"type":"Feature","geometry":{"type":"Point","coordinates":[-1.82268,53.82957]},"properties":{"name":"Cottingley","category":"village","osm_type":"node","osm_id":"29071052"}},{"type":"Feature","geometry":{"type":"Point","coordinates":[-1.34852,53.90392]},"properties":{"name":"Boston Spa","category":"village","osm_type":"node","osm_id":"29105051"}},{"type":"Feature","geometry":{"type":"Point","coordinates":[-1.34251,53.90923]},"properties":{"name":"Thorp Arch","category":"village","osm_type":"node","osm_id":"29105052"}},{"type":"Feature","geometry":{"type":"Point","coordinates":[-1.35359,53.88141]},"properties":{"name":"Bramham","category":"village","osm_type":"node","osm_id":"29105055"}},{"type":"Feature","geometry":{"type":"Point","coordinates":[-1.31473,53.94963]},"properties":{"name":"Bickerton","category":"village","osm_type":"node","osm_id":"29105056"}},{"type":"Feature","geometry":{"type":"Point","coordinates":[-1.2596,53.8853]},"properties":{"name":"Tadcaster","category":"town","osm_type":"node","osm_id":"29105059"}},{"type":"Feature","geometry":{"type":"Point","coordinates":[-1.18407,53.92415]},"properties":{"name":"Askham Richard","category":"village","osm_type":"node","osm_id":"29105068"}},{"type":"Feature","geometry":{"type":"Point","coordinates":[-1.17718,53.89638]},"properties":{"name":"Colton","category":"village","osm_type":"node","osm_id":"29105069"}},{"type":"Feature","geometry":{"type":"Point","coordinates":[-1.10522,53.89994]},"properties":{"name":"Acaster Malbis","category":"village","osm_type":"node","osm_id":"29105070"}},{"type":"Feature","geometry":{"type":"Point","coordinates":[-1.19242,53.86297]},"properties":{"name":"Bolton Percy","category":"village","osm_type":"node","osm_id":"29105071"}},{"type":"Feature","geometry":{"type":"Point","coordinates":[-1.15783,53.87377]},"properties":{"name":"Appleton Roebuck","category":"village","osm_type":"node","osm_id":"29105073"}},{"type":"Feature","geometry":{"type":"Point","coordinates":[-1.23367,53.51192]},"properties":{"name":"High Melton","category":"village","osm_type":"node","osm_id":"29418707"}},{"type":"Feature","geometry":{"type":"Point","coordinates":[-1.27535,53.51749]},"properties":{"name":"Harlington","category":"village","osm_type":"node","osm_id":"29418708"}},{"type":"Feature","geometry":{"type":"Point","coordinates":[-1.29285,53.50976]},"properties":{"name":"Adwick Upon Dearne","category":"village","osm_type":"node","osm_id":"29418709"}},{"type":"Feature","geometry":{"type":"Point","coordinates":[-1.59174,53.97421]},"properties":{"name":"Beckwithshaw","category":"village","osm_type":"node","osm_id":"29543899"}},{"type":"Feature","geometry":{"type":"Point","coordinates":[-1.57577,53.9388]},"properties":{"name":"North Rigton","category":"village","osm_type":"node","osm_id":"29543901","website":"https://www.northrigton.org/"}},{"type":"Feature","geometry":{"type":"Point","coordinates":[-1.92969,53.75058]},"properties":{"name":"Wainstalls","category":"village","osm_type":"node","osm_id":"29549846"}},{"type":"Feature","geometry":{"type":"Point","coordinates":[-1.91834,53.67679]},"properties":{"name":"Barkisland","category":"village","osm_type":"node","osm_id":"29554163"}},{"type":"Feature","geometry":{"type":"Point","coordinates":[-1.95718,53.73407]},"properties":{"name":"Midgley","category":"village","osm_type":"node","osm_id":"29567363"}},{"type":"Feature","geometry":{"type":"Point","coordinates":[-1.9985,53.75019]},"properties":{"name":"Chiserley","category":"village","osm_type":"node","osm_id":"29568187"}},{"type":"Feature","geometry":{"type":"Point","coordinates":[-1.93733,53.73098]},"properties":{"name":"Luddenden","category":"village","osm_type":"node","osm_id":"29620455"}},{"type":"Feature","geometry":{"type":"Point","coordinates":[-1.99837,53.70502]},"properties":{"name":"Cragg Vale","category":"village","osm_type":"node","osm_id":"29620485"}},{"type":"Feature","geometry":{"type":"Point","coordinates":[-1.93244,53.70546]},"properties":{"name":"Sowerby","category":"village","osm_type":"node","osm_id":"29620549"}},{"type":"Feature","geometry":{"type":"Point","coordinates":[-1.02049,53.50169]},"properties":{"name":"Auckley","category":"village","osm_type":"node","osm_id":"29629738"}},{"type":"Feature","geometry":{"type":"Point","coordinates":[-1.03353,53.50948]},"properties":{"name":"Branton","category":"village","osm_type":"node","osm_id":"29629739"}},{"type":"Feature","geometry":{"type":"Point","coordinates":[-1.0599,53.53952]},"properties":{"name":"Armthorpe","category":"village","osm_type":"node","osm_id":"29629741"}},{"type":"Feature","geometry":{"type":"Point","coordinates":[-1.06595,53.55291]},"properties":{"name":"Edenthorpe","category":"village","osm_type":"node","osm_id":"29629742"}},{"type":"Feature","geometry":{"type":"Point","coordinates":[-1.12695,53.55675]},"properties":{"name":"Arksey","category":"village","osm_type":"node","osm_id":"29629743"}},{"type":"Feature","geometry":{"type":"Point","coordinates":[-1.14547,53.54707]},"properties":{"name":"Bentley","category":"village","osm_type":"node","osm_id":"29629744"}},{"type":"Feature","geometry":{"type":"Point","coordinates":[-1.18811,53.51198]},"properties":{"name":"Sprotbrough","category":"village","osm_type":"node","osm_id":"29630144"}},{"type":"Feature","geometry":{"type":"Point","coordinates":[-1.17123,53.53771]},"properties":{"name":"Scawsby","category":"village","osm_type":"node","osm_id":"29630148"}},{"type":"Feature","geometry":{"type":"Point","coordinates":[-1.16836,53.53301]},"properties":{"name":"Cusworth","category":"village","osm_type":"node","osm_id":"29630149"}},{"type":"Feature","geometry":{"type":"Point","coordinates":[-1.27552,53.5423]},"properties":{"name":"Hickleton","category":"village","osm_type":"node","osm_id":"29630150"}},{"type":"Feature","geometry":{"type":"Point","coordinates":[-1.27122,53.52372]},"properties":{"name":"Barnburgh","category":"village","osm_type":"node","osm_id":"29630151"}},{"type":"Feature","geometry":{"type":"Point","coordinates":[-1.30165,53.53441]},"properties":{"name":"Goldthorpe","category":"village","osm_type":"node","osm_id":"29630152"}},{"type":"Feature","geometry":{"type":"Point","coordinates":[-1.34001,53.53788]},"properties":{"name":"Billingley","category":"village","osm_type":"node","osm_id":"29630153"}},{"type":"Feature","geometry":{"type":"Point","coordinates":[-1.3476,53.55246]},"properties":{"name":"Great Houghton","category":"village","osm_type":"node","osm_id":"29630154"}},{"type":"Feature","geometry":{"type":"Point","coordinates":[-1.36123,53.5454]},"properties":{"name":"Little Houghton","category":"village","osm_type":"node","osm_id":"29630155"}},{"type":"Feature","geometry":{"type":"Point","coordinates":[-1.37625,53.5353]},"properties":{"name":"Darfield","category":"village","osm_type":"node","osm_id":"29630156"}},{"type":"Feature","geometry":{"type":"Point","coordinates":[-1.40326,53.52097]},"properties":{"name":"Wombwell","category":"town","osm_type":"node","osm_id":"29630157"}},{"type":"Feature","geometry":{"type":"Point","coordinates":[-1.43808,53.50065]},"properties":{"name":"Hoyland","category":"town","osm_type":"node","osm_id":"29630158"}},{"type":"Feature","geometry":{"type":"Point","coordinates":[-1.40972,53.50772]},"properties":{"name":"Hemingfield","category":"village","osm_type":"node","osm_id":"29630159"}},{"type":"Feature","geometry":{"type":"Point","coordinates":[-1.42447,53.54634]},"properties":{"name":"Ardsley","category":"village","osm_type":"node","osm_id":"29630160"}},{"type":"Feature","geometry":{"type":"Point","coordinates":[-1.45529,53.50665]},"properties":{"name":"Upper Hoyland","category":"village","osm_type":"node","osm_id":"29630164"}},{"type":"Feature","geometry":{"type":"Point","coordinates":[-1.56346,53.54802]},"properties":{"name":"Silkstone","category":"village","osm_type":"node","osm_id":"29796255"}},{"type":"Feature","geometry":{"type":"Point","coordinates":[-1.56471,53.50688]},"properties":{"name":"Thurgoland","category":"village","osm_type":"node","osm_id":"29796256"}},{"type":"Feature","geometry":{"type":"Point","coordinates":[-1.52641,53.54294]},"properties":{"name":"Dodworth","category":"village","osm_type":"node","osm_id":"29796257"}},{"type":"Feature","geometry":{"type":"Point","coordinates":[-1.5704,53.56758]},"properties":{"name":"Cawthorne","category":"village","osm_type":"node","osm_id":"29796259"}},{"type":"Feature","geometry":{"type":"Point","coordinates":[-1.59698,53.51377]},"properties":{"name":"Oxspring","category":"village","osm_type":"node","osm_id":"29796260"}},{"type":"Feature","geometry":{"type":"Point","coordinates":[-1.62943,53.52474]},"properties":{"name":"Penistone","category":"town","osm_type":"node","osm_id":"29796261"}},{"type":"Feature","geometry":{"type":"Point","coordinates":[-1.64813,53.52856]},"properties":{"name":"Thurlstone","category":"village","osm_type":"node","osm_id":"29796262"}},{"type":"Feature","geometry":{"type":"Point","coordinates":[-1.66518,53.54968]},"properties":{"name":"Ingbirchworth","category":"village","osm_type":"node","osm_id":"29796263"}},{"type":"Feature","geometry":{"type":"Point","coordinates":[-1.60702,53.53854]},"properties":{"name":"Hoylandswaine","category":"village","osm_type":"node","osm_id":"29796264"}},{"type":"Feature","geometry":{"type":"Point","coordinates":[-1.6821,53.50042]},"properties":{"name":"Langsett","category":"village","osm_type":"node","osm_id":"29796265"}},{"type":"Feature","geometry":{"type":"Point","coordinates":[-1.75483,53.55772]},"properties":{"name":"Hepworth","category":"village","osm_type":"node","osm_id":"29796266"}},{"type":"Feature","geometry":{"type":"Point","coordinates":[-1.78703,53.57035]},"properties":{"name":"Holmfirth","category":"town","osm_type":"node","osm_id":"29796267"}},{"type":"Feature","geometry":{"type":"Point","coordinates":[-1.9279,53.60077]},"properties":{"name":"Marsden","category":"village","osm_type":"node","osm_id":"29796269"}},{"type":"Feature","geometry":{"type":"Point","coordinates":[-1.87938,53.62358]},"properties":{"name":"Slaithwaite","category":"village","osm_type":"node","osm_id":"29796270"}},{"type":"Feature","geometry":{"type":"Point","coordinates":[-1.82888,53.61331]},"properties":{"name":"South Crosland","category":"village","osm_type":"node","osm_id":"29796272"}},{"type":"Feature","geometry":{"type":"Point","coordinates":[-1.79199,53.60448]},"properties":{"name":"Honley","category":"village","osm_type":"node","osm_id":"29796273"}},{"type":"Feature","geometry":{"type":"Point","coordinates":[-1.79211,53.58419]},"properties":{"name":"Netherthong","category":"village","osm_type":"node","osm_id":"29796274"}},{"type":"Feature","geometry":{"type":"Point","coordinates":[-1.80731,53.57214]},"properties":{"name":"Upperthong","category":"village","osm_type":"node","osm_id":"29796275"}},{"type":"Feature","geometry":{"type":"Point","coordinates":[-1.84831,53.62518]},"properties":{"name":"Linthwaite","category":"village","osm_type":"node","osm_id":"29796276"}},{"type":"Feature","geometry":{"type":"Point","coordinates":[-1.77099,53.57691]},"properties":{"name":"Wooldale","category":"village","osm_type":"node","osm_id":"29796279"}},{"type":"Feature","geometry":{"type":"Point","coordinates":[-1.75099,53.59]},"properties":{"name":"Thurstonland","category":"village","osm_type":"node","osm_id":"29796280"}},{"type":"Feature","geometry":{"type":"Point","coordinates":[-1.73663,53.58145]},"properties":{"name":"Fulstone","category":"village","osm_type":"node","osm_id":"29796281"}},{"type":"Feature","geometry":{"type":"Point","coordinates":[-1.71141,53.58326]},"properties":{"name":"Shepley","category":"village","osm_type":"node","osm_id":"29796282"}},{"type":"Feature","geometry":{"type":"Point","coordinates":[-1.688,53.57492]},"properties":{"name":"Upper Cumberworth","category":"village","osm_type":"node","osm_id":"29796283"}},{"type":"Feature","geometry":{"type":"Point","coordinates":[-1.70176,53.61037]},"properties":{"name":"Kirkburton","category":"village","osm_type":"node","osm_id":"29796284"}},{"type":"Feature","geometry":{"type":"Point","coordinates":[-1.71311,53.61777]},"properties":{"name":"Highburton","category":"village","osm_type":"node","osm_id":"29796286"}},{"type":"Feature","geometry":{"type":"Point","coordinates":[-1.75214,53.61145]},"properties":{"name":"Farnley Tyas","category":"village","osm_type":"node","osm_id":"29796287"}},{"type":"Feature","geometry":{"type":"Point","coordinates":[-1.64923,53.5928]},"properties":{"name":"Skelmanthorpe","category":"village","osm_type":"node","osm_id":"29797156"}},{"type":"Feature","geometry":{"type":"Point","coordinates":[-1.61792,53.59337]},"properties":{"name":"Clayton West","category":"village","osm_type":"node","osm_id":"29797186"}},{"type":"Feature","geometry":{"type":"Point","coordinates":[-1.62925,53.61538]},"properties":{"name":"Emley","category":"village","osm_type":"node","osm_id":"29797187"}},{"type":"Feature","geometry":{"type":"Point","coordinates":[-1.58906,53.58674]},"properties":{"name":"High Hoyland","category":"village","osm_type":"node","osm_id":"29797188"}},{"type":"Feature","geometry":{"type":"Point","coordinates":[-1.54781,53.58165]},"properties":{"name":"Kexbrough","category":"village","osm_type":"node","osm_id":"29797233"}},{"type":"Feature","geometry":{"type":"Point","coordinates":[-1.52937,53.58121]},"properties":{"name":"Darton","category":"village","osm_type":"node","osm_id":"29797234"}},{"type":"Feature","geometry":{"type":"Point","coordinates":[-1.50661,53.58581]},"properties":{"name":"Mapplewell","category":"village","osm_type":"node","osm_id":"29797235"}},{"type":"Feature","geometry":{"type":"Point","coordinates":[-1.51386,53.59204]},"properties":{"name":"Staincross","category":"village","osm_type":"node","osm_id":"29797236"}},{"type":"Feature","geometry":{"type":"Point","coordinates":[-1.47431,53.61381]},"properties":{"name":"Notton","category":"village","osm_type":"node","osm_id":"29797237"}},{"type":"Feature","geometry":{"type":"Point","coordinates":[-1.52848,53.63746]},"properties":{"name":"Painthorpe","category":"village","osm_type":"node","osm_id":"29797238"}},{"type":"Feature","geometry":{"type":"Point","coordinates":[-1.56484,53.61994]},"properties":{"name":"West Bretton","category":"village","osm_type":"node","osm_id":"29797239"}},{"type":"Feature","geometry":{"type":"Point","coordinates":[-1.42258,53.63681]},"properties":{"name":"Wintersett","category":"village","osm_type":"node","osm_id":"29797261"}},{"type":"Feature","geometry":{"type":"Point","coordinates":[-1.44,53.62341]},"properties":{"name":"Cold Hiendley","category":"village","osm_type":"node","osm_id":"29797262"}},{"type":"Feature","geometry":{"type":"Point","coordinates":[-1.40161,53.60856]},"properties":{"name":"South Hiendley","category":"village","osm_type":"node","osm_id":"29797263"}},{"type":"Feature","geometry":{"type":"Point","coordinates":[-1.38312,53.59505]},"properties":{"name":"Brierley","category":"village","osm_type":"node","osm_id":"29797264"}},{"type":"Feature","geometry":{"type":"Point","coordinates":[-1.41033,53.5941]},"properties":{"name":"Shafton","category":"village","osm_type":"node","osm_id":"29797265"}},{"type":"Feature","geometry":{"type":"Point","coordinates":[-1.40366,53.59006]},"properties":{"name":"Shafton Two Gates","category":"village","osm_type":"node","osm_id":"29797266"}},{"type":"Feature","geometry":{"type":"Point","coordinates":[-1.4121,53.58295]},"properties":{"name":"Upper Cudworth","category":"village","osm_type":"node","osm_id":"29797267"}},{"type":"Feature","geometry":{"type":"Point","coordinates":[-1.41768,53.62446]},"properties":{"name":"Ryhill","category":"village","osm_type":"node","osm_id":"29797268"}},{"type":"Feature","geometry":{"type":"Point","coordinates":[-1.40332,53.62375]},"properties":{"name":"Havercroft","category":"village","osm_type":"node","osm_id":"29797269"}},{"type":"Feature","geometry":{"type":"Point","coordinates":[-1.36786,53.62475]},"properties":{"name":"Kinsley","category":"village","osm_type":"node","osm_id":"29797270"}},{"type":"Feature","geometry":{"type":"Point","coordinates":[-1.37915,53.5768]},"properties":{"name":"Grimethorpe","category":"village","osm_type":"node","osm_id":"29797272"}},{"type":"Feature","geometry":{"type":"Point","coordinates":[-1.32497,53.59143]},"properties":{"name":"South Kirkby","category":"village","osm_type":"node","osm_id":"29797315"}},{"type":"Feature","geometry":{"type":"Point","coordinates":[-1.28101,53.59749]},"properties":{"name":"South Elmsall","category":"town","osm_type":"node","osm_id":"29797316"}},{"type":"Feature","geometry":{"type":"Point","coordinates":[-1.2399,53.5882]},"properties":{"name":"Hampole","category":"village","osm_type":"node","osm_id":"29797317"}},{"type":"Feature","geometry":{"type":"Point","coordinates":[-1.28618,53.61372]},"properties":{"name":"Upton","category":"village","osm_type":"node","osm_id":"29797318"}},{"type":"Feature","geometry":{"type":"Point","coordinates":[-1.28239,53.60835]},"properties":{"name":"North Elmsall","category":"village","osm_type":"node","osm_id":"29797319"}},{"type":"Feature","geometry":{"type":"Point","coordinates":[-1.30183,53.62874]},"properties":{"name":"Badsworth","category":"village","osm_type":"node","osm_id":"29797320"}},{"type":"Feature","geometry":{"type":"Point","coordinates":[-1.28284,53.63858]},"properties":{"name":"Thorpe Audlin","category":"village","osm_type":"node","osm_id":"29797321"}},{"type":"Feature","geometry":{"type":"Point","coordinates":[-1.21672,53.64312]},"properties":{"name":"Kirk Smeaton","category":"village","osm_type":"node","osm_id":"29797323"}},{"type":"Feature","geometry":{"type":"Point","coordinates":[-1.21059,53.58852]},"properties":{"name":"Skellow","category":"village","osm_type":"node","osm_id":"29797467"}},{"type":"Feature","geometry":{"type":"Point","coordinates":[-1.18694,53.58254]},"properties":{"name":"Carcroft","category":"village","osm_type":"node","osm_id":"29797468"}},{"type":"Feature","geometry":{"type":"Point","coordinates":[-1.16797,53.60459]},"properties":{"name":"Sutton","category":"village","osm_type":"node","osm_id":"29797470"}},{"type":"Feature","geometry":{"type":"Point","coordinates":[-1.17669,53.63129]},"properties":{"name":"Norton","category":"village","osm_type":"node","osm_id":"29797471"}},{"type":"Feature","geometry":{"type":"Point","coordinates":[-1.18245,53.61825]},"properties":{"name":"Campsall","category":"village","osm_type":"node","osm_id":"29797472"}},{"type":"Feature","geometry":{"type":"Point","coordinates":[-1.15318,53.61679]},"properties":{"name":"Askern","category":"town","osm_type":"node","osm_id":"29797473"}},{"type":"Feature","geometry":{"type":"Point","coordinates":[-1.10336,53.64028]},"properties":{"name":"Fenwick","category":"village","osm_type":"node","osm_id":"29797474"}},{"type":"Feature","geometry":{"type":"Point","coordinates":[-1.10159,53.59119]},"properties":{"name":"Thorpe-in-Balne","category":"village","osm_type":"node","osm_id":"29797475"}},{"type":"Feature","geometry":{"type":"Point","coordinates":[-1.02795,53.59604]},"properties":{"name":"Stainforth","category":"town","osm_type":"node","osm_id":"29797582"}},{"type":"Feature","geometry":{"type":"Point","coordinates":[-1.06552,53.60557]},"properties":{"name":"Braithwaite","category":"village","osm_type":"node","osm_id":"29797583"}},{"type":"Feature","geometry":{"type":"Point","coordinates":[-1.06511,53.5768]},"properties":{"name":"Barnby Dun","category":"village","osm_type":"node","osm_id":"29797584"}},{"type":"Feature","geometry":{"type":"Point","coordinates":[-1.01161,53.61308]},"properties":{"name":"Fishlake","category":"village","osm_type":"node","osm_id":"29797585"}},{"type":"Feature","geometry":{"type":"Point","coordinates":[-1.0652,53.59852]},"properties":{"name":"Kirk Bramwith","category":"village","osm_type":"node","osm_id":"29797586"}},{"type":"Feature","geometry":{"type":"Point","coordinates":[-1.06171,53.59515]},"properties":{"name":"South Bramwith","category":"village","osm_type":"node","osm_id":"29797589"}},{"type":"Feature","geometry":{"type":"Point","coordinates":[-1.09751,53.62099]},"properties":{"name":"Moss","category":"village","osm_type":"node","osm_id":"29797590"}},{"type":"Feature","geometry":{"type":"Point","coordinates":[-1.04905,53.64456]},"properties":{"name":"Sykehouse","category":"village","osm_type":"node","osm_id":"29797591"}},{"type":"Feature","geometry":{"type":"Point","coordinates":[-1.06695,53.66995]},"properties":{"name":"Pollington","category":"village","osm_type":"node","osm_id":"29797592"}},{"type":"Feature","geometry":{"type":"Point","coordinates":[-1.02971,53.69223]},"properties":{"name":"Snaith","category":"town","osm_type":"node","osm_id":"29797593"}},{"type":"Feature","geometry":{"type":"Point","coordinates":[-1.05823,53.69463]},"properties":{"name":"Gowdall","category":"village","osm_type":"node","osm_id":"29797594"}},{"type":"Feature","geometry":{"type":"Point","coordinates":[-1.16925,53.64432]},"properties":{"name":"Walden Stubbs","category":"village","osm_type":"node","osm_id":"29797650"}},{"type":"Feature","geometry":{"type":"Point","coordinates":[-1.20779,53.64472]},"properties":{"name":"Little Smeaton","category":"village","osm_type":"node","osm_id":"29797656"}},{"type":"Feature","geometry":{"type":"Point","coordinates":[-1.15418,53.68978]},"properties":{"name":"Whitley","category":"village","osm_type":"node","osm_id":"29797658"}},{"type":"Feature","geometry":{"type":"Point","coordinates":[-1.15315,53.70471]},"properties":{"name":"Eggborough","category":"village","osm_type":"node","osm_id":"29797661"}},{"type":"Feature","geometry":{"type":"Point","coordinates":[-1.20096,53.66723]},"properties":{"name":"Womersley","category":"village","osm_type":"node","osm_id":"29797674"}},{"type":"Feature","geometry":{"type":"Point","coordinates":[-1.23831,53.70921]},"properties":{"name":"Knottingley","category":"town","osm_type":"node","osm_id":"29803854"}},{"type":"Feature","geometry":{"type":"Point","coordinates":[-1.10416,53.70325]},"properties":{"name":"Hensall","category":"village","osm_type":"node","osm_id":"29803964"}},{"type":"Feature","geometry":{"type":"Point","coordinates":[-1.19203,53.72155]},"properties":{"name":"Beal","category":"village","osm_type":"node","osm_id":"29804006"}},{"type":"Feature","geometry":{"type":"Point","coordinates":[-1.35843,53.69351]},"properties":{"name":"North Featherstone","category":"village","osm_type":"node","osm_id":"29804061"}},{"type":"Feature","geometry":{"type":"Point","coordinates":[-1.37529,53.69195]},"properties":{"name":"Ackton","category":"village","osm_type":"node","osm_id":"29804074"}},{"type":"Feature","geometry":{"type":"Point","coordinates":[-1.34885,53.67203]},"properties":{"name":"Purston Jaglin","category":"village","osm_type":"node","osm_id":"29804104"}},{"type":"Feature","geometry":{"type":"Point","coordinates":[-1.39112,53.68685]},"properties":{"name":"Snydale","category":"village","osm_type":"node","osm_id":"29804110"}},{"type":"Feature","geometry":{"type":"Point","coordinates":[-1.428,53.65532]},"properties":{"name":"Crofton","category":"village","osm_type":"node","osm_id":"29804111"}},{"type":"Feature","geometry":{"type":"Point","coordinates":[-1.41813,53.65189]},"properties":{"name":"New Crofton","category":"village","osm_type":"node","osm_id":"29804112"}},{"type":"Feature","geometry":{"type":"Point","coordinates":[-1.41389,53.66942]},"properties":{"name":"Sharlston Common","category":"village","osm_type":"node","osm_id":"29804126"}},{"type":"Feature","geometry":{"type":"Point","coordinates":[-1.40817,53.66391]},"properties":{"name":"Sharlston","category":"village","osm_type":"node","osm_id":"29804213"}},{"type":"Feature","geometry":{"type":"Point","coordinates":[-1.38029,53.64883]},"properties":{"name":"Wragby","category":"village","osm_type":"node","osm_id":"29804222"}},{"type":"Feature","geometry":{"type":"Point","coordinates":[-1.34021,53.64186]},"properties":{"name":"Ackworth Moor Top","category":"village","osm_type":"node","osm_id":"29804243"}},{"type":"Feature","geometry":{"type":"Point","coordinates":[-1.33515,53.65642]},"properties":{"name":"High Ackworth","category":"village","osm_type":"node","osm_id":"29804274"}},{"type":"Feature","geometry":{"type":"Point","coordinates":[-1.40125,53.65562]},"properties":{"name":"Foulby","category":"village","osm_type":"node","osm_id":"29804287"}},{"type":"Feature","geometry":{"type":"Point","coordinates":[-1.38709,53.64721]},"properties":{"name":"Nostell","category":"village","osm_type":"node","osm_id":"29804305"}},{"type":"Feature","geometry":{"type":"Point","coordinates":[-1.36531,53.74316]},"properties":{"name":"Allerton Bywater","category":"village","osm_type":"node","osm_id":"29804447"}},{"type":"Feature","geometry":{"type":"Point","coordinates":[-1.37016,53.77013]},"properties":{"name":"Kippax","category":"town","osm_type":"node","osm_id":"29804450"}},{"type":"Feature","geometry":{"type":"Point","coordinates":[-1.39156,53.76119]},"properties":{"name":"Great Preston","category":"village","osm_type":"node","osm_id":"29804453"}},{"type":"Feature","geometry":{"type":"Point","coordinates":[-1.41077,53.76922]},"properties":{"name":"Little Preston","category":"village","osm_type":"node","osm_id":"29804454"}},{"type":"Feature","geometry":{"type":"Point","coordinates":[-1.69461,53.67322]},"properties":{"name":"Mirfield","category":"town","osm_type":"node","osm_id":"29814348"}},{"type":"Feature","geometry":{"type":"Point","coordinates":[-1.72594,53.65919]},"properties":{"name":"Kirkheaton","category":"village","osm_type":"node","osm_id":"29814349"}},{"type":"Feature","geometry":{"type":"Point","coordinates":[-1.63639,53.71656]},"properties":{"name":"Batley","category":"town","osm_type":"node","osm_id":"29814351"}},{"type":"Feature","geometry":{"type":"Point","coordinates":[-1.71272,53.72532]},"properties":{"name":"Cleckheaton","category":"town","osm_type":"node","osm_id":"29814352"}},{"type":"Feature","geometry":{"type":"Point","coordinates":[-1.67545,53.70744]},"properties":{"name":"Heckmondwike","category":"town","osm_type":"node","osm_id":"29814353"}},{"type":"Feature","geometry":{"type":"Point","coordinates":[-1.68708,53.73512]},"properties":{"name":"Gomersal","category":"town","osm_type":"node","osm_id":"29814355"}},{"type":"Feature","geometry":{"type":"Point","coordinates":[-1.66025,53.73197]},"properties":{"name":"Birstall","category":"town","osm_type":"node","osm_id":"29814356"}},{"type":"Feature","geometry":{"type":"Point","coordinates":[-1.78009,53.7028]},"properties":{"name":"Brighouse","category":"town","osm_type":"node","osm_id":"29814613"}},{"type":"Feature","geometry":{"type":"Point","coordinates":[-1.83828,53.68562]},"properties":{"name":"Elland","category":"town","osm_type":"node","osm_id":"29814614"}},{"type":"Feature","geometry":{"type":"Point","coordinates":[-1.99356,53.56859]},"properties":{"name":"Diggle","category":"village","osm_type":"node","osm_id":"29905178"}},{"type":"Feature","geometry":{"type":"Point","coordinates":[-1.14241,53.91453]},"properties":{"name":"Copmanthorpe","category":"village","osm_type":"node","osm_id":"29952844"}},{"type":"Feature","geometry":{"type":"Point","coordinates":[-1.41944,53.69912]},"properties":{"name":"Normanton","category":"town","osm_type":"node","osm_id":"30494902"}},{"type":"Feature","geometry":{"type":"Point","coordinates":[-1.34276,53.82977]},"properties":{"name":"Aberford","category":"village","osm_type":"node","osm_id":"30810977"}},{"type":"Feature","geometry":{"type":"Point","coordinates":[-1.91516,53.71993]},"properties":{"name":"Warley Town","category":"village","osm_type":"node","osm_id":"30935708"}},{"type":"Feature","geometry":{"type":"Point","coordinates":[-1.97973,53.72937]},"properties":{"name":"Mytholmroyd","category":"village","osm_type":"node","osm_id":"31152043"}},{"type":"Feature","geometry":{"type":"Point","coordinates":[-1.43817,53.79372]},"properties":{"name":"Colton","category":"village","osm_type":"node","osm_id":"32045943"}},{"type":"Feature","geometry":{"type":"Point","coordinates":[-1.4477,53.9536]},"properties":{"name":"Spofforth","category":"village","osm_type":"node","osm_id":"41815373"}},{"type":"Feature","geometry":{"type":"Point","coordinates":[-1.81221,53.72588]},"properties":{"name":"Hipperholme","category":"village","osm_type":"node","osm_id":"51670050"}},{"type":"Feature","geometry":{"type":"Point","coordinates":[-1.83144,53.73882]},"properties":{"name":"Northowram","category":"village","osm_type":"node","osm_id":"51670061"}},{"type":"Feature","geometry":{"type":"Point","coordinates":[-1.84495,53.76667]},"properties":{"name":"Queensbury","category":"village","osm_type":"node","osm_id":"51670065"}},{"type":"Feature","geometry":{"type":"Point","coordinates":[-1.8159,53.75371]},"properties":{"name":"Shelf","category":"village","osm_type":"node","osm_id":"51670070"}},{"type":"Feature","geometry":{"type":"Point","coordinates":[-1.76573,53.73988]},"properties":{"name":"Wyke","category":"village","osm_type":"node","osm_id":"51670079"}},{"type":"Feature","geometry":{"type":"Point","coordinates":[-1.47999,53.96758]},"properties":{"name":"Follifoot","category":"village","osm_type":"node","osm_id":"53973810"}},{"type":"Feature","geometry":{"type":"Point","coordinates":[-1.77415,53.72339]},"properties":{"name":"Bailiff Bridge","category":"village","osm_type":"node","osm_id":"59005625"}},{"type":"Feature","geometry":{"type":"Point","coordinates":[-1.75828,53.70195]},"properties":{"name":"Clifton","category":"village","osm_type":"node","osm_id":"59005628"}},{"type":"Feature","geometry":{"type":"Point","coordinates":[-1.72116,53.70082]},"properties":{"name":"Hartshead","category":"village","osm_type":"node","osm_id":"59005629"}},{"type":"Feature","geometry":{"type":"Point","coordinates":[-1.74134,53.71892]},"properties":{"name":"Hartshead Moor","category":"village","osm_type":"node","osm_id":"59005630"}},{"type":"Feature","geometry":{"type":"Point","coordinates":[-1.74728,53.72848]},"properties":{"name":"Scholes","category":"village","osm_type":"node","osm_id":"59005631"}},{"type":"Feature","geometry":{"type":"Point","coordinates":[-1.69336,53.75273]},"properties":{"name":"Birkenshaw","category":"village","osm_type":"node","osm_id":"59005633"}},{"type":"Feature","geometry":{"type":"Point","coordinates":[-1.70329,53.69805]},"properties":{"name":"Roberttown","category":"village","osm_type":"node","osm_id":"59005642"}},{"type":"Feature","geometry":{"type":"Point","coordinates":[-1.69426,53.71253]},"properties":{"name":"Liversedge","category":"town","osm_type":"node","osm_id":"59005651"}},{"type":"Feature","geometry":{"type":"Point","coordinates":[-1.68349,53.70043]},"properties":{"name":"Norristhorpe","category":"village","osm_type":"node","osm_id":"59005670"}},{"type":"Feature","geometry":{"type":"Point","coordinates":[-1.83935,53.73279]},"properties":{"name":"Stump Cross","category":"village","osm_type":"node","osm_id":"59005686"}},{"type":"Feature","geometry":{"type":"Point","coordinates":[-1.83114,53.70917]},"properties":{"name":"Southowram","category":"village","osm_type":"node","osm_id":"59005687"}},{"type":"Feature","geometry":{"type":"Point","coordinates":[-1.84006,53.7162]},"properties":{"name":"Bank Top","category":"village","osm_type":"node","osm_id":"59005688"}},{"type":"Feature","geometry":{"type":"Point","coordinates":[-1.87112,53.70003]},"properties":{"name":"Copley","category":"village","osm_type":"node","osm_id":"59005692"}},{"type":"Feature","geometry":{"type":"Point","coordinates":[-1.91935,53.74092]},"properties":{"name":"Mount Tabor","category":"village","osm_type":"node","osm_id":"59046499"}},{"type":"Feature","geometry":{"type":"Point","coordinates":[-1.90192,53.69956]},"properties":{"name":"Norland","category":"village","osm_type":"node","osm_id":"59046523"}},{"type":"Feature","geometry":{"type":"Point","coordinates":[-1.87145,53.6878]},"properties":{"name":"Greetland","category":"village","osm_type":"node","osm_id":"59046529"}},{"type":"Feature","geometry":{"type":"Point","coordinates":[-1.86673,53.67531]},"properties":{"name":"Holywell Green","category":"village","osm_type":"node","osm_id":"59046534"}},{"type":"Feature","geometry":{"type":"Point","coordinates":[-1.89516,53.80174]},"properties":{"name":"Denholme","category":"village","osm_type":"node","osm_id":"59397126"}},{"type":"Feature","geometry":{"type":"Point","coordinates":[-1.95151,53.81095]},"properties":{"name":"Oxenhope","category":"village","osm_type":"node","osm_id":"59397127"}},{"type":"Feature","geometry":{"type":"Point","coordinates":[-1.94817,53.84587]},"properties":{"name":"Oakworth","category":"village","osm_type":"node","osm_id":"59397131"}},{"type":"Feature","geometry":{"type":"Point","coordinates":[-1.9873,53.83011]},"properties":{"name":"Stanbury","category":"village","osm_type":"node","osm_id":"59397137"}},{"type":"Feature","geometry":{"type":"Point","coordinates":[-1.99223,53.89175]},"properties":{"name":"Sutton","category":"village","osm_type":"node","osm_id":"59625742"}},{"type":"Feature","geometry":{"type":"Point","coordinates":[-1.96807,53.8956]},"properties":{"name":"Eastburn","category":"village","osm_type":"node","osm_id":"59625744"}},{"type":"Feature","geometry":{"type":"Point","coordinates":[-1.99558,53.93268]},"properties":{"name":"Low Bradley","category":"village","osm_type":"node","osm_id":"59625748"}},{"type":"Feature","geometry":{"type":"Point","coordinates":[-1.04108,53.87932]},"properties":{"name":"Escrick","category":"village","osm_type":"node","osm_id":"60884397"}},{"type":"Feature","geometry":{"type":"Point","coordinates":[-1.05906,53.83353]},"properties":{"name":"Riccall","category":"village","osm_type":"node","osm_id":"60884530"}},{"type":"Feature","geometry":{"type":"Point","coordinates":[-1.01812,53.72651]},"properties":{"name":"Camblesforth","category":"village","osm_type":"node","osm_id":"65249466"}},{"type":"Feature","geometry":{"type":"Point","coordinates":[-1.01804,53.68666]},"properties":{"name":"West Cowick","category":"village","osm_type":"node","osm_id":"76674298"}},{"type":"Feature","geometry":{"type":"Point","coordinates":[-1.04663,53.94439]},"properties":{"name":"Heslington","category":"village","osm_type":"node","osm_id":"82589134"}},{"type":"Feature","geometry":{"type":"Point","coordinates":[-1.09012,53.76755]},"properties":{"name":"Brayton","category":"village","osm_type":"node","osm_id":"82684587"}},{"type":"Feature","geometry":{"type":"Point","coordinates":[-1.39252,53.79048]},"properties":{"name":"Garforth","category":"town","osm_type":"node","osm_id":"82751265"}},{"type":"Feature","geometry":{"type":"Point","coordinates":[-1.2556,53.81976]},"properties":{"name":"Barkston Ash","category":"village","osm_type":"node","osm_id":"82751609"}},{"type":"Feature","geometry":{"type":"Point","coordinates":[-1.16572,53.77037]},"properties":{"name":"Hambleton","category":"village","osm_type":"node","osm_id":"86043761"}},{"type":"Feature","geometry":{"type":"Point","coordinates":[-1.39355,53.83031]},"properties":{"name":"Barwick in Elmet","category":"village","osm_type":"node","osm_id":"88889969"}},{"type":"Feature","geometry":{"type":"Point","coordinates":[-1.1259,53.77378]},"properties":{"name":"Thorpe Willoughby","category":"village","osm_type":"node","osm_id":"89105919"}},{"type":"Feature","geometry":{"type":"Point","coordinates":[-1.04106,53.79846]},"properties":{"name":"Barlby","category":"village","osm_type":"node","osm_id":"93004325"}},{"type":"Feature","geometry":{"type":"Point","coordinates":[-1.13146,53.99936]},"properties":{"name":"Skelton","category":"village","osm_type":"node","osm_id":"97877922"}},{"type":"Feature","geometry":{"type":"Point","coordinates":[-1.09603,53.92253]},"properties":{"name":"Bishopthorpe","category":"village","osm_type":"node","osm_id":"148057619"}},{"type":"Feature","geometry":{"type":"Point","coordinates":[-1.03325,53.95825]},"properties":{"name":"Osbaldwick","category":"village","osm_type":"node","osm_id":"148067574"}},{"type":"Feature","geometry":{"type":"Point","coordinates":[-1.77714,53.58391]},"properties":{"name":"Thongsbridge","category":"village","osm_type":"node","osm_id":"185994367"}},{"type":"Feature","geometry":{"type":"Point","coordinates":[-1.81812,53.55709]},"properties":{"name":"Holmbridge","category":"village","osm_type":"node","osm_id":"201832029"}},{"type":"Feature","geometry":{"type":"Point","coordinates":[-1.83886,53.55003]},"properties":{"name":"Holme","category":"village","osm_type":"node","osm_id":"201832032"}},{"type":"Feature","geometry":{"type":"Point","coordinates":[-1.93557,53.69671]},"properties":{"name":"Triangle","category":"village","osm_type":"node","osm_id":"230230265"}},{"type":"Feature","geometry":{"type":"Point","coordinates":[-1.23243,53.76157]},"properties":{"name":"Monk Fryston","category":"village","osm_type":"node","osm_id":"239929878"}},{"type":"Feature","geometry":{"type":"Point","coordinates":[-1.29294,53.99399]},"properties":{"name":"Kirk Hammerton","category":"village","osm_type":"node","osm_id":"245482232"}},{"type":"Feature","geometry":{"type":"Point","coordinates":[-1.3164,53.98225]},"properties":{"name":"Cattal","category":"village","osm_type":"node","osm_id":"245482235"}},{"type":"Feature","geometry":{"type":"Point","coordinates":[-1.20425,53.97369]},"properties":{"name":"Hessay","category":"village","osm_type":"node","osm_id":"245482244"}},{"type":"Feature","geometry":{"type":"Point","coordinates":[-1.28904,53.96545]},"properties":{"name":"Tockwith","category":"village","osm_type":"node","osm_id":"245482246"}},{"type":"Feature","geometry":{"type":"Point","coordinates":[-1.85492,53.68705]},"properties":{"name":"West Vale","category":"village","osm_type":"node","osm_id":"245487844"}},{"type":"Feature","geometry":{"type":"Point","coordinates":[-1.15369,53.97987]},"properties":{"name":"Upper Poppleton","category":"village","osm_type":"node","osm_id":"247289413"}},{"type":"Feature","geometry":{"type":"Point","coordinates":[-1.14476,53.98613]},"properties":{"name":"Nether Poppleton","category":"village","osm_type":"node","osm_id":"247289414"}},{"type":"Feature","geometry":{"type":"Point","coordinates":[-1.53999,53.50915]},"properties":{"name":"Crane Moor","category":"village","osm_type":"node","osm_id":"247489377"}},{"type":"Feature","geometry":{"type":"Point","coordinates":[-1.53043,53.52233]},"properties":{"name":"Hood Green","category":"village","osm_type":"node","osm_id":"247489390"}},{"type":"Feature","geometry":{"type":"Point","coordinates":[-1.15413,53.56616]},"properties":{"name":"Toll Bar","category":"village","osm_type":"node","osm_id":"248231177"}},{"type":"Feature","geometry":{"type":"Point","coordinates":[-1.01147,53.96656]},"properties":{"name":"Murton","category":"village","osm_type":"node","osm_id":"248909648"}},{"type":"Feature","geometry":{"type":"Point","coordinates":[-1.00523,53.57456]},"properties":{"name":"Hatfield","category":"town","osm_type":"node","osm_id":"248948454"}},{"type":"Feature","geometry":{"type":"Point","coordinates":[-1.75553,53.57507]},"properties":{"name":"New Mill","category":"village","osm_type":"node","osm_id":"250063453"}},{"type":"Feature","geometry":{"type":"Point","coordinates":[-1.76111,53.56458]},"properties":{"name":"Scholes","category":"village","osm_type":"node","osm_id":"250064887"}},{"type":"Feature","geometry":{"type":"Point","coordinates":[-1.47582,53.85435]},"properties":{"name":"Shadwell","category":"village","osm_type":"node","osm_id":"250575270"}},{"type":"Feature","geometry":{"type":"Point","coordinates":[-1.66977,53.81439]},"properties":{"name":"Farsley","category":"town","osm_type":"node","osm_id":"250732886"}},{"type":"Feature","geometry":{"type":"Point","coordinates":[-1.05911,53.99882]},"properties":{"name":"Huntington","category":"village","osm_type":"node","osm_id":"258520589"}},{"type":"Feature","geometry":{"type":"Point","coordinates":[-1.07451,53.9919]},"properties":{"name":"New Earswick","category":"village","osm_type":"node","osm_id":"258520590"}},{"type":"Feature","geometry":{"type":"Point","coordinates":[-1.65888,53.57119]},"properties":{"name":"Denby Dale","category":"village","osm_type":"node","osm_id":"259330725"}},{"type":"Feature","geometry":{"type":"Point","coordinates":[-1.66811,53.52514]},"properties":{"name":"Millhouse Green","category":"village","osm_type":"node","osm_id":"259336125"}},{"type":"Feature","geometry":{"type":"Point","coordinates":[-1.52185,53.65083]},"properties":{"name":"Durkar","category":"village","osm_type":"node","osm_id":"263323602"}},{"type":"Feature","geometry":{"type":"Point","coordinates":[-1.52696,53.64234]},"properties":{"name":"Crigglestone","category":"village","osm_type":"node","osm_id":"265594950"}},{"type":"Feature","geometry":{"type":"Point","coordinates":[-1.51686,53.63803]},"properties":{"name":"Chapelthorpe","category":"village","osm_type":"node","osm_id":"265594989"}},{"type":"Feature","geometry":{"type":"Point","coordinates":[-1.504,53.64375]},"properties":{"name":"Kettlethorpe","category":"village","osm_type":"node","osm_id":"265595000"}},{"type":"Feature","geometry":{"type":"Point","coordinates":[-1.90046,53.82496]},"properties":{"name":"Cullingworth","category":"village","osm_type":"node","osm_id":"265814252"}},{"type":"Feature","geometry":{"type":"Point","coordinates":[-1.52116,53.6335]},"properties":{"name":"Hall Green","category":"village","osm_type":"node","osm_id":"266214641"}},{"type":"Feature","geometry":{"type":"Point","coordinates":[-1.52665,53.63303]},"properties":{"name":"Hollingthorpe","category":"village","osm_type":"node","osm_id":"266214642"}},{"type":"Feature","geometry":{"type":"Point","coordinates":[-1.5041,53.63548]},"properties":{"name":"Newmillerdam","category":"village","osm_type":"node","osm_id":"266577018"}},{"type":"Feature","geometry":{"type":"Point","coordinates":[-1.44771,53.68512]},"properties":{"name":"Kirkthorpe","category":"village","osm_type":"node","osm_id":"267718711"}},{"type":"Feature","geometry":{"type":"Point","coordinates":[-1.43179,53.68268]},"properties":{"name":"Warmfield","category":"village","osm_type":"node","osm_id":"267719383"}},{"type":"Feature","geometry":{"type":"Point","coordinates":[-1.66445,53.64116]},"properties":{"name":"Grange Moor","category":"village","osm_type":"node","osm_id":"267867621"}},{"type":"Feature","geometry":{"type":"Point","coordinates":[-1.66034,53.61835]},"properties":{"name":"Emley Moor","category":"village","osm_type":"node","osm_id":"267872080"}},{"type":"Feature","geometry":{"type":"Point","coordinates":[-1.39156,53.94847]},"properties":{"name":"Kirk Deighton","category":"village","osm_type":"node","osm_id":"268044486"}},{"type":"Feature","geometry":{"type":"Point","coordinates":[-1.53565,53.95987]},"properties":{"name":"Pannal","category":"village","osm_type":"node","osm_id":"268049216"}},{"type":"Feature","geometry":{"type":"Point","coordinates":[-1.06911,53.56103]},"properties":{"name":"Kirk Sandall","category":"village","osm_type":"node","osm_id":"268429112"}},{"type":"Feature","geometry":{"type":"Point","coordinates":[-1.4643,53.64946]},"properties":{"name":"Walton","category":"village","osm_type":"node","osm_id":"269002355"}},{"type":"Feature","geometry":{"type":"Point","coordinates":[-1.5603,53.53541]},"properties":{"name":"Silkstone Common","category":"village","osm_type":"node","osm_id":"269401026"}},{"type":"Feature","geometry":{"type":"Point","coordinates":[-1.85594,53.63998]},"properties":{"name":"Golcar","category":"village","osm_type":"node","osm_id":"274842196"}},{"type":"Feature","geometry":{"type":"Point","coordinates":[-1.37614,53.63335]},"properties":{"name":"Fitzwilliam","category":"village","osm_type":"node","osm_id":"278769533"}},{"type":"Feature","geometry":{"type":"Point","coordinates":[-1.58639,53.6923]},"properties":{"name":"Gawthorpe","category":"village","osm_type":"node","osm_id":"291450983"}},{"type":"Feature","geometry":{"type":"Point","coordinates":[-1.54057,53.72159]},"properties":{"name":"East Ardsley","category":"village","osm_type":"node","osm_id":"292471410"}},{"type":"Feature","geometry":{"type":"Point","coordinates":[-1.57345,53.72817]},"properties":{"name":"Tingley","category":"village","osm_type":"node","osm_id":"292471413"}},{"type":"Feature","geometry":{"type":"Point","coordinates":[-1.52633,53.73333]},"properties":{"name":"Thorpe-on-the-Hill","category":"village","osm_type":"node","osm_id":"299400628"}},{"type":"Feature","geometry":{"type":"Point","coordinates":[-1.50862,53.74122]},"properties":{"name":"Robin Hood","category":"village","osm_type":"node","osm_id":"299404059"}},{"type":"Feature","geometry":{"type":"Point","coordinates":[-1.62588,53.58767]},"properties":{"name":"Scissett","category":"village","osm_type":"node","osm_id":"300613917"}},{"type":"Feature","geometry":{"type":"Point","coordinates":[-1.66159,53.75676]},"properties":{"name":"Drighlington","category":"village","osm_type":"node","osm_id":"302043761"}},{"type":"Feature","geometry":{"type":"Point","coordinates":[-1.59027,53.72156]},"properties":{"name":"Woodkirk","category":"village","osm_type":"node","osm_id":"302325704"}},{"type":"Feature","geometry":{"type":"Point","coordinates":[-1.88,53.67269]},"properties":{"name":"Stainland","category":"village","osm_type":"node","osm_id":"305635370"}},{"type":"Feature","geometry":{"type":"Point","coordinates":[-1.88137,53.6619]},"properties":{"name":"Sowood","category":"village","osm_type":"node","osm_id":"305635786"}},{"type":"Feature","geometry":{"type":"Point","coordinates":[-1.8734,53.65701]},"properties":{"name":"Outlane","category":"village","osm_type":"node","osm_id":"306018519"}},{"type":"Feature","geometry":{"type":"Point","coordinates":[-1.10529,53.66438]},"properties":{"name":"Balne","category":"village","osm_type":"node","osm_id":"311864537"}},{"type":"Feature","geometry":{"type":"Point","coordinates":[-1.19479,53.60047]},"properties":{"name":"Burghwallis","category":"village","osm_type":"node","osm_id":"316945240"}},{"type":"Feature","geometry":{"type":"Point","coordinates":[-1.27134,53.72818]},"properties":{"name":"Brotherton","category":"village","osm_type":"node","osm_id":"321755999"}},{"type":"Feature","geometry":{"type":"Point","coordinates":[-1.28475,53.74413]},"properties":{"name":"Fairburn","category":"village","osm_type":"node","osm_id":"321759303"}},{"type":"Feature","geometry":{"type":"Point","coordinates":[-1.25688,53.74056]},"properties":{"name":"Burton Salmon","category":"village","osm_type":"node","osm_id":"321760048"}},{"type":"Feature","geometry":{"type":"Point","coordinates":[-1.23057,53.7535]},"properties":{"name":"Hillam","category":"village","osm_type":"node","osm_id":"321760871"}},{"type":"Feature","geometry":{"type":"Point","coordinates":[-1.84592,53.54713]},"properties":{"name":"Lane","category":"village","osm_type":"node","osm_id":"322031481"}},{"type":"Feature","geometry":{"type":"Point","coordinates":[-1.8655,53.64429]},"properties":{"name":"Scapegoat Hill","category":"village","osm_type":"node","osm_id":"322549139"}},{"type":"Feature","geometry":{"type":"Point","coordinates":[-1.85362,53.65975]},"properties":{"name":"Mount","category":"village","osm_type":"node","osm_id":"322549387"}},{"type":"Feature","geometry":{"type":"Point","coordinates":[-1.26791,53.67439]},"properties":{"name":"Darrington","category":"village","osm_type":"node","osm_id":"322578654"}},{"type":"Feature","geometry":{"type":"Point","coordinates":[-1.10022,53.75042]},"properties":{"name":"Burn","category":"village","osm_type":"node","osm_id":"326181075"}},{"type":"Feature","geometry":{"type":"Point","coordinates":[-1.02189,53.7085]},"properties":{"name":"Carlton","category":"village","osm_type":"node","osm_id":"329442910"}},{"type":"Feature","geometry":{"type":"Point","coordinates":[-1.79067,53.83711]},"properties":{"name":"Saltaire","category":"village","osm_type":"node","osm_id":"333427419"}},{"type":"Feature","geometry":{"type":"Point","coordinates":[-1.78084,53.54615]},"properties":{"name":"Hade Edge","category":"village","osm_type":"node","osm_id":"335708760"}},{"type":"Feature","geometry":{"type":"Point","coordinates":[-1.723,53.59491]},"properties":{"name":"Stocksmoor","category":"village","osm_type":"node","osm_id":"339131288"}},{"type":"Feature","geometry":{"type":"Point","coordinates":[-1.45082,53.58722]},"properties":{"name":"Carlton","category":"village","osm_type":"node","osm_id":"340146558"}},{"type":"Feature","geometry":{"type":"Point","coordinates":[-1.4285,53.50628]},"properties":{"name":"Jump","category":"village","osm_type":"node","osm_id":"340146628"}},{"type":"Feature","geometry":{"type":"Point","coordinates":[-1.74588,53.63174]},"properties":{"name":"Almondbury","category":"village","osm_type":"node","osm_id":"343381468"}},{"type":"Feature","geometry":{"type":"Point","coordinates":[-1.40313,53.73028]},"properties":{"name":"Methley Junction","category":"village","osm_type":"node","osm_id":"346862487"}},{"type":"Feature","geometry":{"type":"Point","coordinates":[-1.38476,53.73945]},"properties":{"name":"Lower Mickletown","category":"village","osm_type":"node","osm_id":"346862841"}},{"type":"Feature","geometry":{"type":"Point","coordinates":[-1.38077,53.71469]},"properties":{"name":"Whitwood","category":"village","osm_type":"node","osm_id":"346864433"}},{"type":"Feature","geometry":{"type":"Point","coordinates":[-1.30946,53.76181]},"properties":{"name":"Ledsham","category":"village","osm_type":"node","osm_id":"348107602"}},{"type":"Feature","geometry":{"type":"Point","coordinates":[-1.43522,53.79826]},"properties":{"name":"Austhorpe","category":"village","osm_type":"node","osm_id":"353849429"}},{"type":"Feature","geometry":{"type":"Point","coordinates":[-1.496,53.50071]},"properties":{"name":"Pilley","category":"village","osm_type":"node","osm_id":"356991152"}},{"type":"Feature","geometry":{"type":"Point","coordinates":[-1.85402,53.79078]},"properties":{"name":"Thornton","category":"village","osm_type":"node","osm_id":"359063295"}},{"type":"Feature","geometry":{"type":"Point","coordinates":[-1.58268,53.6431]},"properties":{"name":"Netherton","category":"village","osm_type":"node","osm_id":"367713342"}},{"type":"Feature","geometry":{"type":"Point","coordinates":[-1.05551,53.51337]},"properties":{"name":"Old Cantley","category":"village","osm_type":"node","osm_id":"367849859"}},{"type":"Feature","geometry":{"type":"Point","coordinates":[-1.63651,53.63088]},"properties":{"name":"Flockton","category":"village","osm_type":"node","osm_id":"368714719"}},{"type":"Feature","geometry":{"type":"Point","coordinates":[-1.57615,53.65726]},"properties":{"name":"Horbury Bridge","category":"village","osm_type":"node","osm_id":"370396719"}},{"type":"Feature","geometry":{"type":"Point","coordinates":[-1.82376,53.66176]},"properties":{"name":"Lindley","category":"village","osm_type":"node","osm_id":"392452547"}},{"type":"Feature","geometry":{"type":"Point","coordinates":[-1.42767,53.85674]},"properties":{"name":"Thorner","category":"village","osm_type":"node","osm_id":"411712840"}},{"type":"Feature","geometry":{"type":"Point","coordinates":[-1.61064,53.64627]},"properties":{"name":"Overton","category":"village","osm_type":"node","osm_id":"417760801"}},{"type":"Feature","geometry":{"type":"Point","coordinates":[-1.59775,53.65091]},"properties":{"name":"Middlestown","category":"village","osm_type":"node","osm_id":"417760925"}},{"type":"Feature","geometry":{"type":"Point","coordinates":[-1.34284,53.75281]},"properties":{"name":"Ledston","category":"village","osm_type":"node","osm_id":"426695500"}},{"type":"Feature","geometry":{"type":"Point","coordinates":[-1.97338,53.98613]},"properties":{"name":"Eastby","category":"village","osm_type":"node","osm_id":"429721998"}},{"type":"Feature","geometry":{"type":"Point","coordinates":[-1.86093,53.82169]},"properties":{"name":"Wilsden","category":"village","osm_type":"node","osm_id":"432854807"}},{"type":"Feature","geometry":{"type":"Point","coordinates":[-1.4013,53.67767]},"properties":{"name":"Streethouse","category":"village","osm_type":"node","osm_id":"443776347"}},{"type":"Feature","geometry":{"type":"Point","coordinates":[-1.73087,53.71326]},"properties":{"name":"Windy Bank","category":"village","osm_type":"node","osm_id":"443972604"}},{"type":"Feature","geometry":{"type":"Point","coordinates":[-1.72615,53.7158]},"properties":{"name":"Hightown","category":"village","osm_type":"node","osm_id":"443973032"}},{"type":"Feature","geometry":{"type":"Point","coordinates":[-1.84017,53.65723]},"properties":{"name":"Salendine Nook","category":"village","osm_type":"node","osm_id":"454509889"}},{"type":"Feature","geometry":{"type":"Point","coordinates":[-1.42335,53.67486]},"properties":{"name":"New Sharlston","category":"village","osm_type":"node","osm_id":"459046445"}},{"type":"Feature","geometry":{"type":"Point","coordinates":[-1.2633,53.76778]},"properties":{"name":"Lumby","category":"village","osm_type":"node","osm_id":"474709576"}},{"type":"Feature","geometry":{"type":"Point","coordinates":[-1.66491,53.78398]},"properties":{"name":"Fulneck Moravian Settlement","category":"village","osm_type":"node","osm_id":"494468039"}},{"type":"Feature","geometry":{"type":"Point","coordinates":[-1.80156,53.62034]},"properties":{"name":"Armitage Bridge","category":"village","osm_type":"node","osm_id":"496431890"}},{"type":"Feature","geometry":{"type":"Point","coordinates":[-1.35172,53.72623]},"properties":{"name":"Castleford","category":"town","osm_type":"node","osm_id":"528870828"}},{"type":"Feature","geometry":{"type":"Point","coordinates":[-1.62709,53.93717]},"properties":{"name":"Braythorn","category":"village","osm_type":"node","osm_id":"533917276"}},{"type":"Feature","geometry":{"type":"Point","coordinates":[-1.65889,53.5607]},"properties":{"name":"Upper Denby","category":"village","osm_type":"node","osm_id":"536481791"}},{"type":"Feature","geometry":{"type":"Point","coordinates":[-1.19726,53.9573]},"properties":{"name":"Rufforth","category":"village","osm_type":"node","osm_id":"537535834"}},{"type":"Feature","geometry":{"type":"Point","coordinates":[-1.16514,53.71676]},"properties":{"name":"Kellington","category":"village","osm_type":"node","osm_id":"560471585"}},{"type":"Feature","geometry":{"type":"Point","coordinates":[-1.21429,53.68548]},"properties":{"name":"Cridling Stubbs","category":"village","osm_type":"node","osm_id":"573434345"}},{"type":"Feature","geometry":{"type":"Point","coordinates":[-1.48089,53.50792]},"properties":{"name":"Birdwell","category":"village","osm_type":"node","osm_id":"597396637"}},{"type":"Feature","geometry":{"type":"Point","coordinates":[-1.44604,53.51459]},"properties":{"name":"Blacker Hill","category":"village","osm_type":"node","osm_id":"597405924"}},{"type":"Feature","geometry":{"type":"Point","coordinates":[-1.63299,53.51559]},"properties":{"name":"Cubley","category":"village","osm_type":"node","osm_id":"604055955"}},{"type":"Feature","geometry":{"type":"Point","coordinates":[-1.20044,53.71191]},"properties":{"name":"Kellingley","category":"village","osm_type":"node","osm_id":"616836413"}},{"type":"Feature","geometry":{"type":"Point","coordinates":[-1.26817,53.56805]},"properties":{"name":"Hooton Pagnell","category":"village","osm_type":"node","osm_id":"627792767"}},{"type":"Feature","geometry":{"type":"Point","coordinates":[-1.3648,53.50361]},"properties":{"name":"West Melton","category":"village","osm_type":"node","osm_id":"644711733"}},{"type":"Feature","geometry":{"type":"Point","coordinates":[-1.2403,53.56038]},"properties":{"name":"Brodsworth","category":"village","osm_type":"node","osm_id":"679543532"}},{"type":"Feature","geometry":{"type":"Point","coordinates":[-1.16084,53.92921]},"properties":{"name":"Askham Bryan","category":"village","osm_type":"node","osm_id":"685062004"}},{"type":"Feature","geometry":{"type":"Point","coordinates":[-1.87139,53.84165]},"properties":{"name":"Harden","category":"village","osm_type":"node","osm_id":"700319873"}},{"type":"Feature","geometry":{"type":"Point","coordinates":[-1.19771,53.56369]},"properties":{"name":"Woodlands","category":"village","osm_type":"node","osm_id":"713934178"}},{"type":"Feature","geometry":{"type":"Point","coordinates":[-1.18548,53.55532]},"properties":{"name":"Highfields","category":"village","osm_type":"node","osm_id":"714086777"}},{"type":"Feature","geometry":{"type":"Point","coordinates":[-1.37605,53.5092]},"properties":{"name":"Brampton","category":"village","osm_type":"node","osm_id":"738921497"}},{"type":"Feature","geometry":{"type":"Point","coordinates":[-1.35827,53.67769]},"properties":{"name":"Featherstone","category":"town","osm_type":"node","osm_id":"764706196"}},{"type":"Feature","geometry":{"type":"Point","coordinates":[-1.26063,53.72368]},"properties":{"name":"Byram","category":"village","osm_type":"node","osm_id":"778187756"}},{"type":"Feature","geometry":{"type":"Point","coordinates":[-1.31671,53.56497]},"properties":{"name":"Clayton","category":"village","osm_type":"node","osm_id":"786404106"}},{"type":"Feature","geometry":{"type":"Point","coordinates":[-1.45321,53.89537]},"properties":{"name":"East Keswick","category":"village","osm_type":"node","osm_id":"798164376"}},{"type":"Feature","geometry":{"type":"Point","coordinates":[-1.30242,53.66071]},"properties":{"name":"East Hardwick","category":"village","osm_type":"node","osm_id":"861442006"}},{"type":"Feature","geometry":{"type":"Point","coordinates":[-1.32271,53.65085]},"properties":{"name":"Low Ackworth","category":"village","osm_type":"node","osm_id":"881060469"}},{"type":"Feature","geometry":{"type":"Point","coordinates":[-1.82628,53.64071]},"properties":{"name":"Milnsbridge","category":"village","osm_type":"node","osm_id":"889989068"}},{"type":"Feature","geometry":{"type":"Point","coordinates":[-1.81428,53.61428]},"properties":{"name":"Netherton","category":"village","osm_type":"node","osm_id":"889993563"}},{"type":"Feature","geometry":{"type":"Point","coordinates":[-1.75671,53.56948]},"properties":{"name":"Wildspur","category":"village","osm_type":"node","osm_id":"891840443"}},{"type":"Feature","geometry":{"type":"Point","coordinates":[-1.66563,53.58102]},"properties":{"name":"Lower Cumberworth","category":"village","osm_type":"node","osm_id":"893216044"}},{"type":"Feature","geometry":{"type":"Point","coordinates":[-1.82695,53.67192]},"properties":{"name":"Ainley Top","category":"village","osm_type":"node","osm_id":"924626795"}},{"type":"Feature","geometry":{"type":"Point","coordinates":[-1.43285,53.89588]},"properties":{"name":"Rigton Hill","category":"village","osm_type":"node","osm_id":"935560982"}},{"type":"Feature","geometry":{"type":"Point","coordinates":[-1.43728,53.89021]},"properties":{"name":"East Rigton","category":"village","osm_type":"node","osm_id":"935615110"}},{"type":"Feature","geometry":{"type":"Point","coordinates":[-1.77417,53.59654]},"properties":{"name":"Brockholes","category":"village","osm_type":"node","osm_id":"956449978"}},{"type":"Feature","geometry":{"type":"Point","coordinates":[-1.42765,53.82607]},"properties":{"name":"Scholes","category":"village","osm_type":"node","osm_id":"982336559"}},{"type":"Feature","geometry":{"type":"Point","coordinates":[-1.62071,53.93213]},"properties":{"name":"Stainburn","category":"village","osm_type":"node","osm_id":"1123403874"}},{"type":"Feature","geometry":{"type":"Point","coordinates":[-1.73339,53.52606]},"properties":{"name":"Carlecotes","category":"village","osm_type":"node","osm_id":"1216662155"}},{"type":"Feature","geometry":{"type":"Point","coordinates":[-1.53457,53.6468]},"properties":{"name":"Calder Grove","category":"village","osm_type":"node","osm_id":"1228444702"}},{"type":"Feature","geometry":{"type":"Point","coordinates":[-1.54048,53.63889]},"properties":{"name":"Great Cliff","category":"village","osm_type":"node","osm_id":"1231092620"}},{"type":"Feature","geometry":{"type":"Point","coordinates":[-1.7059,53.66428]},"properties":{"name":"Upper Hopton","category":"village","osm_type":"node","osm_id":"1233757464"}},{"type":"Feature","geometry":{"type":"Point","coordinates":[-1.69608,53.6694]},"properties":{"name":"Lower Hopton","category":"village","osm_type":"node","osm_id":"1233759981"}},{"type":"Feature","geometry":{"type":"Point","coordinates":[-1.74382,53.74794]},"properties":{"name":"Oakenshaw","category":"village","osm_type":"node","osm_id":"1335012733"}},{"type":"Feature","geometry":{"type":"Point","coordinates":[-1.26347,53.84983]},"properties":{"name":"Towton","category":"village","osm_type":"node","osm_id":"1506611358"}},{"type":"Feature","geometry":{"type":"Point","coordinates":[-1.74432,53.99503]},"properties":{"name":"Blubberhouses","category":"village","osm_type":"node","osm_id":"1507575009"}},{"type":"Feature","geometry":{"type":"Point","coordinates":[-1.27701,53.82548]},"properties":{"name":"Saxton","category":"village","osm_type":"node","osm_id":"1572753797"}},{"type":"Feature","geometry":{"type":"Point","coordinates":[-1.09004,53.9027]},"properties":{"name":"Naburn","category":"village","osm_type":"node","osm_id":"1610742299"}},{"type":"Feature","geometry":{"type":"Point","coordinates":[-1.21126,53.85414]},"properties":{"name":"Ulleskelf","category":"village","osm_type":"node","osm_id":"1610779360"}},{"type":"Feature","geometry":{"type":"Point","coordinates":[-1.32837,53.79314]},"properties":{"name":"Micklefield","category":"village","osm_type":"node","osm_id":"1611971774"}},{"type":"Feature","geometry":{"type":"Point","coordinates":[-1.75306,53.82915]},"properties":{"name":"Wrose","category":"village","osm_type":"node","osm_id":"1616881462"}},{"type":"Feature","geometry":{"type":"Point","coordinates":[-1.20899,53.80953]},"properties":{"name":"Little Fenton","category":"village","osm_type":"node","osm_id":"1625452839"}},{"type":"Feature","geometry":{"type":"Point","coordinates":[-1.31465,53.73367]},"properties":{"name":"Wheldon","category":"village","osm_type":"node","osm_id":"1628454279"}},{"type":"Feature","geometry":{"type":"Point","coordinates":[-1.31332,53.73694]},"properties":{"name":"New Fryston","category":"village","osm_type":"node","osm_id":"1628477173"}},{"type":"Feature","geometry":{"type":"Point","coordinates":[-1.79085,53.69114]},"properties":{"name":"Rastrick","category":"village","osm_type":"node","osm_id":"1648562290"}},{"type":"Feature","geometry":{"type":"Point","coordinates":[-1.13353,53.52277]},"properties":{"name":"Doncaster","category":"city","osm_type":"node","osm_id":"1656443133"}},{"type":"Feature","geometry":{"type":"Point","coordinates":[-1.85045,53.59186]},"properties":{"name":"Meltham","category":"town","osm_type":"node","osm_id":"1681441218"}},{"type":"Feature","geometry":{"type":"Point","coordinates":[-1.53149,53.56812]},"properties":{"name":"Barugh Green","category":"village","osm_type":"node","osm_id":"1806596243"}},{"type":"Feature","geometry":{"type":"Point","coordinates":[-1.70854,53.67977]},"properties":{"name":"Battyeford","category":"village","osm_type":"node","osm_id":"1864286920"}},{"type":"Feature","geometry":{"type":"Point","coordinates":[-1.11277,53.68262]},"properties":{"name":"Great Heck","category":"village","osm_type":"node","osm_id":"1870082645"}},{"type":"Feature","geometry":{"type":"Point","coordinates":[-1.83649,53.64737]},"properties":{"name":"Longwood","category":"village","osm_type":"node","osm_id":"1997154596"}},{"type":"Feature","geometry":{"type":"Point","coordinates":[-1.72581,53.64536]},"properties":{"name":"Lascelles Hall","category":"village","osm_type":"node","osm_id":"2109529090"}},{"type":"Feature","geometry":{"type":"Point","coordinates":[-1.75347,53.56311]},"properties":{"name":"Jackson Bridge","category":"village","osm_type":"node","osm_id":"2110837513"}},{"type":"Feature","geometry":{"type":"Point","coordinates":[-1.53053,53.56057]},"properties":{"name":"Higham","category":"village","osm_type":"node","osm_id":"2405185869"}},{"type":"Feature","geometry":{"type":"Point","coordinates":[-1.46839,53.99939]},"properties":{"name":"Calcutt","category":"village","osm_type":"node","osm_id":"2421984636"}},{"type":"Feature","geometry":{"type":"Point","coordinates":[-1.59084,53.76131]},"properties":{"name":"Churwell","category":"village","osm_type":"node","osm_id":"2522897227"}},{"type":"Feature","geometry":{"type":"Point","coordinates":[-1.31327,53.51842]},"properties":{"name":"Towns and villages","category":"village","osm_type":"node","osm_id":"2689548692"}},{"type":"Feature","geometry":{"type":"Point","coordinates":[-1.64312,53.56513]},"properties":{"name":"Lower Denby","category":"village","osm_type":"node","osm_id":"2786289880"}},{"type":"Feature","geometry":{"type":"Point","coordinates":[-1.71011,53.52243]},"properties":{"name":"Hazlehead","category":"village","osm_type":"node","osm_id":"2808810998"}},{"type":"Feature","geometry":{"type":"Point","coordinates":[-1.69549,53.56664]},"properties":{"name":"Birds Edge","category":"village","osm_type":"node","osm_id":"2968777259"}},{"type":"Feature","geometry":{"type":"Point","coordinates":[-1.61977,53.66456]},"properties":{"name":"Thornhill","category":"village","osm_type":"node","osm_id":"2997453634"}},{"type":"Feature","geometry":{"type":"Point","coordinates":[-1.81479,53.68354]},"properties":{"name":"Upper Edge","category":"village","osm_type":"node","osm_id":"3077298045"}},{"type":"Feature","geometry":{"type":"Point","coordinates":[-1.54572,53.96041]},"properties":{"name":"Burn Bridge","category":"village","osm_type":"node","osm_id":"3164979482"}},{"type":"Feature","geometry":{"type":"Point","coordinates":[-1.85094,53.69777]},"properties":{"name":"Exley","category":"village","osm_type":"node","osm_id":"3376533402"}},{"type":"Feature","geometry":{"type":"Point","coordinates":[-1.68191,53.70899]},"properties":{"name":"Flush","category":"village","osm_type":"node","osm_id":"3570213597"}},{"type":"Feature","geometry":{"type":"Point","coordinates":[-1.69248,53.71433]},"properties":{"name":"Littletown","category":"village","osm_type":"node","osm_id":"3570221594"}},{"type":"Feature","geometry":{"type":"Point","coordinates":[-1.68957,53.70869]},"properties":{"name":"Millbridge","category":"village","osm_type":"node","osm_id":"3570221595"}},{"type":"Feature","geometry":{"type":"Point","coordinates":[-1.26263,53.64984]},"properties":{"name":"Wentbridge","category":"village","osm_type":"node","osm_id":"3708329278"}},{"type":"Feature","geometry":{"type":"Point","coordinates":[-1.69071,53.72389]},"properties":{"name":"Little Gomersal","category":"village","osm_type":"node","osm_id":"4123932786"}},{"type":"Feature","geometry":{"type":"Point","coordinates":[-1.86327,53.86986]},"properties":{"name":"Sandbeds","category":"village","osm_type":"node","osm_id":"4155911324"}},{"type":"Feature","geometry":{"type":"Point","coordinates":[-1.92852,53.85802]},"properties":{"name":"Exley Head","category":"village","osm_type":"node","osm_id":"4607797587"}},{"type":"Feature","geometry":{"type":"Point","coordinates":[-1.22098,53.826]},"properties":{"name":"Church Fenton","category":"village","osm_type":"node","osm_id":"4620521339"}},{"type":"Feature","geometry":{"type":"Point","coordinates":[-1.73386,53.57418]},"properties":{"name":"Snowgate Head","category":"village","osm_type":"node","osm_id":"4744161324"}},{"type":"Feature","geometry":{"type":"Point","coordinates":[-1.71443,53.73949]},"properties":{"name":"Hunsworth","category":"village","osm_type":"node","osm_id":"4764197654"}},{"type":"Feature","geometry":{"type":"Point","coordinates":[-1.94859,53.83119]},"properties":{"name":"Haworth","category":"village","osm_type":"node","osm_id":"4813966154"}},{"type":"Feature","geometry":{"type":"Point","coordinates":[-1.83347,53.81555]},"properties":{"name":"Sandy Lane","category":"village","osm_type":"node","osm_id":"4816231817"}},{"type":"Feature","geometry":{"type":"Point","coordinates":[-1.63999,53.83921]},"properties":{"name":"Horsforth","category":"town","osm_type":"node","osm_id":"4826036413"}},{"type":"Feature","geometry":{"type":"Point","coordinates":[-1.86379,53.7044]},"properties":{"name":"Skircoat Green","category":"village","osm_type":"node","osm_id":"4934705226"}},{"type":"Feature","geometry":{"type":"Point","coordinates":[-1.9027,53.73709]},"properties":{"name":"Fountainhead","category":"village","osm_type":"node","osm_id":"4934705242"}},{"type":"Feature","geometry":{"type":"Point","coordinates":[-1.83345,53.63587]},"properties":{"name":"Cowlersley","category":"village","osm_type":"node","osm_id":"4940606236"}},{"type":"Feature","geometry":{"type":"Point","coordinates":[-1.46742,53.53168]},"properties":{"name":"Worsbrough","category":"village","osm_type":"node","osm_id":"5262010203"}},{"type":"Feature","geometry":{"type":"Point","coordinates":[-1.85411,53.87341]},"properties":{"name":"East Morton","category":"village","osm_type":"node","osm_id":"5314719296"}},{"type":"Feature","geometry":{"type":"Point","coordinates":[-1.881,53.87722]},"properties":{"name":"Riddlesden","category":"village","osm_type":"node","osm_id":"5314719297"}},{"type":"Feature","geometry":{"type":"Point","coordinates":[-1.40985,53.73558]},"properties":{"name":"Methley","category":"village","osm_type":"node","osm_id":"5709482275"}},{"type":"Feature","geometry":{"type":"Point","coordinates":[-1.70804,53.57564]},"properties":{"name":"Shepley Lane Head","category":"village","osm_type":"node","osm_id":"5961003504"}},{"type":"Feature","geometry":{"type":"Point","coordinates":[-1.95289,53.86497]},"properties":{"name":"Laycock","category":"village","osm_type":"node","osm_id":"6037068422"}},{"type":"Feature","geometry":{"type":"Point","coordinates":[-1.51049,53.53002]},"properties":{"name":"Stainborough","category":"village","osm_type":"node","osm_id":"6597546937"}},{"type":"Feature","geometry":{"type":"Point","coordinates":[-1.04523,53.97164]},"properties":{"name":"Heworth Without","category":"village","osm_type":"node","osm_id":"8189947584"}},{"type":"Feature","geometry":{"type":"Point","coordinates":[-1.29521,53.67865]},"properties":{"name":"Carleton","category":"village","osm_type":"node","osm_id":"8516101138"}},{"type":"Feature","geometry":{"type":"Point","coordinates":[-1.22779,53.66922]},"properties":{"name":"Stapleton","category":"village","osm_type":"node","osm_id":"8601747496"}},{"type":"Feature","geometry":{"type":"Point","coordinates":[-1.51338,53.5368]},"properties":{"name":"Gilroyd","category":"village","osm_type":"node","osm_id":"8603221198"}},{"type":"Feature","geometry":{"type":"Point","coordinates":[-1.92931,53.84668]},"properties":{"name":"Damems","category":"village","osm_type":"node","osm_id":"9735211790"}},{"type":"Feature","geometry":{"type":"Point","coordinates":[-1.93231,53.83513]},"properties":{"name":"Cross Roads","category":"village","osm_type":"node","osm_id":"9913283805"}},{"type":"Feature","geometry":{"type":"Point","coordinates":[-1.84691,53.8612]},"properties":{"name":"Crossflatts","category":"village","osm_type":"node","osm_id":"10296849603"}},{"type":"Feature","geometry":{"type":"Point","coordinates":[-1.8894,53.86162]},"properties":{"name":"Long Lee","category":"village","osm_type":"node","osm_id":"10296894233"}},{"type":"Feature","geometry":{"type":"Point","coordinates":[-1.6672,53.77093]},"properties":{"name":"Tong","category":"village","osm_type":"node","osm_id":"10592179520"}},{"type":"Feature","geometry":{"type":"Point","coordinates":[-1.81274,53.55898]},"properties":{"name":"Hinchliffe Mill","category":"village","osm_type":"node","osm_id":"11062938880"}},{"type":"Feature","geometry":{"type":"Point","coordinates":[-1.65554,53.75383]},"properties":{"name":"Adwalton","category":"village","osm_type":"node","osm_id":"11267885175"}},{"type":"Feature","geometry":{"type":"Point","coordinates":[-1.39664,53.74045]},"properties":{"name":"Mickletown","category":"village","osm_type":"node","osm_id":"11508775058"}},{"type":"Feature","geometry":{"type":"Point","coordinates":[-1.82527,53.58475]},"properties":{"name":"Wilshaw","category":"village","osm_type":"node","osm_id":"12593508911"}},{"type":"Feature","geometry":{"type":"Point","coordinates":[-1.78788,53.83723]},"properties":{"name":"Saltaire","category":"village","osm_type":"way","osm_id":"28100758"}},{"type":"Feature","geometry":{"type":"Point","coordinates":[-1.52856,53.55819]},"properties":{"name":"Higham","category":"village","osm_type":"way","osm_id":"169285553"}},{"type":"Feature","geometry":{"type":"Point","coordinates":[-1.52768,53.57028]},"properties":{"name":"Barugh Green","category":"village","osm_type":"way","osm_id":"169287206"}},{"type":"Feature","geometry":{"type":"Point","coordinates":[-1.52904,53.54503]},"properties":{"name":"Dodworth","category":"village","osm_type":"way","osm_id":"169514213"}},{"type":"Feature","geometry":{"type":"Point","coordinates":[-1.71155,53.68598]},"properties":{"name":"Battyeford","category":"village","osm_type":"way","osm_id":"175872447"}}]}