{"type":"FeatureCollection","features":[{"type":"Feature","geometry":{"type":"Point","coordinates":[-1.7917,50.92683]},"properties":{"name":"Fordingbridge","category":"town","osm_type":"node","osm_id":"266822"}},{"type":"Feature","geometry":{"type":"Point","coordinates":[-1.60077,50.89757]},"properties":{"name":"Minstead","category":"village","osm_type":"node","osm_id":"271057"}},{"type":"Feature","geometry":{"type":"Point","coordinates":[-1.31447,50.85916]},"properties":{"name":"Hamble-le-Rice","category":"village","osm_type":"node","osm_id":"271062"}},{"type":"Feature","geometry":{"type":"Point","coordinates":[-1.59705,50.87637]},"properties":{"name":"Emery Down","category":"village","osm_type":"node","osm_id":"271096"}},{"type":"Feature","geometry":{"type":"Point","coordinates":[-1.48946,50.91964]},"properties":{"name":"Totton","category":"town","osm_type":"node","osm_id":"271099"}},{"type":"Feature","geometry":{"type":"Point","coordinates":[-1.60868,50.97322]},"properties":{"name":"Plaitford","category":"village","osm_type":"node","osm_id":"271103"}},{"type":"Feature","geometry":{"type":"Point","coordinates":[-1.66285,50.92464]},"properties":{"name":"Fritham","category":"village","osm_type":"node","osm_id":"271261"}},{"type":"Feature","geometry":{"type":"Point","coordinates":[-1.60827,50.78605]},"properties":{"name":"Sway","category":"village","osm_type":"node","osm_id":"271324"}},{"type":"Feature","geometry":{"type":"Point","coordinates":[-1.90334,50.97498]},"properties":{"name":"Martin","category":"village","osm_type":"node","osm_id":"271371"}},{"type":"Feature","geometry":{"type":"Point","coordinates":[-1.56809,50.72153]},"properties":{"name":"Keyhaven","category":"village","osm_type":"node","osm_id":"271386"}},{"type":"Feature","geometry":{"type":"Point","coordinates":[-1.75175,50.99276]},"properties":{"name":"Downton","category":"village","osm_type":"node","osm_id":"271387"}},{"type":"Feature","geometry":{"type":"Point","coordinates":[-1.70164,50.8266]},"properties":{"name":"Burley","category":"village","osm_type":"node","osm_id":"271408"}},{"type":"Feature","geometry":{"type":"Point","coordinates":[-1.75039,50.93399]},"properties":{"name":"Godshill","category":"village","osm_type":"node","osm_id":"271411"}},{"type":"Feature","geometry":{"type":"Point","coordinates":[-1.57484,50.87277]},"properties":{"name":"Lyndhurst","category":"village","osm_type":"node","osm_id":"271414"}},{"type":"Feature","geometry":{"type":"Point","coordinates":[-1.65507,50.7531]},"properties":{"name":"New Milton","category":"town","osm_type":"node","osm_id":"271416"}},{"type":"Feature","geometry":{"type":"Point","coordinates":[-1.54919,50.784]},"properties":{"name":"Boldre","category":"village","osm_type":"node","osm_id":"271467"}},{"type":"Feature","geometry":{"type":"Point","coordinates":[-1.57802,50.81923]},"properties":{"name":"Brockenhurst","category":"village","osm_type":"node","osm_id":"271485"}},{"type":"Feature","geometry":{"type":"Point","coordinates":[-1.41512,50.96378]},"properties":{"name":"Chilworth","category":"village","osm_type":"node","osm_id":"330167"}},{"type":"Feature","geometry":{"type":"Point","coordinates":[-1.33619,50.92698]},"properties":{"name":"West End","category":"village","osm_type":"node","osm_id":"582133"}},{"type":"Feature","geometry":{"type":"Point","coordinates":[-1.11307,50.69937]},"properties":{"name":"St Helens","category":"village","osm_type":"node","osm_id":"692627"}},{"type":"Feature","geometry":{"type":"Point","coordinates":[-1.4999,50.98914]},"properties":{"name":"Romsey","category":"town","osm_type":"node","osm_id":"696729","website":"https://www.visitromsey.org/"}},{"type":"Feature","geometry":{"type":"Point","coordinates":[-1.14223,50.68121]},"properties":{"name":"Brading","category":"town","osm_type":"node","osm_id":"759988"}},{"type":"Feature","geometry":{"type":"Point","coordinates":[-1.23391,50.98297]},"properties":{"name":"Upham","category":"village","osm_type":"node","osm_id":"1564780"}},{"type":"Feature","geometry":{"type":"Point","coordinates":[-1.49864,50.70551]},"properties":{"name":"Yarmouth","category":"town","osm_type":"node","osm_id":"2386520"}},{"type":"Feature","geometry":{"type":"Point","coordinates":[-1.2952,50.70037]},"properties":{"name":"Newport","category":"town","osm_type":"node","osm_id":"2386521"}},{"type":"Feature","geometry":{"type":"Point","coordinates":[-1.44911,50.65274]},"properties":{"name":"Brook","category":"village","osm_type":"node","osm_id":"2433296"}},{"type":"Feature","geometry":{"type":"Point","coordinates":[-1.53797,50.68905]},"properties":{"name":"Colwell Bay","category":"village","osm_type":"node","osm_id":"2433302"}},{"type":"Feature","geometry":{"type":"Point","coordinates":[-1.51098,50.67031]},"properties":{"name":"Freshwater Bay","category":"village","osm_type":"node","osm_id":"2433309"}},{"type":"Feature","geometry":{"type":"Point","coordinates":[-1.20627,50.71016]},"properties":{"name":"Havenstreet","category":"village","osm_type":"node","osm_id":"3857512"}},{"type":"Feature","geometry":{"type":"Point","coordinates":[-1.1779,50.62881]},"properties":{"name":"Shanklin","category":"town","osm_type":"node","osm_id":"4370301"}},{"type":"Feature","geometry":{"type":"Point","coordinates":[-1.39943,50.64532]},"properties":{"name":"Brighstone","category":"village","osm_type":"node","osm_id":"5509843"}},{"type":"Feature","geometry":{"type":"Point","coordinates":[-1.20161,50.65292]},"properties":{"name":"Winford","category":"village","osm_type":"node","osm_id":"6368257"}},{"type":"Feature","geometry":{"type":"Point","coordinates":[-1.21956,50.61415]},"properties":{"name":"Wroxall","category":"village","osm_type":"node","osm_id":"7024305"}},{"type":"Feature","geometry":{"type":"Point","coordinates":[-1.16904,50.64837]},"properties":{"name":"Lake","category":"village","osm_type":"node","osm_id":"8084314"}},{"type":"Feature","geometry":{"type":"Point","coordinates":[-1.54172,50.68446]},"properties":{"name":"Totland","category":"village","osm_type":"node","osm_id":"8092846"}},{"type":"Feature","geometry":{"type":"Point","coordinates":[-1.52314,50.68144]},"properties":{"name":"Freshwater","category":"village","osm_type":"node","osm_id":"8092847"}},{"type":"Feature","geometry":{"type":"Point","coordinates":[-1.26437,50.59874]},"properties":{"name":"Whitwell","category":"village","osm_type":"node","osm_id":"9213609"}},{"type":"Feature","geometry":{"type":"Point","coordinates":[-1.28227,50.5873]},"properties":{"name":"Niton","category":"village","osm_type":"node","osm_id":"9213610"}},{"type":"Feature","geometry":{"type":"Point","coordinates":[-1.25409,50.63406]},"properties":{"name":"Godshill","category":"village","osm_type":"node","osm_id":"9238513"}},{"type":"Feature","geometry":{"type":"Point","coordinates":[-1.61745,50.94076]},"properties":{"name":"Bramshaw","category":"village","osm_type":"node","osm_id":"9382964"}},{"type":"Feature","geometry":{"type":"Point","coordinates":[-1.6413,50.95566]},"properties":{"name":"Nomansland","category":"village","osm_type":"node","osm_id":"9383436"}},{"type":"Feature","geometry":{"type":"Point","coordinates":[-1.92183,50.91882]},"properties":{"name":"Cranborne","category":"village","osm_type":"node","osm_id":"9713548"}},{"type":"Feature","geometry":{"type":"Point","coordinates":[-1.30714,50.91543]},"properties":{"name":"Hedge End","category":"town","osm_type":"node","osm_id":"9738225"}},{"type":"Feature","geometry":{"type":"Point","coordinates":[-1.27024,50.91446]},"properties":{"name":"Botley","category":"village","osm_type":"node","osm_id":"9738226"}},{"type":"Feature","geometry":{"type":"Point","coordinates":[-1.20234,50.91592]},"properties":{"name":"Shedfield","category":"village","osm_type":"node","osm_id":"9838155"}},{"type":"Feature","geometry":{"type":"Point","coordinates":[-1.11558,50.71914]},"properties":{"name":"Seaview","category":"village","osm_type":"node","osm_id":"9893937"}},{"type":"Feature","geometry":{"type":"Point","coordinates":[-1.1145,50.71281]},"properties":{"name":"Nettlestone","category":"village","osm_type":"node","osm_id":"9893939"}},{"type":"Feature","geometry":{"type":"Point","coordinates":[-1.1863,50.89936]},"properties":{"name":"Wickham","category":"village","osm_type":"node","osm_id":"10537623"}},{"type":"Feature","geometry":{"type":"Point","coordinates":[-1.29441,50.95391]},"properties":{"name":"Horton Heath","category":"village","osm_type":"node","osm_id":"11145756"}},{"type":"Feature","geometry":{"type":"Point","coordinates":[-1.28521,50.75948]},"properties":{"name":"East Cowes","category":"town","osm_type":"node","osm_id":"11398583"}},{"type":"Feature","geometry":{"type":"Point","coordinates":[-1.29852,50.76332]},"properties":{"name":"Cowes","category":"town","osm_type":"node","osm_id":"11398584"}},{"type":"Feature","geometry":{"type":"Point","coordinates":[-1.16037,50.72999]},"properties":{"name":"Ryde","category":"town","osm_type":"node","osm_id":"11398930"}},{"type":"Feature","geometry":{"type":"Point","coordinates":[-1.15301,50.65475]},"properties":{"name":"Sandown","category":"town","osm_type":"node","osm_id":"11398993"}},{"type":"Feature","geometry":{"type":"Point","coordinates":[-1.20297,50.59498]},"properties":{"name":"Ventnor","category":"town","osm_type":"node","osm_id":"11398996"}},{"type":"Feature","geometry":{"type":"Point","coordinates":[-1.39977,50.67782]},"properties":{"name":"Calbourne","category":"village","osm_type":"node","osm_id":"11998197"}},{"type":"Feature","geometry":{"type":"Point","coordinates":[-1.35825,50.64347]},"properties":{"name":"Shorwell","category":"village","osm_type":"node","osm_id":"12017115"}},{"type":"Feature","geometry":{"type":"Point","coordinates":[-1.31598,50.59743]},"properties":{"name":"Chale","category":"village","osm_type":"node","osm_id":"12018726"}},{"type":"Feature","geometry":{"type":"Point","coordinates":[-1.23993,50.67569]},"properties":{"name":"Arreton","category":"village","osm_type":"node","osm_id":"12027072"}},{"type":"Feature","geometry":{"type":"Point","coordinates":[-1.77789,50.7349]},"properties":{"name":"Christchurch","category":"town","osm_type":"node","osm_id":"14600264"}},{"type":"Feature","geometry":{"type":"Point","coordinates":[-1.58917,50.72599]},"properties":{"name":"Milford on Sea","category":"village","osm_type":"node","osm_id":"14600267"}},{"type":"Feature","geometry":{"type":"Point","coordinates":[-1.58801,50.74674]},"properties":{"name":"Everton","category":"village","osm_type":"node","osm_id":"14600269"}},{"type":"Feature","geometry":{"type":"Point","coordinates":[-1.29982,50.9653]},"properties":{"name":"Fair Oak","category":"village","osm_type":"node","osm_id":"15358565"}},{"type":"Feature","geometry":{"type":"Point","coordinates":[-1.34684,50.98794]},"properties":{"name":"Allbrook","category":"village","osm_type":"node","osm_id":"15740585"}},{"type":"Feature","geometry":{"type":"Point","coordinates":[-1.32638,50.81166]},"properties":{"name":"Calshot","category":"village","osm_type":"node","osm_id":"16581123"}},{"type":"Feature","geometry":{"type":"Point","coordinates":[-1.3513,50.82735]},"properties":{"name":"Fawley","category":"village","osm_type":"node","osm_id":"16669355"}},{"type":"Feature","geometry":{"type":"Point","coordinates":[-1.39828,50.86985]},"properties":{"name":"Hythe","category":"town","osm_type":"node","osm_id":"16676467"}},{"type":"Feature","geometry":{"type":"Point","coordinates":[-1.0906,50.80003]},"properties":{"name":"Portsmouth","category":"city","osm_type":"node","osm_id":"17721995"}},{"type":"Feature","geometry":{"type":"Point","coordinates":[-1.87991,50.72015]},"properties":{"name":"Bournemouth","category":"town","osm_type":"node","osm_id":"17858426"}},{"type":"Feature","geometry":{"type":"Point","coordinates":[-1.98152,50.71795]},"properties":{"name":"Poole","category":"town","osm_type":"node","osm_id":"17858754"}},{"type":"Feature","geometry":{"type":"Point","coordinates":[-1.79142,50.84693]},"properties":{"name":"Ringwood","category":"town","osm_type":"node","osm_id":"17899654"}},{"type":"Feature","geometry":{"type":"Point","coordinates":[-1.87524,50.88012]},"properties":{"name":"Verwood","category":"town","osm_type":"node","osm_id":"17901790"}},{"type":"Feature","geometry":{"type":"Point","coordinates":[-1.95996,50.90743]},"properties":{"name":"Wimborne St Giles","category":"village","osm_type":"node","osm_id":"17901984"}},{"type":"Feature","geometry":{"type":"Point","coordinates":[-1.31714,50.99882]},"properties":{"name":"Colden Common","category":"village","osm_type":"node","osm_id":"18308794"}},{"type":"Feature","geometry":{"type":"Point","coordinates":[-1.45415,50.89138]},"properties":{"name":"Marchwood","category":"village","osm_type":"node","osm_id":"18313277"}},{"type":"Feature","geometry":{"type":"Point","coordinates":[-1.98734,50.79952]},"properties":{"name":"Wimborne Minster","category":"town","osm_type":"node","osm_id":"19809382"}},{"type":"Feature","geometry":{"type":"Point","coordinates":[-1.95816,50.86686]},"properties":{"name":"Horton","category":"village","osm_type":"node","osm_id":"19820601"}},{"type":"Feature","geometry":{"type":"Point","coordinates":[-1.9645,50.7824]},"properties":{"name":"Merley","category":"village","osm_type":"node","osm_id":"19821555"}},{"type":"Feature","geometry":{"type":"Point","coordinates":[-1.9838,50.85531]},"properties":{"name":"Hinton Martell","category":"village","osm_type":"node","osm_id":"19826381"}},{"type":"Feature","geometry":{"type":"Point","coordinates":[-1.96031,50.85506]},"properties":{"name":"Holt Wood","category":"village","osm_type":"node","osm_id":"19826508"}},{"type":"Feature","geometry":{"type":"Point","coordinates":[-1.95971,50.83529]},"properties":{"name":"Holt","category":"village","osm_type":"node","osm_id":"19828524"}},{"type":"Feature","geometry":{"type":"Point","coordinates":[-1.96972,50.84785]},"properties":{"name":"Gaunts Common","category":"village","osm_type":"node","osm_id":"19828525"}},{"type":"Feature","geometry":{"type":"Point","coordinates":[-1.84341,50.84108]},"properties":{"name":"Ashley Heath","category":"village","osm_type":"node","osm_id":"19828948"}},{"type":"Feature","geometry":{"type":"Point","coordinates":[-1.88585,50.85141]},"properties":{"name":"Three Legged Cross","category":"village","osm_type":"node","osm_id":"19828975"}},{"type":"Feature","geometry":{"type":"Point","coordinates":[-1.89059,50.80224]},"properties":{"name":"Ferndown","category":"town","osm_type":"node","osm_id":"19830607"}},{"type":"Feature","geometry":{"type":"Point","coordinates":[-1.88842,50.82499]},"properties":{"name":"West Moors","category":"village","osm_type":"node","osm_id":"19830636"}},{"type":"Feature","geometry":{"type":"Point","coordinates":[-1.63638,50.97008]},"properties":{"name":"Landford","category":"village","osm_type":"node","osm_id":"20926196"}},{"type":"Feature","geometry":{"type":"Point","coordinates":[-1.75882,50.95796]},"properties":{"name":"Woodgreen","category":"village","osm_type":"node","osm_id":"20994574"}},{"type":"Feature","geometry":{"type":"Point","coordinates":[-1.82611,50.93299]},"properties":{"name":"Sandleheath","category":"village","osm_type":"node","osm_id":"20997993"}},{"type":"Feature","geometry":{"type":"Point","coordinates":[-1.83917,50.96401]},"properties":{"name":"Rockbourne","category":"village","osm_type":"node","osm_id":"20997994"}},{"type":"Feature","geometry":{"type":"Point","coordinates":[-1.81868,50.97032]},"properties":{"name":"Whitsbury","category":"village","osm_type":"node","osm_id":"20997995"}},{"type":"Feature","geometry":{"type":"Point","coordinates":[-1.7571,50.91572]},"properties":{"name":"Frogham","category":"village","osm_type":"node","osm_id":"20997997"}},{"type":"Feature","geometry":{"type":"Point","coordinates":[-1.70272,50.97985]},"properties":{"name":"Lover","category":"village","osm_type":"node","osm_id":"21009415"}},{"type":"Feature","geometry":{"type":"Point","coordinates":[-1.31052,50.88109]},"properties":{"name":"Bursledon","category":"village","osm_type":"node","osm_id":"21019344"}},{"type":"Feature","geometry":{"type":"Point","coordinates":[-1.78806,50.88375]},"properties":{"name":"Ibsley","category":"village","osm_type":"node","osm_id":"21030466"}},{"type":"Feature","geometry":{"type":"Point","coordinates":[-1.28113,50.65505]},"properties":{"name":"Rookley","category":"village","osm_type":"node","osm_id":"21063469"}},{"type":"Feature","geometry":{"type":"Point","coordinates":[-1.88264,50.78067]},"properties":{"name":"Parley Cross","category":"village","osm_type":"node","osm_id":"21650073"}},{"type":"Feature","geometry":{"type":"Point","coordinates":[-1.32915,50.99302]},"properties":{"name":"Brambridge","category":"village","osm_type":"node","osm_id":"25340501"}},{"type":"Feature","geometry":{"type":"Point","coordinates":[-1.03252,50.99404]},"properties":{"name":"East Meon","category":"village","osm_type":"node","osm_id":"25432220"}},{"type":"Feature","geometry":{"type":"Point","coordinates":[-1.18842,50.92254]},"properties":{"name":"Shirrell Heath","category":"village","osm_type":"node","osm_id":"25702868"}},{"type":"Feature","geometry":{"type":"Point","coordinates":[-1.43755,50.9779]},"properties":{"name":"North Baddesley","category":"village","osm_type":"node","osm_id":"25895691"}},{"type":"Feature","geometry":{"type":"Point","coordinates":[-1.51972,50.89529]},"properties":{"name":"Ashurst","category":"village","osm_type":"node","osm_id":"26016747"}},{"type":"Feature","geometry":{"type":"Point","coordinates":[-1.20072,50.8708]},"properties":{"name":"Funtley","category":"village","osm_type":"node","osm_id":"26418576"}},{"type":"Feature","geometry":{"type":"Point","coordinates":[-1.33938,50.87938]},"properties":{"name":"Butlocks Heath","category":"village","osm_type":"node","osm_id":"26592161"}},{"type":"Feature","geometry":{"type":"Point","coordinates":[-1.26485,50.88938]},"properties":{"name":"Burridge","category":"village","osm_type":"node","osm_id":"26631171"}},{"type":"Feature","geometry":{"type":"Point","coordinates":[-1.28897,50.87619]},"properties":{"name":"Sarisbury Green","category":"village","osm_type":"node","osm_id":"26631812"}},{"type":"Feature","geometry":{"type":"Point","coordinates":[-1.29889,50.85468]},"properties":{"name":"Warsash","category":"village","osm_type":"node","osm_id":"27136304"}},{"type":"Feature","geometry":{"type":"Point","coordinates":[-1.46628,50.93789]},"properties":{"name":"Hillyfields","category":"village","osm_type":"node","osm_id":"28801102"}},{"type":"Feature","geometry":{"type":"Point","coordinates":[-1.46902,50.94473]},"properties":{"name":"Nursling","category":"village","osm_type":"node","osm_id":"28801108"}},{"type":"Feature","geometry":{"type":"Point","coordinates":[-1.11278,50.87431]},"properties":{"name":"Southwick","category":"village","osm_type":"node","osm_id":"28972748"}},{"type":"Feature","geometry":{"type":"Point","coordinates":[-1.00816,50.9467]},"properties":{"name":"Clanfield","category":"village","osm_type":"node","osm_id":"29169442"}},{"type":"Feature","geometry":{"type":"Point","coordinates":[-1.08096,50.93123]},"properties":{"name":"Hambledon","category":"village","osm_type":"node","osm_id":"29170503"}},{"type":"Feature","geometry":{"type":"Point","coordinates":[-1.01372,50.9235]},"properties":{"name":"Catherington","category":"village","osm_type":"node","osm_id":"29180486"}},{"type":"Feature","geometry":{"type":"Point","coordinates":[-1.06634,50.90416]},"properties":{"name":"Denmead","category":"village","osm_type":"node","osm_id":"29180526"}},{"type":"Feature","geometry":{"type":"Point","coordinates":[-1.03148,50.87979]},"properties":{"name":"Waterlooville","category":"town","osm_type":"node","osm_id":"29180987"}},{"type":"Feature","geometry":{"type":"Point","coordinates":[-1.25138,50.90181]},"properties":{"name":"Curbridge","category":"village","osm_type":"node","osm_id":"29181122"}},{"type":"Feature","geometry":{"type":"Point","coordinates":[-1.2485,50.92217]},"properties":{"name":"Curdridge","category":"village","osm_type":"node","osm_id":"29181123"}},{"type":"Feature","geometry":{"type":"Point","coordinates":[-1.9572,50.6087]},"properties":{"name":"Swanage","category":"town","osm_type":"node","osm_id":"29219529"}},{"type":"Feature","geometry":{"type":"Point","coordinates":[-1.04408,50.86791]},"properties":{"name":"Purbrook","category":"village","osm_type":"node","osm_id":"29267192"}},{"type":"Feature","geometry":{"type":"Point","coordinates":[-1.35173,50.96917]},"properties":{"name":"Eastleigh","category":"town","osm_type":"node","osm_id":"29387392"}},{"type":"Feature","geometry":{"type":"Point","coordinates":[-1.92167,50.77055]},"properties":{"name":"Bear Cross","category":"village","osm_type":"node","osm_id":"29607917"}},{"type":"Feature","geometry":{"type":"Point","coordinates":[-1.93132,50.88081]},"properties":{"name":"Woodlands","category":"village","osm_type":"node","osm_id":"29759729"}},{"type":"Feature","geometry":{"type":"Point","coordinates":[-1.58933,50.9722]},"properties":{"name":"West Wellow","category":"village","osm_type":"node","osm_id":"29813478"}},{"type":"Feature","geometry":{"type":"Point","coordinates":[-1.58609,50.99903]},"properties":{"name":"Sherfield English","category":"village","osm_type":"node","osm_id":"29813483"}},{"type":"Feature","geometry":{"type":"Point","coordinates":[-1.56016,50.93354]},"properties":{"name":"Copythorne","category":"village","osm_type":"node","osm_id":"29813524"}},{"type":"Feature","geometry":{"type":"Point","coordinates":[-1.52861,50.91555]},"properties":{"name":"Netley Marsh","category":"village","osm_type":"node","osm_id":"29813525"}},{"type":"Feature","geometry":{"type":"Point","coordinates":[-1.56503,50.91453]},"properties":{"name":"Bartley","category":"village","osm_type":"node","osm_id":"29813526"}},{"type":"Feature","geometry":{"type":"Point","coordinates":[-1.54146,50.90423]},"properties":{"name":"Woodlands","category":"village","osm_type":"node","osm_id":"29813527"}},{"type":"Feature","geometry":{"type":"Point","coordinates":[-1.48545,50.91253]},"properties":{"name":"Eling","category":"village","osm_type":"node","osm_id":"29813534"}},{"type":"Feature","geometry":{"type":"Point","coordinates":[-1.71285,50.98838]},"properties":{"name":"Redlynch","category":"village","osm_type":"node","osm_id":"29813535"}},{"type":"Feature","geometry":{"type":"Point","coordinates":[-1.85228,50.94402]},"properties":{"name":"Damerham","category":"village","osm_type":"node","osm_id":"29813567"}},{"type":"Feature","geometry":{"type":"Point","coordinates":[-1.77016,50.8544]},"properties":{"name":"Poulner","category":"village","osm_type":"node","osm_id":"29813672"}},{"type":"Feature","geometry":{"type":"Point","coordinates":[-1.76204,50.84273]},"properties":{"name":"Hightown","category":"village","osm_type":"node","osm_id":"29813675"}},{"type":"Feature","geometry":{"type":"Point","coordinates":[-1.77874,50.77154]},"properties":{"name":"Sopley","category":"village","osm_type":"node","osm_id":"29813709"}},{"type":"Feature","geometry":{"type":"Point","coordinates":[-1.61341,50.7558]},"properties":{"name":"Hordle","category":"village","osm_type":"node","osm_id":"29813759"}},{"type":"Feature","geometry":{"type":"Point","coordinates":[-1.66512,50.73691]},"properties":{"name":"Barton on Sea","category":"village","osm_type":"node","osm_id":"29813771"}},{"type":"Feature","geometry":{"type":"Point","coordinates":[-1.4691,50.80164]},"properties":{"name":"East Boldre","category":"village","osm_type":"node","osm_id":"29819275"}},{"type":"Feature","geometry":{"type":"Point","coordinates":[-1.45192,50.81841]},"properties":{"name":"Beaulieu","category":"village","osm_type":"node","osm_id":"29819276"}},{"type":"Feature","geometry":{"type":"Point","coordinates":[-1.37261,50.818]},"properties":{"name":"Blackfield","category":"village","osm_type":"node","osm_id":"29819290"}},{"type":"Feature","geometry":{"type":"Point","coordinates":[-1.36799,50.80828]},"properties":{"name":"Langley","category":"village","osm_type":"node","osm_id":"29819295"}},{"type":"Feature","geometry":{"type":"Point","coordinates":[-1.38365,50.83143]},"properties":{"name":"Holbury","category":"village","osm_type":"node","osm_id":"29819428"}},{"type":"Feature","geometry":{"type":"Point","coordinates":[-1.39071,50.84111]},"properties":{"name":"Hardley","category":"village","osm_type":"node","osm_id":"29819573"}},{"type":"Feature","geometry":{"type":"Point","coordinates":[-1.91203,50.90293]},"properties":{"name":"Edmondsham","category":"village","osm_type":"node","osm_id":"29819904"}},{"type":"Feature","geometry":{"type":"Point","coordinates":[-1.99475,50.8341]},"properties":{"name":"Stanbridge","category":"village","osm_type":"node","osm_id":"29819968"}},{"type":"Feature","geometry":{"type":"Point","coordinates":[-1.92493,50.78978]},"properties":{"name":"Hampreston","category":"village","osm_type":"node","osm_id":"29820572"}},{"type":"Feature","geometry":{"type":"Point","coordinates":[-1.83815,50.8307]},"properties":{"name":"St Leonards","category":"village","osm_type":"node","osm_id":"29820599"}},{"type":"Feature","geometry":{"type":"Point","coordinates":[-1.8237,50.83687]},"properties":{"name":"St Ives","category":"village","osm_type":"node","osm_id":"29820600"}},{"type":"Feature","geometry":{"type":"Point","coordinates":[-1.76426,50.90986]},"properties":{"name":"Hyde","category":"village","osm_type":"node","osm_id":"29820719"}},{"type":"Feature","geometry":{"type":"Point","coordinates":[-1.23543,50.84903]},"properties":{"name":"Titchfield","category":"village","osm_type":"node","osm_id":"29821095"}},{"type":"Feature","geometry":{"type":"Point","coordinates":[-1.21392,50.82593]},"properties":{"name":"Stubbington","category":"town","osm_type":"node","osm_id":"29821096"}},{"type":"Feature","geometry":{"type":"Point","coordinates":[-1.77855,50.72705]},"properties":{"name":"Wick","category":"village","osm_type":"node","osm_id":"30133595"}},{"type":"Feature","geometry":{"type":"Point","coordinates":[-1.45811,50.99823]},"properties":{"name":"Crampmoor","category":"village","osm_type":"node","osm_id":"34679277"}},{"type":"Feature","geometry":{"type":"Point","coordinates":[-1.45823,50.94852]},"properties":{"name":"Rownhams","category":"village","osm_type":"node","osm_id":"38924772"}},{"type":"Feature","geometry":{"type":"Point","coordinates":[-1.25247,50.88439]},"properties":{"name":"Whiteley","category":"village","osm_type":"node","osm_id":"101669657"}},{"type":"Feature","geometry":{"type":"Point","coordinates":[-1.12109,50.79521]},"properties":{"name":"Gosport","category":"town","osm_type":"node","osm_id":"245488301"}},{"type":"Feature","geometry":{"type":"Point","coordinates":[-1.13388,50.66447]},"properties":{"name":"Yaverland","category":"village","osm_type":"node","osm_id":"252025562"}},{"type":"Feature","geometry":{"type":"Point","coordinates":[-1.24946,50.58436]},"properties":{"name":"St. Lawrence","category":"village","osm_type":"node","osm_id":"252673655"}},{"type":"Feature","geometry":{"type":"Point","coordinates":[-1.40227,50.71426]},"properties":{"name":"Newtown","category":"village","osm_type":"node","osm_id":"252732631"}},{"type":"Feature","geometry":{"type":"Point","coordinates":[-1.2845,50.67406]},"properties":{"name":"Blackwater","category":"village","osm_type":"node","osm_id":"252817649"}},{"type":"Feature","geometry":{"type":"Point","coordinates":[-1.73946,50.78283]},"properties":{"name":"Bransgore","category":"village","osm_type":"node","osm_id":"260700547"}},{"type":"Feature","geometry":{"type":"Point","coordinates":[-1.23292,50.72551]},"properties":{"name":"Wootton","category":"village","osm_type":"node","osm_id":"262503849"}},{"type":"Feature","geometry":{"type":"Point","coordinates":[-1.49955,50.92779]},"properties":{"name":"Testwood","category":"village","osm_type":"node","osm_id":"262992555"}},{"type":"Feature","geometry":{"type":"Point","coordinates":[-1.49586,50.90636]},"properties":{"name":"Hounsdown","category":"village","osm_type":"node","osm_id":"262993655"}},{"type":"Feature","geometry":{"type":"Point","coordinates":[-1.31288,50.69115]},"properties":{"name":"Carisbrooke","category":"village","osm_type":"node","osm_id":"289573566"}},{"type":"Feature","geometry":{"type":"Point","coordinates":[-1.3118,50.6655]},"properties":{"name":"Gatcombe","category":"village","osm_type":"node","osm_id":"289575335"}},{"type":"Feature","geometry":{"type":"Point","coordinates":[-1.31069,50.65255]},"properties":{"name":"Chillerton","category":"village","osm_type":"node","osm_id":"289575704"}},{"type":"Feature","geometry":{"type":"Point","coordinates":[-1.18954,50.59845]},"properties":{"name":"Bonchurch","category":"village","osm_type":"node","osm_id":"309944623"}},{"type":"Feature","geometry":{"type":"Point","coordinates":[-1.18511,50.60252]},"properties":{"name":"Upper Bonchurch","category":"village","osm_type":"node","osm_id":"309944655"}},{"type":"Feature","geometry":{"type":"Point","coordinates":[-1.20854,50.66496]},"properties":{"name":"Newchurch","category":"village","osm_type":"node","osm_id":"314662240"}},{"type":"Feature","geometry":{"type":"Point","coordinates":[-1.09263,50.82673]},"properties":{"name":"Tipner","category":"village","osm_type":"node","osm_id":"360815012"}},{"type":"Feature","geometry":{"type":"Point","coordinates":[-1.22368,50.85319]},"properties":{"name":"Catisfield","category":"village","osm_type":"node","osm_id":"363773519"}},{"type":"Feature","geometry":{"type":"Point","coordinates":[-1.57887,50.92153]},"properties":{"name":"Cadnam","category":"village","osm_type":"node","osm_id":"388217272"}},{"type":"Feature","geometry":{"type":"Point","coordinates":[-1.89869,50.74595]},"properties":{"name":"Talbot Village","category":"village","osm_type":"node","osm_id":"448554229"}},{"type":"Feature","geometry":{"type":"Point","coordinates":[-1.4139,50.85293]},"properties":{"name":"Dibden Purlieu","category":"village","osm_type":"node","osm_id":"567530845"}},{"type":"Feature","geometry":{"type":"Point","coordinates":[-1.42781,50.86653]},"properties":{"name":"Dibden","category":"village","osm_type":"node","osm_id":"567530849"}},{"type":"Feature","geometry":{"type":"Point","coordinates":[-1.17874,50.61533]},"properties":{"name":"Luccombe","category":"village","osm_type":"node","osm_id":"601503044"}},{"type":"Feature","geometry":{"type":"Point","coordinates":[-1.18316,50.66821]},"properties":{"name":"Alverstone","category":"village","osm_type":"node","osm_id":"601510738"}},{"type":"Feature","geometry":{"type":"Point","coordinates":[-1.25467,50.66225]},"properties":{"name":"Merstone","category":"village","osm_type":"node","osm_id":"601579608"}},{"type":"Feature","geometry":{"type":"Point","coordinates":[-1.54269,50.75838]},"properties":{"name":"Lymington","category":"town","osm_type":"node","osm_id":"611015962"}},{"type":"Feature","geometry":{"type":"Point","coordinates":[-1.51338,50.92863]},"properties":{"name":"Calmore","category":"village","osm_type":"node","osm_id":"1317875126"}},{"type":"Feature","geometry":{"type":"Point","coordinates":[-1.51302,50.91578]},"properties":{"name":"West Totton","category":"village","osm_type":"node","osm_id":"1317876113"}},{"type":"Feature","geometry":{"type":"Point","coordinates":[-1.43584,50.69808]},"properties":{"name":"Ningwood","category":"village","osm_type":"node","osm_id":"1464320329"}},{"type":"Feature","geometry":{"type":"Point","coordinates":[-1.95258,50.64238]},"properties":{"name":"Studland","category":"village","osm_type":"node","osm_id":"1480298777"}},{"type":"Feature","geometry":{"type":"Point","coordinates":[-1.41905,50.68716]},"properties":{"name":"Newbridge","category":"village","osm_type":"node","osm_id":"1495633456"}},{"type":"Feature","geometry":{"type":"Point","coordinates":[-1.08493,50.6887]},"properties":{"name":"Bembridge","category":"village","osm_type":"node","osm_id":"1547559729"}},{"type":"Feature","geometry":{"type":"Point","coordinates":[-1.97917,50.81826]},"properties":{"name":"Furzehill","category":"village","osm_type":"node","osm_id":"1559734860"}},{"type":"Feature","geometry":{"type":"Point","coordinates":[-1.83017,50.91311]},"properties":{"name":"Alderholt","category":"village","osm_type":"node","osm_id":"1559888857"}},{"type":"Feature","geometry":{"type":"Point","coordinates":[-1.32352,50.75587]},"properties":{"name":"Gurnard","category":"village","osm_type":"node","osm_id":"1634210653"}},{"type":"Feature","geometry":{"type":"Point","coordinates":[-1.31196,50.74186]},"properties":{"name":"Northwood","category":"village","osm_type":"node","osm_id":"1634210663"}},{"type":"Feature","geometry":{"type":"Point","coordinates":[-1.51437,50.70438]},"properties":{"name":"Norton","category":"village","osm_type":"node","osm_id":"1635504186"}},{"type":"Feature","geometry":{"type":"Point","coordinates":[-1.41707,50.70233]},"properties":{"name":"Shalfleet","category":"village","osm_type":"node","osm_id":"1635504193"}},{"type":"Feature","geometry":{"type":"Point","coordinates":[-1.38331,50.98284]},"properties":{"name":"Chandler's Ford","category":"town","osm_type":"node","osm_id":"1641973573"}},{"type":"Feature","geometry":{"type":"Point","coordinates":[-1.12815,50.97741]},"properties":{"name":"Meonstoke","category":"village","osm_type":"node","osm_id":"1673107178"}},{"type":"Feature","geometry":{"type":"Point","coordinates":[-1.13596,50.97835]},"properties":{"name":"Corhampton","category":"village","osm_type":"node","osm_id":"1673156962"}},{"type":"Feature","geometry":{"type":"Point","coordinates":[-1.13219,50.91545]},"properties":{"name":"Newtown","category":"village","osm_type":"node","osm_id":"1673156972"}},{"type":"Feature","geometry":{"type":"Point","coordinates":[-1.13998,50.92523]},"properties":{"name":"Soberton Heath","category":"village","osm_type":"node","osm_id":"1673156975"}},{"type":"Feature","geometry":{"type":"Point","coordinates":[-1.25481,50.97258]},"properties":{"name":"Lower Upham","category":"village","osm_type":"node","osm_id":"1673618783"}},{"type":"Feature","geometry":{"type":"Point","coordinates":[-1.20467,50.88142]},"properties":{"name":"Knowle","category":"village","osm_type":"node","osm_id":"1685929312"}},{"type":"Feature","geometry":{"type":"Point","coordinates":[-1.17831,50.85266]},"properties":{"name":"Fareham","category":"town","osm_type":"node","osm_id":"1688830575"}},{"type":"Feature","geometry":{"type":"Point","coordinates":[-1.20056,50.93511]},"properties":{"name":"Waltham Chase","category":"village","osm_type":"node","osm_id":"1843672604"}},{"type":"Feature","geometry":{"type":"Point","coordinates":[-1.33184,50.9713]},"properties":{"name":"Bishopstoke","category":"village","osm_type":"node","osm_id":"1891807853"}},{"type":"Feature","geometry":{"type":"Point","coordinates":[-1.34872,50.87607]},"properties":{"name":"Netley","category":"village","osm_type":"node","osm_id":"2015147411"}},{"type":"Feature","geometry":{"type":"Point","coordinates":[-1.1802,50.94405]},"properties":{"name":"Swanmore","category":"village","osm_type":"node","osm_id":"2171403230"}},{"type":"Feature","geometry":{"type":"Point","coordinates":[-1.40419,50.90253]},"properties":{"name":"Southampton","category":"city","osm_type":"node","osm_id":"2478628079"}},{"type":"Feature","geometry":{"type":"Point","coordinates":[-1.21399,50.95495]},"properties":{"name":"Bishop's Waltham","category":"town","osm_type":"node","osm_id":"2519011506"}},{"type":"Feature","geometry":{"type":"Point","coordinates":[-1.14717,50.88938]},"properties":{"name":"North Boarhunt","category":"village","osm_type":"node","osm_id":"2528052241"}},{"type":"Feature","geometry":{"type":"Point","coordinates":[-1.13872,50.96216]},"properties":{"name":"Droxford","category":"village","osm_type":"node","osm_id":"2528370130"}},{"type":"Feature","geometry":{"type":"Point","coordinates":[-1.12937,50.98464]},"properties":{"name":"Exton","category":"village","osm_type":"node","osm_id":"2528382941"}},{"type":"Feature","geometry":{"type":"Point","coordinates":[-1.13257,50.94706]},"properties":{"name":"Soberton","category":"village","osm_type":"node","osm_id":"2528466798"}},{"type":"Feature","geometry":{"type":"Point","coordinates":[-1.90109,50.76912]},"properties":{"name":"Kinson","category":"village","osm_type":"node","osm_id":"2558331461"}},{"type":"Feature","geometry":{"type":"Point","coordinates":[-1.81879,50.75645]},"properties":{"name":"Holdenhurst","category":"village","osm_type":"node","osm_id":"2979040421"}},{"type":"Feature","geometry":{"type":"Point","coordinates":[-1.27106,50.88253]},"properties":{"name":"Swanwick","category":"village","osm_type":"node","osm_id":"3001201452"}},{"type":"Feature","geometry":{"type":"Point","coordinates":[-1.29628,50.88211]},"properties":{"name":"Lower Swanwick","category":"village","osm_type":"node","osm_id":"3001229618"}},{"type":"Feature","geometry":{"type":"Point","coordinates":[-1.44833,50.71237]},"properties":{"name":"Cranmore","category":"village","osm_type":"node","osm_id":"3484198189"}},{"type":"Feature","geometry":{"type":"Point","coordinates":[-1.27036,50.7405]},"properties":{"name":"Whippingham","category":"village","osm_type":"node","osm_id":"3730920062"}},{"type":"Feature","geometry":{"type":"Point","coordinates":[-1.18202,50.72508]},"properties":{"name":"Binstead","category":"village","osm_type":"node","osm_id":"3730920063"}},{"type":"Feature","geometry":{"type":"Point","coordinates":[-1.36806,50.71871]},"properties":{"name":"Porchfield","category":"village","osm_type":"node","osm_id":"3739717820"}},{"type":"Feature","geometry":{"type":"Point","coordinates":[-1.30284,50.97785]},"properties":{"name":"Crowdhill","category":"village","osm_type":"node","osm_id":"3753011454"}},{"type":"Feature","geometry":{"type":"Point","coordinates":[-1.69676,50.74221]},"properties":{"name":"Highcliffe-on-Sea","category":"town","osm_type":"node","osm_id":"4347624800"}},{"type":"Feature","geometry":{"type":"Point","coordinates":[-1.28069,50.64969]},"properties":{"name":"Rookley Green","category":"village","osm_type":"node","osm_id":"4487507674"}},{"type":"Feature","geometry":{"type":"Point","coordinates":[-1.21458,50.73198]},"properties":{"name":"Fishbourne","category":"village","osm_type":"node","osm_id":"4729070270"}},{"type":"Feature","geometry":{"type":"Point","coordinates":[-1.56148,50.75413]},"properties":{"name":"Pennington","category":"village","osm_type":"node","osm_id":"5007681955"}},{"type":"Feature","geometry":{"type":"Point","coordinates":[-1.31568,50.61645]},"properties":{"name":"Chale Green","category":"village","osm_type":"node","osm_id":"5206088841"}},{"type":"Feature","geometry":{"type":"Point","coordinates":[-1.12759,50.71659]},"properties":{"name":"Pondwell","category":"village","osm_type":"node","osm_id":"5449148624"}},{"type":"Feature","geometry":{"type":"Point","coordinates":[-1.53033,50.67656]},"properties":{"name":"Middleton","category":"village","osm_type":"node","osm_id":"5459656813"}},{"type":"Feature","geometry":{"type":"Point","coordinates":[-1.51566,50.67471]},"properties":{"name":"Easton","category":"village","osm_type":"node","osm_id":"5464883693"}},{"type":"Feature","geometry":{"type":"Point","coordinates":[-1.57635,50.93657]},"properties":{"name":"Newbridge","category":"village","osm_type":"node","osm_id":"6100046020"}},{"type":"Feature","geometry":{"type":"Point","coordinates":[-1.76912,50.7521]},"properties":{"name":"Burton","category":"village","osm_type":"node","osm_id":"6545010445"}},{"type":"Feature","geometry":{"type":"Point","coordinates":[-1.84806,50.7642]},"properties":{"name":"Throop","category":"village","osm_type":"node","osm_id":"7117144578"}},{"type":"Feature","geometry":{"type":"Point","coordinates":[-1.90081,50.81888]},"properties":{"name":"Ameysford","category":"village","osm_type":"node","osm_id":"7656512128"}},{"type":"Feature","geometry":{"type":"Point","coordinates":[-1.88715,50.78685]},"properties":{"name":"West Parley","category":"village","osm_type":"node","osm_id":"7656772831"}},{"type":"Feature","geometry":{"type":"Point","coordinates":[-1.2684,50.87183]},"properties":{"name":"Park Gate","category":"village","osm_type":"node","osm_id":"8750746398"}},{"type":"Feature","geometry":{"type":"Point","coordinates":[-1.2882,50.86848]},"properties":{"name":"Sarisbury","category":"village","osm_type":"node","osm_id":"8750772917"}},{"type":"Feature","geometry":{"type":"Point","coordinates":[-1.89162,50.78282]},"properties":{"name":"Dudsbury","category":"village","osm_type":"node","osm_id":"8766314772"}},{"type":"Feature","geometry":{"type":"Point","coordinates":[-1.55203,50.92698]},"properties":{"name":"Winsor","category":"village","osm_type":"node","osm_id":"9163147838"}},{"type":"Feature","geometry":{"type":"Point","coordinates":[-1.33379,50.99094]},"properties":{"name":"Highbridge","category":"village","osm_type":"node","osm_id":"9311856489"}},{"type":"Feature","geometry":{"type":"Point","coordinates":[-1.30582,50.9872]},"properties":{"name":"Fisher's Pond","category":"village","osm_type":"node","osm_id":"9311856492"}},{"type":"Feature","geometry":{"type":"Point","coordinates":[-1.72208,50.9725]},"properties":{"name":"North Charford","category":"village","osm_type":"node","osm_id":"9313183885"}},{"type":"Feature","geometry":{"type":"Point","coordinates":[-1.77532,50.96135]},"properties":{"name":"Breamore","category":"village","osm_type":"node","osm_id":"9779921923"}},{"type":"Feature","geometry":{"type":"Point","coordinates":[-1.7721,50.76414]},"properties":{"name":"Winkton","category":"village","osm_type":"node","osm_id":"9830780730"}},{"type":"Feature","geometry":{"type":"Point","coordinates":[-1.8204,50.77283]},"properties":{"name":"Hurn","category":"village","osm_type":"node","osm_id":"9831638799"}},{"type":"Feature","geometry":{"type":"Point","coordinates":[-1.73607,50.96564]},"properties":{"name":"Hale","category":"village","osm_type":"node","osm_id":"9892999531"}},{"type":"Feature","geometry":{"type":"Point","coordinates":[-1.38559,50.83511]},"properties":{"name":"Little Holbury","category":"village","osm_type":"node","osm_id":"10161849258"}},{"type":"Feature","geometry":{"type":"Point","coordinates":[-1.26725,50.94701]},"properties":{"name":"Durley","category":"village","osm_type":"node","osm_id":"10298029847"}},{"type":"Feature","geometry":{"type":"Point","coordinates":[-1.46937,50.9526]},"properties":{"name":"Upton","category":"village","osm_type":"node","osm_id":"11519670144"}},{"type":"Feature","geometry":{"type":"Point","coordinates":[-1.53157,50.76027]},"properties":{"name":"Walhampton","category":"village","osm_type":"node","osm_id":"11660283683"}},{"type":"Feature","geometry":{"type":"Point","coordinates":[-1.95869,50.59966]},"properties":{"name":"Durlston","category":"village","osm_type":"node","osm_id":"12730674364"}},{"type":"Feature","geometry":{"type":"Point","coordinates":[-1.39904,50.9138]},"properties":{"name":"Southampton","category":"city","osm_type":"relation","osm_id":"127864","operator":"Southampton City Council","website":"https://www.southampton.gov.uk/"}},{"type":"Feature","geometry":{"type":"Point","coordinates":[-1.02546,50.88542]},"properties":{"name":"Waterlooville","category":"town","osm_type":"relation","osm_id":"9273995"}},{"type":"Feature","geometry":{"type":"Point","coordinates":[-1.50162,50.92467]},"properties":{"name":"Totton","category":"town","osm_type":"relation","osm_id":"9273996"}},{"type":"Feature","geometry":{"type":"Point","coordinates":[-1.2189,50.82367]},"properties":{"name":"Stubbington","category":"town","osm_type":"relation","osm_id":"9273997"}},{"type":"Feature","geometry":{"type":"Point","coordinates":[-1.53918,50.75396]},"properties":{"name":"Lymington","category":"town","osm_type":"relation","osm_id":"9273998"}},{"type":"Feature","geometry":{"type":"Point","coordinates":[-1.19639,50.80158]},"properties":{"name":"Lee-on-the-Solent","category":"town","osm_type":"relation","osm_id":"9273999"}}]}