{"type":"FeatureCollection","features":[{"type":"Feature","geometry":{"type":"Point","coordinates":[-2.07987,50.95943]},"properties":{"name":"Tollard Royal","category":"village","osm_type":"node","osm_id":"12612477"}},{"type":"Feature","geometry":{"type":"Point","coordinates":[-2.43712,50.71321]},"properties":{"name":"Dorchester","category":"town","osm_type":"node","osm_id":"18024342"}},{"type":"Feature","geometry":{"type":"Point","coordinates":[-2.16518,50.856]},"properties":{"name":"Blandford Forum","category":"town","osm_type":"node","osm_id":"21583227"}},{"type":"Feature","geometry":{"type":"Point","coordinates":[-2.7589,50.73379]},"properties":{"name":"Bridport","category":"town","osm_type":"node","osm_id":"22594070"}},{"type":"Feature","geometry":{"type":"Point","coordinates":[-2.22054,50.67887]},"properties":{"name":"Wool","category":"village","osm_type":"node","osm_id":"23041174"}},{"type":"Feature","geometry":{"type":"Point","coordinates":[-2.10984,50.6869]},"properties":{"name":"Wareham","category":"town","osm_type":"node","osm_id":"23041176"}},{"type":"Feature","geometry":{"type":"Point","coordinates":[-2.63186,50.94205]},"properties":{"name":"Yeovil","category":"town","osm_type":"node","osm_id":"25871494"}},{"type":"Feature","geometry":{"type":"Point","coordinates":[-2.03859,50.59661]},"properties":{"name":"Worth Matravers","category":"village","osm_type":"node","osm_id":"26044908"}},{"type":"Feature","geometry":{"type":"Point","coordinates":[-2.06287,50.6165]},"properties":{"name":"Kingston","category":"village","osm_type":"node","osm_id":"26045232"}},{"type":"Feature","geometry":{"type":"Point","coordinates":[-2.45619,50.73316]},"properties":{"name":"Charminster","category":"village","osm_type":"node","osm_id":"28985975"}},{"type":"Feature","geometry":{"type":"Point","coordinates":[-2.10957,50.6754]},"properties":{"name":"Stoborough","category":"village","osm_type":"node","osm_id":"29013048"}},{"type":"Feature","geometry":{"type":"Point","coordinates":[-2.10289,50.70547]},"properties":{"name":"Sandford","category":"village","osm_type":"node","osm_id":"29017036"}},{"type":"Feature","geometry":{"type":"Point","coordinates":[-2.21646,50.75282]},"properties":{"name":"Bere Regis","category":"village","osm_type":"node","osm_id":"29017092"}},{"type":"Feature","geometry":{"type":"Point","coordinates":[-2.02093,50.7663]},"properties":{"name":"Corfe Mullen","category":"village","osm_type":"node","osm_id":"29094443"}},{"type":"Feature","geometry":{"type":"Point","coordinates":[-2.08474,50.71957]},"properties":{"name":"Holton Heath","category":"village","osm_type":"node","osm_id":"29094445"}},{"type":"Feature","geometry":{"type":"Point","coordinates":[-2.09957,50.83934]},"properties":{"name":"Tarrant Keyneston","category":"village","osm_type":"node","osm_id":"29138464"}},{"type":"Feature","geometry":{"type":"Point","coordinates":[-2.39409,50.89265]},"properties":{"name":"King's Stag","category":"village","osm_type":"node","osm_id":"29142430"}},{"type":"Feature","geometry":{"type":"Point","coordinates":[-2.47839,50.80895]},"properties":{"name":"Cerne Abbas","category":"village","osm_type":"node","osm_id":"29212982"}},{"type":"Feature","geometry":{"type":"Point","coordinates":[-2.07464,50.79586]},"properties":{"name":"Sturminster Marshall","category":"village","osm_type":"node","osm_id":"29215578"}},{"type":"Feature","geometry":{"type":"Point","coordinates":[-2.02827,50.74071]},"properties":{"name":"Upton","category":"village","osm_type":"node","osm_id":"29216609"}},{"type":"Feature","geometry":{"type":"Point","coordinates":[-2.25054,50.62592]},"properties":{"name":"West Lulworth","category":"village","osm_type":"node","osm_id":"29219023"}},{"type":"Feature","geometry":{"type":"Point","coordinates":[-2.65556,50.99863]},"properties":{"name":"Limington","category":"village","osm_type":"node","osm_id":"29673955"}},{"type":"Feature","geometry":{"type":"Point","coordinates":[-2.16543,50.84919]},"properties":{"name":"Blandford St Mary","category":"village","osm_type":"node","osm_id":"29689431"}},{"type":"Feature","geometry":{"type":"Point","coordinates":[-2.00635,50.6078]},"properties":{"name":"Langton Matravers","category":"village","osm_type":"node","osm_id":"29820186"}},{"type":"Feature","geometry":{"type":"Point","coordinates":[-2.32827,50.66636]},"properties":{"name":"Owermoigne","category":"village","osm_type":"node","osm_id":"29820690"}},{"type":"Feature","geometry":{"type":"Point","coordinates":[-2.39016,50.64615]},"properties":{"name":"Osmington","category":"village","osm_type":"node","osm_id":"29820699"}},{"type":"Feature","geometry":{"type":"Point","coordinates":[-2.66038,50.6957]},"properties":{"name":"Puncknowle","category":"village","osm_type":"node","osm_id":"29821013"}},{"type":"Feature","geometry":{"type":"Point","coordinates":[-2.47298,50.59404]},"properties":{"name":"Wyke Regis","category":"village","osm_type":"node","osm_id":"29923832"}},{"type":"Feature","geometry":{"type":"Point","coordinates":[-2.59897,50.66632]},"properties":{"name":"Abbotsbury","category":"village","osm_type":"node","osm_id":"29928046"}},{"type":"Feature","geometry":{"type":"Point","coordinates":[-2.56473,50.67064]},"properties":{"name":"Portesham","category":"village","osm_type":"node","osm_id":"29928656"}},{"type":"Feature","geometry":{"type":"Point","coordinates":[-2.50361,50.62452]},"properties":{"name":"Chickerell","category":"town","osm_type":"node","osm_id":"29928709"}},{"type":"Feature","geometry":{"type":"Point","coordinates":[-2.00297,50.89633]},"properties":{"name":"Gussage All Saints","category":"village","osm_type":"node","osm_id":"29968564"}},{"type":"Feature","geometry":{"type":"Point","coordinates":[-2.35101,50.67269]},"properties":{"name":"Warmwell","category":"village","osm_type":"node","osm_id":"30024453"}},{"type":"Feature","geometry":{"type":"Point","coordinates":[-2.32798,50.69633]},"properties":{"name":"Crossways","category":"village","osm_type":"node","osm_id":"30024454"}},{"type":"Feature","geometry":{"type":"Point","coordinates":[-2.16931,50.97882]},"properties":{"name":"Melbury Abbas","category":"village","osm_type":"node","osm_id":"30106387"}},{"type":"Feature","geometry":{"type":"Point","coordinates":[-2.33929,50.798]},"properties":{"name":"Cheselbourne","category":"village","osm_type":"node","osm_id":"30356181"}},{"type":"Feature","geometry":{"type":"Point","coordinates":[-2.31998,50.78377]},"properties":{"name":"Dewlish","category":"village","osm_type":"node","osm_id":"30356316"}},{"type":"Feature","geometry":{"type":"Point","coordinates":[-2.28166,50.77816]},"properties":{"name":"Milborne St Andrew","category":"village","osm_type":"node","osm_id":"30356895"}},{"type":"Feature","geometry":{"type":"Point","coordinates":[-2.33867,50.82242]},"properties":{"name":"Melcombe Bingham","category":"village","osm_type":"node","osm_id":"30357660"}},{"type":"Feature","geometry":{"type":"Point","coordinates":[-2.23589,50.84119]},"properties":{"name":"Winterborne Stickland","category":"village","osm_type":"node","osm_id":"30359540","website":"https://www.winterbornestickland.org.uk"}},{"type":"Feature","geometry":{"type":"Point","coordinates":[-2.18487,50.85997]},"properties":{"name":"Bryanston","category":"village","osm_type":"node","osm_id":"30363875"}},{"type":"Feature","geometry":{"type":"Point","coordinates":[-2.75034,50.85792]},"properties":{"name":"South Perrott","category":"village","osm_type":"node","osm_id":"30411620"}},{"type":"Feature","geometry":{"type":"Point","coordinates":[-2.79525,50.88421]},"properties":{"name":"Crewkerne","category":"town","osm_type":"node","osm_id":"30411860"}},{"type":"Feature","geometry":{"type":"Point","coordinates":[-2.16931,50.75149]},"properties":{"name":"Bloxworth","category":"village","osm_type":"node","osm_id":"30685312"}},{"type":"Feature","geometry":{"type":"Point","coordinates":[-2.13628,50.88325]},"properties":{"name":"Pimperne","category":"village","osm_type":"node","osm_id":"30782050"}},{"type":"Feature","geometry":{"type":"Point","coordinates":[-2.00392,50.95342]},"properties":{"name":"Sixpenny Handley","category":"village","osm_type":"node","osm_id":"30782058"}},{"type":"Feature","geometry":{"type":"Point","coordinates":[-2.4195,50.79655]},"properties":{"name":"Piddletrenthide","category":"village","osm_type":"node","osm_id":"31109190"}},{"type":"Feature","geometry":{"type":"Point","coordinates":[-2.4055,50.77399]},"properties":{"name":"Piddlehinton","category":"village","osm_type":"node","osm_id":"31109191"}},{"type":"Feature","geometry":{"type":"Point","coordinates":[-2.612,50.70832]},"properties":{"name":"Long Bredy","category":"village","osm_type":"node","osm_id":"31622950"}},{"type":"Feature","geometry":{"type":"Point","coordinates":[-2.49957,50.6993]},"properties":{"name":"Martinstown","category":"village","osm_type":"node","osm_id":"31627112"}},{"type":"Feature","geometry":{"type":"Point","coordinates":[-2.40662,50.81832]},"properties":{"name":"Plush","category":"village","osm_type":"node","osm_id":"31764145"}},{"type":"Feature","geometry":{"type":"Point","coordinates":[-2.44675,50.53289]},"properties":{"name":"Southwell","category":"village","osm_type":"node","osm_id":"31947343"}},{"type":"Feature","geometry":{"type":"Point","coordinates":[-2.44905,50.5415]},"properties":{"name":"Weston","category":"village","osm_type":"node","osm_id":"31949166"}},{"type":"Feature","geometry":{"type":"Point","coordinates":[-2.44572,50.56035]},"properties":{"name":"Fortuneswell","category":"village","osm_type":"node","osm_id":"31949540"}},{"type":"Feature","geometry":{"type":"Point","coordinates":[-2.56317,50.91764]},"properties":{"name":"Thornford","category":"village","osm_type":"node","osm_id":"32341406"}},{"type":"Feature","geometry":{"type":"Point","coordinates":[-2.5869,50.92727]},"properties":{"name":"Bradford Abbas","category":"village","osm_type":"node","osm_id":"32341407"}},{"type":"Feature","geometry":{"type":"Point","coordinates":[-2.36037,50.87511]},"properties":{"name":"Hazelbury Bryan","category":"village","osm_type":"node","osm_id":"32342996"}},{"type":"Feature","geometry":{"type":"Point","coordinates":[-2.27353,50.81791]},"properties":{"name":"Milton Abbas","category":"village","osm_type":"node","osm_id":"32343340"}},{"type":"Feature","geometry":{"type":"Point","coordinates":[-2.23179,50.80131]},"properties":{"name":"Winterborne Whitechurch","category":"village","osm_type":"node","osm_id":"32343352"}},{"type":"Feature","geometry":{"type":"Point","coordinates":[-2.19694,50.77832]},"properties":{"name":"Winterborne Kingston","category":"village","osm_type":"node","osm_id":"32343484"}},{"type":"Feature","geometry":{"type":"Point","coordinates":[-2.99011,50.99604]},"properties":{"name":"Wrantage","category":"village","osm_type":"node","osm_id":"113841165"}},{"type":"Feature","geometry":{"type":"Point","coordinates":[-2.9952,50.98051]},"properties":{"name":"Hatch Beauchamp","category":"village","osm_type":"node","osm_id":"113848169"}},{"type":"Feature","geometry":{"type":"Point","coordinates":[-2.9566,50.84735]},"properties":{"name":"Tatworth","category":"village","osm_type":"node","osm_id":"117707756"}},{"type":"Feature","geometry":{"type":"Point","coordinates":[-2.9687,50.93409]},"properties":{"name":"Broadway","category":"village","osm_type":"node","osm_id":"129927681"}},{"type":"Feature","geometry":{"type":"Point","coordinates":[-2.9671,50.95195]},"properties":{"name":"Ashill","category":"village","osm_type":"node","osm_id":"143924529"}},{"type":"Feature","geometry":{"type":"Point","coordinates":[-2.91028,50.92672]},"properties":{"name":"Ilminster","category":"town","osm_type":"node","osm_id":"143973705"}},{"type":"Feature","geometry":{"type":"Point","coordinates":[-2.73916,50.80903]},"properties":{"name":"Beaminster","category":"town","osm_type":"node","osm_id":"158703193"}},{"type":"Feature","geometry":{"type":"Point","coordinates":[-2.73554,50.74534]},"properties":{"name":"Bradpole","category":"village","osm_type":"node","osm_id":"158710189"}},{"type":"Feature","geometry":{"type":"Point","coordinates":[-2.75068,50.7244]},"properties":{"name":"Bothenhampton","category":"village","osm_type":"node","osm_id":"158710190"}},{"type":"Feature","geometry":{"type":"Point","coordinates":[-2.669,50.69353]},"properties":{"name":"Swyre","category":"village","osm_type":"node","osm_id":"158710200"}},{"type":"Feature","geometry":{"type":"Point","coordinates":[-2.7585,50.91823]},"properties":{"name":"West Chinnock","category":"village","osm_type":"node","osm_id":"160535651"}},{"type":"Feature","geometry":{"type":"Point","coordinates":[-2.75669,50.93]},"properties":{"name":"Chiselborough","category":"village","osm_type":"node","osm_id":"160535794"}},{"type":"Feature","geometry":{"type":"Point","coordinates":[-2.75011,50.95398]},"properties":{"name":"Stoke-sub-Hamdon","category":"village","osm_type":"node","osm_id":"160570876"}},{"type":"Feature","geometry":{"type":"Point","coordinates":[-2.85202,50.95121]},"properties":{"name":"Shepton Beauchamp","category":"village","osm_type":"node","osm_id":"167121280"}},{"type":"Feature","geometry":{"type":"Point","coordinates":[-2.87127,50.95955]},"properties":{"name":"Barrington","category":"village","osm_type":"node","osm_id":"167122783"}},{"type":"Feature","geometry":{"type":"Point","coordinates":[-2.95842,50.99246]},"properties":{"name":"Curry Mallet","category":"village","osm_type":"node","osm_id":"167169694"}},{"type":"Feature","geometry":{"type":"Point","coordinates":[-2.80915,50.94879]},"properties":{"name":"South Petherton","category":"village","osm_type":"node","osm_id":"167210010"}},{"type":"Feature","geometry":{"type":"Point","coordinates":[-2.76654,50.97107]},"properties":{"name":"Martock","category":"village","osm_type":"node","osm_id":"167214942"}},{"type":"Feature","geometry":{"type":"Point","coordinates":[-2.74792,50.88296]},"properties":{"name":"North Perrott","category":"village","osm_type":"node","osm_id":"190648792"}},{"type":"Feature","geometry":{"type":"Point","coordinates":[-2.71557,50.94917]},"properties":{"name":"Montacute","category":"village","osm_type":"node","osm_id":"190669962"}},{"type":"Feature","geometry":{"type":"Point","coordinates":[-2.75222,50.89393]},"properties":{"name":"Haselbury Plucknett","category":"village","osm_type":"node","osm_id":"190709819"}},{"type":"Feature","geometry":{"type":"Point","coordinates":[-2.8001,50.82019]},"properties":{"name":"Broadwindsor","category":"village","osm_type":"node","osm_id":"197475187","website":"https://broadwindsor.org/"}},{"type":"Feature","geometry":{"type":"Point","coordinates":[-2.57781,50.89426]},"properties":{"name":"Yetminster","category":"village","osm_type":"node","osm_id":"210984729"}},{"type":"Feature","geometry":{"type":"Point","coordinates":[-2.60603,50.86817]},"properties":{"name":"Melbury Osmond","category":"village","osm_type":"node","osm_id":"210990025"}},{"type":"Feature","geometry":{"type":"Point","coordinates":[-2.60567,50.8386]},"properties":{"name":"Evershot","category":"village","osm_type":"node","osm_id":"210992347"}},{"type":"Feature","geometry":{"type":"Point","coordinates":[-2.20372,50.87747]},"properties":{"name":"Durweston","category":"village","osm_type":"node","osm_id":"251479167"}},{"type":"Feature","geometry":{"type":"Point","coordinates":[-2.5649,50.86923]},"properties":{"name":"Chetnole","category":"village","osm_type":"node","osm_id":"256517230"}},{"type":"Feature","geometry":{"type":"Point","coordinates":[-2.52046,50.84646]},"properties":{"name":"Hilfield","category":"village","osm_type":"node","osm_id":"256517309"}},{"type":"Feature","geometry":{"type":"Point","coordinates":[-2.61863,50.91945]},"properties":{"name":"Stoford","category":"village","osm_type":"node","osm_id":"256517468"}},{"type":"Feature","geometry":{"type":"Point","coordinates":[-2.62566,50.92194]},"properties":{"name":"Barwick","category":"village","osm_type":"node","osm_id":"256517505"}},{"type":"Feature","geometry":{"type":"Point","coordinates":[-2.58481,50.95028]},"properties":{"name":"Over Compton","category":"village","osm_type":"node","osm_id":"256517592"}},{"type":"Feature","geometry":{"type":"Point","coordinates":[-2.57339,50.95421]},"properties":{"name":"Nether Compton","category":"village","osm_type":"node","osm_id":"256517644"}},{"type":"Feature","geometry":{"type":"Point","coordinates":[-2.57975,50.96427]},"properties":{"name":"Trent","category":"village","osm_type":"node","osm_id":"256517704"}},{"type":"Feature","geometry":{"type":"Point","coordinates":[-2.61202,50.99707]},"properties":{"name":"Chilton Cantelo","category":"village","osm_type":"node","osm_id":"257633181"}},{"type":"Feature","geometry":{"type":"Point","coordinates":[-2.71931,50.74449]},"properties":{"name":"Loders","category":"village","osm_type":"node","osm_id":"264111150"}},{"type":"Feature","geometry":{"type":"Point","coordinates":[-2.77662,50.80284]},"properties":{"name":"Stoke Abbott","category":"village","osm_type":"node","osm_id":"265516298"}},{"type":"Feature","geometry":{"type":"Point","coordinates":[-2.48545,50.8363]},"properties":{"name":"Minterne Magna","category":"village","osm_type":"node","osm_id":"267114737"}},{"type":"Feature","geometry":{"type":"Point","coordinates":[-2.71575,50.97124]},"properties":{"name":"Tintinhull","category":"village","osm_type":"node","osm_id":"268394279"}},{"type":"Feature","geometry":{"type":"Point","coordinates":[-2.20131,50.63812]},"properties":{"name":"East Lulworth","category":"village","osm_type":"node","osm_id":"270118987"}},{"type":"Feature","geometry":{"type":"Point","coordinates":[-2.27482,50.66151]},"properties":{"name":"Winfrith Newburgh","category":"village","osm_type":"node","osm_id":"271357247"}},{"type":"Feature","geometry":{"type":"Point","coordinates":[-2.19182,50.92955]},"properties":{"name":"Iwerne Minster","category":"village","osm_type":"node","osm_id":"278860818"}},{"type":"Feature","geometry":{"type":"Point","coordinates":[-2.20261,50.91454]},"properties":{"name":"Shroton","category":"village","osm_type":"node","osm_id":"278860857"}},{"type":"Feature","geometry":{"type":"Point","coordinates":[-2.23627,50.9132]},"properties":{"name":"Child Okeford","category":"village","osm_type":"node","osm_id":"278860903"}},{"type":"Feature","geometry":{"type":"Point","coordinates":[-2.27591,50.89837]},"properties":{"name":"Okeford Fitzpaine","category":"village","osm_type":"node","osm_id":"278860928"}},{"type":"Feature","geometry":{"type":"Point","coordinates":[-2.7964,50.9078]},"properties":{"name":"Merriott","category":"village","osm_type":"node","osm_id":"291793153"}},{"type":"Feature","geometry":{"type":"Point","coordinates":[-2.88985,50.90941]},"properties":{"name":"Dowlish Wake","category":"village","osm_type":"node","osm_id":"291793932"}},{"type":"Feature","geometry":{"type":"Point","coordinates":[-2.80484,50.9331]},"properties":{"name":"Over Stratton","category":"village","osm_type":"node","osm_id":"292660813"}},{"type":"Feature","geometry":{"type":"Point","coordinates":[-2.46427,50.96717]},"properties":{"name":"Milborne Port","category":"village","osm_type":"node","osm_id":"293687179"}},{"type":"Feature","geometry":{"type":"Point","coordinates":[-2.30492,50.9274]},"properties":{"name":"Sturminster Newton","category":"town","osm_type":"node","osm_id":"293687185"}},{"type":"Feature","geometry":{"type":"Point","coordinates":[-2.37617,50.95912]},"properties":{"name":"Stalbridge","category":"town","osm_type":"node","osm_id":"293687189"}},{"type":"Feature","geometry":{"type":"Point","coordinates":[-2.31733,50.96955]},"properties":{"name":"Marnhull","category":"village","osm_type":"node","osm_id":"296397536"}},{"type":"Feature","geometry":{"type":"Point","coordinates":[-2.36705,50.92046]},"properties":{"name":"Lydlinch","category":"village","osm_type":"node","osm_id":"296573860"}},{"type":"Feature","geometry":{"type":"Point","coordinates":[-2.40739,50.93269]},"properties":{"name":"Stourton Caundle","category":"village","osm_type":"node","osm_id":"296576585"}},{"type":"Feature","geometry":{"type":"Point","coordinates":[-2.46241,50.95382]},"properties":{"name":"Goathill","category":"village","osm_type":"node","osm_id":"298521112"}},{"type":"Feature","geometry":{"type":"Point","coordinates":[-2.53167,50.91325]},"properties":{"name":"Lillington","category":"village","osm_type":"node","osm_id":"305807829"}},{"type":"Feature","geometry":{"type":"Point","coordinates":[-2.59684,50.89534]},"properties":{"name":"Ryme Intrinseca","category":"village","osm_type":"node","osm_id":"305807831"}},{"type":"Feature","geometry":{"type":"Point","coordinates":[-2.99479,50.89736]},"properties":{"name":"Combe St Nicholas","category":"village","osm_type":"node","osm_id":"308993931"}},{"type":"Feature","geometry":{"type":"Point","coordinates":[-2.98318,50.89095]},"properties":{"name":"Wadeford","category":"village","osm_type":"node","osm_id":"308998003"}},{"type":"Feature","geometry":{"type":"Point","coordinates":[-2.97933,50.83427]},"properties":{"name":"Chardstock","category":"village","osm_type":"node","osm_id":"313295374"}},{"type":"Feature","geometry":{"type":"Point","coordinates":[-2.86521,50.98761]},"properties":{"name":"Hambridge","category":"village","osm_type":"node","osm_id":"315294343"}},{"type":"Feature","geometry":{"type":"Point","coordinates":[-2.8073,50.98648]},"properties":{"name":"Kingsbury Episcopi","category":"village","osm_type":"node","osm_id":"315294355"}},{"type":"Feature","geometry":{"type":"Point","coordinates":[-2.96816,50.82568]},"properties":{"name":"Tytherleigh","category":"village","osm_type":"node","osm_id":"352996630"}},{"type":"Feature","geometry":{"type":"Point","coordinates":[-2.9368,50.83976]},"properties":{"name":"Chard Junction","category":"village","osm_type":"node","osm_id":"352997605"}},{"type":"Feature","geometry":{"type":"Point","coordinates":[-2.12037,50.87061]},"properties":{"name":"Blandford Camp","category":"village","osm_type":"node","osm_id":"360418757"}},{"type":"Feature","geometry":{"type":"Point","coordinates":[-2.07785,50.87762]},"properties":{"name":"Tarrant Monkton","category":"village","osm_type":"node","osm_id":"360953968"}},{"type":"Feature","geometry":{"type":"Point","coordinates":[-2.65398,50.90866]},"properties":{"name":"East Coker","category":"village","osm_type":"node","osm_id":"373455857"}},{"type":"Feature","geometry":{"type":"Point","coordinates":[-2.12049,50.61744]},"properties":{"name":"Kimmeridge","category":"village","osm_type":"node","osm_id":"373794971"}},{"type":"Feature","geometry":{"type":"Point","coordinates":[-2.49489,50.74292]},"properties":{"name":"Stratton","category":"village","osm_type":"node","osm_id":"385349556"}},{"type":"Feature","geometry":{"type":"Point","coordinates":[-2.33101,50.89763]},"properties":{"name":"Fifehead Neville","category":"village","osm_type":"node","osm_id":"432668441"}},{"type":"Feature","geometry":{"type":"Point","coordinates":[-2.68188,50.78158]},"properties":{"name":"North Poorton","category":"village","osm_type":"node","osm_id":"432945236"}},{"type":"Feature","geometry":{"type":"Point","coordinates":[-2.72875,50.78152]},"properties":{"name":"Melplash","category":"village","osm_type":"node","osm_id":"432945248"}},{"type":"Feature","geometry":{"type":"Point","coordinates":[-2.70995,50.7781]},"properties":{"name":"Loscombe","category":"village","osm_type":"node","osm_id":"432945253"}},{"type":"Feature","geometry":{"type":"Point","coordinates":[-2.68696,50.76391]},"properties":{"name":"Powerstock","category":"village","osm_type":"node","osm_id":"432945258"}},{"type":"Feature","geometry":{"type":"Point","coordinates":[-2.68433,50.75777]},"properties":{"name":"Nettlecombe","category":"village","osm_type":"node","osm_id":"432945260"}},{"type":"Feature","geometry":{"type":"Point","coordinates":[-2.43844,50.84562]},"properties":{"name":"Buckland Newton","category":"village","osm_type":"node","osm_id":"432970315"}},{"type":"Feature","geometry":{"type":"Point","coordinates":[-2.37693,50.85397]},"properties":{"name":"Mappowder","category":"village","osm_type":"node","osm_id":"432990025"}},{"type":"Feature","geometry":{"type":"Point","coordinates":[-2.47365,50.77392]},"properties":{"name":"Godmanstone","category":"village","osm_type":"node","osm_id":"432990037"}},{"type":"Feature","geometry":{"type":"Point","coordinates":[-2.487,50.82403]},"properties":{"name":"Up Cerne","category":"village","osm_type":"node","osm_id":"432990060"}},{"type":"Feature","geometry":{"type":"Point","coordinates":[-2.52198,50.79405]},"properties":{"name":"Sydling St Nicholas","category":"village","osm_type":"node","osm_id":"432990066"}},{"type":"Feature","geometry":{"type":"Point","coordinates":[-2.57146,50.77794]},"properties":{"name":"Maiden Newton","category":"village","osm_type":"node","osm_id":"432990068"}},{"type":"Feature","geometry":{"type":"Point","coordinates":[-2.5818,50.79422]},"properties":{"name":"Cattistock","category":"village","osm_type":"node","osm_id":"432990087"}},{"type":"Feature","geometry":{"type":"Point","coordinates":[-2.62162,50.77968]},"properties":{"name":"Toller Porcorum","category":"village","osm_type":"node","osm_id":"432990098"}},{"type":"Feature","geometry":{"type":"Point","coordinates":[-2.62292,50.81743]},"properties":{"name":"Rampisham","category":"village","osm_type":"node","osm_id":"432990109"}},{"type":"Feature","geometry":{"type":"Point","coordinates":[-2.57242,50.82174]},"properties":{"name":"Frome St Quintin","category":"village","osm_type":"node","osm_id":"432990118"}},{"type":"Feature","geometry":{"type":"Point","coordinates":[-2.54301,50.83381]},"properties":{"name":"Batcombe","category":"village","osm_type":"node","osm_id":"432990127"}},{"type":"Feature","geometry":{"type":"Point","coordinates":[-2.81109,50.96731]},"properties":{"name":"East Lambrook","category":"village","osm_type":"node","osm_id":"433062054"}},{"type":"Feature","geometry":{"type":"Point","coordinates":[-2.48461,50.73548]},"properties":{"name":"Bradford Peverell","category":"village","osm_type":"node","osm_id":"435145760"}},{"type":"Feature","geometry":{"type":"Point","coordinates":[-2.57812,50.73805]},"properties":{"name":"Compton Valence","category":"village","osm_type":"node","osm_id":"435145761"}},{"type":"Feature","geometry":{"type":"Point","coordinates":[-2.59366,50.76133]},"properties":{"name":"Wynford Eagle","category":"village","osm_type":"node","osm_id":"435145762"}},{"type":"Feature","geometry":{"type":"Point","coordinates":[-2.59679,50.77399]},"properties":{"name":"Toller Fratrum","category":"village","osm_type":"node","osm_id":"435145763"}},{"type":"Feature","geometry":{"type":"Point","coordinates":[-2.53246,50.75453]},"properties":{"name":"Frampton","category":"village","osm_type":"node","osm_id":"435145764"}},{"type":"Feature","geometry":{"type":"Point","coordinates":[-2.51196,50.74587]},"properties":{"name":"Grimstone","category":"village","osm_type":"node","osm_id":"435145765"}},{"type":"Feature","geometry":{"type":"Point","coordinates":[-2.54255,50.71342]},"properties":{"name":"Winterbourne Abbas","category":"village","osm_type":"node","osm_id":"435145768"}},{"type":"Feature","geometry":{"type":"Point","coordinates":[-2.65614,50.87026]},"properties":{"name":"Halstock","category":"village","osm_type":"node","osm_id":"435145772"}},{"type":"Feature","geometry":{"type":"Point","coordinates":[-2.68532,50.84555]},"properties":{"name":"Corscombe","category":"village","osm_type":"node","osm_id":"435145773"}},{"type":"Feature","geometry":{"type":"Point","coordinates":[-2.62155,50.88797]},"properties":{"name":"Closworth","category":"village","osm_type":"node","osm_id":"435145774"}},{"type":"Feature","geometry":{"type":"Point","coordinates":[-2.45245,50.99816]},"properties":{"name":"Stowell","category":"village","osm_type":"node","osm_id":"435166273"}},{"type":"Feature","geometry":{"type":"Point","coordinates":[-2.49376,50.96419]},"properties":{"name":"Oborne","category":"village","osm_type":"node","osm_id":"435166274"}},{"type":"Feature","geometry":{"type":"Point","coordinates":[-2.4996,50.9798]},"properties":{"name":"Poyntington","category":"village","osm_type":"node","osm_id":"435166275"}},{"type":"Feature","geometry":{"type":"Point","coordinates":[-2.43402,50.95576]},"properties":{"name":"Purse Caundle","category":"village","osm_type":"node","osm_id":"435166278"}},{"type":"Feature","geometry":{"type":"Point","coordinates":[-2.4701,50.94113]},"properties":{"name":"Haydon","category":"village","osm_type":"node","osm_id":"435166283"}},{"type":"Feature","geometry":{"type":"Point","coordinates":[-2.49117,50.92854]},"properties":{"name":"North Wootton","category":"village","osm_type":"node","osm_id":"435166290"}},{"type":"Feature","geometry":{"type":"Point","coordinates":[-2.47849,50.92662]},"properties":{"name":"Alweston","category":"village","osm_type":"node","osm_id":"435166293"}},{"type":"Feature","geometry":{"type":"Point","coordinates":[-2.48537,50.91847]},"properties":{"name":"Folke","category":"village","osm_type":"node","osm_id":"435166298"}},{"type":"Feature","geometry":{"type":"Point","coordinates":[-2.50482,50.91771]},"properties":{"name":"Longburton","category":"village","osm_type":"node","osm_id":"435166304"}},{"type":"Feature","geometry":{"type":"Point","coordinates":[-2.45914,50.8728]},"properties":{"name":"Glanvilles Wootton","category":"village","osm_type":"node","osm_id":"435166316"}},{"type":"Feature","geometry":{"type":"Point","coordinates":[-2.42229,50.89628]},"properties":{"name":"Holwell","category":"village","osm_type":"node","osm_id":"435166323"}},{"type":"Feature","geometry":{"type":"Point","coordinates":[-2.47348,50.98487]},"properties":{"name":"Milborne Wick","category":"village","osm_type":"node","osm_id":"435166940"}},{"type":"Feature","geometry":{"type":"Point","coordinates":[-2.70782,50.76466]},"properties":{"name":"West Milton","category":"village","osm_type":"node","osm_id":"435193596"}},{"type":"Feature","geometry":{"type":"Point","coordinates":[-2.75154,50.79232]},"properties":{"name":"Netherbury","category":"village","osm_type":"node","osm_id":"435196142"}},{"type":"Feature","geometry":{"type":"Point","coordinates":[-2.30183,50.87066]},"properties":{"name":"Ibberton","category":"village","osm_type":"node","osm_id":"435208594"}},{"type":"Feature","geometry":{"type":"Point","coordinates":[-2.32046,50.86186]},"properties":{"name":"Woolland","category":"village","osm_type":"node","osm_id":"435208798"}},{"type":"Feature","geometry":{"type":"Point","coordinates":[-2.29801,50.88734]},"properties":{"name":"Belchalwell","category":"village","osm_type":"node","osm_id":"435213281"}},{"type":"Feature","geometry":{"type":"Point","coordinates":[-2.25703,50.83897]},"properties":{"name":"Winterborne Houghton","category":"village","osm_type":"node","osm_id":"435215567"}},{"type":"Feature","geometry":{"type":"Point","coordinates":[-2.30738,50.94437]},"properties":{"name":"Hinton St Mary","category":"village","osm_type":"node","osm_id":"435225550"}},{"type":"Feature","geometry":{"type":"Point","coordinates":[-2.2968,50.99298]},"properties":{"name":"Stour Provost","category":"village","osm_type":"node","osm_id":"435226071"}},{"type":"Feature","geometry":{"type":"Point","coordinates":[-2.43541,50.91692]},"properties":{"name":"Bishop's Caundle","category":"village","osm_type":"node","osm_id":"435226941"}},{"type":"Feature","geometry":{"type":"Point","coordinates":[-2.45931,50.91795]},"properties":{"name":"Caundle Marsh","category":"village","osm_type":"node","osm_id":"435227330"}},{"type":"Feature","geometry":{"type":"Point","coordinates":[-2.1874,50.965]},"properties":{"name":"Compton Abbas","category":"village","osm_type":"node","osm_id":"436174189"}},{"type":"Feature","geometry":{"type":"Point","coordinates":[-2.19133,50.95167]},"properties":{"name":"Fontmell Magna","category":"village","osm_type":"node","osm_id":"436174190"}},{"type":"Feature","geometry":{"type":"Point","coordinates":[-2.19712,50.94235]},"properties":{"name":"Sutton Waldron","category":"village","osm_type":"node","osm_id":"436174191"}},{"type":"Feature","geometry":{"type":"Point","coordinates":[-2.25337,50.96799]},"properties":{"name":"Margaret Marsh","category":"village","osm_type":"node","osm_id":"436174193"}},{"type":"Feature","geometry":{"type":"Point","coordinates":[-2.25362,50.94814]},"properties":{"name":"West Orchard","category":"village","osm_type":"node","osm_id":"436174209"}},{"type":"Feature","geometry":{"type":"Point","coordinates":[-2.69729,50.90422]},"properties":{"name":"Hardington Mandeville","category":"village","osm_type":"node","osm_id":"436176481"}},{"type":"Feature","geometry":{"type":"Point","coordinates":[-2.77239,50.84567]},"properties":{"name":"Mosterton","category":"village","osm_type":"node","osm_id":"436176502"}},{"type":"Feature","geometry":{"type":"Point","coordinates":[-2.82673,50.8421]},"properties":{"name":"Drimpton","category":"village","osm_type":"node","osm_id":"436176507"}},{"type":"Feature","geometry":{"type":"Point","coordinates":[-2.13832,50.99731]},"properties":{"name":"Charlton","category":"village","osm_type":"node","osm_id":"437310997"}},{"type":"Feature","geometry":{"type":"Point","coordinates":[-2.12404,50.96018]},"properties":{"name":"Ashmore","category":"village","osm_type":"node","osm_id":"438156930"}},{"type":"Feature","geometry":{"type":"Point","coordinates":[-2.92224,50.88745]},"properties":{"name":"Chaffcombe","category":"village","osm_type":"node","osm_id":"442349325"}},{"type":"Feature","geometry":{"type":"Point","coordinates":[-2.28744,50.9773]},"properties":{"name":"Todber","category":"village","osm_type":"node","osm_id":"506296487"}},{"type":"Feature","geometry":{"type":"Point","coordinates":[-2.25657,50.99023]},"properties":{"name":"Stour Row","category":"village","osm_type":"node","osm_id":"506296504"}},{"type":"Feature","geometry":{"type":"Point","coordinates":[-2.26433,50.93901]},"properties":{"name":"Manston","category":"village","osm_type":"node","osm_id":"509294202"}},{"type":"Feature","geometry":{"type":"Point","coordinates":[-2.8239,50.91032]},"properties":{"name":"Hinton St George","category":"village","osm_type":"node","osm_id":"539719620"}},{"type":"Feature","geometry":{"type":"Point","coordinates":[-2.75014,50.98274]},"properties":{"name":"Ash","category":"village","osm_type":"node","osm_id":"583357961"}},{"type":"Feature","geometry":{"type":"Point","coordinates":[-2.88615,50.82665]},"properties":{"name":"Thorncombe","category":"village","osm_type":"node","osm_id":"600059678"}},{"type":"Feature","geometry":{"type":"Point","coordinates":[-2.26879,50.66939]},"properties":{"name":"East Knighton","category":"village","osm_type":"node","osm_id":"600111689"}},{"type":"Feature","geometry":{"type":"Point","coordinates":[-2.82241,50.82368]},"properties":{"name":"Burstock","category":"village","osm_type":"node","osm_id":"616227902"}},{"type":"Feature","geometry":{"type":"Point","coordinates":[-2.82542,50.87245]},"properties":{"name":"Hewish","category":"village","osm_type":"node","osm_id":"616233969"}},{"type":"Feature","geometry":{"type":"Point","coordinates":[-2.7728,50.76706]},"properties":{"name":"Salway Ash","category":"village","osm_type":"node","osm_id":"624787808"}},{"type":"Feature","geometry":{"type":"Point","coordinates":[-2.54784,50.64103]},"properties":{"name":"Langton Herring","category":"village","osm_type":"node","osm_id":"634440811"}},{"type":"Feature","geometry":{"type":"Point","coordinates":[-2.51792,50.95027]},"properties":{"name":"Sherborne","category":"town","osm_type":"node","osm_id":"663056918"}},{"type":"Feature","geometry":{"type":"Point","coordinates":[-2.8846,50.93579]},"properties":{"name":"Whitelackington","category":"village","osm_type":"node","osm_id":"668008395"}},{"type":"Feature","geometry":{"type":"Point","coordinates":[-2.08762,50.81567]},"properties":{"name":"Shapwick","category":"village","osm_type":"node","osm_id":"671802047"}},{"type":"Feature","geometry":{"type":"Point","coordinates":[-2.60871,50.97504]},"properties":{"name":"Mudford","category":"village","osm_type":"node","osm_id":"700763064"}},{"type":"Feature","geometry":{"type":"Point","coordinates":[-2.62615,50.99008]},"properties":{"name":"Ashington","category":"village","osm_type":"node","osm_id":"700818934"}},{"type":"Feature","geometry":{"type":"Point","coordinates":[-2.56289,50.99443]},"properties":{"name":"Rimpton","category":"village","osm_type":"node","osm_id":"703587170"}},{"type":"Feature","geometry":{"type":"Point","coordinates":[-2.78556,50.72782]},"properties":{"name":"Higher Eype","category":"village","osm_type":"node","osm_id":"706700409"}},{"type":"Feature","geometry":{"type":"Point","coordinates":[-2.33687,50.82425]},"properties":{"name":"Ansty","category":"village","osm_type":"node","osm_id":"722734249"}},{"type":"Feature","geometry":{"type":"Point","coordinates":[-2.08574,50.63598]},"properties":{"name":"Church Knowle","category":"village","osm_type":"node","osm_id":"768385742"}},{"type":"Feature","geometry":{"type":"Point","coordinates":[-2.19802,50.88583]},"properties":{"name":"Stourpaine","category":"village","osm_type":"node","osm_id":"770649307"}},{"type":"Feature","geometry":{"type":"Point","coordinates":[-2.70377,50.93631]},"properties":{"name":"Odcombe","category":"village","osm_type":"node","osm_id":"771254386"}},{"type":"Feature","geometry":{"type":"Point","coordinates":[-2.71849,50.91565]},"properties":{"name":"East Chinnock","category":"village","osm_type":"node","osm_id":"773371108"}},{"type":"Feature","geometry":{"type":"Point","coordinates":[-2.31513,50.99274]},"properties":{"name":"Fifehead Magdalen","category":"village","osm_type":"node","osm_id":"868497525"}},{"type":"Feature","geometry":{"type":"Point","coordinates":[-2.09756,50.65383]},"properties":{"name":"Furzebrook","category":"village","osm_type":"node","osm_id":"898864105"}},{"type":"Feature","geometry":{"type":"Point","coordinates":[-2.39451,50.97728]},"properties":{"name":"Henstridge","category":"village","osm_type":"node","osm_id":"917624088"}},{"type":"Feature","geometry":{"type":"Point","coordinates":[-2.0793,50.99874]},"properties":{"name":"Berwick St John","category":"village","osm_type":"node","osm_id":"959220839"}},{"type":"Feature","geometry":{"type":"Point","coordinates":[-2.32333,50.89136]},"properties":{"name":"Fifehead St Quintin","category":"village","osm_type":"node","osm_id":"988291037"}},{"type":"Feature","geometry":{"type":"Point","coordinates":[-2.10789,50.91503]},"properties":{"name":"Tarrant Gunville","category":"village","osm_type":"node","osm_id":"990561336"}},{"type":"Feature","geometry":{"type":"Point","coordinates":[-2.08409,50.88793]},"properties":{"name":"Tarrant Launceston","category":"village","osm_type":"node","osm_id":"991794809"}},{"type":"Feature","geometry":{"type":"Point","coordinates":[-2.25556,50.86773]},"properties":{"name":"Turnworth","category":"village","osm_type":"node","osm_id":"1000073568"}},{"type":"Feature","geometry":{"type":"Point","coordinates":[-2.14222,50.8344]},"properties":{"name":"Charlton Marshall","category":"village","osm_type":"node","osm_id":"1008545306"}},{"type":"Feature","geometry":{"type":"Point","coordinates":[-2.1243,50.82007]},"properties":{"name":"Spetisbury","category":"village","osm_type":"node","osm_id":"1008545327"}},{"type":"Feature","geometry":{"type":"Point","coordinates":[-2.03688,50.89208]},"properties":{"name":"Long Crichel","category":"village","osm_type":"node","osm_id":"1009371038"}},{"type":"Feature","geometry":{"type":"Point","coordinates":[-2.01401,50.87674]},"properties":{"name":"Moor Crichel","category":"village","osm_type":"node","osm_id":"1009371040"}},{"type":"Feature","geometry":{"type":"Point","coordinates":[-2.01687,50.858]},"properties":{"name":"Witchampton","category":"village","osm_type":"node","osm_id":"1009546713"}},{"type":"Feature","geometry":{"type":"Point","coordinates":[-2.03485,50.92858]},"properties":{"name":"Gussage St Andrew","category":"village","osm_type":"node","osm_id":"1009625004"}},{"type":"Feature","geometry":{"type":"Point","coordinates":[-2.06906,50.92022]},"properties":{"name":"Chettle","category":"village","osm_type":"node","osm_id":"1009625027"}},{"type":"Feature","geometry":{"type":"Point","coordinates":[-2.75705,50.94178]},"properties":{"name":"Norton-sub-Hamdon","category":"village","osm_type":"node","osm_id":"1212961355"}},{"type":"Feature","geometry":{"type":"Point","coordinates":[-2.93456,50.72529]},"properties":{"name":"Lyme Regis","category":"town","osm_type":"node","osm_id":"1215468739"}},{"type":"Feature","geometry":{"type":"Point","coordinates":[-2.92388,50.9535]},"properties":{"name":"Ilton","category":"village","osm_type":"node","osm_id":"1255721988"}},{"type":"Feature","geometry":{"type":"Point","coordinates":[-2.84212,50.93321]},"properties":{"name":"Seavington St Michael","category":"village","osm_type":"node","osm_id":"1312207429"}},{"type":"Feature","geometry":{"type":"Point","coordinates":[-2.85509,50.92869]},"properties":{"name":"Seavington St Mary","category":"village","osm_type":"node","osm_id":"1312297806"}},{"type":"Feature","geometry":{"type":"Point","coordinates":[-2.88042,50.95195]},"properties":{"name":"Stocklinch","category":"village","osm_type":"node","osm_id":"1312427227"}},{"type":"Feature","geometry":{"type":"Point","coordinates":[-2.81827,50.92571]},"properties":{"name":"Lopen","category":"village","osm_type":"node","osm_id":"1313034915"}},{"type":"Feature","geometry":{"type":"Point","coordinates":[-2.96728,50.92882]},"properties":{"name":"Horton","category":"village","osm_type":"node","osm_id":"1322611010"}},{"type":"Feature","geometry":{"type":"Point","coordinates":[-2.88808,50.91826]},"properties":{"name":"Kingstone","category":"village","osm_type":"node","osm_id":"1330055849"}},{"type":"Feature","geometry":{"type":"Point","coordinates":[-2.9256,50.98426]},"properties":{"name":"Isle Abbotts","category":"village","osm_type":"node","osm_id":"1331337036"}},{"type":"Feature","geometry":{"type":"Point","coordinates":[-2.41066,50.71827]},"properties":{"name":"Stinsford","category":"village","osm_type":"node","osm_id":"1411689808"}},{"type":"Feature","geometry":{"type":"Point","coordinates":[-2.88997,50.85358]},"properties":{"name":"Winsham","category":"village","osm_type":"node","osm_id":"1449409903"}},{"type":"Feature","geometry":{"type":"Point","coordinates":[-2.02298,50.62236]},"properties":{"name":"Harman's Cross","category":"village","osm_type":"node","osm_id":"1514569019"}},{"type":"Feature","geometry":{"type":"Point","coordinates":[-2.38952,50.70475]},"properties":{"name":"West Stafford","category":"village","osm_type":"node","osm_id":"1557585869"}},{"type":"Feature","geometry":{"type":"Point","coordinates":[-2.53221,50.7084]},"properties":{"name":"Winterbourne Steepleton","category":"village","osm_type":"node","osm_id":"1558187170"}},{"type":"Feature","geometry":{"type":"Point","coordinates":[-2.29623,50.64939]},"properties":{"name":"Chaldon Herring","category":"village","osm_type":"node","osm_id":"1558635041"}},{"type":"Feature","geometry":{"type":"Point","coordinates":[-2.66142,50.68022]},"properties":{"name":"West Bexington","category":"village","osm_type":"node","osm_id":"1558660164"}},{"type":"Feature","geometry":{"type":"Point","coordinates":[-2.00537,50.83974]},"properties":{"name":"Hinton Parva","category":"village","osm_type":"node","osm_id":"1559828110"}},{"type":"Feature","geometry":{"type":"Point","coordinates":[-2.32612,50.72746]},"properties":{"name":"Tincleton","category":"village","osm_type":"node","osm_id":"1564508635"}},{"type":"Feature","geometry":{"type":"Point","coordinates":[-2.32669,50.7464]},"properties":{"name":"Athelhampton","category":"village","osm_type":"node","osm_id":"1564919461"}},{"type":"Feature","geometry":{"type":"Point","coordinates":[-2.03999,50.69319]},"properties":{"name":"Arne","category":"village","osm_type":"node","osm_id":"1564970272"}},{"type":"Feature","geometry":{"type":"Point","coordinates":[-2.09051,50.85217]},"properties":{"name":"Tarrant Rushton","category":"village","osm_type":"node","osm_id":"1584001645"}},{"type":"Feature","geometry":{"type":"Point","coordinates":[-2.24916,50.89932]},"properties":{"name":"Shillingstone","category":"village","osm_type":"node","osm_id":"1584914650"}},{"type":"Feature","geometry":{"type":"Point","coordinates":[-2.34684,50.74892]},"properties":{"name":"Puddletown","category":"village","osm_type":"node","osm_id":"1589845469"}},{"type":"Feature","geometry":{"type":"Point","coordinates":[-2.29585,50.74958]},"properties":{"name":"Tolpuddle","category":"village","osm_type":"node","osm_id":"1589880582"}},{"type":"Feature","geometry":{"type":"Point","coordinates":[-2.71498,50.72158]},"properties":{"name":"Shipton Gorge","category":"village","osm_type":"node","osm_id":"1590049414"}},{"type":"Feature","geometry":{"type":"Point","coordinates":[-2.27973,50.70363]},"properties":{"name":"Moreton","category":"village","osm_type":"node","osm_id":"1590370722"}},{"type":"Feature","geometry":{"type":"Point","coordinates":[-2.38004,50.68729]},"properties":{"name":"West Knighton","category":"village","osm_type":"node","osm_id":"1590397449"}},{"type":"Feature","geometry":{"type":"Point","coordinates":[-2.3861,50.67811]},"properties":{"name":"Broadmayne","category":"village","osm_type":"node","osm_id":"1590397503"}},{"type":"Feature","geometry":{"type":"Point","coordinates":[-2.05935,50.93481]},"properties":{"name":"Farnham","category":"village","osm_type":"node","osm_id":"1591499282"}},{"type":"Feature","geometry":{"type":"Point","coordinates":[-2.41835,50.87644]},"properties":{"name":"Pulham","category":"village","osm_type":"node","osm_id":"1591597911"}},{"type":"Feature","geometry":{"type":"Point","coordinates":[-2.72731,50.84568]},"properties":{"name":"Chedington","category":"village","osm_type":"node","osm_id":"1591741273"}},{"type":"Feature","geometry":{"type":"Point","coordinates":[-2.45434,50.60963]},"properties":{"name":"Weymouth","category":"town","osm_type":"node","osm_id":"1594024414"}},{"type":"Feature","geometry":{"type":"Point","coordinates":[-2.72726,50.70389]},"properties":{"name":"Burton Bradstock","category":"village","osm_type":"node","osm_id":"1599375798"}},{"type":"Feature","geometry":{"type":"Point","coordinates":[-2.66818,50.73219]},"properties":{"name":"Askerswell","category":"village","osm_type":"node","osm_id":"1599712132"}},{"type":"Feature","geometry":{"type":"Point","coordinates":[-2.63781,50.71373]},"properties":{"name":"Litton Cheney","category":"village","osm_type":"node","osm_id":"1599712362"}},{"type":"Feature","geometry":{"type":"Point","coordinates":[-2.7835,50.72181]},"properties":{"name":"Eype","category":"village","osm_type":"node","osm_id":"1600629968"}},{"type":"Feature","geometry":{"type":"Point","coordinates":[-2.78842,50.73973]},"properties":{"name":"Symondsbury","category":"village","osm_type":"node","osm_id":"1600633454"}},{"type":"Feature","geometry":{"type":"Point","coordinates":[-2.81911,50.74372]},"properties":{"name":"North Chideock","category":"village","osm_type":"node","osm_id":"1600637930"}},{"type":"Feature","geometry":{"type":"Point","coordinates":[-2.85077,50.74435]},"properties":{"name":"Morcombelake","category":"village","osm_type":"node","osm_id":"1600651243"}},{"type":"Feature","geometry":{"type":"Point","coordinates":[-2.85874,50.75377]},"properties":{"name":"Whitchurch Canonicorum","category":"village","osm_type":"node","osm_id":"1600651297"}},{"type":"Feature","geometry":{"type":"Point","coordinates":[-2.90159,50.73825]},"properties":{"name":"Charmouth","category":"village","osm_type":"node","osm_id":"1600658119"}},{"type":"Feature","geometry":{"type":"Point","coordinates":[-2.05723,50.63889]},"properties":{"name":"Corfe Castle","category":"village","osm_type":"node","osm_id":"1601778805","addr:postcode":"BH20 5ED"}},{"type":"Feature","geometry":{"type":"Point","coordinates":[-2.79949,50.76467]},"properties":{"name":"Broad Oak","category":"village","osm_type":"node","osm_id":"1602488594"}},{"type":"Feature","geometry":{"type":"Point","coordinates":[-2.93546,50.80044]},"properties":{"name":"Hawkchurch","category":"village","osm_type":"node","osm_id":"1602597799"}},{"type":"Feature","geometry":{"type":"Point","coordinates":[-2.87483,50.79335]},"properties":{"name":"Marshwood","category":"village","osm_type":"node","osm_id":"1602653212"}},{"type":"Feature","geometry":{"type":"Point","coordinates":[-2.90023,50.75633]},"properties":{"name":"Wootton Fitzpaine","category":"village","osm_type":"node","osm_id":"1602658844"}},{"type":"Feature","geometry":{"type":"Point","coordinates":[-2.4216,50.64756]},"properties":{"name":"Preston","category":"village","osm_type":"node","osm_id":"1604658266"}},{"type":"Feature","geometry":{"type":"Point","coordinates":[-2.48143,50.64258]},"properties":{"name":"Nottington","category":"village","osm_type":"node","osm_id":"1607990296"}},{"type":"Feature","geometry":{"type":"Point","coordinates":[-2.58328,50.69969]},"properties":{"name":"Littlebredy","category":"village","osm_type":"node","osm_id":"1608045716"}},{"type":"Feature","geometry":{"type":"Point","coordinates":[-2.41593,50.6527]},"properties":{"name":"Sutton Poyntz","category":"village","osm_type":"node","osm_id":"1611119786"}},{"type":"Feature","geometry":{"type":"Point","coordinates":[-2.05787,50.73595]},"properties":{"name":"Lytchett Minster","category":"village","osm_type":"node","osm_id":"1620475300"}},{"type":"Feature","geometry":{"type":"Point","coordinates":[-2.07803,50.7571]},"properties":{"name":"Lytchett Matravers","category":"village","osm_type":"node","osm_id":"1620475306"}},{"type":"Feature","geometry":{"type":"Point","coordinates":[-2.99799,50.7821]},"properties":{"name":"Axminster","category":"town","osm_type":"node","osm_id":"1620704843"}},{"type":"Feature","geometry":{"type":"Point","coordinates":[-2.95542,50.73645]},"properties":{"name":"Uplyme","category":"village","osm_type":"node","osm_id":"1627983535"}},{"type":"Feature","geometry":{"type":"Point","coordinates":[-2.46943,50.66262]},"properties":{"name":"Upwey","category":"village","osm_type":"node","osm_id":"1747166075"}},{"type":"Feature","geometry":{"type":"Point","coordinates":[-2.76972,50.86921]},"properties":{"name":"Misterton","category":"village","osm_type":"node","osm_id":"1787599463"}},{"type":"Feature","geometry":{"type":"Point","coordinates":[-2.45649,50.75073]},"properties":{"name":"Charlton Down","category":"village","osm_type":"node","osm_id":"1796473398"}},{"type":"Feature","geometry":{"type":"Point","coordinates":[-2.53496,50.98453]},"properties":{"name":"Sandford Orcas","category":"village","osm_type":"node","osm_id":"1822246363"}},{"type":"Feature","geometry":{"type":"Point","coordinates":[-2.33444,50.82698]},"properties":{"name":"Lower Ansty","category":"village","osm_type":"node","osm_id":"2246908809"}},{"type":"Feature","geometry":{"type":"Point","coordinates":[-2.02215,50.90244]},"properties":{"name":"Gussage St Michael","category":"village","osm_type":"node","osm_id":"2271183913"}},{"type":"Feature","geometry":{"type":"Point","coordinates":[-2.67889,50.96957]},"properties":{"name":"Chilthorne Domer","category":"village","osm_type":"node","osm_id":"2613216856"}},{"type":"Feature","geometry":{"type":"Point","coordinates":[-2.24474,50.69977]},"properties":{"name":"Bovington","category":"village","osm_type":"node","osm_id":"2625389767"}},{"type":"Feature","geometry":{"type":"Point","coordinates":[-2.40793,50.78223]},"properties":{"name":"White Lackington","category":"village","osm_type":"node","osm_id":"2796679745"}},{"type":"Feature","geometry":{"type":"Point","coordinates":[-2.10403,50.671]},"properties":{"name":"Stoborough Green","category":"village","osm_type":"node","osm_id":"3003811326"}},{"type":"Feature","geometry":{"type":"Point","coordinates":[-2.90531,50.98589]},"properties":{"name":"Isle Brewers","category":"village","osm_type":"node","osm_id":"3296251215"}},{"type":"Feature","geometry":{"type":"Point","coordinates":[-2.18497,50.67645]},"properties":{"name":"East Stoke","category":"village","osm_type":"node","osm_id":"3726289824"}},{"type":"Feature","geometry":{"type":"Point","coordinates":[-2.01265,50.80355]},"properties":{"name":"Pamphill","category":"village","osm_type":"node","osm_id":"3805610564"}},{"type":"Feature","geometry":{"type":"Point","coordinates":[-2.12121,50.75875]},"properties":{"name":"Morden","category":"village","osm_type":"node","osm_id":"3829811865"}},{"type":"Feature","geometry":{"type":"Point","coordinates":[-2.51621,50.62052]},"properties":{"name":"Fleet","category":"village","osm_type":"node","osm_id":"3837883198"}},{"type":"Feature","geometry":{"type":"Point","coordinates":[-2.44411,50.56796]},"properties":{"name":"Castletown","category":"village","osm_type":"node","osm_id":"4512270074"}},{"type":"Feature","geometry":{"type":"Point","coordinates":[-2.44855,50.56205]},"properties":{"name":"Chiswell","category":"village","osm_type":"node","osm_id":"4512274651"}},{"type":"Feature","geometry":{"type":"Point","coordinates":[-2.42476,50.55154]},"properties":{"name":"The Grove","category":"village","osm_type":"node","osm_id":"4512277169"}},{"type":"Feature","geometry":{"type":"Point","coordinates":[-2.0939,50.67684]},"properties":{"name":"Ridge","category":"village","osm_type":"node","osm_id":"4547117689"}},{"type":"Feature","geometry":{"type":"Point","coordinates":[-2.84952,50.91438]},"properties":{"name":"Dinnington","category":"village","osm_type":"node","osm_id":"5000237805"}},{"type":"Feature","geometry":{"type":"Point","coordinates":[-2.43566,50.54524]},"properties":{"name":"Easton","category":"village","osm_type":"node","osm_id":"5010467413"}},{"type":"Feature","geometry":{"type":"Point","coordinates":[-2.54494,50.87521]},"properties":{"name":"Leigh","category":"village","osm_type":"node","osm_id":"5307131850"}},{"type":"Feature","geometry":{"type":"Point","coordinates":[-2.57149,50.9046]},"properties":{"name":"Beer Hackett","category":"village","osm_type":"node","osm_id":"5308049284"}},{"type":"Feature","geometry":{"type":"Point","coordinates":[-2.95974,50.87367]},"properties":{"name":"Chard","category":"town","osm_type":"node","osm_id":"6477892361"}},{"type":"Feature","geometry":{"type":"Point","coordinates":[-2.94212,50.92193]},"properties":{"name":"Donyatt","category":"village","osm_type":"node","osm_id":"6585155385"}},{"type":"Feature","geometry":{"type":"Point","coordinates":[-2.68697,50.91912]},"properties":{"name":"West Coker","category":"village","osm_type":"node","osm_id":"7600092863"}},{"type":"Feature","geometry":{"type":"Point","coordinates":[-2.33118,50.83453]},"properties":{"name":"Higher Ansty","category":"village","osm_type":"node","osm_id":"8930845142"}},{"type":"Feature","geometry":{"type":"Point","coordinates":[-2.50383,50.94936]},"properties":{"name":"Castleton","category":"village","osm_type":"node","osm_id":"8932353977"}},{"type":"Feature","geometry":{"type":"Point","coordinates":[-2.73604,50.73131]},"properties":{"name":"Walditch","category":"village","osm_type":"node","osm_id":"10294224012"}},{"type":"Feature","geometry":{"type":"Point","coordinates":[-2.71387,50.74199]},"properties":{"name":"Yondover","category":"village","osm_type":"node","osm_id":"11410933083"}},{"type":"Feature","geometry":{"type":"Point","coordinates":[-2.94906,50.84181]},"properties":{"name":"South Chard","category":"village","osm_type":"node","osm_id":"12997847867"}},{"type":"Feature","geometry":{"type":"Point","coordinates":[-2.44228,50.71168]},"properties":{"name":"Dorchester","category":"town","osm_type":"relation","osm_id":"5669393","website":"https://www.dorchester-tc.gov.uk/"}},{"type":"Feature","geometry":{"type":"Point","coordinates":[-2.96147,50.7633]},"properties":{"name":"Raymond's Hill","category":"village","osm_type":"way","osm_id":"290267234"}}]}