{"type":"FeatureCollection","features":[{"type":"Feature","geometry":{"type":"Point","coordinates":[-2.62943,53.65319]},"properties":{"name":"Chorley","category":"town","osm_type":"node","osm_id":"21434926"}},{"type":"Feature","geometry":{"type":"Point","coordinates":[-2.69927,53.75934]},"properties":{"name":"Preston","category":"city","osm_type":"node","osm_id":"21436318"}},{"type":"Feature","geometry":{"type":"Point","coordinates":[-2.01603,53.96185]},"properties":{"name":"Skipton","category":"town","osm_type":"node","osm_id":"21663920"}},{"type":"Feature","geometry":{"type":"Point","coordinates":[-2.39268,53.87175]},"properties":{"name":"Clitheroe","category":"town","osm_type":"node","osm_id":"21664715"}},{"type":"Feature","geometry":{"type":"Point","coordinates":[-2.48406,53.74933]},"properties":{"name":"Blackburn","category":"town","osm_type":"node","osm_id":"21664801"}},{"type":"Feature","geometry":{"type":"Point","coordinates":[-2.60005,53.6163]},"properties":{"name":"Adlington","category":"village","osm_type":"node","osm_id":"24950724"}},{"type":"Feature","geometry":{"type":"Point","coordinates":[-2.60796,53.62487]},"properties":{"name":"Heath Charnock","category":"village","osm_type":"node","osm_id":"24950725"}},{"type":"Feature","geometry":{"type":"Point","coordinates":[-2.54692,53.59716]},"properties":{"name":"Horwich","category":"town","osm_type":"node","osm_id":"24950726"}},{"type":"Feature","geometry":{"type":"Point","coordinates":[-2.38929,53.7734]},"properties":{"name":"Clayton-le-Moors","category":"town","osm_type":"node","osm_id":"24972459"}},{"type":"Feature","geometry":{"type":"Point","coordinates":[-2.0914,53.64105]},"properties":{"name":"Littleborough","category":"town","osm_type":"node","osm_id":"26134760"}},{"type":"Feature","geometry":{"type":"Point","coordinates":[-2.09775,53.71373]},"properties":{"name":"Todmorden","category":"town","osm_type":"node","osm_id":"26134830"}},{"type":"Feature","geometry":{"type":"Point","coordinates":[-2.24392,53.79073]},"properties":{"name":"Burnley","category":"town","osm_type":"node","osm_id":"26610281"}},{"type":"Feature","geometry":{"type":"Point","coordinates":[-2.46651,53.6961]},"properties":{"name":"Darwen","category":"town","osm_type":"node","osm_id":"26703042"}},{"type":"Feature","geometry":{"type":"Point","coordinates":[-2.36554,53.75412]},"properties":{"name":"Accrington","category":"town","osm_type":"node","osm_id":"26703043"}},{"type":"Feature","geometry":{"type":"Point","coordinates":[-2.32569,53.70496]},"properties":{"name":"Haslingden","category":"town","osm_type":"node","osm_id":"26703051"}},{"type":"Feature","geometry":{"type":"Point","coordinates":[-2.28627,53.70128]},"properties":{"name":"Rawtenstall","category":"town","osm_type":"node","osm_id":"26703052"}},{"type":"Feature","geometry":{"type":"Point","coordinates":[-2.21165,53.83634]},"properties":{"name":"Nelson","category":"town","osm_type":"node","osm_id":"26703084"}},{"type":"Feature","geometry":{"type":"Point","coordinates":[-2.16912,53.85677]},"properties":{"name":"Colne","category":"town","osm_type":"node","osm_id":"26703085"}},{"type":"Feature","geometry":{"type":"Point","coordinates":[-2.19333,53.75501]},"properties":{"name":"Holme Chapel","category":"village","osm_type":"node","osm_id":"26915329"}},{"type":"Feature","geometry":{"type":"Point","coordinates":[-2.21017,53.76834]},"properties":{"name":"Walk Mill","category":"village","osm_type":"node","osm_id":"26915379"}},{"type":"Feature","geometry":{"type":"Point","coordinates":[-2.15582,53.7342]},"properties":{"name":"Portsmouth","category":"village","osm_type":"node","osm_id":"26915709"}},{"type":"Feature","geometry":{"type":"Point","coordinates":[-2.13806,53.73207]},"properties":{"name":"Cornholme","category":"village","osm_type":"node","osm_id":"26915711"}},{"type":"Feature","geometry":{"type":"Point","coordinates":[-2.12149,53.72653]},"properties":{"name":"Lydgate","category":"village","osm_type":"node","osm_id":"26915754"}},{"type":"Feature","geometry":{"type":"Point","coordinates":[-2.10145,53.69513]},"properties":{"name":"Walsden","category":"village","osm_type":"node","osm_id":"26953573"}},{"type":"Feature","geometry":{"type":"Point","coordinates":[-2.20105,53.70249]},"properties":{"name":"Bacup","category":"town","osm_type":"node","osm_id":"27007624"}},{"type":"Feature","geometry":{"type":"Point","coordinates":[-2.3157,53.64838]},"properties":{"name":"Ramsbottom","category":"town","osm_type":"node","osm_id":"27039321"}},{"type":"Feature","geometry":{"type":"Point","coordinates":[-2.32615,53.55934]},"properties":{"name":"Radcliffe","category":"town","osm_type":"node","osm_id":"27329883"}},{"type":"Feature","geometry":{"type":"Point","coordinates":[-2.29602,53.53043]},"properties":{"name":"Prestwich","category":"town","osm_type":"node","osm_id":"27329885"}},{"type":"Feature","geometry":{"type":"Point","coordinates":[-2.11478,53.54158]},"properties":{"name":"Oldham","category":"town","osm_type":"node","osm_id":"27329894"}},{"type":"Feature","geometry":{"type":"Point","coordinates":[-2.13783,53.54546]},"properties":{"name":"Chadderton","category":"town","osm_type":"node","osm_id":"27329896"}},{"type":"Feature","geometry":{"type":"Point","coordinates":[-2.19944,53.54882]},"properties":{"name":"Middleton","category":"town","osm_type":"node","osm_id":"27329897"}},{"type":"Feature","geometry":{"type":"Point","coordinates":[-2.0935,53.57823]},"properties":{"name":"Shaw","category":"town","osm_type":"node","osm_id":"27329900"}},{"type":"Feature","geometry":{"type":"Point","coordinates":[-2.12361,53.56525]},"properties":{"name":"Royton","category":"town","osm_type":"node","osm_id":"27329901"}},{"type":"Feature","geometry":{"type":"Point","coordinates":[-2.15576,53.61537]},"properties":{"name":"Rochdale","category":"town","osm_type":"node","osm_id":"27329903"}},{"type":"Feature","geometry":{"type":"Point","coordinates":[-2.22397,53.59677]},"properties":{"name":"Heywood","category":"town","osm_type":"node","osm_id":"27329904"}},{"type":"Feature","geometry":{"type":"Point","coordinates":[-2.29728,53.59275]},"properties":{"name":"Bury","category":"town","osm_type":"node","osm_id":"27329906"}},{"type":"Feature","geometry":{"type":"Point","coordinates":[-2.43004,53.57829]},"properties":{"name":"Bolton","category":"town","osm_type":"node","osm_id":"27329908"}},{"type":"Feature","geometry":{"type":"Point","coordinates":[-2.63191,53.54622]},"properties":{"name":"Wigan","category":"town","osm_type":"node","osm_id":"27329909"}},{"type":"Feature","geometry":{"type":"Point","coordinates":[-2.57782,53.53353]},"properties":{"name":"Hindley","category":"town","osm_type":"node","osm_id":"27329910"}},{"type":"Feature","geometry":{"type":"Point","coordinates":[-2.49058,53.52497]},"properties":{"name":"Atherton","category":"town","osm_type":"node","osm_id":"27329913"}},{"type":"Feature","geometry":{"type":"Point","coordinates":[-2.46617,53.51449]},"properties":{"name":"Tyldesley","category":"town","osm_type":"node","osm_id":"27329915"}},{"type":"Feature","geometry":{"type":"Point","coordinates":[-2.3418,53.50954]},"properties":{"name":"Swinton","category":"town","osm_type":"node","osm_id":"27329919"}},{"type":"Feature","geometry":{"type":"Point","coordinates":[-2.64331,53.74309]},"properties":{"name":"Higher Walton","category":"village","osm_type":"node","osm_id":"27505885"}},{"type":"Feature","geometry":{"type":"Point","coordinates":[-2.62017,53.73408]},"properties":{"name":"Gregson Lane","category":"village","osm_type":"node","osm_id":"27505886"}},{"type":"Feature","geometry":{"type":"Point","coordinates":[-2.10495,53.98311]},"properties":{"name":"Gargrave","category":"village","osm_type":"node","osm_id":"28871815"}},{"type":"Feature","geometry":{"type":"Point","coordinates":[-2.15083,53.99058]},"properties":{"name":"Coniston Cold","category":"village","osm_type":"node","osm_id":"28888414"}},{"type":"Feature","geometry":{"type":"Point","coordinates":[-2.6607,53.72911]},"properties":{"name":"Bamber Bridge","category":"village","osm_type":"node","osm_id":"28990114"}},{"type":"Feature","geometry":{"type":"Point","coordinates":[-2.60946,53.71332]},"properties":{"name":"Brindle","category":"village","osm_type":"node","osm_id":"28990115"}},{"type":"Feature","geometry":{"type":"Point","coordinates":[-2.61936,53.74166]},"properties":{"name":"Coupe Green","category":"village","osm_type":"node","osm_id":"28990116"}},{"type":"Feature","geometry":{"type":"Point","coordinates":[-2.5965,53.73676]},"properties":{"name":"Hoghton","category":"village","osm_type":"node","osm_id":"28990117"}},{"type":"Feature","geometry":{"type":"Point","coordinates":[-2.43172,53.7179]},"properties":{"name":"Belthorn","category":"village","osm_type":"node","osm_id":"29020174"}},{"type":"Feature","geometry":{"type":"Point","coordinates":[-2.44511,53.72798]},"properties":{"name":"Guide","category":"village","osm_type":"node","osm_id":"29020175"}},{"type":"Feature","geometry":{"type":"Point","coordinates":[-2.43103,53.69645]},"properties":{"name":"Hoddlesden","category":"village","osm_type":"node","osm_id":"29020176"}},{"type":"Feature","geometry":{"type":"Point","coordinates":[-2.47101,53.7217]},"properties":{"name":"Lower Darwen","category":"village","osm_type":"node","osm_id":"29020180"}},{"type":"Feature","geometry":{"type":"Point","coordinates":[-2.3988,53.73982]},"properties":{"name":"Oswaldtwistle","category":"town","osm_type":"node","osm_id":"29020181"}},{"type":"Feature","geometry":{"type":"Point","coordinates":[-2.41807,53.74584]},"properties":{"name":"Stanhill","category":"village","osm_type":"node","osm_id":"29020182"}},{"type":"Feature","geometry":{"type":"Point","coordinates":[-2.44159,53.74555]},"properties":{"name":"Knuzden Brook","category":"village","osm_type":"node","osm_id":"29020184"}},{"type":"Feature","geometry":{"type":"Point","coordinates":[-2.41783,53.76767]},"properties":{"name":"Rishton","category":"town","osm_type":"node","osm_id":"29020269"}},{"type":"Feature","geometry":{"type":"Point","coordinates":[-2.47572,53.78526]},"properties":{"name":"Wilpshire","category":"village","osm_type":"node","osm_id":"29020276"}},{"type":"Feature","geometry":{"type":"Point","coordinates":[-2.44782,53.80262]},"properties":{"name":"Langho","category":"village","osm_type":"node","osm_id":"29020277"}},{"type":"Feature","geometry":{"type":"Point","coordinates":[-2.51633,53.7031]},"properties":{"name":"Tockholes","category":"village","osm_type":"node","osm_id":"29020280"}},{"type":"Feature","geometry":{"type":"Point","coordinates":[-2.54518,53.69949]},"properties":{"name":"Abbey Village","category":"village","osm_type":"node","osm_id":"29020281"}},{"type":"Feature","geometry":{"type":"Point","coordinates":[-2.56653,53.68846]},"properties":{"name":"Brinscall","category":"village","osm_type":"node","osm_id":"29020282"}},{"type":"Feature","geometry":{"type":"Point","coordinates":[-2.5593,53.69591]},"properties":{"name":"Withnell","category":"village","osm_type":"node","osm_id":"29020283"}},{"type":"Feature","geometry":{"type":"Point","coordinates":[-2.48573,53.7904]},"properties":{"name":"Salesbury","category":"village","osm_type":"node","osm_id":"29020424"}},{"type":"Feature","geometry":{"type":"Point","coordinates":[-2.60335,53.82991]},"properties":{"name":"Longridge","category":"town","osm_type":"node","osm_id":"29050484"}},{"type":"Feature","geometry":{"type":"Point","coordinates":[-2.54682,53.77553]},"properties":{"name":"Mellor Brook","category":"village","osm_type":"node","osm_id":"29050494"}},{"type":"Feature","geometry":{"type":"Point","coordinates":[-2.62209,53.76832]},"properties":{"name":"Samlesbury","category":"village","osm_type":"node","osm_id":"29050495"}},{"type":"Feature","geometry":{"type":"Point","coordinates":[-2.63106,53.80442]},"properties":{"name":"Grimsargh","category":"village","osm_type":"node","osm_id":"29050497"}},{"type":"Feature","geometry":{"type":"Point","coordinates":[-2.47983,53.83655]},"properties":{"name":"Hurst Green","category":"village","osm_type":"node","osm_id":"29050960"}},{"type":"Feature","geometry":{"type":"Point","coordinates":[-2.43419,53.84745]},"properties":{"name":"Great Mitton","category":"village","osm_type":"node","osm_id":"29050961"}},{"type":"Feature","geometry":{"type":"Point","coordinates":[-2.42128,53.81645]},"properties":{"name":"Billington","category":"village","osm_type":"node","osm_id":"29050963"}},{"type":"Feature","geometry":{"type":"Point","coordinates":[-2.53635,53.8121]},"properties":{"name":"Ribchester","category":"village","osm_type":"node","osm_id":"29050966"}},{"type":"Feature","geometry":{"type":"Point","coordinates":[-2.55853,53.78655]},"properties":{"name":"Balderstone","category":"village","osm_type":"node","osm_id":"29050968"}},{"type":"Feature","geometry":{"type":"Point","coordinates":[-2.53798,53.78293]},"properties":{"name":"Osbaldeston","category":"village","osm_type":"node","osm_id":"29050969"}},{"type":"Feature","geometry":{"type":"Point","coordinates":[-2.5759,53.88494]},"properties":{"name":"Chipping","category":"village","osm_type":"node","osm_id":"29050972"}},{"type":"Feature","geometry":{"type":"Point","coordinates":[-2.65226,53.90084]},"properties":{"name":"Bleasdale","category":"village","osm_type":"node","osm_id":"29050975"}},{"type":"Feature","geometry":{"type":"Point","coordinates":[-2.46485,53.88544]},"properties":{"name":"Bashall Eaves","category":"village","osm_type":"node","osm_id":"29050977"}},{"type":"Feature","geometry":{"type":"Point","coordinates":[-2.40596,53.82154]},"properties":{"name":"Whalley","category":"village","osm_type":"node","osm_id":"29050980"}},{"type":"Feature","geometry":{"type":"Point","coordinates":[-2.54268,53.73252]},"properties":{"name":"Pleasington","category":"village","osm_type":"node","osm_id":"29065124"}},{"type":"Feature","geometry":{"type":"Point","coordinates":[-2.60676,53.68548]},"properties":{"name":"Wheelton","category":"village","osm_type":"node","osm_id":"29065136"}},{"type":"Feature","geometry":{"type":"Point","coordinates":[-2.01849,53.91855]},"properties":{"name":"Cononley","category":"village","osm_type":"node","osm_id":"29070570"}},{"type":"Feature","geometry":{"type":"Point","coordinates":[-2.00021,53.89948]},"properties":{"name":"Glusburn","category":"village","osm_type":"node","osm_id":"29070571"}},{"type":"Feature","geometry":{"type":"Point","coordinates":[-2.56509,53.62557]},"properties":{"name":"Rivington","category":"village","osm_type":"node","osm_id":"29083786"}},{"type":"Feature","geometry":{"type":"Point","coordinates":[-2.14267,53.91604]},"properties":{"name":"Earby","category":"town","osm_type":"node","osm_id":"29087524"}},{"type":"Feature","geometry":{"type":"Point","coordinates":[-2.16758,53.87626]},"properties":{"name":"Foulridge","category":"village","osm_type":"node","osm_id":"29087525"}},{"type":"Feature","geometry":{"type":"Point","coordinates":[-2.14977,53.89804]},"properties":{"name":"Kelbrook","category":"village","osm_type":"node","osm_id":"29087527"}},{"type":"Feature","geometry":{"type":"Point","coordinates":[-2.14229,53.93233]},"properties":{"name":"Thornton In Craven","category":"village","osm_type":"node","osm_id":"29087528"}},{"type":"Feature","geometry":{"type":"Point","coordinates":[-2.1084,53.93932]},"properties":{"name":"Elslack","category":"village","osm_type":"node","osm_id":"29087529"}},{"type":"Feature","geometry":{"type":"Point","coordinates":[-2.17146,53.90533]},"properties":{"name":"Salterforth","category":"village","osm_type":"node","osm_id":"29087531"}},{"type":"Feature","geometry":{"type":"Point","coordinates":[-2.18732,53.91708]},"properties":{"name":"Barnoldswick","category":"town","osm_type":"node","osm_id":"29087532"}},{"type":"Feature","geometry":{"type":"Point","coordinates":[-2.63901,53.68929]},"properties":{"name":"Whittle le Woods","category":"village","osm_type":"node","osm_id":"29134947"}},{"type":"Feature","geometry":{"type":"Point","coordinates":[-2.67212,53.69632]},"properties":{"name":"Clayton-le-Woods","category":"village","osm_type":"node","osm_id":"29136826"}},{"type":"Feature","geometry":{"type":"Point","coordinates":[-2.64332,53.70581]},"properties":{"name":"Clayton Green","category":"village","osm_type":"node","osm_id":"29136827"}},{"type":"Feature","geometry":{"type":"Point","coordinates":[-2.63685,53.71291]},"properties":{"name":"Clayton Brook","category":"village","osm_type":"node","osm_id":"29136828"}},{"type":"Feature","geometry":{"type":"Point","coordinates":[-2.72384,53.81002]},"properties":{"name":"Broughton","category":"village","osm_type":"node","osm_id":"29145687"}},{"type":"Feature","geometry":{"type":"Point","coordinates":[-2.73612,53.8318]},"properties":{"name":"Barton","category":"village","osm_type":"node","osm_id":"29145688"}},{"type":"Feature","geometry":{"type":"Point","coordinates":[-2.75883,53.80807]},"properties":{"name":"Woodplumpton","category":"village","osm_type":"node","osm_id":"29145689"}},{"type":"Feature","geometry":{"type":"Point","coordinates":[-2.73017,53.7498]},"properties":{"name":"Penwortham","category":"town","osm_type":"node","osm_id":"29145691"}},{"type":"Feature","geometry":{"type":"Point","coordinates":[-2.71672,53.87259]},"properties":{"name":"Claughton","category":"village","osm_type":"node","osm_id":"29145695"}},{"type":"Feature","geometry":{"type":"Point","coordinates":[-2.77348,53.90158]},"properties":{"name":"Garstang","category":"town","osm_type":"node","osm_id":"29145696"}},{"type":"Feature","geometry":{"type":"Point","coordinates":[-2.76381,53.87712]},"properties":{"name":"Catterall","category":"village","osm_type":"node","osm_id":"29145697"}},{"type":"Feature","geometry":{"type":"Point","coordinates":[-2.78985,53.88102]},"properties":{"name":"Churchtown","category":"village","osm_type":"node","osm_id":"29145698"}},{"type":"Feature","geometry":{"type":"Point","coordinates":[-2.79353,53.8156]},"properties":{"name":"Catforth","category":"village","osm_type":"node","osm_id":"29145700"}},{"type":"Feature","geometry":{"type":"Point","coordinates":[-2.7835,53.95564]},"properties":{"name":"Forton","category":"village","osm_type":"node","osm_id":"29145710"}},{"type":"Feature","geometry":{"type":"Point","coordinates":[-2.7738,53.91814]},"properties":{"name":"Cabus","category":"village","osm_type":"node","osm_id":"29145711"}},{"type":"Feature","geometry":{"type":"Point","coordinates":[-2.7356,53.97626]},"properties":{"name":"Dolphinholme","category":"village","osm_type":"node","osm_id":"29145712"}},{"type":"Feature","geometry":{"type":"Point","coordinates":[-2.49506,53.63921]},"properties":{"name":"Belmont","category":"village","osm_type":"node","osm_id":"29296076"}},{"type":"Feature","geometry":{"type":"Point","coordinates":[-2.43884,53.63025]},"properties":{"name":"Egerton","category":"village","osm_type":"node","osm_id":"29296102"}},{"type":"Feature","geometry":{"type":"Point","coordinates":[-2.39257,53.64748]},"properties":{"name":"Edgworth","category":"village","osm_type":"node","osm_id":"29363180"}},{"type":"Feature","geometry":{"type":"Point","coordinates":[-2.60658,53.50888]},"properties":{"name":"Bamfurlong","category":"village","osm_type":"node","osm_id":"29369440"}},{"type":"Feature","geometry":{"type":"Point","coordinates":[-2.65191,53.50019]},"properties":{"name":"Bryn","category":"village","osm_type":"node","osm_id":"29369443"}},{"type":"Feature","geometry":{"type":"Point","coordinates":[-2.69261,53.57099]},"properties":{"name":"Shevington","category":"village","osm_type":"node","osm_id":"29369449"}},{"type":"Feature","geometry":{"type":"Point","coordinates":[-2.66395,53.58643]},"properties":{"name":"Standish","category":"village","osm_type":"node","osm_id":"29383044"}},{"type":"Feature","geometry":{"type":"Point","coordinates":[-2.66693,53.63472]},"properties":{"name":"Charnock Richard","category":"village","osm_type":"node","osm_id":"29383055"}},{"type":"Feature","geometry":{"type":"Point","coordinates":[-2.59538,53.57611]},"properties":{"name":"Haigh","category":"village","osm_type":"node","osm_id":"29383056"}},{"type":"Feature","geometry":{"type":"Point","coordinates":[-2.58459,53.57274]},"properties":{"name":"Aspull Moor","category":"village","osm_type":"node","osm_id":"29383058"}},{"type":"Feature","geometry":{"type":"Point","coordinates":[-2.79992,53.67806]},"properties":{"name":"Bretherton","category":"village","osm_type":"node","osm_id":"29390795"}},{"type":"Feature","geometry":{"type":"Point","coordinates":[-2.77512,53.66226]},"properties":{"name":"Croston","category":"village","osm_type":"node","osm_id":"29390796"}},{"type":"Feature","geometry":{"type":"Point","coordinates":[-2.7239,53.64359]},"properties":{"name":"Eccleston","category":"village","osm_type":"node","osm_id":"29390797"}},{"type":"Feature","geometry":{"type":"Point","coordinates":[-2.80668,53.6993]},"properties":{"name":"Much Hoole","category":"village","osm_type":"node","osm_id":"29390798"}},{"type":"Feature","geometry":{"type":"Point","coordinates":[-2.76694,53.62697]},"properties":{"name":"Mawdesley","category":"village","osm_type":"node","osm_id":"29390799"}},{"type":"Feature","geometry":{"type":"Point","coordinates":[-2.77178,53.61519]},"properties":{"name":"Bispham Green","category":"village","osm_type":"node","osm_id":"29390800"}},{"type":"Feature","geometry":{"type":"Point","coordinates":[-2.70584,53.61586]},"properties":{"name":"Wrightington","category":"village","osm_type":"node","osm_id":"29390801"}},{"type":"Feature","geometry":{"type":"Point","coordinates":[-2.76864,53.59327]},"properties":{"name":"Parbold","category":"village","osm_type":"node","osm_id":"29390809"}},{"type":"Feature","geometry":{"type":"Point","coordinates":[-2.72378,53.58404]},"properties":{"name":"Appley Bridge","category":"village","osm_type":"node","osm_id":"29390811"}},{"type":"Feature","geometry":{"type":"Point","coordinates":[-2.69913,53.69048]},"properties":{"name":"Leyland","category":"town","osm_type":"node","osm_id":"29390813"}},{"type":"Feature","geometry":{"type":"Point","coordinates":[-2.74099,53.70123]},"properties":{"name":"Midge Hall","category":"village","osm_type":"node","osm_id":"29390816"}},{"type":"Feature","geometry":{"type":"Point","coordinates":[-2.73199,53.72329]},"properties":{"name":"Whitestake","category":"village","osm_type":"node","osm_id":"29390818"}},{"type":"Feature","geometry":{"type":"Point","coordinates":[-2.78188,53.72677]},"properties":{"name":"Longton","category":"village","osm_type":"node","osm_id":"29390824"}},{"type":"Feature","geometry":{"type":"Point","coordinates":[-2.78934,53.71225]},"properties":{"name":"Walmer Bridge","category":"village","osm_type":"node","osm_id":"29390825"}},{"type":"Feature","geometry":{"type":"Point","coordinates":[-2.67621,53.66568]},"properties":{"name":"Euxton","category":"village","osm_type":"node","osm_id":"29390828"}},{"type":"Feature","geometry":{"type":"Point","coordinates":[-2.78415,53.58731]},"properties":{"name":"Newburgh","category":"village","osm_type":"node","osm_id":"29390830"}},{"type":"Feature","geometry":{"type":"Point","coordinates":[-2.69803,53.56224]},"properties":{"name":"Gathurst","category":"village","osm_type":"node","osm_id":"29390836"}},{"type":"Feature","geometry":{"type":"Point","coordinates":[-2.72331,53.54436]},"properties":{"name":"Upholland","category":"village","osm_type":"node","osm_id":"29393733"}},{"type":"Feature","geometry":{"type":"Point","coordinates":[-2.7123,53.53261]},"properties":{"name":"Far Moor","category":"village","osm_type":"node","osm_id":"29393735"}},{"type":"Feature","geometry":{"type":"Point","coordinates":[-2.76358,53.56736]},"properties":{"name":"Dalton","category":"village","osm_type":"node","osm_id":"29393738"}},{"type":"Feature","geometry":{"type":"Point","coordinates":[-2.8169,53.6332]},"properties":{"name":"Rufford","category":"village","osm_type":"node","osm_id":"29393739"}},{"type":"Feature","geometry":{"type":"Point","coordinates":[-2.84697,53.70854]},"properties":{"name":"Hesketh Bank","category":"village","osm_type":"node","osm_id":"29399814"}},{"type":"Feature","geometry":{"type":"Point","coordinates":[-2.83808,53.6979]},"properties":{"name":"Becconsall","category":"village","osm_type":"node","osm_id":"29399815"}},{"type":"Feature","geometry":{"type":"Point","coordinates":[-2.83138,53.67938]},"properties":{"name":"Tarleton","category":"village","osm_type":"node","osm_id":"29399816"}},{"type":"Feature","geometry":{"type":"Point","coordinates":[-2.83758,53.77108]},"properties":{"name":"Newton-with-Scales","category":"village","osm_type":"node","osm_id":"29399818"}},{"type":"Feature","geometry":{"type":"Point","coordinates":[-2.84946,53.79029]},"properties":{"name":"Treales","category":"village","osm_type":"node","osm_id":"29399819"}},{"type":"Feature","geometry":{"type":"Point","coordinates":[-2.79477,53.77303]},"properties":{"name":"Lea Town","category":"village","osm_type":"node","osm_id":"29399820"}},{"type":"Feature","geometry":{"type":"Point","coordinates":[-2.81198,53.76626]},"properties":{"name":"Clifton","category":"village","osm_type":"node","osm_id":"29399821"}},{"type":"Feature","geometry":{"type":"Point","coordinates":[-2.91609,53.7755]},"properties":{"name":"Wrea Green","category":"village","osm_type":"node","osm_id":"29408147"}},{"type":"Feature","geometry":{"type":"Point","coordinates":[-2.89084,53.74981]},"properties":{"name":"Warton","category":"village","osm_type":"node","osm_id":"29408150"}},{"type":"Feature","geometry":{"type":"Point","coordinates":[-2.93374,53.80612]},"properties":{"name":"Weeton","category":"village","osm_type":"node","osm_id":"29408160"}},{"type":"Feature","geometry":{"type":"Point","coordinates":[-2.88574,53.78934]},"properties":{"name":"Wesham","category":"village","osm_type":"node","osm_id":"29408161"}},{"type":"Feature","geometry":{"type":"Point","coordinates":[-2.87149,53.78273]},"properties":{"name":"Kirkham","category":"town","osm_type":"node","osm_id":"29408163"}},{"type":"Feature","geometry":{"type":"Point","coordinates":[-2.69242,53.72589]},"properties":{"name":"Lostock Hall","category":"village","osm_type":"node","osm_id":"29429576"}},{"type":"Feature","geometry":{"type":"Point","coordinates":[-2.84997,53.99706]},"properties":{"name":"Glasson Dock","category":"village","osm_type":"node","osm_id":"29489094"}},{"type":"Feature","geometry":{"type":"Point","coordinates":[-2.8168,53.96336]},"properties":{"name":"Cockerham","category":"village","osm_type":"node","osm_id":"29489095"}},{"type":"Feature","geometry":{"type":"Point","coordinates":[-2.8084,53.92295]},"properties":{"name":"Winmarleigh","category":"village","osm_type":"node","osm_id":"29491348"}},{"type":"Feature","geometry":{"type":"Point","coordinates":[-2.81775,53.89746]},"properties":{"name":"Nateby","category":"village","osm_type":"node","osm_id":"29491350"}},{"type":"Feature","geometry":{"type":"Point","coordinates":[-2.90715,53.92981]},"properties":{"name":"Pilling","category":"village","osm_type":"node","osm_id":"29491352"}},{"type":"Feature","geometry":{"type":"Point","coordinates":[-2.96557,53.91835]},"properties":{"name":"Preesall","category":"village","osm_type":"node","osm_id":"29491385"}},{"type":"Feature","geometry":{"type":"Point","coordinates":[-2.77007,53.89122]},"properties":{"name":"Bowgreave","category":"village","osm_type":"node","osm_id":"29491390"}},{"type":"Feature","geometry":{"type":"Point","coordinates":[-2.75952,53.93253]},"properties":{"name":"Scorton","category":"village","osm_type":"node","osm_id":"29491394"}},{"type":"Feature","geometry":{"type":"Point","coordinates":[-2.99048,53.84615]},"properties":{"name":"Poulton-le-Fylde","category":"town","osm_type":"node","osm_id":"29498466"}},{"type":"Feature","geometry":{"type":"Point","coordinates":[-2.98349,53.86653]},"properties":{"name":"Little Thornton","category":"village","osm_type":"node","osm_id":"29498468"}},{"type":"Feature","geometry":{"type":"Point","coordinates":[-2.8717,53.85432]},"properties":{"name":"Great Eccleston","category":"village","osm_type":"node","osm_id":"29498482"}},{"type":"Feature","geometry":{"type":"Point","coordinates":[-2.95463,53.87506]},"properties":{"name":"Hambleton","category":"village","osm_type":"node","osm_id":"29498486"}},{"type":"Feature","geometry":{"type":"Point","coordinates":[-2.95025,53.84875]},"properties":{"name":"Little Singleton","category":"village","osm_type":"node","osm_id":"29498490"}},{"type":"Feature","geometry":{"type":"Point","coordinates":[-2.98349,53.8309]},"properties":{"name":"Hardhorn","category":"village","osm_type":"node","osm_id":"29498495"}},{"type":"Feature","geometry":{"type":"Point","coordinates":[-2.81924,53.86619]},"properties":{"name":"St Michael's on Wyre","category":"village","osm_type":"node","osm_id":"29498499"}},{"type":"Feature","geometry":{"type":"Point","coordinates":[-2.87844,53.83914]},"properties":{"name":"Elswick","category":"village","osm_type":"node","osm_id":"29498503"}},{"type":"Feature","geometry":{"type":"Point","coordinates":[-2.94224,53.83705]},"properties":{"name":"Singleton","category":"village","osm_type":"node","osm_id":"29498508"}},{"type":"Feature","geometry":{"type":"Point","coordinates":[-2.99259,53.81766]},"properties":{"name":"Staining","category":"village","osm_type":"node","osm_id":"29498513"}},{"type":"Feature","geometry":{"type":"Point","coordinates":[-2.82264,53.83537]},"properties":{"name":"Inskip","category":"village","osm_type":"node","osm_id":"29516501"}},{"type":"Feature","geometry":{"type":"Point","coordinates":[-2.51809,53.94507]},"properties":{"name":"Dunsop Bridge","category":"village","osm_type":"node","osm_id":"29544793"}},{"type":"Feature","geometry":{"type":"Point","coordinates":[-2.46322,53.94926]},"properties":{"name":"Newton","category":"village","osm_type":"node","osm_id":"29544798"}},{"type":"Feature","geometry":{"type":"Point","coordinates":[-2.43826,53.96752]},"properties":{"name":"Slaidburn","category":"village","osm_type":"node","osm_id":"29544799"}},{"type":"Feature","geometry":{"type":"Point","coordinates":[-2.02091,53.74871]},"properties":{"name":"Heptonstall","category":"village","osm_type":"node","osm_id":"29580092"}},{"type":"Feature","geometry":{"type":"Point","coordinates":[-2.03559,53.75466]},"properties":{"name":"Slack Top","category":"village","osm_type":"node","osm_id":"29620448"}},{"type":"Feature","geometry":{"type":"Point","coordinates":[-2.02857,53.74377]},"properties":{"name":"Mytholm","category":"village","osm_type":"node","osm_id":"29620453"}},{"type":"Feature","geometry":{"type":"Point","coordinates":[-2.00854,53.76608]},"properties":{"name":"Pecket Well","category":"village","osm_type":"node","osm_id":"29620703"}},{"type":"Feature","geometry":{"type":"Point","coordinates":[-2.04507,53.94259]},"properties":{"name":"Carleton-in-Craven","category":"village","osm_type":"node","osm_id":"29768861"}},{"type":"Feature","geometry":{"type":"Point","coordinates":[-2.06217,53.90952]},"properties":{"name":"Lothersdale","category":"village","osm_type":"node","osm_id":"29768862"}},{"type":"Feature","geometry":{"type":"Point","coordinates":[-2.05365,53.97162]},"properties":{"name":"Thorlby","category":"village","osm_type":"node","osm_id":"29768863"}},{"type":"Feature","geometry":{"type":"Point","coordinates":[-2.23302,53.82529]},"properties":{"name":"Brierfield","category":"town","osm_type":"node","osm_id":"29768962"}},{"type":"Feature","geometry":{"type":"Point","coordinates":[-2.21703,53.85093]},"properties":{"name":"Barrowford","category":"village","osm_type":"node","osm_id":"29769359"}},{"type":"Feature","geometry":{"type":"Point","coordinates":[-2.21627,53.86877]},"properties":{"name":"Blacko","category":"village","osm_type":"node","osm_id":"29769361"}},{"type":"Feature","geometry":{"type":"Point","coordinates":[-2.26209,53.93451]},"properties":{"name":"Gisburn","category":"village","osm_type":"node","osm_id":"29769362"}},{"type":"Feature","geometry":{"type":"Point","coordinates":[-2.04351,53.88435]},"properties":{"name":"Cowling","category":"village","osm_type":"node","osm_id":"29784289"}},{"type":"Feature","geometry":{"type":"Point","coordinates":[-2.11937,53.86267]},"properties":{"name":"Laneshaw Bridge","category":"village","osm_type":"node","osm_id":"29784292"}},{"type":"Feature","geometry":{"type":"Point","coordinates":[-2.13784,53.85382]},"properties":{"name":"Winewall","category":"village","osm_type":"node","osm_id":"29784295"}},{"type":"Feature","geometry":{"type":"Point","coordinates":[-2.19472,53.81341]},"properties":{"name":"Haggate","category":"village","osm_type":"node","osm_id":"29784298"}},{"type":"Feature","geometry":{"type":"Point","coordinates":[-2.1361,53.84357]},"properties":{"name":"Trawden","category":"village","osm_type":"node","osm_id":"29784303"}},{"type":"Feature","geometry":{"type":"Point","coordinates":[-2.10441,53.84953]},"properties":{"name":"Wycoller","category":"village","osm_type":"node","osm_id":"29784304"}},{"type":"Feature","geometry":{"type":"Point","coordinates":[-2.24071,53.98481]},"properties":{"name":"Halton West","category":"village","osm_type":"node","osm_id":"29791316"}},{"type":"Feature","geometry":{"type":"Point","coordinates":[-2.26053,53.96134]},"properties":{"name":"Paythorne","category":"village","osm_type":"node","osm_id":"29791317"}},{"type":"Feature","geometry":{"type":"Point","coordinates":[-2.24512,53.95816]},"properties":{"name":"Newsholme","category":"village","osm_type":"node","osm_id":"29791318"}},{"type":"Feature","geometry":{"type":"Point","coordinates":[-2.22074,53.94664]},"properties":{"name":"Horton","category":"village","osm_type":"node","osm_id":"29791319"}},{"type":"Feature","geometry":{"type":"Point","coordinates":[-2.21079,53.9321]},"properties":{"name":"Bracewell","category":"village","osm_type":"node","osm_id":"29791321"}},{"type":"Feature","geometry":{"type":"Point","coordinates":[-2.32798,53.9395]},"properties":{"name":"Bolton by Bowland","category":"village","osm_type":"node","osm_id":"29791322"}},{"type":"Feature","geometry":{"type":"Point","coordinates":[-2.29702,53.90776]},"properties":{"name":"Rimington","category":"village","osm_type":"node","osm_id":"29791325"}},{"type":"Feature","geometry":{"type":"Point","coordinates":[-2.36928,53.90608]},"properties":{"name":"Grindleton","category":"village","osm_type":"node","osm_id":"29798191"}},{"type":"Feature","geometry":{"type":"Point","coordinates":[-2.34132,53.9143]},"properties":{"name":"Sawley","category":"village","osm_type":"node","osm_id":"29798193"}},{"type":"Feature","geometry":{"type":"Point","coordinates":[-2.32952,53.89424]},"properties":{"name":"Downham","category":"village","osm_type":"node","osm_id":"29798195"}},{"type":"Feature","geometry":{"type":"Point","coordinates":[-2.35349,53.88036]},"properties":{"name":"Worston","category":"village","osm_type":"node","osm_id":"29798199"}},{"type":"Feature","geometry":{"type":"Point","coordinates":[-2.27235,53.85852]},"properties":{"name":"Barley","category":"village","osm_type":"node","osm_id":"29798203"}},{"type":"Feature","geometry":{"type":"Point","coordinates":[-2.24017,53.85817]},"properties":{"name":"Roughlee","category":"village","osm_type":"node","osm_id":"29798270"}},{"type":"Feature","geometry":{"type":"Point","coordinates":[-2.2525,53.83877]},"properties":{"name":"Wheatley Lane","category":"village","osm_type":"node","osm_id":"29805840"}},{"type":"Feature","geometry":{"type":"Point","coordinates":[-2.26807,53.83059]},"properties":{"name":"Fence","category":"village","osm_type":"node","osm_id":"29805841"}},{"type":"Feature","geometry":{"type":"Point","coordinates":[-2.18999,53.7881]},"properties":{"name":"Worsthorne","category":"village","osm_type":"node","osm_id":"29805842"}},{"type":"Feature","geometry":{"type":"Point","coordinates":[-2.08612,53.65964]},"properties":{"name":"Calderbrook","category":"village","osm_type":"node","osm_id":"29846020"}},{"type":"Feature","geometry":{"type":"Point","coordinates":[-2.08348,53.66189]},"properties":{"name":"Summit","category":"village","osm_type":"node","osm_id":"29846021"}},{"type":"Feature","geometry":{"type":"Point","coordinates":[-2.1295,53.64896]},"properties":{"name":"Wardle","category":"village","osm_type":"node","osm_id":"29884332"}},{"type":"Feature","geometry":{"type":"Point","coordinates":[-2.1088,53.63146]},"properties":{"name":"Smithy Bridge","category":"village","osm_type":"node","osm_id":"29884339"}},{"type":"Feature","geometry":{"type":"Point","coordinates":[-2.10995,53.60825]},"properties":{"name":"Milnrow","category":"town","osm_type":"node","osm_id":"29884399"}},{"type":"Feature","geometry":{"type":"Point","coordinates":[-2.10034,53.60185]},"properties":{"name":"Newhey","category":"village","osm_type":"node","osm_id":"29884422"}},{"type":"Feature","geometry":{"type":"Point","coordinates":[-2.02616,53.56835]},"properties":{"name":"Delph","category":"village","osm_type":"node","osm_id":"29905174"}},{"type":"Feature","geometry":{"type":"Point","coordinates":[-2.01758,53.56481]},"properties":{"name":"New Delph","category":"village","osm_type":"node","osm_id":"29905176"}},{"type":"Feature","geometry":{"type":"Point","coordinates":[-2.01655,53.55661]},"properties":{"name":"Dobcross","category":"village","osm_type":"node","osm_id":"29905177"}},{"type":"Feature","geometry":{"type":"Point","coordinates":[-2.78721,53.99455]},"properties":{"name":"Galgate","category":"village","osm_type":"node","osm_id":"29947651"}},{"type":"Feature","geometry":{"type":"Point","coordinates":[-2.96867,53.56328]},"properties":{"name":"Haskayne","category":"village","osm_type":"node","osm_id":"29950755"}},{"type":"Feature","geometry":{"type":"Point","coordinates":[-2.91959,53.54273]},"properties":{"name":"Aughton","category":"village","osm_type":"node","osm_id":"29974753"}},{"type":"Feature","geometry":{"type":"Point","coordinates":[-2.90493,53.5443]},"properties":{"name":"Town Green","category":"village","osm_type":"node","osm_id":"29974755"}},{"type":"Feature","geometry":{"type":"Point","coordinates":[-2.88596,53.56736]},"properties":{"name":"Ormskirk","category":"town","osm_type":"node","osm_id":"29974756"}},{"type":"Feature","geometry":{"type":"Point","coordinates":[-2.85009,53.59338]},"properties":{"name":"Burscough","category":"town","osm_type":"node","osm_id":"29974762"}},{"type":"Feature","geometry":{"type":"Point","coordinates":[-2.84513,53.56321]},"properties":{"name":"Westhead","category":"village","osm_type":"node","osm_id":"29974765"}},{"type":"Feature","geometry":{"type":"Point","coordinates":[-2.82192,53.59221]},"properties":{"name":"Lathom","category":"village","osm_type":"node","osm_id":"29974767"}},{"type":"Feature","geometry":{"type":"Point","coordinates":[-2.94426,53.51761]},"properties":{"name":"Maghull","category":"town","osm_type":"node","osm_id":"29974769"}},{"type":"Feature","geometry":{"type":"Point","coordinates":[-2.95342,53.58464]},"properties":{"name":"Halsall","category":"village","osm_type":"node","osm_id":"29974849"}},{"type":"Feature","geometry":{"type":"Point","coordinates":[-2.93725,53.61358]},"properties":{"name":"Scarisbrick","category":"village","osm_type":"node","osm_id":"29974851"}},{"type":"Feature","geometry":{"type":"Point","coordinates":[-2.77507,53.55022]},"properties":{"name":"Skelmersdale","category":"town","osm_type":"node","osm_id":"29974910"}},{"type":"Feature","geometry":{"type":"Point","coordinates":[-2.78788,53.50208]},"properties":{"name":"Rainford","category":"village","osm_type":"node","osm_id":"29974965"}},{"type":"Feature","geometry":{"type":"Point","coordinates":[-2.88052,53.66242]},"properties":{"name":"Mere Brow","category":"village","osm_type":"node","osm_id":"29974967"}},{"type":"Feature","geometry":{"type":"Point","coordinates":[-2.92452,53.68142]},"properties":{"name":"Banks","category":"village","osm_type":"node","osm_id":"29974969"}},{"type":"Feature","geometry":{"type":"Point","coordinates":[-2.00665,53.54751]},"properties":{"name":"Uppermill","category":"village","osm_type":"node","osm_id":"30000401"}},{"type":"Feature","geometry":{"type":"Point","coordinates":[-2.00558,53.53541]},"properties":{"name":"Greenfield","category":"village","osm_type":"node","osm_id":"30000402"}},{"type":"Feature","geometry":{"type":"Point","coordinates":[-2.03583,53.51306]},"properties":{"name":"Mossley","category":"town","osm_type":"node","osm_id":"30000406"}},{"type":"Feature","geometry":{"type":"Point","coordinates":[-2.03527,53.51755]},"properties":{"name":"Micklehurst","category":"village","osm_type":"node","osm_id":"30000410"}},{"type":"Feature","geometry":{"type":"Point","coordinates":[-2.07335,53.53826]},"properties":{"name":"Lees","category":"village","osm_type":"node","osm_id":"30009187"}},{"type":"Feature","geometry":{"type":"Point","coordinates":[-2.10667,53.51369]},"properties":{"name":"Bardsley","category":"village","osm_type":"node","osm_id":"30009189"}},{"type":"Feature","geometry":{"type":"Point","coordinates":[-2.13692,53.5034]},"properties":{"name":"Woodhouses","category":"village","osm_type":"node","osm_id":"30009204"}},{"type":"Feature","geometry":{"type":"Point","coordinates":[-2.17851,53.59444]},"properties":{"name":"Castleton","category":"village","osm_type":"node","osm_id":"30020364"}},{"type":"Feature","geometry":{"type":"Point","coordinates":[-2.25968,53.58916]},"properties":{"name":"Heap Bridge","category":"village","osm_type":"node","osm_id":"30028075"}},{"type":"Feature","geometry":{"type":"Point","coordinates":[-2.38852,53.75503]},"properties":{"name":"Church","category":"village","osm_type":"node","osm_id":"30093418"}},{"type":"Feature","geometry":{"type":"Point","coordinates":[-2.38452,53.73913]},"properties":{"name":"Broadfield","category":"village","osm_type":"node","osm_id":"30093424"}},{"type":"Feature","geometry":{"type":"Point","coordinates":[-2.33514,53.72766]},"properties":{"name":"Rising Bridge","category":"village","osm_type":"node","osm_id":"30093428"}},{"type":"Feature","geometry":{"type":"Point","coordinates":[-2.34353,53.7311]},"properties":{"name":"Baxenden","category":"village","osm_type":"node","osm_id":"30093429"}},{"type":"Feature","geometry":{"type":"Point","coordinates":[-2.35303,53.79244]},"properties":{"name":"Altham","category":"village","osm_type":"node","osm_id":"30093431"}},{"type":"Feature","geometry":{"type":"Point","coordinates":[-2.38816,53.83249]},"properties":{"name":"Wiswell","category":"village","osm_type":"node","osm_id":"30099950"}},{"type":"Feature","geometry":{"type":"Point","coordinates":[-2.37118,53.85311]},"properties":{"name":"Pendleton","category":"village","osm_type":"node","osm_id":"30099951"}},{"type":"Feature","geometry":{"type":"Point","coordinates":[-2.33945,53.83368]},"properties":{"name":"Sabden","category":"village","osm_type":"node","osm_id":"30099952"}},{"type":"Feature","geometry":{"type":"Point","coordinates":[-2.34306,53.805]},"properties":{"name":"Simonstone","category":"village","osm_type":"node","osm_id":"30099954"}},{"type":"Feature","geometry":{"type":"Point","coordinates":[-2.31341,53.80036]},"properties":{"name":"Padiham","category":"town","osm_type":"node","osm_id":"30099957"}},{"type":"Feature","geometry":{"type":"Point","coordinates":[-2.29439,53.82512]},"properties":{"name":"Higham","category":"village","osm_type":"node","osm_id":"30099959"}},{"type":"Feature","geometry":{"type":"Point","coordinates":[-2.31141,53.78511]},"properties":{"name":"Hapton","category":"village","osm_type":"node","osm_id":"30099961"}},{"type":"Feature","geometry":{"type":"Point","coordinates":[-2.25436,53.69799]},"properties":{"name":"Newchurch","category":"village","osm_type":"node","osm_id":"30099972"}},{"type":"Feature","geometry":{"type":"Point","coordinates":[-2.28603,53.72398]},"properties":{"name":"Crawshawbooth","category":"village","osm_type":"node","osm_id":"30099975"}},{"type":"Feature","geometry":{"type":"Point","coordinates":[-2.29063,53.741]},"properties":{"name":"Loveclough","category":"village","osm_type":"node","osm_id":"30099986"}},{"type":"Feature","geometry":{"type":"Point","coordinates":[-2.32858,53.68878]},"properties":{"name":"Helmshore","category":"village","osm_type":"node","osm_id":"30099997"}},{"type":"Feature","geometry":{"type":"Point","coordinates":[-2.3208,53.65941]},"properties":{"name":"Stubbins","category":"village","osm_type":"node","osm_id":"30099998"}},{"type":"Feature","geometry":{"type":"Point","coordinates":[-2.30661,53.66882]},"properties":{"name":"Edenfield","category":"village","osm_type":"node","osm_id":"30099999"}},{"type":"Feature","geometry":{"type":"Point","coordinates":[-2.30214,53.65402]},"properties":{"name":"Shuttleworth","category":"village","osm_type":"node","osm_id":"30100001"}},{"type":"Feature","geometry":{"type":"Point","coordinates":[-2.58041,53.59384]},"properties":{"name":"Blackrod","category":"village","osm_type":"node","osm_id":"30138739"}},{"type":"Feature","geometry":{"type":"Point","coordinates":[-2.52261,53.55024]},"properties":{"name":"Westhoughton","category":"town","osm_type":"node","osm_id":"30138859"}},{"type":"Feature","geometry":{"type":"Point","coordinates":[-2.52579,53.5363]},"properties":{"name":"Daisy Hill","category":"village","osm_type":"node","osm_id":"30138871"}},{"type":"Feature","geometry":{"type":"Point","coordinates":[-2.37796,53.54014]},"properties":{"name":"Kearsley","category":"town","osm_type":"node","osm_id":"30416806"}},{"type":"Feature","geometry":{"type":"Point","coordinates":[-2.39844,53.52423]},"properties":{"name":"Walkden","category":"town","osm_type":"node","osm_id":"30416807"}},{"type":"Feature","geometry":{"type":"Point","coordinates":[-2.41066,53.51212]},"properties":{"name":"Ellenbrook","category":"village","osm_type":"node","osm_id":"30416808"}},{"type":"Feature","geometry":{"type":"Point","coordinates":[-2.37358,53.51004]},"properties":{"name":"Roe Green","category":"village","osm_type":"node","osm_id":"30416811"}},{"type":"Feature","geometry":{"type":"Point","coordinates":[-2.41989,53.52749]},"properties":{"name":"Little Hulton","category":"village","osm_type":"node","osm_id":"30416812"}},{"type":"Feature","geometry":{"type":"Point","coordinates":[-2.42874,53.50908]},"properties":{"name":"Mosley Common","category":"village","osm_type":"node","osm_id":"30416813"}},{"type":"Feature","geometry":{"type":"Point","coordinates":[-2.41873,53.50295]},"properties":{"name":"Boothstown","category":"village","osm_type":"node","osm_id":"30416814"}},{"type":"Feature","geometry":{"type":"Point","coordinates":[-2.44969,53.501]},"properties":{"name":"Astley","category":"town","osm_type":"node","osm_id":"30416821"}},{"type":"Feature","geometry":{"type":"Point","coordinates":[-2.50652,53.5178]},"properties":{"name":"Howe Bridge","category":"village","osm_type":"node","osm_id":"30416823"}},{"type":"Feature","geometry":{"type":"Point","coordinates":[-2.59477,53.52418]},"properties":{"name":"Low Green","category":"village","osm_type":"node","osm_id":"30416833"}},{"type":"Feature","geometry":{"type":"Point","coordinates":[-2.59524,53.50867]},"properties":{"name":"Abram","category":"village","osm_type":"node","osm_id":"30416956"}},{"type":"Feature","geometry":{"type":"Point","coordinates":[-2.59931,53.51804]},"properties":{"name":"Platt Bridge","category":"village","osm_type":"node","osm_id":"30416957"}},{"type":"Feature","geometry":{"type":"Point","coordinates":[-2.66183,53.68213]},"properties":{"name":"Buckshaw Village","category":"village","osm_type":"node","osm_id":"30521061"}},{"type":"Feature","geometry":{"type":"Point","coordinates":[-2.83808,53.53129]},"properties":{"name":"Bickerstaffe","category":"village","osm_type":"node","osm_id":"30578570"}},{"type":"Feature","geometry":{"type":"Point","coordinates":[-2.97147,53.50341]},"properties":{"name":"Sefton","category":"village","osm_type":"node","osm_id":"30644149"}},{"type":"Feature","geometry":{"type":"Point","coordinates":[-2.94361,53.50407]},"properties":{"name":"Kennessee Green","category":"village","osm_type":"node","osm_id":"30644150"}},{"type":"Feature","geometry":{"type":"Point","coordinates":[-2.98474,53.50991]},"properties":{"name":"Lunt","category":"village","osm_type":"node","osm_id":"30644294"}},{"type":"Feature","geometry":{"type":"Point","coordinates":[-2.397,53.5486]},"properties":{"name":"Farnworth","category":"town","osm_type":"node","osm_id":"30686744"}},{"type":"Feature","geometry":{"type":"Point","coordinates":[-2.35606,53.58619]},"properties":{"name":"Ainsworth","category":"village","osm_type":"node","osm_id":"30686988"}},{"type":"Feature","geometry":{"type":"Point","coordinates":[-2.37244,53.56217]},"properties":{"name":"Little Lever","category":"village","osm_type":"node","osm_id":"30686991"}},{"type":"Feature","geometry":{"type":"Point","coordinates":[-2.35538,53.54365]},"properties":{"name":"Ringley","category":"village","osm_type":"node","osm_id":"30686994"}},{"type":"Feature","geometry":{"type":"Point","coordinates":[-2.37221,53.54799]},"properties":{"name":"Prestolee","category":"village","osm_type":"node","osm_id":"30686995"}},{"type":"Feature","geometry":{"type":"Point","coordinates":[-2.33071,53.51616]},"properties":{"name":"Pendlebury","category":"town","osm_type":"node","osm_id":"30686999"}},{"type":"Feature","geometry":{"type":"Point","coordinates":[-2.34376,53.52809]},"properties":{"name":"Clifton","category":"village","osm_type":"node","osm_id":"30687002"}},{"type":"Feature","geometry":{"type":"Point","coordinates":[-2.17805,53.64806]},"properties":{"name":"Healey","category":"village","osm_type":"node","osm_id":"30844303"}},{"type":"Feature","geometry":{"type":"Point","coordinates":[-2.21442,53.62593]},"properties":{"name":"Norden","category":"village","osm_type":"node","osm_id":"30844307"}},{"type":"Feature","geometry":{"type":"Point","coordinates":[-2.17846,53.64351]},"properties":{"name":"Broadley","category":"village","osm_type":"node","osm_id":"30844308"}},{"type":"Feature","geometry":{"type":"Point","coordinates":[-2.17341,53.66443]},"properties":{"name":"Whitworth","category":"town","osm_type":"node","osm_id":"30844309"}},{"type":"Feature","geometry":{"type":"Point","coordinates":[-2.16744,53.68039]},"properties":{"name":"Shawforth","category":"village","osm_type":"node","osm_id":"30844312"}},{"type":"Feature","geometry":{"type":"Point","coordinates":[-2.18265,53.69244]},"properties":{"name":"Britannia","category":"village","osm_type":"node","osm_id":"30844526"}},{"type":"Feature","geometry":{"type":"Point","coordinates":[-2.19694,53.72474]},"properties":{"name":"Weir","category":"village","osm_type":"node","osm_id":"30844528"}},{"type":"Feature","geometry":{"type":"Point","coordinates":[-2.25246,53.6929]},"properties":{"name":"Waterfoot","category":"village","osm_type":"node","osm_id":"30844554"}},{"type":"Feature","geometry":{"type":"Point","coordinates":[-2.25231,53.6896]},"properties":{"name":"Hugh Mill","category":"village","osm_type":"node","osm_id":"30844566"}},{"type":"Feature","geometry":{"type":"Point","coordinates":[-2.25007,53.71116]},"properties":{"name":"Sagar Holme","category":"village","osm_type":"node","osm_id":"30844568"}},{"type":"Feature","geometry":{"type":"Point","coordinates":[-2.2491,53.71806]},"properties":{"name":"Lumb","category":"village","osm_type":"node","osm_id":"30844569"}},{"type":"Feature","geometry":{"type":"Point","coordinates":[-2.24133,53.72719]},"properties":{"name":"Water","category":"village","osm_type":"node","osm_id":"30844571"}},{"type":"Feature","geometry":{"type":"Point","coordinates":[-2.32024,53.62718]},"properties":{"name":"Summerseat","category":"village","osm_type":"node","osm_id":"30844609"}},{"type":"Feature","geometry":{"type":"Point","coordinates":[-2.29718,53.61882]},"properties":{"name":"Walmersley","category":"village","osm_type":"node","osm_id":"30844612"}},{"type":"Feature","geometry":{"type":"Point","coordinates":[-2.29126,53.61282]},"properties":{"name":"Limefield","category":"village","osm_type":"node","osm_id":"30844613"}},{"type":"Feature","geometry":{"type":"Point","coordinates":[-2.33106,53.64493]},"properties":{"name":"Holcombe","category":"village","osm_type":"node","osm_id":"30844614"}},{"type":"Feature","geometry":{"type":"Point","coordinates":[-2.33548,53.6368]},"properties":{"name":"Hazelhurst","category":"village","osm_type":"node","osm_id":"30844615"}},{"type":"Feature","geometry":{"type":"Point","coordinates":[-2.34335,53.61263]},"properties":{"name":"Tottington","category":"village","osm_type":"node","osm_id":"30844621"}},{"type":"Feature","geometry":{"type":"Point","coordinates":[-2.40012,53.63783]},"properties":{"name":"Turton Bottoms","category":"village","osm_type":"node","osm_id":"30844622"}},{"type":"Feature","geometry":{"type":"Point","coordinates":[-2.40468,53.63809]},"properties":{"name":"Chapeltown","category":"village","osm_type":"node","osm_id":"30844623"}},{"type":"Feature","geometry":{"type":"Point","coordinates":[-2.39896,53.6066]},"properties":{"name":"Bradshaw","category":"village","osm_type":"node","osm_id":"30844630"}},{"type":"Feature","geometry":{"type":"Point","coordinates":[-2.34123,53.6013]},"properties":{"name":"Walshaw","category":"village","osm_type":"node","osm_id":"30844653"}},{"type":"Feature","geometry":{"type":"Point","coordinates":[-2.28633,53.56923]},"properties":{"name":"Hollins","category":"village","osm_type":"node","osm_id":"30844655"}},{"type":"Feature","geometry":{"type":"Point","coordinates":[-2.2969,53.55337]},"properties":{"name":"Whitefield","category":"town","osm_type":"node","osm_id":"30844665"}},{"type":"Feature","geometry":{"type":"Point","coordinates":[-2.13235,53.5825]},"properties":{"name":"Thornham","category":"village","osm_type":"node","osm_id":"30877189"}},{"type":"Feature","geometry":{"type":"Point","coordinates":[-2.10951,53.56569]},"properties":{"name":"Luzley Brook","category":"village","osm_type":"node","osm_id":"30877190"}},{"type":"Feature","geometry":{"type":"Point","coordinates":[-2.25664,53.54847]},"properties":{"name":"Simister","category":"village","osm_type":"node","osm_id":"30877211"}},{"type":"Feature","geometry":{"type":"Point","coordinates":[-2.16186,53.50781]},"properties":{"name":"Failsworth","category":"town","osm_type":"node","osm_id":"30877218"}},{"type":"Feature","geometry":{"type":"Point","coordinates":[-2.43517,53.61962]},"properties":{"name":"Dunscar","category":"village","osm_type":"node","osm_id":"30915869"}},{"type":"Feature","geometry":{"type":"Point","coordinates":[-2.00923,53.74064]},"properties":{"name":"Hebden Bridge","category":"town","osm_type":"node","osm_id":"31248812"}},{"type":"Feature","geometry":{"type":"Point","coordinates":[-2.45644,53.82411]},"properties":{"name":"Brockhall Village","category":"village","osm_type":"node","osm_id":"31572644"}},{"type":"Feature","geometry":{"type":"Point","coordinates":[-2.49304,53.80122]},"properties":{"name":"Copster Green","category":"village","osm_type":"node","osm_id":"33115084"}},{"type":"Feature","geometry":{"type":"Point","coordinates":[-2.67204,53.74784]},"properties":{"name":"Walton-le-Dale","category":"village","osm_type":"node","osm_id":"59848852"}},{"type":"Feature","geometry":{"type":"Point","coordinates":[-2.75134,53.83019]},"properties":{"name":"Eaves","category":"village","osm_type":"node","osm_id":"248484820"}},{"type":"Feature","geometry":{"type":"Point","coordinates":[-2.3443,53.77279]},"properties":{"name":"Huncoat","category":"village","osm_type":"node","osm_id":"266568122"}},{"type":"Feature","geometry":{"type":"Point","coordinates":[-2.41037,53.8896]},"properties":{"name":"Waddington","category":"village","osm_type":"node","osm_id":"298845182"}},{"type":"Feature","geometry":{"type":"Point","coordinates":[-2.3897,53.8964]},"properties":{"name":"West Bradford","category":"village","osm_type":"node","osm_id":"298845184"}},{"type":"Feature","geometry":{"type":"Point","coordinates":[-2.35431,53.89195]},"properties":{"name":"Chatburn","category":"village","osm_type":"node","osm_id":"300145056"}},{"type":"Feature","geometry":{"type":"Point","coordinates":[-2.35356,53.99991]},"properties":{"name":"Tosside","category":"village","osm_type":"node","osm_id":"331271989"}},{"type":"Feature","geometry":{"type":"Point","coordinates":[-2.22631,53.94126]},"properties":{"name":"Gutteridge","category":"village","osm_type":"node","osm_id":"429712331"}},{"type":"Feature","geometry":{"type":"Point","coordinates":[-2.04079,53.53791]},"properties":{"name":"Lydgate","category":"village","osm_type":"node","osm_id":"474405665"}},{"type":"Feature","geometry":{"type":"Point","coordinates":[-2.0486,53.54919]},"properties":{"name":"Scouthead","category":"village","osm_type":"node","osm_id":"474405666"}},{"type":"Feature","geometry":{"type":"Point","coordinates":[-2.99404,53.92821]},"properties":{"name":"Knott End-On-Sea","category":"village","osm_type":"node","osm_id":"567601118"}},{"type":"Feature","geometry":{"type":"Point","coordinates":[-2.95369,53.90169]},"properties":{"name":"Stalmine","category":"village","osm_type":"node","osm_id":"567601119"}},{"type":"Feature","geometry":{"type":"Point","coordinates":[-2.40675,53.78673]},"properties":{"name":"Great Harwood","category":"town","osm_type":"node","osm_id":"659017175"}},{"type":"Feature","geometry":{"type":"Point","coordinates":[-2.03007,53.53641]},"properties":{"name":"Grasscroft","category":"village","osm_type":"node","osm_id":"685955741"}},{"type":"Feature","geometry":{"type":"Point","coordinates":[-2.48102,53.5042]},"properties":{"name":"Higher Folds","category":"village","osm_type":"node","osm_id":"692154105"}},{"type":"Feature","geometry":{"type":"Point","coordinates":[-2.49665,53.53008]},"properties":{"name":"Hag Fold","category":"village","osm_type":"node","osm_id":"693537495"}},{"type":"Feature","geometry":{"type":"Point","coordinates":[-2.52781,53.77397]},"properties":{"name":"Mellor","category":"village","osm_type":"node","osm_id":"697029337"}},{"type":"Feature","geometry":{"type":"Point","coordinates":[-2.14126,53.9541]},"properties":{"name":"East Marton","category":"village","osm_type":"node","osm_id":"698382171"}},{"type":"Feature","geometry":{"type":"Point","coordinates":[-2.77,53.89643]},"properties":{"name":"Bonds","category":"village","osm_type":"node","osm_id":"703072489"}},{"type":"Feature","geometry":{"type":"Point","coordinates":[-2.00431,53.75162]},"properties":{"name":"Old Town","category":"village","osm_type":"node","osm_id":"709061973"}},{"type":"Feature","geometry":{"type":"Point","coordinates":[-2.08943,53.95718]},"properties":{"name":"Broughton","category":"village","osm_type":"node","osm_id":"721000259"}},{"type":"Feature","geometry":{"type":"Point","coordinates":[-2.35522,53.80883]},"properties":{"name":"Read","category":"village","osm_type":"node","osm_id":"1014587538"}},{"type":"Feature","geometry":{"type":"Point","coordinates":[-2.8719,53.75404]},"properties":{"name":"Freckleton","category":"village","osm_type":"node","osm_id":"1313388387"}},{"type":"Feature","geometry":{"type":"Point","coordinates":[-2.69914,53.53647]},"properties":{"name":"Orrell","category":"village","osm_type":"node","osm_id":"1398627543"}},{"type":"Feature","geometry":{"type":"Point","coordinates":[-2.58623,53.56867]},"properties":{"name":"Aspull","category":"village","osm_type":"node","osm_id":"1398984499"}},{"type":"Feature","geometry":{"type":"Point","coordinates":[-2.03899,53.5919]},"properties":{"name":"Denshaw","category":"village","osm_type":"node","osm_id":"1632335927"}},{"type":"Feature","geometry":{"type":"Point","coordinates":[-2.78509,53.99786]},"properties":{"name":"Ellel","category":"village","osm_type":"node","osm_id":"1673380384"}},{"type":"Feature","geometry":{"type":"Point","coordinates":[-2.14992,53.90647]},"properties":{"name":"Sough","category":"village","osm_type":"node","osm_id":"1708760297"}},{"type":"Feature","geometry":{"type":"Point","coordinates":[-2.80475,53.59834]},"properties":{"name":"Hoscar","category":"village","osm_type":"node","osm_id":"1780765550"}},{"type":"Feature","geometry":{"type":"Point","coordinates":[-2.02072,53.50546]},"properties":{"name":"Carrbrook","category":"village","osm_type":"node","osm_id":"1961544642"}},{"type":"Feature","geometry":{"type":"Point","coordinates":[-2.05389,53.88225]},"properties":{"name":"Ickornshaw","category":"village","osm_type":"node","osm_id":"2419617134"}},{"type":"Feature","geometry":{"type":"Point","coordinates":[-2.74463,53.72252]},"properties":{"name":"New Longton","category":"village","osm_type":"node","osm_id":"2622985731"}},{"type":"Feature","geometry":{"type":"Point","coordinates":[-2.46911,53.52314]},"properties":{"name":"Shakerley","category":"village","osm_type":"node","osm_id":"2904762387"}},{"type":"Feature","geometry":{"type":"Point","coordinates":[-2.47891,53.51863]},"properties":{"name":"Hindsford","category":"village","osm_type":"node","osm_id":"2904762422"}},{"type":"Feature","geometry":{"type":"Point","coordinates":[-2.46547,53.88637]},"properties":{"name":"The Old Forge","category":"village","osm_type":"node","osm_id":"3407076965"}},{"type":"Feature","geometry":{"type":"Point","coordinates":[-2.70111,53.71904]},"properties":{"name":"Farington Moss","category":"village","osm_type":"node","osm_id":"4163304021"}},{"type":"Feature","geometry":{"type":"Point","coordinates":[-2.95942,53.55466]},"properties":{"name":"Downholland Cross","category":"village","osm_type":"node","osm_id":"4502484640"}},{"type":"Feature","geometry":{"type":"Point","coordinates":[-2.96404,53.55067]},"properties":{"name":"Downholland","category":"village","osm_type":"node","osm_id":"4502484641"}},{"type":"Feature","geometry":{"type":"Point","coordinates":[-2.90081,53.50538]},"properties":{"name":"Melling Mount","category":"village","osm_type":"node","osm_id":"4502489084"}},{"type":"Feature","geometry":{"type":"Point","coordinates":[-2.87535,53.5062]},"properties":{"name":"Simonswood","category":"village","osm_type":"node","osm_id":"4502497847"}},{"type":"Feature","geometry":{"type":"Point","coordinates":[-2.76808,53.73239]},"properties":{"name":"Hutton","category":"village","osm_type":"node","osm_id":"4687506314"}},{"type":"Feature","geometry":{"type":"Point","coordinates":[-2.99907,53.7485]},"properties":{"name":"Lytham St Annes","category":"town","osm_type":"node","osm_id":"4705960495"}},{"type":"Feature","geometry":{"type":"Point","coordinates":[-2.66174,53.62179]},"properties":{"name":"Coppull","category":"village","osm_type":"node","osm_id":"4799813688"}},{"type":"Feature","geometry":{"type":"Point","coordinates":[-2.95943,53.53362]},"properties":{"name":"Lydiate","category":"village","osm_type":"node","osm_id":"5143952564"}},{"type":"Feature","geometry":{"type":"Point","coordinates":[-2.8762,53.99694]},"properties":{"name":"Sunderland","category":"village","osm_type":"node","osm_id":"6503631967"}},{"type":"Feature","geometry":{"type":"Point","coordinates":[-2.49826,53.55008]},"properties":{"name":"Chequerbent","category":"village","osm_type":"node","osm_id":"6577163355"}},{"type":"Feature","geometry":{"type":"Point","coordinates":[-2.93738,53.79283]},"properties":{"name":"Great Plumpton","category":"village","osm_type":"node","osm_id":"6703286859"}},{"type":"Feature","geometry":{"type":"Point","coordinates":[-2.73834,53.62125]},"properties":{"name":"Andertons Mill","category":"village","osm_type":"node","osm_id":"6997188259"}},{"type":"Feature","geometry":{"type":"Point","coordinates":[-2.33328,53.54924]},"properties":{"name":"Outwood","category":"village","osm_type":"node","osm_id":"8242396125"}},{"type":"Feature","geometry":{"type":"Point","coordinates":[-2.08003,53.66068]},"properties":{"name":"Timbercliffe","category":"village","osm_type":"node","osm_id":"8923126860"}},{"type":"Feature","geometry":{"type":"Point","coordinates":[-2.67331,53.82546]},"properties":{"name":"Goosnargh","category":"village","osm_type":"node","osm_id":"10234475622"}},{"type":"Feature","geometry":{"type":"Point","coordinates":[-2.31194,53.68683]},"properties":{"name":"Ewood Bridge","category":"village","osm_type":"node","osm_id":"10296866307"}},{"type":"Feature","geometry":{"type":"Point","coordinates":[-2.06659,53.74477]},"properties":{"name":"Blackshaw Head","category":"village","osm_type":"node","osm_id":"10296897791"}},{"type":"Feature","geometry":{"type":"Point","coordinates":[-2.66404,53.50085]},"properties":{"name":"North Ashton","category":"village","osm_type":"node","osm_id":"12037942134"}},{"type":"Feature","geometry":{"type":"Point","coordinates":[-2.72511,53.72314]},"properties":{"name":"New Gate","category":"village","osm_type":"node","osm_id":"12115518623"}},{"type":"Feature","geometry":{"type":"Point","coordinates":[-2.371,53.7332]},"properties":{"name":"Green Haworth","category":"village","osm_type":"node","osm_id":"12395867019"}},{"type":"Feature","geometry":{"type":"Point","coordinates":[-2.20644,53.76668]},"properties":{"name":"Cliviger","category":"village","osm_type":"node","osm_id":"12850929613"}},{"type":"Feature","geometry":{"type":"Point","coordinates":[-2.96516,53.73882]},"properties":{"name":"Lytham","category":"town","osm_type":"node","osm_id":"12903249992"}},{"type":"Feature","geometry":{"type":"Point","coordinates":[-2.88232,53.85932]},"properties":{"name":"Little Eccleston","category":"village","osm_type":"node","osm_id":"12950105837"}},{"type":"Feature","geometry":{"type":"Point","coordinates":[-2.7777,53.55158]},"properties":{"name":"Skelmersdale","category":"town","osm_type":"relation","osm_id":"14688440"}},{"type":"Feature","geometry":{"type":"Point","coordinates":[-2.51841,53.54671]},"properties":{"name":"Westhoughton","category":"town","osm_type":"relation","osm_id":"17393923"}}]}