{"type":"FeatureCollection","features":[{"type":"Feature","geometry":{"type":"Point","coordinates":[-2.90948,54.19306]},"properties":{"name":"Grange-over-Sands","category":"town","osm_type":"node","osm_id":"6962506"}},{"type":"Feature","geometry":{"type":"Point","coordinates":[-2.95291,54.20092]},"properties":{"name":"Cartmel","category":"village","osm_type":"node","osm_id":"6962587"}},{"type":"Feature","geometry":{"type":"Point","coordinates":[-2.2881,54.07186]},"properties":{"name":"Giggleswick","category":"village","osm_type":"node","osm_id":"12859877"}},{"type":"Feature","geometry":{"type":"Point","coordinates":[-2.27636,54.06906]},"properties":{"name":"Settle","category":"town","osm_type":"node","osm_id":"12859897","website":"https://www.settle.co.uk/"}},{"type":"Feature","geometry":{"type":"Point","coordinates":[-2.47312,54.28083]},"properties":{"name":"Gawthrop","category":"village","osm_type":"node","osm_id":"12865114"}},{"type":"Feature","geometry":{"type":"Point","coordinates":[-2.27495,54.10196]},"properties":{"name":"Stainforth","category":"village","osm_type":"node","osm_id":"12866724"}},{"type":"Feature","geometry":{"type":"Point","coordinates":[-2.04923,54.14666]},"properties":{"name":"Kettlewell","category":"village","osm_type":"node","osm_id":"20941164"}},{"type":"Feature","geometry":{"type":"Point","coordinates":[-2.83655,54.43032]},"properties":{"name":"Kentmere","category":"village","osm_type":"node","osm_id":"21093901"}},{"type":"Feature","geometry":{"type":"Point","coordinates":[-2.8198,54.3784]},"properties":{"name":"Staveley","category":"village","osm_type":"node","osm_id":"21093902"}},{"type":"Feature","geometry":{"type":"Point","coordinates":[-2.21896,54.31201]},"properties":{"name":"Appersett","category":"village","osm_type":"node","osm_id":"23202283"}},{"type":"Feature","geometry":{"type":"Point","coordinates":[-2.19653,54.30413]},"properties":{"name":"Hawes","category":"town","osm_type":"node","osm_id":"23202285"}},{"type":"Feature","geometry":{"type":"Point","coordinates":[-2.10298,54.30759]},"properties":{"name":"Bainbridge","category":"village","osm_type":"node","osm_id":"23202287"}},{"type":"Feature","geometry":{"type":"Point","coordinates":[-2.58413,54.46792]},"properties":{"name":"Orton","category":"village","osm_type":"node","osm_id":"25723075"}},{"type":"Feature","geometry":{"type":"Point","coordinates":[-2.42982,54.43245]},"properties":{"name":"Ravenstonedale","category":"village","osm_type":"node","osm_id":"26261127"}},{"type":"Feature","geometry":{"type":"Point","coordinates":[-2.59209,54.43359]},"properties":{"name":"Tebay","category":"village","osm_type":"node","osm_id":"26261130"}},{"type":"Feature","geometry":{"type":"Point","coordinates":[-2.0903,54.19045]},"properties":{"name":"Buckden","category":"village","osm_type":"node","osm_id":"26454357"}},{"type":"Feature","geometry":{"type":"Point","coordinates":[-2.07339,54.16889]},"properties":{"name":"Starbotton","category":"village","osm_type":"node","osm_id":"26454359"}},{"type":"Feature","geometry":{"type":"Point","coordinates":[-2.01733,54.06831]},"properties":{"name":"Threshfield","category":"village","osm_type":"node","osm_id":"26454438"}},{"type":"Feature","geometry":{"type":"Point","coordinates":[-2.00588,54.06081]},"properties":{"name":"Linton","category":"village","osm_type":"node","osm_id":"26454441"}},{"type":"Feature","geometry":{"type":"Point","coordinates":[-2.80135,54.04882]},"properties":{"name":"Lancaster","category":"city","osm_type":"node","osm_id":"26700976"}},{"type":"Feature","geometry":{"type":"Point","coordinates":[-2.74718,54.32898]},"properties":{"name":"Kendal","category":"town","osm_type":"node","osm_id":"27159843"}},{"type":"Feature","geometry":{"type":"Point","coordinates":[-2.9062,54.37948]},"properties":{"name":"Windermere","category":"town","osm_type":"node","osm_id":"27160066"}},{"type":"Feature","geometry":{"type":"Point","coordinates":[-2.96305,54.43195]},"properties":{"name":"Ambleside","category":"town","osm_type":"node","osm_id":"27160069"}},{"type":"Feature","geometry":{"type":"Point","coordinates":[-2.20039,54.29906]},"properties":{"name":"Gayle","category":"village","osm_type":"node","osm_id":"27359328"}},{"type":"Feature","geometry":{"type":"Point","coordinates":[-2.10598,54.14215]},"properties":{"name":"Arncliffe","category":"village","osm_type":"node","osm_id":"27362788"}},{"type":"Feature","geometry":{"type":"Point","coordinates":[-2.04108,54.10653]},"properties":{"name":"Kilnsey","category":"village","osm_type":"node","osm_id":"27364214"}},{"type":"Feature","geometry":{"type":"Point","coordinates":[-2.02968,54.103]},"properties":{"name":"Conistone","category":"village","osm_type":"node","osm_id":"27364327"}},{"type":"Feature","geometry":{"type":"Point","coordinates":[-2.27379,54.08097]},"properties":{"name":"Langcliffe","category":"village","osm_type":"node","osm_id":"28871276"}},{"type":"Feature","geometry":{"type":"Point","coordinates":[-2.3004,54.03519]},"properties":{"name":"Rathmell","category":"village","osm_type":"node","osm_id":"28888322"}},{"type":"Feature","geometry":{"type":"Point","coordinates":[-2.25489,54.01981]},"properties":{"name":"Long Preston","category":"village","osm_type":"node","osm_id":"28888347"}},{"type":"Feature","geometry":{"type":"Point","coordinates":[-2.22129,54.00583]},"properties":{"name":"Hellifield","category":"village","osm_type":"node","osm_id":"28888390"}},{"type":"Feature","geometry":{"type":"Point","coordinates":[-2.15052,54.02953]},"properties":{"name":"Airton","category":"village","osm_type":"node","osm_id":"28888452"}},{"type":"Feature","geometry":{"type":"Point","coordinates":[-2.16176,54.04531]},"properties":{"name":"Kirkby Malham","category":"village","osm_type":"node","osm_id":"28888456"}},{"type":"Feature","geometry":{"type":"Point","coordinates":[-2.82863,54.16796]},"properties":{"name":"Silverdale","category":"village","osm_type":"node","osm_id":"29490726"}},{"type":"Feature","geometry":{"type":"Point","coordinates":[-2.8343,54.20131]},"properties":{"name":"Arnside","category":"village","osm_type":"node","osm_id":"29494094"}},{"type":"Feature","geometry":{"type":"Point","coordinates":[-2.76728,54.14559]},"properties":{"name":"Warton","category":"village","osm_type":"node","osm_id":"29496128"}},{"type":"Feature","geometry":{"type":"Point","coordinates":[-2.77012,54.12821]},"properties":{"name":"Carnforth","category":"town","osm_type":"node","osm_id":"29496129"}},{"type":"Feature","geometry":{"type":"Point","coordinates":[-2.75914,54.16402]},"properties":{"name":"Yealand Conyers","category":"village","osm_type":"node","osm_id":"29533442"}},{"type":"Feature","geometry":{"type":"Point","coordinates":[-2.34859,54.47345]},"properties":{"name":"Kirkby Stephen","category":"town","osm_type":"node","osm_id":"29536111"}},{"type":"Feature","geometry":{"type":"Point","coordinates":[-2.33316,54.49046]},"properties":{"name":"Winton","category":"village","osm_type":"node","osm_id":"29536189"}},{"type":"Feature","geometry":{"type":"Point","coordinates":[-2.97971,54.44722]},"properties":{"name":"Rydal","category":"village","osm_type":"node","osm_id":"29540901"}},{"type":"Feature","geometry":{"type":"Point","coordinates":[-2.64985,54.3682]},"properties":{"name":"Grayrigg","category":"village","osm_type":"node","osm_id":"29540910"}},{"type":"Feature","geometry":{"type":"Point","coordinates":[-2.71805,54.38448]},"properties":{"name":"Selside","category":"village","osm_type":"node","osm_id":"29540912"}},{"type":"Feature","geometry":{"type":"Point","coordinates":[-2.73566,54.38625]},"properties":{"name":"Garnett Bridge","category":"village","osm_type":"node","osm_id":"29540914"}},{"type":"Feature","geometry":{"type":"Point","coordinates":[-2.62267,54.44483]},"properties":{"name":"Greenholme","category":"village","osm_type":"node","osm_id":"29540916"}},{"type":"Feature","geometry":{"type":"Point","coordinates":[-2.90833,54.41883]},"properties":{"name":"Troutbeck","category":"village","osm_type":"node","osm_id":"29541258"}},{"type":"Feature","geometry":{"type":"Point","coordinates":[-2.91955,54.36473]},"properties":{"name":"Bowness on Windermere","category":"town","osm_type":"node","osm_id":"29541260"}},{"type":"Feature","geometry":{"type":"Point","coordinates":[-2.76008,54.17269]},"properties":{"name":"Yealand Redmayne","category":"village","osm_type":"node","osm_id":"29548850"}},{"type":"Feature","geometry":{"type":"Point","coordinates":[-2.77218,54.209]},"properties":{"name":"Beetham","category":"village","osm_type":"node","osm_id":"29561757"}},{"type":"Feature","geometry":{"type":"Point","coordinates":[-2.80068,54.21894]},"properties":{"name":"Sandside","category":"village","osm_type":"node","osm_id":"29581163"}},{"type":"Feature","geometry":{"type":"Point","coordinates":[-2.89637,54.33424]},"properties":{"name":"Winster","category":"village","osm_type":"node","osm_id":"29670272"}},{"type":"Feature","geometry":{"type":"Point","coordinates":[-2.86616,54.31597]},"properties":{"name":"Crosthwaite Green","category":"village","osm_type":"node","osm_id":"29670273"}},{"type":"Feature","geometry":{"type":"Point","coordinates":[-2.82778,54.34797]},"properties":{"name":"Crook","category":"village","osm_type":"node","osm_id":"29670274"}},{"type":"Feature","geometry":{"type":"Point","coordinates":[-2.709,54.35379]},"properties":{"name":"Meal Bank","category":"village","osm_type":"node","osm_id":"29670276"}},{"type":"Feature","geometry":{"type":"Point","coordinates":[-2.67923,54.29181]},"properties":{"name":"Old Hutton","category":"village","osm_type":"node","osm_id":"29670278"}},{"type":"Feature","geometry":{"type":"Point","coordinates":[-2.72198,54.30229]},"properties":{"name":"Oxenholme","category":"village","osm_type":"node","osm_id":"29670279"}},{"type":"Feature","geometry":{"type":"Point","coordinates":[-2.73823,54.2964]},"properties":{"name":"Natland","category":"village","osm_type":"node","osm_id":"29670280"}},{"type":"Feature","geometry":{"type":"Point","coordinates":[-2.82484,54.32571]},"properties":{"name":"Underbarrow","category":"village","osm_type":"node","osm_id":"29670539"}},{"type":"Feature","geometry":{"type":"Point","coordinates":[-2.80114,54.29891]},"properties":{"name":"Brigsteer","category":"village","osm_type":"node","osm_id":"29670540"}},{"type":"Feature","geometry":{"type":"Point","coordinates":[-2.89734,54.29848]},"properties":{"name":"Bowland Bridge","category":"village","osm_type":"node","osm_id":"29670545"}},{"type":"Feature","geometry":{"type":"Point","coordinates":[-2.89768,54.28611]},"properties":{"name":"Cartmel Fell","category":"village","osm_type":"node","osm_id":"29670546"}},{"type":"Feature","geometry":{"type":"Point","coordinates":[-2.9722,54.28257]},"properties":{"name":"Finsthwaite","category":"village","osm_type":"node","osm_id":"29670549"}},{"type":"Feature","geometry":{"type":"Point","coordinates":[-2.98853,54.25544]},"properties":{"name":"Backbarrow","category":"village","osm_type":"node","osm_id":"29671308"}},{"type":"Feature","geometry":{"type":"Point","coordinates":[-2.92056,54.2374]},"properties":{"name":"High Newton","category":"village","osm_type":"node","osm_id":"29671310"}},{"type":"Feature","geometry":{"type":"Point","coordinates":[-2.86373,54.24696]},"properties":{"name":"Witherslack","category":"village","osm_type":"node","osm_id":"29671311"}},{"type":"Feature","geometry":{"type":"Point","coordinates":[-2.84992,54.25038]},"properties":{"name":"Mill Side","category":"village","osm_type":"node","osm_id":"29671312"}},{"type":"Feature","geometry":{"type":"Point","coordinates":[-2.8605,54.24422]},"properties":{"name":"Town End","category":"village","osm_type":"node","osm_id":"29671313"}},{"type":"Feature","geometry":{"type":"Point","coordinates":[-2.75556,54.25536]},"properties":{"name":"Hincaster","category":"village","osm_type":"node","osm_id":"29671315"}},{"type":"Feature","geometry":{"type":"Point","coordinates":[-2.77384,54.24382]},"properties":{"name":"Heversham","category":"village","osm_type":"node","osm_id":"29671317"}},{"type":"Feature","geometry":{"type":"Point","coordinates":[-2.77218,54.22673]},"properties":{"name":"Milnthorpe","category":"town","osm_type":"node","osm_id":"29671318"}},{"type":"Feature","geometry":{"type":"Point","coordinates":[-2.71567,54.24706]},"properties":{"name":"Crooklands","category":"village","osm_type":"node","osm_id":"29671321"}},{"type":"Feature","geometry":{"type":"Point","coordinates":[-2.69406,54.26568]},"properties":{"name":"Gatebeck","category":"village","osm_type":"node","osm_id":"29671322"}},{"type":"Feature","geometry":{"type":"Point","coordinates":[-2.86252,54.21993]},"properties":{"name":"Meathop","category":"village","osm_type":"node","osm_id":"29671543"}},{"type":"Feature","geometry":{"type":"Point","coordinates":[-2.97379,54.17438]},"properties":{"name":"Flookburgh","category":"village","osm_type":"node","osm_id":"29672343"}},{"type":"Feature","geometry":{"type":"Point","coordinates":[-2.9791,54.18074]},"properties":{"name":"Cark","category":"village","osm_type":"node","osm_id":"29672360"}},{"type":"Feature","geometry":{"type":"Point","coordinates":[-2.93941,54.22404]},"properties":{"name":"Field Broughton","category":"village","osm_type":"node","osm_id":"29672372"}},{"type":"Feature","geometry":{"type":"Point","coordinates":[-2.63568,54.11133]},"properties":{"name":"Hornby","category":"village","osm_type":"node","osm_id":"29914939"}},{"type":"Feature","geometry":{"type":"Point","coordinates":[-2.71898,54.07469]},"properties":{"name":"Caton","category":"village","osm_type":"node","osm_id":"29914940"}},{"type":"Feature","geometry":{"type":"Point","coordinates":[-2.61603,54.13502]},"properties":{"name":"Melling","category":"village","osm_type":"node","osm_id":"29914942"}},{"type":"Feature","geometry":{"type":"Point","coordinates":[-2.53097,54.1437]},"properties":{"name":"Burton in Lonsdale","category":"village","osm_type":"node","osm_id":"29914992"}},{"type":"Feature","geometry":{"type":"Point","coordinates":[-2.70331,54.0749]},"properties":{"name":"Brookhouse","category":"village","osm_type":"node","osm_id":"29915134"}},{"type":"Feature","geometry":{"type":"Point","coordinates":[-2.46793,54.1539]},"properties":{"name":"Ingleton","category":"village","osm_type":"node","osm_id":"29915135"}},{"type":"Feature","geometry":{"type":"Point","coordinates":[-2.39219,54.11736]},"properties":{"name":"Clapham","category":"village","osm_type":"node","osm_id":"29915136"}},{"type":"Feature","geometry":{"type":"Point","coordinates":[-2.3568,54.11199]},"properties":{"name":"Austwick","category":"village","osm_type":"node","osm_id":"29934926"}},{"type":"Feature","geometry":{"type":"Point","coordinates":[-2.34445,54.09312]},"properties":{"name":"Lawkland","category":"village","osm_type":"node","osm_id":"29934929"}},{"type":"Feature","geometry":{"type":"Point","coordinates":[-2.73659,54.02583]},"properties":{"name":"Quernmore","category":"village","osm_type":"node","osm_id":"29947658"}},{"type":"Feature","geometry":{"type":"Point","coordinates":[-2.86509,54.07211]},"properties":{"name":"Morecambe","category":"town","osm_type":"node","osm_id":"30691908"}},{"type":"Feature","geometry":{"type":"Point","coordinates":[-2.89031,54.0495]},"properties":{"name":"Heysham","category":"town","osm_type":"node","osm_id":"30691909"}},{"type":"Feature","geometry":{"type":"Point","coordinates":[-2.80855,54.08903]},"properties":{"name":"Hest Bank","category":"village","osm_type":"node","osm_id":"30691913"}},{"type":"Feature","geometry":{"type":"Point","coordinates":[-2.34913,54.45567]},"properties":{"name":"Nateby","category":"village","osm_type":"node","osm_id":"30749859"}},{"type":"Feature","geometry":{"type":"Point","coordinates":[-2.3363,54.47353]},"properties":{"name":"Hartley","category":"village","osm_type":"node","osm_id":"30749861"}},{"type":"Feature","geometry":{"type":"Point","coordinates":[-2.384,54.46915]},"properties":{"name":"Waitby","category":"village","osm_type":"node","osm_id":"30750688"}},{"type":"Feature","geometry":{"type":"Point","coordinates":[-2.38866,54.4941]},"properties":{"name":"Soulby","category":"village","osm_type":"node","osm_id":"30751099"}},{"type":"Feature","geometry":{"type":"Point","coordinates":[-2.42111,54.47975]},"properties":{"name":"Crosby Garrett","category":"village","osm_type":"node","osm_id":"30751109"}},{"type":"Feature","geometry":{"type":"Point","coordinates":[-2.53604,54.12107]},"properties":{"name":"Low Bentham","category":"village","osm_type":"node","osm_id":"31340834"}},{"type":"Feature","geometry":{"type":"Point","coordinates":[-2.58482,54.12593]},"properties":{"name":"Wennington","category":"village","osm_type":"node","osm_id":"31340845"}},{"type":"Feature","geometry":{"type":"Point","coordinates":[-2.60874,54.10227]},"properties":{"name":"Wray","category":"village","osm_type":"node","osm_id":"31340846"}},{"type":"Feature","geometry":{"type":"Point","coordinates":[-2.6396,54.14253]},"properties":{"name":"Arkholme","category":"village","osm_type":"node","osm_id":"31340866"}},{"type":"Feature","geometry":{"type":"Point","coordinates":[-2.60066,54.15498]},"properties":{"name":"Tunstall","category":"village","osm_type":"node","osm_id":"31340867"}},{"type":"Feature","geometry":{"type":"Point","coordinates":[-2.65699,54.12416]},"properties":{"name":"Gressingham","category":"village","osm_type":"node","osm_id":"31341192"}},{"type":"Feature","geometry":{"type":"Point","coordinates":[-2.75953,54.10586]},"properties":{"name":"Nether Kellet","category":"village","osm_type":"node","osm_id":"31344504"}},{"type":"Feature","geometry":{"type":"Point","coordinates":[-2.61172,54.17885]},"properties":{"name":"Whittington","category":"village","osm_type":"node","osm_id":"31361062"}},{"type":"Feature","geometry":{"type":"Point","coordinates":[-2.66064,54.19804]},"properties":{"name":"Hutton Roof","category":"village","osm_type":"node","osm_id":"31361067"}},{"type":"Feature","geometry":{"type":"Point","coordinates":[-2.52836,54.32359]},"properties":{"name":"Sedbergh","category":"town","osm_type":"node","osm_id":"31361404"}},{"type":"Feature","geometry":{"type":"Point","coordinates":[-2.59469,54.29499]},"properties":{"name":"Killington","category":"village","osm_type":"node","osm_id":"31361407"}},{"type":"Feature","geometry":{"type":"Point","coordinates":[-2.5783,54.26706]},"properties":{"name":"Middleton","category":"village","osm_type":"node","osm_id":"31361408"}},{"type":"Feature","geometry":{"type":"Point","coordinates":[-2.57087,54.23694]},"properties":{"name":"Barbon","category":"village","osm_type":"node","osm_id":"31361410"}},{"type":"Feature","geometry":{"type":"Point","coordinates":[-2.57679,54.21109]},"properties":{"name":"Casterton","category":"village","osm_type":"node","osm_id":"31361411"}},{"type":"Feature","geometry":{"type":"Point","coordinates":[-2.61179,54.23918]},"properties":{"name":"Mansergh","category":"village","osm_type":"node","osm_id":"31361412"}},{"type":"Feature","geometry":{"type":"Point","coordinates":[-2.621,54.23961]},"properties":{"name":"Old Town","category":"village","osm_type":"node","osm_id":"31361413"}},{"type":"Feature","geometry":{"type":"Point","coordinates":[-2.55962,54.18269]},"properties":{"name":"Cowan Bridge","category":"village","osm_type":"node","osm_id":"31361415"}},{"type":"Feature","geometry":{"type":"Point","coordinates":[-2.55065,54.18378]},"properties":{"name":"Leck","category":"village","osm_type":"node","osm_id":"31361417"}},{"type":"Feature","geometry":{"type":"Point","coordinates":[-2.53094,54.17377]},"properties":{"name":"Ireby","category":"village","osm_type":"node","osm_id":"31361418"}},{"type":"Feature","geometry":{"type":"Point","coordinates":[-2.48369,54.158]},"properties":{"name":"Thornton in Lonsdale","category":"village","osm_type":"node","osm_id":"31361420"}},{"type":"Feature","geometry":{"type":"Point","coordinates":[-2.68501,54.22515]},"properties":{"name":"Lupton","category":"village","osm_type":"node","osm_id":"31361425"}},{"type":"Feature","geometry":{"type":"Point","coordinates":[-2.80066,54.08617]},"properties":{"name":"Slyne","category":"village","osm_type":"node","osm_id":"31376706"}},{"type":"Feature","geometry":{"type":"Point","coordinates":[-2.79129,54.108]},"properties":{"name":"Bolton-le-Sands","category":"village","osm_type":"node","osm_id":"31376708"}},{"type":"Feature","geometry":{"type":"Point","coordinates":[-2.72143,54.1815]},"properties":{"name":"Burton-in-Kendal","category":"village","osm_type":"node","osm_id":"31390022"}},{"type":"Feature","geometry":{"type":"Point","coordinates":[-2.71941,54.15745]},"properties":{"name":"Priest Hutton","category":"village","osm_type":"node","osm_id":"31390026"}},{"type":"Feature","geometry":{"type":"Point","coordinates":[-2.70058,54.1833]},"properties":{"name":"Dalton","category":"village","osm_type":"node","osm_id":"31390027"}},{"type":"Feature","geometry":{"type":"Point","coordinates":[-2.72786,54.15145]},"properties":{"name":"Borwick","category":"village","osm_type":"node","osm_id":"31390028"}},{"type":"Feature","geometry":{"type":"Point","coordinates":[-2.73011,54.20366]},"properties":{"name":"Holme","category":"village","osm_type":"node","osm_id":"31392793"}},{"type":"Feature","geometry":{"type":"Point","coordinates":[-2.29285,54.1456]},"properties":{"name":"Horton in Ribblesdale","category":"village","osm_type":"node","osm_id":"31574132"}},{"type":"Feature","geometry":{"type":"Point","coordinates":[-2.04869,54.02406]},"properties":{"name":"Rylstone","category":"village","osm_type":"node","osm_id":"32271163","website":"https://www.rylstoneproject.com/"}},{"type":"Feature","geometry":{"type":"Point","coordinates":[-2.03593,54.03681]},"properties":{"name":"Cracoe","category":"village","osm_type":"node","osm_id":"32271164"}},{"type":"Feature","geometry":{"type":"Point","coordinates":[-2.06188,54.02475]},"properties":{"name":"Hetton","category":"village","osm_type":"node","osm_id":"32271165"}},{"type":"Feature","geometry":{"type":"Point","coordinates":[-2.95558,54.26773]},"properties":{"name":"Staveley-in-Cartmel","category":"village","osm_type":"node","osm_id":"50983835"}},{"type":"Feature","geometry":{"type":"Point","coordinates":[-2.45768,54.44203]},"properties":{"name":"Newbiggin on Lune","category":"village","osm_type":"node","osm_id":"242705528"}},{"type":"Feature","geometry":{"type":"Point","coordinates":[-2.45364,54.27747]},"properties":{"name":"Dent","category":"village","osm_type":"node","osm_id":"243092648"}},{"type":"Feature","geometry":{"type":"Point","coordinates":[-2.08114,54.31491]},"properties":{"name":"Askrigg","category":"village","osm_type":"node","osm_id":"243352182"}},{"type":"Feature","geometry":{"type":"Point","coordinates":[-2.07723,54.3792]},"properties":{"name":"Gunnerside","category":"village","osm_type":"node","osm_id":"243352184"}},{"type":"Feature","geometry":{"type":"Point","coordinates":[-2.02575,54.37891]},"properties":{"name":"Low Row","category":"village","osm_type":"node","osm_id":"243352186"}},{"type":"Feature","geometry":{"type":"Point","coordinates":[-2.29164,54.00805]},"properties":{"name":"Wigglesworth","category":"village","osm_type":"node","osm_id":"298845186"}},{"type":"Feature","geometry":{"type":"Point","coordinates":[-2.79889,54.44438]},"properties":{"name":"Sadgill","category":"village","osm_type":"node","osm_id":"308080542"}},{"type":"Feature","geometry":{"type":"Point","coordinates":[-2.50942,54.11838]},"properties":{"name":"High Bentham","category":"town","osm_type":"node","osm_id":"331177453"}},{"type":"Feature","geometry":{"type":"Point","coordinates":[-2.59674,54.20185]},"properties":{"name":"Kirkby Lonsdale","category":"town","osm_type":"node","osm_id":"332309339"}},{"type":"Feature","geometry":{"type":"Point","coordinates":[-2.10131,54.02362]},"properties":{"name":"Winterburn","category":"village","osm_type":"node","osm_id":"431435970"}},{"type":"Feature","geometry":{"type":"Point","coordinates":[-2.81801,54.03552]},"properties":{"name":"Aldcliffe","category":"village","osm_type":"node","osm_id":"711008002"}},{"type":"Feature","geometry":{"type":"Point","coordinates":[-2.94108,54.18218]},"properties":{"name":"Allithwaite","category":"village","osm_type":"node","osm_id":"753703957"}},{"type":"Feature","geometry":{"type":"Point","coordinates":[-2.85185,54.31318]},"properties":{"name":"Crosthwaite","category":"village","osm_type":"node","osm_id":"1698698244"}},{"type":"Feature","geometry":{"type":"Point","coordinates":[-2.91904,54.39322]},"properties":{"name":"Troutbeck Bridge","category":"village","osm_type":"node","osm_id":"1829193182"}},{"type":"Feature","geometry":{"type":"Point","coordinates":[-2.77564,54.36238]},"properties":{"name":"Bowston","category":"village","osm_type":"node","osm_id":"2269419053"}},{"type":"Feature","geometry":{"type":"Point","coordinates":[-2.39289,54.30118]},"properties":{"name":"Garsdale","category":"village","osm_type":"node","osm_id":"2592200087"}},{"type":"Feature","geometry":{"type":"Point","coordinates":[-2.25774,54.34139]},"properties":{"name":"Cotterdale","category":"village","osm_type":"node","osm_id":"3792780957"}},{"type":"Feature","geometry":{"type":"Point","coordinates":[-2.7877,54.01716]},"properties":{"name":"Bailrigg","category":"village","osm_type":"node","osm_id":"3860756134"}},{"type":"Feature","geometry":{"type":"Point","coordinates":[-2.76174,54.07755]},"properties":{"name":"Halton","category":"village","osm_type":"node","osm_id":"4099429523"}},{"type":"Feature","geometry":{"type":"Point","coordinates":[-2.78795,54.26828]},"properties":{"name":"Levens","category":"village","osm_type":"node","osm_id":"4310019156"}},{"type":"Feature","geometry":{"type":"Point","coordinates":[-2.70761,54.25758]},"properties":{"name":"Endmoor","category":"village","osm_type":"node","osm_id":"4703889951"}},{"type":"Feature","geometry":{"type":"Point","coordinates":[-2.03244,54.07831]},"properties":{"name":"Long Ashes Park","category":"village","osm_type":"node","osm_id":"4836407721"}},{"type":"Feature","geometry":{"type":"Point","coordinates":[-2.85396,54.38104]},"properties":{"name":"Ings","category":"village","osm_type":"node","osm_id":"4958488456"}},{"type":"Feature","geometry":{"type":"Point","coordinates":[-2.74813,54.27684]},"properties":{"name":"Sedgwick","category":"village","osm_type":"node","osm_id":"4997645697"}},{"type":"Feature","geometry":{"type":"Point","coordinates":[-2.73576,54.12383]},"properties":{"name":"Over Kellet","category":"village","osm_type":"node","osm_id":"5018301053"}},{"type":"Feature","geometry":{"type":"Point","coordinates":[-2.1529,54.06127]},"properties":{"name":"Malham","category":"village","osm_type":"node","osm_id":"5230839509","website":"https://www.malhamdale.com/"}},{"type":"Feature","geometry":{"type":"Point","coordinates":[-2.89495,54.21693]},"properties":{"name":"Lindale","category":"village","osm_type":"node","osm_id":"5291790439"}},{"type":"Feature","geometry":{"type":"Point","coordinates":[-2.99879,54.37476]},"properties":{"name":"Hawkshead","category":"village","osm_type":"node","osm_id":"5324026299"}},{"type":"Feature","geometry":{"type":"Point","coordinates":[-2.97039,54.35233]},"properties":{"name":"Near Sawrey","category":"village","osm_type":"node","osm_id":"5324026300"}},{"type":"Feature","geometry":{"type":"Point","coordinates":[-2.95766,54.35105]},"properties":{"name":"Far Sawrey","category":"village","osm_type":"node","osm_id":"5324026301"}},{"type":"Feature","geometry":{"type":"Point","coordinates":[-2.8615,54.01474]},"properties":{"name":"Overton","category":"village","osm_type":"node","osm_id":"5541070922"}},{"type":"Feature","geometry":{"type":"Point","coordinates":[-2.88027,54.02152]},"properties":{"name":"Middleton","category":"village","osm_type":"node","osm_id":"5541093570"}},{"type":"Feature","geometry":{"type":"Point","coordinates":[-2.76256,54.35438]},"properties":{"name":"Burneside","category":"village","osm_type":"node","osm_id":"5623900772"}},{"type":"Feature","geometry":{"type":"Point","coordinates":[-2.71217,54.24287]},"properties":{"name":"Preston Patrick","category":"village","osm_type":"node","osm_id":"6152441026"}},{"type":"Feature","geometry":{"type":"Point","coordinates":[-2.75724,54.08091]},"properties":{"name":"Halton","category":"village","osm_type":"way","osm_id":"218319103"}},{"type":"Feature","geometry":{"type":"Point","coordinates":[-2.88908,54.04195]},"properties":{"name":"Heysham","category":"town","osm_type":"way","osm_id":"1304833520"}}]}