{"type":"FeatureCollection","features":[{"type":"Feature","geometry":{"type":"Point","coordinates":[-2.00265,55.76924]},"properties":{"name":"Berwick-upon-Tweed","category":"town","osm_type":"node","osm_id":"20962688"}},{"type":"Feature","geometry":{"type":"Point","coordinates":[-2.16206,55.71941]},"properties":{"name":"Norham","category":"village","osm_type":"node","osm_id":"248660642"}},{"type":"Feature","geometry":{"type":"Point","coordinates":[-2.01476,55.54585]},"properties":{"name":"Wooler","category":"town","osm_type":"node","osm_id":"293715839"}},{"type":"Feature","geometry":{"type":"Point","coordinates":[-2.13431,55.63722]},"properties":{"name":"Crookham","category":"village","osm_type":"node","osm_id":"306378512"}},{"type":"Feature","geometry":{"type":"Point","coordinates":[-2.0017,55.69965]},"properties":{"name":"Ancroft","category":"village","osm_type":"node","osm_id":"311177035"}},{"type":"Feature","geometry":{"type":"Point","coordinates":[-2.01178,55.66957]},"properties":{"name":"Bowsden","category":"village","osm_type":"node","osm_id":"311185846"}},{"type":"Feature","geometry":{"type":"Point","coordinates":[-2.10148,55.67716]},"properties":{"name":"Duddo","category":"village","osm_type":"node","osm_id":"311189741"}},{"type":"Feature","geometry":{"type":"Point","coordinates":[-2.32186,55.63841]},"properties":{"name":"Carham","category":"village","osm_type":"node","osm_id":"311387437"}},{"type":"Feature","geometry":{"type":"Point","coordinates":[-2.00317,55.58643]},"properties":{"name":"Doddington","category":"village","osm_type":"node","osm_id":"311404650"}},{"type":"Feature","geometry":{"type":"Point","coordinates":[-2.10454,55.59827]},"properties":{"name":"Milfield","category":"village","osm_type":"node","osm_id":"311404730"}},{"type":"Feature","geometry":{"type":"Point","coordinates":[-2.13782,55.56623]},"properties":{"name":"Kirknewton","category":"village","osm_type":"node","osm_id":"311404843"}},{"type":"Feature","geometry":{"type":"Point","coordinates":[-2.03406,55.75699]},"properties":{"name":"East Ord","category":"village","osm_type":"node","osm_id":"316674539"}},{"type":"Feature","geometry":{"type":"Point","coordinates":[-2.11458,55.74165]},"properties":{"name":"Horncliffe","category":"village","osm_type":"node","osm_id":"316676419"}},{"type":"Feature","geometry":{"type":"Point","coordinates":[-2.08575,55.63129]},"properties":{"name":"Ford","category":"village","osm_type":"node","osm_id":"316676422"}},{"type":"Feature","geometry":{"type":"Point","coordinates":[-2.28025,55.64185]},"properties":{"name":"Wark","category":"village","osm_type":"node","osm_id":"318309067"}},{"type":"Feature","geometry":{"type":"Point","coordinates":[-2.16921,55.63177]},"properties":{"name":"Branxton","category":"village","osm_type":"node","osm_id":"427946879"}},{"type":"Feature","geometry":{"type":"Point","coordinates":[-2.11758,55.64794]},"properties":{"name":"Etal","category":"village","osm_type":"node","osm_id":"1596070300"}},{"type":"Feature","geometry":{"type":"Point","coordinates":[-2.20494,55.66731]},"properties":{"name":"Donaldson's Lodge","category":"village","osm_type":"node","osm_id":"1697650298"}},{"type":"Feature","geometry":{"type":"Point","coordinates":[-2.22499,55.64715]},"properties":{"name":"Cornhill on Tweed","category":"village","osm_type":"node","osm_id":"2467614775"}}]}