{"type":"FeatureCollection","features":[{"type":"Feature","geometry":{"type":"Point","coordinates":[-2.17023,55.00634]},"properties":{"name":"Fourstones","category":"village","osm_type":"node","osm_id":"20967409"}},{"type":"Feature","geometry":{"type":"Point","coordinates":[-2.19715,55.00533]},"properties":{"name":"Newbrough","category":"village","osm_type":"node","osm_id":"20967410"}},{"type":"Feature","geometry":{"type":"Point","coordinates":[-2.13361,55.01559]},"properties":{"name":"Wall","category":"village","osm_type":"node","osm_id":"33410019"}},{"type":"Feature","geometry":{"type":"Point","coordinates":[-2.12835,55.03112]},"properties":{"name":"Chollerford","category":"village","osm_type":"node","osm_id":"33410021"}},{"type":"Feature","geometry":{"type":"Point","coordinates":[-2.13264,55.05536]},"properties":{"name":"Barrasford","category":"village","osm_type":"node","osm_id":"33412427"}},{"type":"Feature","geometry":{"type":"Point","coordinates":[-2.97136,55.00918]},"properties":{"name":"Longtown","category":"town","osm_type":"node","osm_id":"243094948"}},{"type":"Feature","geometry":{"type":"Point","coordinates":[-2.68262,55.0641]},"properties":{"name":"Bewcastle","category":"village","osm_type":"node","osm_id":"243094967","website":"https://www.bewcastle.com/"}},{"type":"Feature","geometry":{"type":"Point","coordinates":[-2.25493,55.14437]},"properties":{"name":"Bellingham","category":"village","osm_type":"node","osm_id":"250987518"}},{"type":"Feature","geometry":{"type":"Point","coordinates":[-2.2122,55.13462]},"properties":{"name":"Redesmouth","category":"village","osm_type":"node","osm_id":"250987637"}},{"type":"Feature","geometry":{"type":"Point","coordinates":[-2.09908,55.23385]},"properties":{"name":"Elsdon","category":"village","osm_type":"node","osm_id":"305926254"}},{"type":"Feature","geometry":{"type":"Point","coordinates":[-2.15039,55.06923]},"properties":{"name":"Gunnerton","category":"village","osm_type":"node","osm_id":"305938538"}},{"type":"Feature","geometry":{"type":"Point","coordinates":[-2.02704,55.29936]},"properties":{"name":"Hepple","category":"village","osm_type":"node","osm_id":"309641760"}},{"type":"Feature","geometry":{"type":"Point","coordinates":[-2.0063,55.15471]},"properties":{"name":"Kirkwhelpington","category":"village","osm_type":"node","osm_id":"310917215"}},{"type":"Feature","geometry":{"type":"Point","coordinates":[-2.18092,55.232]},"properties":{"name":"Otterburn","category":"village","osm_type":"node","osm_id":"310934202"}},{"type":"Feature","geometry":{"type":"Point","coordinates":[-2.32289,55.17954]},"properties":{"name":"Greenhaugh","category":"village","osm_type":"node","osm_id":"310942696"}},{"type":"Feature","geometry":{"type":"Point","coordinates":[-2.16965,55.1754]},"properties":{"name":"West Woodburn","category":"village","osm_type":"node","osm_id":"310943121"}},{"type":"Feature","geometry":{"type":"Point","coordinates":[-2.26584,55.27553]},"properties":{"name":"Rochester","category":"village","osm_type":"node","osm_id":"316817076"}},{"type":"Feature","geometry":{"type":"Point","coordinates":[-2.01924,55.36269]},"properties":{"name":"Netherton","category":"village","osm_type":"node","osm_id":"334861454"}},{"type":"Feature","geometry":{"type":"Point","coordinates":[-2.43589,55.18058]},"properties":{"name":"Falstone","category":"village","osm_type":"node","osm_id":"388932348"}},{"type":"Feature","geometry":{"type":"Point","coordinates":[-2.75601,55.06762]},"properties":{"name":"Roadhead","category":"village","osm_type":"node","osm_id":"796496741"}},{"type":"Feature","geometry":{"type":"Point","coordinates":[-2.20303,55.05722]},"properties":{"name":"Simonburn","category":"village","osm_type":"node","osm_id":"1024884891"}},{"type":"Feature","geometry":{"type":"Point","coordinates":[-2.37282,55.31736]},"properties":{"name":"Byrness","category":"village","osm_type":"node","osm_id":"1092057299"}},{"type":"Feature","geometry":{"type":"Point","coordinates":[-2.22073,55.08816]},"properties":{"name":"Wark","category":"village","osm_type":"node","osm_id":"1412978495"}},{"type":"Feature","geometry":{"type":"Point","coordinates":[-2.12716,55.03639]},"properties":{"name":"Humshaugh","category":"village","osm_type":"node","osm_id":"1662982455"}},{"type":"Feature","geometry":{"type":"Point","coordinates":[-2.19047,55.09786]},"properties":{"name":"Birtley","category":"village","osm_type":"node","osm_id":"1936735871"}},{"type":"Feature","geometry":{"type":"Point","coordinates":[-2.18416,55.00957]},"properties":{"name":"Frankham","category":"village","osm_type":"node","osm_id":"4830283708"}},{"type":"Feature","geometry":{"type":"Point","coordinates":[-2.15491,55.0294]},"properties":{"name":"Walwick","category":"village","osm_type":"node","osm_id":"10294169623"}},{"type":"Feature","geometry":{"type":"Point","coordinates":[-2.9234,55.05721]},"properties":{"name":"Moat","category":"village","osm_type":"node","osm_id":"12522516291"}}]}