{"type":"FeatureCollection","features":[{"type":"Feature","geometry":{"type":"Point","coordinates":[-3.0045,53.64874]},"properties":{"name":"Southport","category":"town","osm_type":"node","osm_id":"26700924","website":"https://www.visitsouthport.com/"}},{"type":"Feature","geometry":{"type":"Point","coordinates":[-3.06566,53.5563]},"properties":{"name":"Formby","category":"town","osm_type":"node","osm_id":"26703035"}},{"type":"Feature","geometry":{"type":"Point","coordinates":[-3.00764,53.92463]},"properties":{"name":"Fleetwood","category":"town","osm_type":"node","osm_id":"29491393"}},{"type":"Feature","geometry":{"type":"Point","coordinates":[-3.03938,53.85186]},"properties":{"name":"Bispham","category":"village","osm_type":"node","osm_id":"29498444"}},{"type":"Feature","geometry":{"type":"Point","coordinates":[-3.0122,53.87592]},"properties":{"name":"Thornton","category":"town","osm_type":"node","osm_id":"29498457"}},{"type":"Feature","geometry":{"type":"Point","coordinates":[-3.04288,53.87816]},"properties":{"name":"Cleveleys","category":"town","osm_type":"node","osm_id":"29498476"}},{"type":"Feature","geometry":{"type":"Point","coordinates":[-3.00476,53.85404]},"properties":{"name":"Carleton","category":"village","osm_type":"node","osm_id":"29498498"}},{"type":"Feature","geometry":{"type":"Point","coordinates":[-3.01903,53.54932]},"properties":{"name":"Great Altcar","category":"village","osm_type":"node","osm_id":"30644293"}},{"type":"Feature","geometry":{"type":"Point","coordinates":[-3.00613,53.50301]},"properties":{"name":"Thornton","category":"village","osm_type":"node","osm_id":"30644298"}},{"type":"Feature","geometry":{"type":"Point","coordinates":[-3.02964,53.50689]},"properties":{"name":"Little Crosby","category":"village","osm_type":"node","osm_id":"30644300"}},{"type":"Feature","geometry":{"type":"Point","coordinates":[-3.02223,53.52191]},"properties":{"name":"Ince Blundell","category":"village","osm_type":"node","osm_id":"30644301"}},{"type":"Feature","geometry":{"type":"Point","coordinates":[-3.05872,53.52312]},"properties":{"name":"Hightown","category":"village","osm_type":"node","osm_id":"30644306"}},{"type":"Feature","geometry":{"type":"Point","coordinates":[-3.05098,53.81794]},"properties":{"name":"Blackpool","category":"town","osm_type":"node","osm_id":"5527648921"}}]}