{"type":"FeatureCollection","features":[{"type":"Feature","geometry":{"type":"Point","coordinates":[-4.03496,51.20538]},"properties":{"name":"Combe Martin","category":"village","osm_type":"node","osm_id":"1130941"}},{"type":"Feature","geometry":{"type":"Point","coordinates":[-4.06005,51.08041]},"properties":{"name":"Barnstaple","category":"town","osm_type":"node","osm_id":"18578704"}},{"type":"Feature","geometry":{"type":"Point","coordinates":[-4.20642,51.01814]},"properties":{"name":"Bideford","category":"town","osm_type":"node","osm_id":"33795401"}},{"type":"Feature","geometry":{"type":"Point","coordinates":[-4.2136,51.04011]},"properties":{"name":"Northam","category":"town","osm_type":"node","osm_id":"33795483"}},{"type":"Feature","geometry":{"type":"Point","coordinates":[-4.19252,51.05398]},"properties":{"name":"Appledore","category":"village","osm_type":"node","osm_id":"40946188"}},{"type":"Feature","geometry":{"type":"Point","coordinates":[-4.16114,51.10833]},"properties":{"name":"Braunton","category":"village","osm_type":"node","osm_id":"206388734"}},{"type":"Feature","geometry":{"type":"Point","coordinates":[-4.12547,51.20767]},"properties":{"name":"Ilfracombe","category":"town","osm_type":"node","osm_id":"224476165"}},{"type":"Feature","geometry":{"type":"Point","coordinates":[-4.15263,51.12768]},"properties":{"name":"Knowle","category":"village","osm_type":"node","osm_id":"224477242"}},{"type":"Feature","geometry":{"type":"Point","coordinates":[-4.22154,51.13034]},"properties":{"name":"Croyde","category":"village","osm_type":"node","osm_id":"224716887"}},{"type":"Feature","geometry":{"type":"Point","coordinates":[-4.19558,51.13701]},"properties":{"name":"Georgeham","category":"village","osm_type":"node","osm_id":"224717479"}},{"type":"Feature","geometry":{"type":"Point","coordinates":[-4.2094,51.11672]},"properties":{"name":"Saunton","category":"village","osm_type":"node","osm_id":"224718122"}},{"type":"Feature","geometry":{"type":"Point","coordinates":[-4.05384,51.12617]},"properties":{"name":"Muddiford","category":"village","osm_type":"node","osm_id":"227301024"}},{"type":"Feature","geometry":{"type":"Point","coordinates":[-4.14047,51.10034]},"properties":{"name":"Heanton Punchardon","category":"village","osm_type":"node","osm_id":"227303560"}},{"type":"Feature","geometry":{"type":"Point","coordinates":[-4.09383,51.07203]},"properties":{"name":"Bickington","category":"village","osm_type":"node","osm_id":"227305709"}},{"type":"Feature","geometry":{"type":"Point","coordinates":[-4.20515,51.17282]},"properties":{"name":"Woolacombe","category":"village","osm_type":"node","osm_id":"249630158"}},{"type":"Feature","geometry":{"type":"Point","coordinates":[-4.17107,51.19628]},"properties":{"name":"Lee","category":"village","osm_type":"node","osm_id":"281712125"}},{"type":"Feature","geometry":{"type":"Point","coordinates":[-4.07054,51.11559]},"properties":{"name":"Kings Heanton","category":"village","osm_type":"node","osm_id":"283242929"}},{"type":"Feature","geometry":{"type":"Point","coordinates":[-4.06232,51.20177]},"properties":{"name":"Berrynarbor","category":"village","osm_type":"node","osm_id":"308113632"}},{"type":"Feature","geometry":{"type":"Point","coordinates":[-4.00067,51.08961]},"properties":{"name":"Goodleigh","category":"village","osm_type":"node","osm_id":"341071982"}},{"type":"Feature","geometry":{"type":"Point","coordinates":[-4.00512,51.06249]},"properties":{"name":"Landkey","category":"village","osm_type":"node","osm_id":"387451576"}},{"type":"Feature","geometry":{"type":"Point","coordinates":[-4.23151,51.04117]},"properties":{"name":"Westward Ho!","category":"village","osm_type":"node","osm_id":"531657045"}},{"type":"Feature","geometry":{"type":"Point","coordinates":[-4.14679,51.12917]},"properties":{"name":"Winsham","category":"village","osm_type":"node","osm_id":"708671353"}},{"type":"Feature","geometry":{"type":"Point","coordinates":[-4.14077,51.09449]},"properties":{"name":"Chivenor","category":"village","osm_type":"node","osm_id":"890817397"}},{"type":"Feature","geometry":{"type":"Point","coordinates":[-4.09462,51.09831]},"properties":{"name":"Ashford","category":"village","osm_type":"node","osm_id":"1562499073"}},{"type":"Feature","geometry":{"type":"Point","coordinates":[-4.13075,51.07184]},"properties":{"name":"Fremington","category":"village","osm_type":"node","osm_id":"1591344974"}},{"type":"Feature","geometry":{"type":"Point","coordinates":[-4.04635,51.05273]},"properties":{"name":"Bishop's Tawton","category":"village","osm_type":"node","osm_id":"1607758614"}},{"type":"Feature","geometry":{"type":"Point","coordinates":[-4.00631,51.11889]},"properties":{"name":"Shirwell","category":"village","osm_type":"node","osm_id":"1607795977"}},{"type":"Feature","geometry":{"type":"Point","coordinates":[-4.17721,51.05259]},"properties":{"name":"Instow","category":"village","osm_type":"node","osm_id":"1608052946"}},{"type":"Feature","geometry":{"type":"Point","coordinates":[-4.07894,51.11903]},"properties":{"name":"Marwood","category":"village","osm_type":"node","osm_id":"1608368352"}},{"type":"Feature","geometry":{"type":"Point","coordinates":[-4.18088,51.03611]},"properties":{"name":"Westleigh","category":"village","osm_type":"node","osm_id":"1609998407"}},{"type":"Feature","geometry":{"type":"Point","coordinates":[-4.11135,51.00722]},"properties":{"name":"Alverdiscott","category":"village","osm_type":"node","osm_id":"1612697665"}},{"type":"Feature","geometry":{"type":"Point","coordinates":[-4.10105,51.02142]},"properties":{"name":"Newton Tracey","category":"village","osm_type":"node","osm_id":"1612701348"}},{"type":"Feature","geometry":{"type":"Point","coordinates":[-4.0625,51.04981]},"properties":{"name":"Tawstock","category":"village","osm_type":"node","osm_id":"1613524543"}},{"type":"Feature","geometry":{"type":"Point","coordinates":[-4.14927,51.06701]},"properties":{"name":"Yelland","category":"village","osm_type":"node","osm_id":"1626464553"}},{"type":"Feature","geometry":{"type":"Point","coordinates":[-4.12345,51.15872]},"properties":{"name":"West Down","category":"village","osm_type":"node","osm_id":"1764394147"}},{"type":"Feature","geometry":{"type":"Point","coordinates":[-4.08575,51.04966]},"properties":{"name":"Eastacombe","category":"village","osm_type":"node","osm_id":"2129056113"}},{"type":"Feature","geometry":{"type":"Point","coordinates":[-4.24791,51.01647]},"properties":{"name":"Abbotsham","category":"village","osm_type":"node","osm_id":"2479409948"}},{"type":"Feature","geometry":{"type":"Point","coordinates":[-4.20889,51.1853]},"properties":{"name":"Mortehoe","category":"village","osm_type":"node","osm_id":"6708089231"}},{"type":"Feature","geometry":{"type":"Point","coordinates":[-4.19424,51.05223]},"properties":{"name":"Appledore","category":"town","osm_type":"relation","osm_id":"9246617"}}]}