{"type":"FeatureCollection","features":[{"type":"Feature","geometry":{"type":"Point","coordinates":[-5.27303,50.10167]},"properties":{"name":"Helston","category":"town","osm_type":"node","osm_id":"18327458"}},{"type":"Feature","geometry":{"type":"Point","coordinates":[-5.47951,50.21491]},"properties":{"name":"St Ives","category":"town","osm_type":"node","osm_id":"18336960"}},{"type":"Feature","geometry":{"type":"Point","coordinates":[-5.08488,50.41344]},"properties":{"name":"Newquay","category":"town","osm_type":"node","osm_id":"18485879"}},{"type":"Feature","geometry":{"type":"Point","coordinates":[-5.05181,50.26332]},"properties":{"name":"Truro","category":"city","osm_type":"node","osm_id":"26867377"}},{"type":"Feature","geometry":{"type":"Point","coordinates":[-5.44431,50.11553]},"properties":{"name":"Perranuthnoe","category":"village","osm_type":"node","osm_id":"29163842"}},{"type":"Feature","geometry":{"type":"Point","coordinates":[-5.43721,50.12519]},"properties":{"name":"Goldsithney","category":"village","osm_type":"node","osm_id":"29164640"}},{"type":"Feature","geometry":{"type":"Point","coordinates":[-5.4288,50.13075]},"properties":{"name":"St. Hilary","category":"village","osm_type":"node","osm_id":"29164643"}},{"type":"Feature","geometry":{"type":"Point","coordinates":[-5.41931,50.11582]},"properties":{"name":"Rosudgeon","category":"village","osm_type":"node","osm_id":"29164645"}},{"type":"Feature","geometry":{"type":"Point","coordinates":[-5.38542,50.10501]},"properties":{"name":"Praa Sands","category":"village","osm_type":"node","osm_id":"29164648"}},{"type":"Feature","geometry":{"type":"Point","coordinates":[-5.5017,50.12863]},"properties":{"name":"Longrock","category":"village","osm_type":"node","osm_id":"29164651"}},{"type":"Feature","geometry":{"type":"Point","coordinates":[-5.52124,50.13266]},"properties":{"name":"Gulval","category":"village","osm_type":"node","osm_id":"29164652"}},{"type":"Feature","geometry":{"type":"Point","coordinates":[-5.48816,50.14526]},"properties":{"name":"Ludgvan","category":"village","osm_type":"node","osm_id":"29164654"}},{"type":"Feature","geometry":{"type":"Point","coordinates":[-5.47729,50.14625]},"properties":{"name":"Crowlas","category":"village","osm_type":"node","osm_id":"29164655"}},{"type":"Feature","geometry":{"type":"Point","coordinates":[-5.35397,50.10922]},"properties":{"name":"Ashton","category":"village","osm_type":"node","osm_id":"29169813"}},{"type":"Feature","geometry":{"type":"Point","coordinates":[-5.65698,50.04765]},"properties":{"name":"Porthcurno","category":"village","osm_type":"node","osm_id":"29169816"}},{"type":"Feature","geometry":{"type":"Point","coordinates":[-5.33416,50.10929]},"properties":{"name":"Breage","category":"village","osm_type":"node","osm_id":"29169818"}},{"type":"Feature","geometry":{"type":"Point","coordinates":[-5.64175,50.05111]},"properties":{"name":"Treen","category":"village","osm_type":"node","osm_id":"29169829"}},{"type":"Feature","geometry":{"type":"Point","coordinates":[-5.69504,50.07059]},"properties":{"name":"Sennen","category":"village","osm_type":"node","osm_id":"29170131"}},{"type":"Feature","geometry":{"type":"Point","coordinates":[-5.70216,50.07763]},"properties":{"name":"Sennen Cove","category":"village","osm_type":"node","osm_id":"29170134"}},{"type":"Feature","geometry":{"type":"Point","coordinates":[-5.55002,50.10626]},"properties":{"name":"Newlyn","category":"village","osm_type":"node","osm_id":"29170199"}},{"type":"Feature","geometry":{"type":"Point","coordinates":[-5.54644,50.08964]},"properties":{"name":"Paul","category":"village","osm_type":"node","osm_id":"29170205"}},{"type":"Feature","geometry":{"type":"Point","coordinates":[-5.53896,50.08399]},"properties":{"name":"Mousehole","category":"village","osm_type":"node","osm_id":"29170208"}},{"type":"Feature","geometry":{"type":"Point","coordinates":[-5.56017,50.10285]},"properties":{"name":"Tredavoe","category":"village","osm_type":"node","osm_id":"29170220"}},{"type":"Feature","geometry":{"type":"Point","coordinates":[-5.62039,50.07505]},"properties":{"name":"St. Buryan","category":"village","osm_type":"node","osm_id":"29170278"}},{"type":"Feature","geometry":{"type":"Point","coordinates":[-5.58226,50.10196]},"properties":{"name":"Lower Drift","category":"village","osm_type":"node","osm_id":"29170313"}},{"type":"Feature","geometry":{"type":"Point","coordinates":[-5.60958,50.10801]},"properties":{"name":"Sancreed","category":"village","osm_type":"node","osm_id":"29170316"}},{"type":"Feature","geometry":{"type":"Point","coordinates":[-5.67974,50.12438]},"properties":{"name":"St Just","category":"town","osm_type":"node","osm_id":"29170381"}},{"type":"Feature","geometry":{"type":"Point","coordinates":[-5.68038,50.11566]},"properties":{"name":"Bosavern","category":"village","osm_type":"node","osm_id":"29170411"}},{"type":"Feature","geometry":{"type":"Point","coordinates":[-5.67202,50.14612]},"properties":{"name":"Trewellard","category":"village","osm_type":"node","osm_id":"29170534"}},{"type":"Feature","geometry":{"type":"Point","coordinates":[-5.66528,50.15133]},"properties":{"name":"Pendeen","category":"village","osm_type":"node","osm_id":"29170535"}},{"type":"Feature","geometry":{"type":"Point","coordinates":[-5.67201,50.15464]},"properties":{"name":"Boscaswell","category":"village","osm_type":"node","osm_id":"29170536"}},{"type":"Feature","geometry":{"type":"Point","coordinates":[-5.63859,50.16153]},"properties":{"name":"Morvah","category":"village","osm_type":"node","osm_id":"29170982"}},{"type":"Feature","geometry":{"type":"Point","coordinates":[-5.65264,50.15471]},"properties":{"name":"Bojewyan","category":"village","osm_type":"node","osm_id":"29170999"}},{"type":"Feature","geometry":{"type":"Point","coordinates":[-5.59813,50.17848]},"properties":{"name":"Porthmeor","category":"village","osm_type":"node","osm_id":"29171737"}},{"type":"Feature","geometry":{"type":"Point","coordinates":[-5.56742,50.19193]},"properties":{"name":"Zennor","category":"village","osm_type":"node","osm_id":"29171765"}},{"type":"Feature","geometry":{"type":"Point","coordinates":[-5.51633,50.18638]},"properties":{"name":"Towednack","category":"village","osm_type":"node","osm_id":"29171768"}},{"type":"Feature","geometry":{"type":"Point","coordinates":[-5.46463,50.19679]},"properties":{"name":"Carbis Bay","category":"village","osm_type":"node","osm_id":"29171794"}},{"type":"Feature","geometry":{"type":"Point","coordinates":[-5.49409,50.19497]},"properties":{"name":"Halsetown","category":"village","osm_type":"node","osm_id":"29171930"}},{"type":"Feature","geometry":{"type":"Point","coordinates":[-5.56648,50.13282]},"properties":{"name":"Madron","category":"village","osm_type":"node","osm_id":"29172304"}},{"type":"Feature","geometry":{"type":"Point","coordinates":[-5.60516,50.12902]},"properties":{"name":"Newbridge","category":"village","osm_type":"node","osm_id":"29172760"}},{"type":"Feature","geometry":{"type":"Point","coordinates":[-5.43702,50.18406]},"properties":{"name":"Uny Lelant","category":"village","osm_type":"node","osm_id":"29172761"}},{"type":"Feature","geometry":{"type":"Point","coordinates":[-5.41782,50.18714]},"properties":{"name":"Hayle","category":"town","osm_type":"node","osm_id":"29172762"}},{"type":"Feature","geometry":{"type":"Point","coordinates":[-5.40718,50.13748]},"properties":{"name":"Relubbus","category":"village","osm_type":"node","osm_id":"29172776"}},{"type":"Feature","geometry":{"type":"Point","coordinates":[-5.3794,50.11551]},"properties":{"name":"Germoe","category":"village","osm_type":"node","osm_id":"29172837"}},{"type":"Feature","geometry":{"type":"Point","coordinates":[-5.38833,50.19419]},"properties":{"name":"Angarrack","category":"village","osm_type":"node","osm_id":"29218168"}},{"type":"Feature","geometry":{"type":"Point","coordinates":[-5.3556,50.16074]},"properties":{"name":"Leedstown","category":"village","osm_type":"node","osm_id":"29218280"}},{"type":"Feature","geometry":{"type":"Point","coordinates":[-5.34748,50.13363]},"properties":{"name":"Godolphin Cross","category":"village","osm_type":"node","osm_id":"29218339"}},{"type":"Feature","geometry":{"type":"Point","coordinates":[-5.30788,50.11382]},"properties":{"name":"Sithney","category":"village","osm_type":"node","osm_id":"29218496"}},{"type":"Feature","geometry":{"type":"Point","coordinates":[-5.30729,50.14248]},"properties":{"name":"Nancegollan","category":"village","osm_type":"node","osm_id":"29218497"}},{"type":"Feature","geometry":{"type":"Point","coordinates":[-5.37214,50.20374]},"properties":{"name":"Connor Downs","category":"village","osm_type":"node","osm_id":"29227153"}},{"type":"Feature","geometry":{"type":"Point","coordinates":[-5.34124,50.18837]},"properties":{"name":"Carnhell Green","category":"village","osm_type":"node","osm_id":"29227258"}},{"type":"Feature","geometry":{"type":"Point","coordinates":[-5.31546,50.20458]},"properties":{"name":"Penponds","category":"village","osm_type":"node","osm_id":"29227278"}},{"type":"Feature","geometry":{"type":"Point","coordinates":[-5.29903,50.21388]},"properties":{"name":"Camborne","category":"town","osm_type":"node","osm_id":"29227279"}},{"type":"Feature","geometry":{"type":"Point","coordinates":[-5.29843,50.16332]},"properties":{"name":"Crowan","category":"village","osm_type":"node","osm_id":"29227283"}},{"type":"Feature","geometry":{"type":"Point","coordinates":[-5.27635,50.1954]},"properties":{"name":"Troon","category":"village","osm_type":"node","osm_id":"29227387"}},{"type":"Feature","geometry":{"type":"Point","coordinates":[-5.23966,50.20232]},"properties":{"name":"Four Lanes","category":"village","osm_type":"node","osm_id":"29227394"}},{"type":"Feature","geometry":{"type":"Point","coordinates":[-5.27051,50.22694]},"properties":{"name":"Pool","category":"village","osm_type":"node","osm_id":"29227408"}},{"type":"Feature","geometry":{"type":"Point","coordinates":[-5.28968,50.26087]},"properties":{"name":"Portreath","category":"village","osm_type":"node","osm_id":"29227528"}},{"type":"Feature","geometry":{"type":"Point","coordinates":[-5.17674,50.00414]},"properties":{"name":"Kuggar","category":"village","osm_type":"node","osm_id":"29282504"}},{"type":"Feature","geometry":{"type":"Point","coordinates":[-5.20803,50.09679]},"properties":{"name":"Gweek","category":"village","osm_type":"node","osm_id":"29282714"}},{"type":"Feature","geometry":{"type":"Point","coordinates":[-5.21207,50.07163]},"properties":{"name":"Garras","category":"village","osm_type":"node","osm_id":"29282745"}},{"type":"Feature","geometry":{"type":"Point","coordinates":[-5.20319,50.0807]},"properties":{"name":"Mawgan","category":"village","osm_type":"node","osm_id":"29282770"}},{"type":"Feature","geometry":{"type":"Point","coordinates":[-5.25049,50.13343]},"properties":{"name":"Wendron","category":"village","osm_type":"node","osm_id":"29283185"}},{"type":"Feature","geometry":{"type":"Point","coordinates":[-5.0972,50.02249]},"properties":{"name":"Coverack","category":"village","osm_type":"node","osm_id":"29285196"}},{"type":"Feature","geometry":{"type":"Point","coordinates":[-5.08807,50.05044]},"properties":{"name":"St. Keverne","category":"village","osm_type":"node","osm_id":"29285197"}},{"type":"Feature","geometry":{"type":"Point","coordinates":[-5.17496,50.11888]},"properties":{"name":"Constantine","category":"village","osm_type":"node","osm_id":"29285333"}},{"type":"Feature","geometry":{"type":"Point","coordinates":[-5.14442,50.10756]},"properties":{"name":"Porth Navas","category":"village","osm_type":"node","osm_id":"29285348"}},{"type":"Feature","geometry":{"type":"Point","coordinates":[-5.09567,50.10478]},"properties":{"name":"Mawnan","category":"village","osm_type":"node","osm_id":"29285355"}},{"type":"Feature","geometry":{"type":"Point","coordinates":[-5.10946,50.11686]},"properties":{"name":"Mawnan Smith","category":"village","osm_type":"node","osm_id":"29285357"}},{"type":"Feature","geometry":{"type":"Point","coordinates":[-5.06883,50.15522]},"properties":{"name":"Falmouth","category":"town","osm_type":"node","osm_id":"29285363"}},{"type":"Feature","geometry":{"type":"Point","coordinates":[-5.10341,50.16855]},"properties":{"name":"Penryn","category":"town","osm_type":"node","osm_id":"29285373"}},{"type":"Feature","geometry":{"type":"Point","coordinates":[-5.13187,50.16427]},"properties":{"name":"Mabe Burnthouse","category":"village","osm_type":"node","osm_id":"29285376"}},{"type":"Feature","geometry":{"type":"Point","coordinates":[-5.17702,50.18911]},"properties":{"name":"Stithians","category":"village","osm_type":"node","osm_id":"29285378"}},{"type":"Feature","geometry":{"type":"Point","coordinates":[-5.05479,50.17747]},"properties":{"name":"Mylor Churchtown","category":"village","osm_type":"node","osm_id":"29285385"}},{"type":"Feature","geometry":{"type":"Point","coordinates":[-5.05314,50.2053]},"properties":{"name":"Feock","category":"village","osm_type":"node","osm_id":"29285387"}},{"type":"Feature","geometry":{"type":"Point","coordinates":[-5.07023,50.16542]},"properties":{"name":"Flushing","category":"village","osm_type":"node","osm_id":"29285388"}},{"type":"Feature","geometry":{"type":"Point","coordinates":[-5.01483,50.15861]},"properties":{"name":"St. Mawes","category":"village","osm_type":"node","osm_id":"29285389"}},{"type":"Feature","geometry":{"type":"Point","coordinates":[-5.03211,50.31375]},"properties":{"name":"Trispen","category":"village","osm_type":"node","osm_id":"29285681"}},{"type":"Feature","geometry":{"type":"Point","coordinates":[-5.02639,50.30955]},"properties":{"name":"St. Erme","category":"village","osm_type":"node","osm_id":"29285682"}},{"type":"Feature","geometry":{"type":"Point","coordinates":[-5.01733,50.25528]},"properties":{"name":"St. Clement","category":"village","osm_type":"node","osm_id":"29285797"}},{"type":"Feature","geometry":{"type":"Point","coordinates":[-5.11832,50.23062]},"properties":{"name":"Bissoe","category":"village","osm_type":"node","osm_id":"29285799"}},{"type":"Feature","geometry":{"type":"Point","coordinates":[-5.12116,50.21621]},"properties":{"name":"Perranwell","category":"village","osm_type":"node","osm_id":"29285862"}},{"type":"Feature","geometry":{"type":"Point","coordinates":[-5.20936,50.13419]},"properties":{"name":"Seworgan","category":"village","osm_type":"node","osm_id":"29285911"}},{"type":"Feature","geometry":{"type":"Point","coordinates":[-5.1817,50.16271]},"properties":{"name":"Rame","category":"village","osm_type":"node","osm_id":"29285913"}},{"type":"Feature","geometry":{"type":"Point","coordinates":[-5.23181,50.15556]},"properties":{"name":"Porkellis","category":"village","osm_type":"node","osm_id":"29285914"}},{"type":"Feature","geometry":{"type":"Point","coordinates":[-5.19815,50.16447]},"properties":{"name":"Carnkie","category":"village","osm_type":"node","osm_id":"29285915"}},{"type":"Feature","geometry":{"type":"Point","coordinates":[-5.55115,50.12642]},"properties":{"name":"Heamoor","category":"village","osm_type":"node","osm_id":"29286672"}},{"type":"Feature","geometry":{"type":"Point","coordinates":[-5.20817,50.28299]},"properties":{"name":"Mount Hawke","category":"village","osm_type":"node","osm_id":"29288668"}},{"type":"Feature","geometry":{"type":"Point","coordinates":[-5.20379,50.31228]},"properties":{"name":"St. Agnes","category":"village","osm_type":"node","osm_id":"29288752"}},{"type":"Feature","geometry":{"type":"Point","coordinates":[-5.19,50.30431]},"properties":{"name":"Goonbell","category":"village","osm_type":"node","osm_id":"29288753"}},{"type":"Feature","geometry":{"type":"Point","coordinates":[-5.16881,50.31227]},"properties":{"name":"Mithian","category":"village","osm_type":"node","osm_id":"29288971"}},{"type":"Feature","geometry":{"type":"Point","coordinates":[-5.17491,50.32581]},"properties":{"name":"Trevellas Downs","category":"village","osm_type":"node","osm_id":"29288990"}},{"type":"Feature","geometry":{"type":"Point","coordinates":[-5.14318,50.33718]},"properties":{"name":"Bolingey","category":"village","osm_type":"node","osm_id":"29289023"}},{"type":"Feature","geometry":{"type":"Point","coordinates":[-5.13302,50.32644]},"properties":{"name":"Perranzabuloe","category":"village","osm_type":"node","osm_id":"29289033"}},{"type":"Feature","geometry":{"type":"Point","coordinates":[-5.11034,50.34231]},"properties":{"name":"Goonhavern","category":"village","osm_type":"node","osm_id":"29289113"}},{"type":"Feature","geometry":{"type":"Point","coordinates":[-5.13949,50.38676]},"properties":{"name":"Holywell","category":"village","osm_type":"node","osm_id":"29289147"}},{"type":"Feature","geometry":{"type":"Point","coordinates":[-5.04286,50.42124]},"properties":{"name":"St. Columb Minor","category":"village","osm_type":"node","osm_id":"29289212","ref":"ST. COLUMB MINOR"}},{"type":"Feature","geometry":{"type":"Point","coordinates":[-5.02614,50.3939]},"properties":{"name":"Kestle Mill","category":"village","osm_type":"node","osm_id":"29289213"}},{"type":"Feature","geometry":{"type":"Point","coordinates":[-5.05608,50.4237]},"properties":{"name":"Porth","category":"village","osm_type":"node","osm_id":"29289232"}},{"type":"Feature","geometry":{"type":"Point","coordinates":[-5.02886,50.4474]},"properties":{"name":"Tregurrian","category":"village","osm_type":"node","osm_id":"29289234"}},{"type":"Feature","geometry":{"type":"Point","coordinates":[-5.02914,50.4568]},"properties":{"name":"Trevarrian","category":"village","osm_type":"node","osm_id":"29289240"}},{"type":"Feature","geometry":{"type":"Point","coordinates":[-5.02764,50.4723]},"properties":{"name":"Trenance","category":"village","osm_type":"node","osm_id":"29289299"}},{"type":"Feature","geometry":{"type":"Point","coordinates":[-5.12457,50.17007]},"properties":{"name":"Tremough","category":"village","osm_type":"node","osm_id":"29542804"}},{"type":"Feature","geometry":{"type":"Point","coordinates":[-5.14213,50.19695]},"properties":{"name":"Ponsanooth","category":"village","osm_type":"node","osm_id":"29738135"}},{"type":"Feature","geometry":{"type":"Point","coordinates":[-5.171,50.21804]},"properties":{"name":"Gwennap","category":"village","osm_type":"node","osm_id":"29738179"}},{"type":"Feature","geometry":{"type":"Point","coordinates":[-5.20421,50.21641]},"properties":{"name":"Lanner","category":"village","osm_type":"node","osm_id":"29738331"}},{"type":"Feature","geometry":{"type":"Point","coordinates":[-5.14213,50.23862]},"properties":{"name":"Twelveheads","category":"village","osm_type":"node","osm_id":"256581965"}},{"type":"Feature","geometry":{"type":"Point","coordinates":[-5.37226,50.14694]},"properties":{"name":"Townshend","category":"village","osm_type":"node","osm_id":"267842595"}},{"type":"Feature","geometry":{"type":"Point","coordinates":[-5.06613,50.0563]},"properties":{"name":"Porthoustock","category":"village","osm_type":"node","osm_id":"271376809"}},{"type":"Feature","geometry":{"type":"Point","coordinates":[-5.05442,50.36701]},"properties":{"name":"St. Newlyn East","category":"village","osm_type":"node","osm_id":"301655407"}},{"type":"Feature","geometry":{"type":"Point","coordinates":[-5.17892,50.2306]},"properties":{"name":"Carharrack","category":"village","osm_type":"node","osm_id":"434526295"}},{"type":"Feature","geometry":{"type":"Point","coordinates":[-5.22765,50.23399]},"properties":{"name":"Redruth","category":"town","osm_type":"node","osm_id":"443527322"}},{"type":"Feature","geometry":{"type":"Point","coordinates":[-5.41084,50.19511]},"properties":{"name":"Phillack","category":"village","osm_type":"node","osm_id":"465624095"}},{"type":"Feature","geometry":{"type":"Point","coordinates":[-5.17721,50.2152]},"properties":{"name":"Comford","category":"village","osm_type":"node","osm_id":"469796671"}},{"type":"Feature","geometry":{"type":"Point","coordinates":[-5.13467,50.26388]},"properties":{"name":"Greenbottom","category":"village","osm_type":"node","osm_id":"477458730"}},{"type":"Feature","geometry":{"type":"Point","coordinates":[-5.14102,50.21872]},"properties":{"name":"Frogpool","category":"village","osm_type":"node","osm_id":"490895389"}},{"type":"Feature","geometry":{"type":"Point","coordinates":[-5.28611,50.20622]},"properties":{"name":"Beacon","category":"village","osm_type":"node","osm_id":"561548816"}},{"type":"Feature","geometry":{"type":"Point","coordinates":[-5.10444,50.14849]},"properties":{"name":"Budock Water","category":"village","osm_type":"node","osm_id":"562840410"}},{"type":"Feature","geometry":{"type":"Point","coordinates":[-5.07658,50.1853]},"properties":{"name":"Mylor Bridge","category":"village","osm_type":"node","osm_id":"660525978"}},{"type":"Feature","geometry":{"type":"Point","coordinates":[-5.56788,50.06508]},"properties":{"name":"Lamorna","category":"village","osm_type":"node","osm_id":"683892850"}},{"type":"Feature","geometry":{"type":"Point","coordinates":[-5.53525,50.11948]},"properties":{"name":"Penzance","category":"town","osm_type":"node","osm_id":"685852848"}},{"type":"Feature","geometry":{"type":"Point","coordinates":[-5.19546,50.25395]},"properties":{"name":"Scorrier","category":"village","osm_type":"node","osm_id":"701293367"}},{"type":"Feature","geometry":{"type":"Point","coordinates":[-5.27486,50.21609]},"properties":{"name":"Brea","category":"village","osm_type":"node","osm_id":"724414755"}},{"type":"Feature","geometry":{"type":"Point","coordinates":[-5.25811,50.22955]},"properties":{"name":"Illogan Highway","category":"village","osm_type":"node","osm_id":"728745434"}},{"type":"Feature","geometry":{"type":"Point","coordinates":[-5.28203,50.22353]},"properties":{"name":"Tuckingmill","category":"village","osm_type":"node","osm_id":"728745457"}},{"type":"Feature","geometry":{"type":"Point","coordinates":[-5.31535,50.19742]},"properties":{"name":"Barripper","category":"village","osm_type":"node","osm_id":"734000031"}},{"type":"Feature","geometry":{"type":"Point","coordinates":[-5.08749,50.2224]},"properties":{"name":"Carnon Downs","category":"village","osm_type":"node","osm_id":"736244967"}},{"type":"Feature","geometry":{"type":"Point","coordinates":[-5.69277,50.07412]},"properties":{"name":"Mayon","category":"village","osm_type":"node","osm_id":"868131102"}},{"type":"Feature","geometry":{"type":"Point","coordinates":[-5.44227,50.17799]},"properties":{"name":"Lelant Saltings","category":"village","osm_type":"node","osm_id":"945201583"}},{"type":"Feature","geometry":{"type":"Point","coordinates":[-5.16635,50.07251]},"properties":{"name":"St Martin","category":"village","osm_type":"node","osm_id":"1514727648"}},{"type":"Feature","geometry":{"type":"Point","coordinates":[-5.02412,50.24583]},"properties":{"name":"Malpas","category":"village","osm_type":"node","osm_id":"1584336823"}},{"type":"Feature","geometry":{"type":"Point","coordinates":[-5.18488,50.2393]},"properties":{"name":"St Day","category":"village","osm_type":"node","osm_id":"1584894913"}},{"type":"Feature","geometry":{"type":"Point","coordinates":[-5.07825,50.28794]},"properties":{"name":"Shortlanesend","category":"village","osm_type":"node","osm_id":"1598830415"}},{"type":"Feature","geometry":{"type":"Point","coordinates":[-5.15384,50.34442]},"properties":{"name":"Perranporth","category":"village","osm_type":"node","osm_id":"1600818794"}},{"type":"Feature","geometry":{"type":"Point","coordinates":[-5.13697,50.09314]},"properties":{"name":"Helford","category":"village","osm_type":"node","osm_id":"1603294698"}},{"type":"Feature","geometry":{"type":"Point","coordinates":[-5.16089,50.33194]},"properties":{"name":"Perrancoombe","category":"village","osm_type":"node","osm_id":"1604642585"}},{"type":"Feature","geometry":{"type":"Point","coordinates":[-5.24271,50.02706]},"properties":{"name":"Mullion","category":"village","osm_type":"node","osm_id":"1610373889"}},{"type":"Feature","geometry":{"type":"Point","coordinates":[-5.15658,50.25692]},"properties":{"name":"Chacewater","category":"village","osm_type":"node","osm_id":"1611153505"}},{"type":"Feature","geometry":{"type":"Point","coordinates":[-5.43176,50.16568]},"properties":{"name":"St Erth","category":"village","osm_type":"node","osm_id":"1611483715"}},{"type":"Feature","geometry":{"type":"Point","coordinates":[-5.47277,50.12393]},"properties":{"name":"Marazion","category":"town","osm_type":"node","osm_id":"1612841259"}},{"type":"Feature","geometry":{"type":"Point","coordinates":[-5.1271,50.0837]},"properties":{"name":"Manaccan","category":"village","osm_type":"node","osm_id":"1617656934"}},{"type":"Feature","geometry":{"type":"Point","coordinates":[-5.26538,50.24319]},"properties":{"name":"Illogan","category":"village","osm_type":"node","osm_id":"1623436877"}},{"type":"Feature","geometry":{"type":"Point","coordinates":[-5.17984,50.27209]},"properties":{"name":"Blackwater","category":"village","osm_type":"node","osm_id":"1623464612"}},{"type":"Feature","geometry":{"type":"Point","coordinates":[-5.11585,50.26343]},"properties":{"name":"Threemilestone","category":"village","osm_type":"node","osm_id":"1625397165"}},{"type":"Feature","geometry":{"type":"Point","coordinates":[-5.11366,50.20805]},"properties":{"name":"Church Town","category":"village","osm_type":"node","osm_id":"1625418828"}},{"type":"Feature","geometry":{"type":"Point","coordinates":[-5.06852,50.23416]},"properties":{"name":"Playing Place","category":"village","osm_type":"node","osm_id":"1700724507"}},{"type":"Feature","geometry":{"type":"Point","coordinates":[-5.01594,50.16721]},"properties":{"name":"Halwartha","category":"village","osm_type":"node","osm_id":"1737244334"}},{"type":"Feature","geometry":{"type":"Point","coordinates":[-5.11618,50.37921]},"properties":{"name":"Cubert","category":"village","osm_type":"node","osm_id":"1804542870"}},{"type":"Feature","geometry":{"type":"Point","coordinates":[-5.02837,50.40116]},"properties":{"name":"Quintrell Downs","category":"village","osm_type":"node","osm_id":"1932125403"}},{"type":"Feature","geometry":{"type":"Point","coordinates":[-5.11012,50.40162]},"properties":{"name":"Crantock","category":"village","osm_type":"node","osm_id":"2051043073"}},{"type":"Feature","geometry":{"type":"Point","coordinates":[-5.09377,50.21145]},"properties":{"name":"Devoran","category":"village","osm_type":"node","osm_id":"2206974691"}},{"type":"Feature","geometry":{"type":"Point","coordinates":[-5.07231,50.24474]},"properties":{"name":"Kea","category":"village","osm_type":"node","osm_id":"3923928067"}},{"type":"Feature","geometry":{"type":"Point","coordinates":[-5.1164,50.20864]},"properties":{"name":"Perranarworthal","category":"village","osm_type":"node","osm_id":"3960297574"}},{"type":"Feature","geometry":{"type":"Point","coordinates":[-5.07681,50.32559]},"properties":{"name":"Zelah","category":"village","osm_type":"node","osm_id":"3961161018"}},{"type":"Feature","geometry":{"type":"Point","coordinates":[-5.23893,50.17551]},"properties":{"name":"Calvadnack","category":"village","osm_type":"node","osm_id":"4567496870"}},{"type":"Feature","geometry":{"type":"Point","coordinates":[-5.22586,50.17936]},"properties":{"name":"Carnmenellis","category":"village","osm_type":"node","osm_id":"4567496871"}},{"type":"Feature","geometry":{"type":"Point","coordinates":[-5.31187,50.17384]},"properties":{"name":"Praze-An-Beeble","category":"village","osm_type":"node","osm_id":"7029842785"}},{"type":"Feature","geometry":{"type":"Point","coordinates":[-5.23931,50.28499]},"properties":{"name":"Porthtowan","category":"village","osm_type":"node","osm_id":"10221149857"}},{"type":"Feature","geometry":{"type":"Point","coordinates":[-5.03193,50.46487]},"properties":{"name":"Mawgan Porth","category":"village","osm_type":"node","osm_id":"10701492534"}},{"type":"Feature","geometry":{"type":"Point","coordinates":[-5.00514,50.24066]},"properties":{"name":"St. Michael Penkevil","category":"village","osm_type":"node","osm_id":"12358473720"}},{"type":"Feature","geometry":{"type":"Point","coordinates":[-5.0938,50.12313]},"properties":{"name":"Maenporth","category":"village","osm_type":"node","osm_id":"13305095575"}},{"type":"Feature","geometry":{"type":"Point","coordinates":[-5.11648,50.26843]},"properties":{"name":"Langarth","category":"village","osm_type":"node","osm_id":"13481816237"}}]}