{"type":"FeatureCollection","features":[{"type":"Feature","geometry":{"type":"Point","coordinates":[-5.20392,49.96877]},"properties":{"name":"Lizard","category":"village","osm_type":"node","osm_id":"29269852"}},{"type":"Feature","geometry":{"type":"Point","coordinates":[-5.18712,49.99183]},"properties":{"name":"St. Ruan","category":"village","osm_type":"node","osm_id":"29282481"}},{"type":"Feature","geometry":{"type":"Point","coordinates":[-5.18313,49.99385]},"properties":{"name":"Ruan Minor","category":"village","osm_type":"node","osm_id":"29282482"}},{"type":"Feature","geometry":{"type":"Point","coordinates":[-5.18038,49.98794]},"properties":{"name":"Cadgwith","category":"village","osm_type":"node","osm_id":"29282484"}}]}