{"type":"FeatureCollection","features":[{"type":"Feature","geometry":{"type":"Point","coordinates":[0.03328,53.72924]},"properties":{"name":"Withernsea","category":"town","osm_type":"node","osm_id":"59860873"}},{"type":"Feature","geometry":{"type":"Point","coordinates":[0.03734,53.70791]},"properties":{"name":"Hollym","category":"village","osm_type":"node","osm_id":"60269158"}},{"type":"Feature","geometry":{"type":"Point","coordinates":[0.07311,53.65277]},"properties":{"name":"Skeffling","category":"village","osm_type":"node","osm_id":"104623469"}},{"type":"Feature","geometry":{"type":"Point","coordinates":[0.03213,53.66875]},"properties":{"name":"Welwick","category":"village","osm_type":"node","osm_id":"104623483"}},{"type":"Feature","geometry":{"type":"Point","coordinates":[0.06864,53.68925]},"properties":{"name":"Holmpton","category":"village","osm_type":"node","osm_id":"104623497"}},{"type":"Feature","geometry":{"type":"Point","coordinates":[0.11511,53.651]},"properties":{"name":"Easington","category":"village","osm_type":"node","osm_id":"5740806895"}}]}