{"type":"FeatureCollection","features":[{"type":"Feature","geometry":{"type":"LineString","coordinates":[[-1.44443,53.45456],[-1.44452,53.45276]]},"properties":{"name":"Major roads","category":"motorway_link","osm_type":"way","osm_id":"1548100993","operator":"National Highways"}},{"type":"Feature","geometry":{"type":"LineString","coordinates":[[-1.44448,53.4494],[-1.44487,53.45009]]},"properties":{"name":"Major roads","category":"motorway_link","osm_type":"way","osm_id":"1548100994","operator":"National Highways"}},{"type":"Feature","geometry":{"type":"LineString","coordinates":[[-1.44577,53.45443],[-1.44589,53.45489]]},"properties":{"name":"Major roads","category":"motorway_link","osm_type":"way","osm_id":"1548100995","operator":"National Highways"}},{"type":"Feature","geometry":{"type":"LineString","coordinates":[[-1.44764,53.46104],[-1.44696,53.46031]]},"properties":{"name":"Major roads","category":"motorway_link","osm_type":"way","osm_id":"1548100996","operator":"National Highways"}},{"type":"Feature","geometry":{"type":"LineString","coordinates":[[-1.42295,53.43222],[-1.41789,53.42921]]},"properties":{"name":"M1","category":"motorway","osm_type":"way","osm_id":"1548101326","operator":"National Highways","ref":"M1"}},{"type":"Feature","geometry":{"type":"LineString","coordinates":[[-1.37736,53.3994],[-1.3803,53.40062]]},"properties":{"name":"M1","category":"motorway","osm_type":"way","osm_id":"1548116817","operator":"National Highways","ref":"M1"}},{"type":"Feature","geometry":{"type":"LineString","coordinates":[[-1.75632,53.49951],[-1.75928,53.49901]]},"properties":{"name":"Manchester Road","category":"trunk","osm_type":"way","osm_id":"1548148533","operator":"National Highways","ref":"A628"}},{"type":"Feature","geometry":{"type":"LineString","coordinates":[[-1.9423,53.44439],[-1.94214,53.44449]]},"properties":{"name":"Major roads","category":"primary","osm_type":"way","osm_id":"1549978650"}},{"type":"Feature","geometry":{"type":"LineString","coordinates":[[-1.94204,53.44445],[-1.94208,53.44435]]},"properties":{"name":"A57","category":"primary","osm_type":"way","osm_id":"1549978651","ref":"A57"}},{"type":"Feature","geometry":{"type":"LineString","coordinates":[[-1.94208,53.44435],[-1.9423,53.44439]]},"properties":{"name":"Major roads","category":"primary","osm_type":"way","osm_id":"1549978652"}},{"type":"Feature","geometry":{"type":"LineString","coordinates":[[-1.94214,53.44449],[-1.94204,53.44445]]},"properties":{"name":"A57","category":"primary","osm_type":"way","osm_id":"1549978653","ref":"A57"}},{"type":"Feature","geometry":{"type":"LineString","coordinates":[[-1.40478,53.37498],[-1.4027,53.37524]]},"properties":{"name":"Major roads","category":"trunk_link","osm_type":"way","osm_id":"1549991304"}},{"type":"Feature","geometry":{"type":"LineString","coordinates":[[-1.40254,53.37514],[-1.40402,53.37477]]},"properties":{"name":"Major roads","category":"trunk_link","osm_type":"way","osm_id":"1549991305"}},{"type":"Feature","geometry":{"type":"LineString","coordinates":[[-1.4027,53.37524],[-1.40168,53.37552]]},"properties":{"name":"Sheffield Parkway","category":"trunk","osm_type":"way","osm_id":"1549991306","ref":"A630"}},{"type":"Feature","geometry":{"type":"LineString","coordinates":[[-1.41861,53.37644],[-1.42044,53.37713]]},"properties":{"name":"Major roads","category":"trunk_link","osm_type":"way","osm_id":"1549991307"}},{"type":"Feature","geometry":{"type":"LineString","coordinates":[[-1.40672,53.37419],[-1.40639,53.37423]]},"properties":{"name":"A57","category":"trunk","osm_type":"way","osm_id":"1549991308","ref":"A57"}},{"type":"Feature","geometry":{"type":"LineString","coordinates":[[-1.43601,53.38173],[-1.4362,53.38164]]},"properties":{"name":"Sheffield Parkway","category":"trunk_link","osm_type":"way","osm_id":"1549991309","ref":"A57"}},{"type":"Feature","geometry":{"type":"LineString","coordinates":[[-1.43004,53.38016],[-1.43206,53.38074]]},"properties":{"name":"Sheffield Parkway","category":"trunk_link","osm_type":"way","osm_id":"1549991310","ref":"A57"}},{"type":"Feature","geometry":{"type":"LineString","coordinates":[[-1.42937,53.37995],[-1.43004,53.38016]]},"properties":{"name":"Sheffield Parkway","category":"trunk","osm_type":"way","osm_id":"1549991311","ref":"A57"}},{"type":"Feature","geometry":{"type":"LineString","coordinates":[[-1.42749,53.37936],[-1.42937,53.37995]]},"properties":{"name":"Sheffield Parkway","category":"trunk","osm_type":"way","osm_id":"1549991312","ref":"A57"}},{"type":"Feature","geometry":{"type":"LineString","coordinates":[[-1.41985,53.3771],[-1.41834,53.37673]]},"properties":{"name":"Major roads","category":"trunk_link","osm_type":"way","osm_id":"1549991316"}},{"type":"Feature","geometry":{"type":"LineString","coordinates":[[-1.41834,53.37673],[-1.41747,53.37649]]},"properties":{"name":"Major roads","category":"trunk_link","osm_type":"way","osm_id":"1550617025"}},{"type":"Feature","geometry":{"type":"LineString","coordinates":[[-1.40402,53.37477],[-1.40497,53.37447]]},"properties":{"name":"Major roads","category":"trunk_link","osm_type":"way","osm_id":"1550617026"}},{"type":"Feature","geometry":{"type":"LineString","coordinates":[[-1.40878,53.37472],[-1.40742,53.37491]]},"properties":{"name":"A57","category":"trunk_link","osm_type":"way","osm_id":"1550617027","ref":"A57"}},{"type":"Feature","geometry":{"type":"LineString","coordinates":[[-1.41314,53.37524],[-1.41203,53.37493]]},"properties":{"name":"Major roads","category":"trunk_link","osm_type":"way","osm_id":"1550617028"}},{"type":"Feature","geometry":{"type":"LineString","coordinates":[[-1.41385,53.37641],[-1.41415,53.37611]]},"properties":{"name":"Prince of Wales Road","category":"trunk","osm_type":"way","osm_id":"1550617029","ref":"A6102"}},{"type":"Feature","geometry":{"type":"LineString","coordinates":[[-1.42122,53.37753],[-1.41985,53.3771]]},"properties":{"name":"Sheffield Parkway","category":"trunk","osm_type":"way","osm_id":"1550617030","ref":"A57"}},{"type":"Feature","geometry":{"type":"LineString","coordinates":[[-1.41583,53.37584],[-1.41453,53.37543]]},"properties":{"name":"Sheffield Parkway","category":"trunk","osm_type":"way","osm_id":"1550617031","ref":"A57"}},{"type":"Feature","geometry":{"type":"LineString","coordinates":[[-1.4134,53.37478],[-1.41478,53.37501]]},"properties":{"name":"Major roads","category":"trunk_link","osm_type":"way","osm_id":"1550617032"}},{"type":"Feature","geometry":{"type":"LineString","coordinates":[[-1.45313,53.38521],[-1.45203,53.38506]]},"properties":{"name":"Sheffield Parkway","category":"trunk","osm_type":"way","osm_id":"1550624757","ref":"A57"}},{"type":"Feature","geometry":{"type":"LineString","coordinates":[[-1.45044,53.38486],[-1.44916,53.38471]]},"properties":{"name":"Sheffield Parkway","category":"trunk","osm_type":"way","osm_id":"1550624758","ref":"A57"}},{"type":"Feature","geometry":{"type":"LineString","coordinates":[[-1.44746,53.38451],[-1.44842,53.38452]]},"properties":{"name":"Sheffield Parkway","category":"trunk","osm_type":"way","osm_id":"1550624759","ref":"A57"}},{"type":"Feature","geometry":{"type":"LineString","coordinates":[[-1.45341,53.3851],[-1.45378,53.38513]]},"properties":{"name":"Sheffield Parkway","category":"trunk","osm_type":"way","osm_id":"1550624760","ref":"A57"}},{"type":"Feature","geometry":{"type":"LineString","coordinates":[[-1.45378,53.38513],[-1.45419,53.3852]]},"properties":{"name":"Sheffield Parkway","category":"trunk_link","osm_type":"way","osm_id":"1550624761","ref":"A61"}},{"type":"Feature","geometry":{"type":"LineString","coordinates":[[-1.45528,53.38554],[-1.45535,53.3857]]},"properties":{"name":"A61","category":"trunk","osm_type":"way","osm_id":"1550624762","ref":"A61"}},{"type":"Feature","geometry":{"type":"LineString","coordinates":[[-1.45535,53.3857],[-1.45539,53.38579]]},"properties":{"name":"A61","category":"trunk","osm_type":"way","osm_id":"1550624763","ref":"A61"}},{"type":"Feature","geometry":{"type":"LineString","coordinates":[[-1.46002,53.38382],[-1.45943,53.3838]]},"properties":{"name":"Park Square","category":"trunk","osm_type":"way","osm_id":"1550624765","ref":"A61"}},{"type":"Feature","geometry":{"type":"LineString","coordinates":[[-1.86963,53.22432],[-1.86908,53.22441]]},"properties":{"name":"Major roads","category":"primary_link","osm_type":"way","osm_id":"1550646770"}},{"type":"Feature","geometry":{"type":"LineString","coordinates":[[-1.15231,53.12868],[-1.15166,53.12836]]},"properties":{"name":"Major roads","category":"primary_link","osm_type":"way","osm_id":"1551216012"}},{"type":"Feature","geometry":{"type":"LineString","coordinates":[[-1.42576,53.35992],[-1.42579,53.35984]]},"properties":{"name":"Mansfield Road","category":"primary","osm_type":"way","osm_id":"1551318643","ref":"A6135"}},{"type":"Feature","geometry":{"type":"LineString","coordinates":[[-1.26699,53.11349],[-1.26756,53.11323]]},"properties":{"name":"Major roads","category":"trunk_link","osm_type":"way","osm_id":"1553944439"}},{"type":"Feature","geometry":{"type":"LineString","coordinates":[[-1.26805,53.11361],[-1.26788,53.11369]]},"properties":{"name":"Major roads","category":"trunk_link","osm_type":"way","osm_id":"1553944440"}}]}