{"type":"FeatureCollection","features":[{"type":"Feature","geometry":{"type":"LineString","coordinates":[[-1.78846,53.64713],[-1.78833,53.64713]]},"properties":{"name":"Trinity Street","category":"trunk","osm_type":"way","osm_id":"1550858200","ref":"A640"}},{"type":"Feature","geometry":{"type":"LineString","coordinates":[[-1.7877,53.64711],[-1.78765,53.64734]]},"properties":{"name":"Castlegate","category":"trunk","osm_type":"way","osm_id":"1550858201","ref":"A62"}},{"type":"Feature","geometry":{"type":"LineString","coordinates":[[-1.78777,53.64641],[-1.78776,53.64653]]},"properties":{"name":"Castlegate","category":"trunk","osm_type":"way","osm_id":"1550858202","ref":"A62"}},{"type":"Feature","geometry":{"type":"LineString","coordinates":[[-1.78773,53.64507],[-1.78778,53.64565]]},"properties":{"name":"Castlegate","category":"trunk","osm_type":"way","osm_id":"1550858203","ref":"A62"}},{"type":"Feature","geometry":{"type":"LineString","coordinates":[[-1.78677,53.64356],[-1.78697,53.64377]]},"properties":{"name":"Castlegate","category":"trunk","osm_type":"way","osm_id":"1550858204","ref":"A62"}},{"type":"Feature","geometry":{"type":"LineString","coordinates":[[-1.78647,53.64351],[-1.78625,53.64333]]},"properties":{"name":"Castlegate","category":"trunk","osm_type":"way","osm_id":"1550858205","ref":"A62"}},{"type":"Feature","geometry":{"type":"LineString","coordinates":[[-1.76061,53.64512],[-1.76098,53.64492]]},"properties":{"name":"Wakefield Road","category":"trunk","osm_type":"way","osm_id":"1550861004","ref":"A629"}},{"type":"Feature","geometry":{"type":"LineString","coordinates":[[-1.76192,53.64444],[-1.76186,53.6445]]},"properties":{"name":"Wakefield Road","category":"trunk","osm_type":"way","osm_id":"1550861005","ref":"A629"}},{"type":"Feature","geometry":{"type":"LineString","coordinates":[[-1.76235,53.64384],[-1.76215,53.64415]]},"properties":{"name":"Wakefield Road","category":"trunk","osm_type":"way","osm_id":"1550861006","ref":"A629"}},{"type":"Feature","geometry":{"type":"LineString","coordinates":[[-1.76232,53.64369],[-1.76247,53.64354]]},"properties":{"name":"Wakefield Road","category":"trunk","osm_type":"way","osm_id":"1550861007","ref":"A629"}},{"type":"Feature","geometry":{"type":"LineString","coordinates":[[-1.77285,53.64348],[-1.77368,53.64381]]},"properties":{"name":"Wakefield Road","category":"trunk","osm_type":"way","osm_id":"1550861008","ref":"A629"}},{"type":"Feature","geometry":{"type":"LineString","coordinates":[[-1.77399,53.64412],[-1.77374,53.64401]]},"properties":{"name":"Wakefield Road","category":"trunk","osm_type":"way","osm_id":"1550861009","ref":"A629"}},{"type":"Feature","geometry":{"type":"LineString","coordinates":[[-1.77184,53.64344],[-1.77148,53.64339]]},"properties":{"name":"Wakefield Road","category":"trunk","osm_type":"way","osm_id":"1550861010","ref":"A629"}},{"type":"Feature","geometry":{"type":"LineString","coordinates":[[-1.76932,53.64295],[-1.76998,53.64305]]},"properties":{"name":"Wakefield Road","category":"trunk","osm_type":"way","osm_id":"1550861011","ref":"A629"}},{"type":"Feature","geometry":{"type":"LineString","coordinates":[[-1.77052,53.64324],[-1.76886,53.64298]]},"properties":{"name":"Wakefield Road","category":"trunk","osm_type":"way","osm_id":"1550861012","ref":"A629"}},{"type":"Feature","geometry":{"type":"LineString","coordinates":[[-1.76701,53.64282],[-1.76767,53.6428]]},"properties":{"name":"Wakefield Road","category":"trunk","osm_type":"way","osm_id":"1550861013","ref":"A629"}},{"type":"Feature","geometry":{"type":"LineString","coordinates":[[-1.55006,53.68207],[-1.55038,53.68222]]},"properties":{"name":"Wakefield Road","category":"trunk","osm_type":"way","osm_id":"1550914886","ref":"A638"}},{"type":"Feature","geometry":{"type":"LineString","coordinates":[[-1.54967,53.68189],[-1.55006,53.68207]]},"properties":{"name":"Wakefield Road","category":"trunk","osm_type":"way","osm_id":"1550914887","ref":"A638"}},{"type":"Feature","geometry":{"type":"LineString","coordinates":[[-1.54749,53.6808],[-1.54771,53.6809]]},"properties":{"name":"Wakefield Road","category":"trunk","osm_type":"way","osm_id":"1550914892","ref":"A638"}},{"type":"Feature","geometry":{"type":"LineString","coordinates":[[-1.54771,53.6809],[-1.54803,53.68112]]},"properties":{"name":"Wakefield Road","category":"trunk","osm_type":"way","osm_id":"1550914893","ref":"A638"}},{"type":"Feature","geometry":{"type":"LineString","coordinates":[[-1.54762,53.68097],[-1.5474,53.68087]]},"properties":{"name":"Wakefield Road","category":"trunk","osm_type":"way","osm_id":"1550914894","ref":"A638"}},{"type":"Feature","geometry":{"type":"LineString","coordinates":[[-1.54803,53.68112],[-1.54762,53.68097]]},"properties":{"name":"Wakefield Road","category":"trunk","osm_type":"way","osm_id":"1550914895","ref":"A638"}},{"type":"Feature","geometry":{"type":"LineString","coordinates":[[-1.54803,53.68112],[-1.5489,53.68156]]},"properties":{"name":"Wakefield Road","category":"trunk","osm_type":"way","osm_id":"1550914896","ref":"A638"}},{"type":"Feature","geometry":{"type":"LineString","coordinates":[[-1.5474,53.68087],[-1.54707,53.6807]]},"properties":{"name":"Wakefield Road","category":"trunk","osm_type":"way","osm_id":"1550914897","ref":"A638"}},{"type":"Feature","geometry":{"type":"LineString","coordinates":[[-1.54707,53.6807],[-1.54749,53.6808]]},"properties":{"name":"Wakefield Road","category":"trunk","osm_type":"way","osm_id":"1550914898","ref":"A638"}},{"type":"Feature","geometry":{"type":"LineString","coordinates":[[-1.55605,53.68798],[-1.55518,53.68573]]},"properties":{"name":"Major roads","category":"motorway_link","osm_type":"way","osm_id":"1550914899","operator":"National Highways"}},{"type":"Feature","geometry":{"type":"LineString","coordinates":[[-1.55518,53.68573],[-1.55472,53.68463]]},"properties":{"name":"Major roads","category":"motorway_link","osm_type":"way","osm_id":"1550914900","operator":"National Highways"}},{"type":"Feature","geometry":{"type":"LineString","coordinates":[[-1.55225,53.68329],[-1.55188,53.6831]]},"properties":{"name":"Wakefield Road","category":"trunk","osm_type":"way","osm_id":"1550914901","ref":"A638"}},{"type":"Feature","geometry":{"type":"LineString","coordinates":[[-1.55032,53.68236],[-1.55001,53.68222]]},"properties":{"name":"Wakefield Road","category":"trunk","osm_type":"way","osm_id":"1550914908","ref":"A638"}},{"type":"Feature","geometry":{"type":"LineString","coordinates":[[-1.5579,53.68412],[-1.55748,53.68392]]},"properties":{"name":"Wakefield Road","category":"trunk","osm_type":"way","osm_id":"1550914909","ref":"A638"}},{"type":"Feature","geometry":{"type":"LineString","coordinates":[[-1.55664,53.68331],[-1.55672,53.68343]]},"properties":{"name":"Flushdyke Interchange","category":"trunk","osm_type":"way","osm_id":"1550914910","ref":"A638"}},{"type":"Feature","geometry":{"type":"LineString","coordinates":[[-1.55371,53.68397],[-1.55356,53.68385]]},"properties":{"name":"Flushdyke Interchange","category":"trunk","osm_type":"way","osm_id":"1550914911","ref":"A638"}},{"type":"Feature","geometry":{"type":"LineString","coordinates":[[-1.5542,53.68415],[-1.55371,53.68397]]},"properties":{"name":"Flushdyke Interchange","category":"trunk","osm_type":"way","osm_id":"1550914912","ref":"A638"}},{"type":"Feature","geometry":{"type":"LineString","coordinates":[[-1.55368,53.68319],[-1.55384,53.68311]]},"properties":{"name":"Flushdyke Interchange","category":"trunk","osm_type":"way","osm_id":"1550914913","ref":"A638"}},{"type":"Feature","geometry":{"type":"LineString","coordinates":[[-1.5554,53.68301],[-1.55601,53.68305]]},"properties":{"name":"Flushdyke Interchange","category":"trunk","osm_type":"way","osm_id":"1550914914","ref":"A638"}},{"type":"Feature","geometry":{"type":"LineString","coordinates":[[-1.55653,53.68398],[-1.55633,53.68409]]},"properties":{"name":"Flushdyke Interchange","category":"trunk","osm_type":"way","osm_id":"1550914915","ref":"A638"}},{"type":"Feature","geometry":{"type":"LineString","coordinates":[[-1.52594,53.65093],[-1.52699,53.65054]]},"properties":{"name":"Denby Dale Road","category":"primary","osm_type":"way","osm_id":"1551089884","ref":"A636"}},{"type":"Feature","geometry":{"type":"LineString","coordinates":[[-1.52338,53.65185],[-1.52296,53.65212]]},"properties":{"name":"Denby Dale Road","category":"primary","osm_type":"way","osm_id":"1551089885","ref":"A636"}},{"type":"Feature","geometry":{"type":"LineString","coordinates":[[-1.52137,53.65231],[-1.52214,53.65205]]},"properties":{"name":"Denby Dale Road","category":"primary","osm_type":"way","osm_id":"1551089886","ref":"A636"}},{"type":"Feature","geometry":{"type":"LineString","coordinates":[[-1.49916,53.64866],[-1.50062,53.64876]]},"properties":{"name":"Asdale Road","category":"primary","osm_type":"way","osm_id":"1551099943","ref":"A6186"}},{"type":"Feature","geometry":{"type":"LineString","coordinates":[[-1.49771,53.64879],[-1.49722,53.64879]]},"properties":{"name":"Standbridge Lane","category":"primary","osm_type":"way","osm_id":"1551099944","ref":"A6186"}},{"type":"Feature","geometry":{"type":"LineString","coordinates":[[-1.82772,53.67147],[-1.82737,53.67099]]},"properties":{"name":"Huddersfield Road","category":"trunk","osm_type":"way","osm_id":"1551168773","ref":"A629"}},{"type":"Feature","geometry":{"type":"LineString","coordinates":[[-1.8253,53.67531],[-1.82687,53.67469]]},"properties":{"name":"Calderdale Way","category":"trunk","osm_type":"way","osm_id":"1551168774","ref":"A629"}},{"type":"Feature","geometry":{"type":"LineString","coordinates":[[-1.78386,53.65145],[-1.78371,53.65145]]},"properties":{"name":"Castlegate","category":"trunk","osm_type":"way","osm_id":"1551392114","ref":"A62"}},{"type":"Feature","geometry":{"type":"LineString","coordinates":[[-1.78371,53.65145],[-1.78344,53.65137]]},"properties":{"name":"Castlegate","category":"trunk","osm_type":"way","osm_id":"1551392115","ref":"A62"}},{"type":"Feature","geometry":{"type":"LineString","coordinates":[[-1.79134,53.64208],[-1.79189,53.64213]]},"properties":{"name":"Manchester Road","category":"primary","osm_type":"way","osm_id":"1551395421","ref":"A62"}},{"type":"Feature","geometry":{"type":"LineString","coordinates":[[-1.78915,53.64186],[-1.79134,53.64208]]},"properties":{"name":"Manchester Road","category":"primary","osm_type":"way","osm_id":"1551395422","ref":"A62"}},{"type":"Feature","geometry":{"type":"LineString","coordinates":[[-1.78804,53.6418],[-1.78825,53.64179]]},"properties":{"name":"Manchester Road","category":"primary","osm_type":"way","osm_id":"1551395426","ref":"A62"}},{"type":"Feature","geometry":{"type":"LineString","coordinates":[[-1.78863,53.64181],[-1.78915,53.64186]]},"properties":{"name":"Manchester Road","category":"primary","osm_type":"way","osm_id":"1551395427","ref":"A62"}},{"type":"Feature","geometry":{"type":"LineString","coordinates":[[-1.78767,53.64181],[-1.78804,53.6418]]},"properties":{"name":"Manchester Road","category":"primary","osm_type":"way","osm_id":"1551395428","ref":"A62"}},{"type":"Feature","geometry":{"type":"LineString","coordinates":[[-1.78572,53.64207],[-1.78646,53.64195]]},"properties":{"name":"Manchester Road","category":"primary","osm_type":"way","osm_id":"1551395429","ref":"A62"}},{"type":"Feature","geometry":{"type":"LineString","coordinates":[[-1.54912,53.78467],[-1.55104,53.78449]]},"properties":{"name":"Major roads","category":"motorway_link","osm_type":"way","osm_id":"1551568158","operator":"National Highways"}},{"type":"Feature","geometry":{"type":"LineString","coordinates":[[-1.79274,53.63475],[-1.79342,53.63433]]},"properties":{"name":"Lockwood Road","category":"primary","osm_type":"way","osm_id":"1552904812","ref":"A616"}},{"type":"Feature","geometry":{"type":"LineString","coordinates":[[-1.79265,53.63483],[-1.79274,53.63475]]},"properties":{"name":"Lockwood Road","category":"primary","osm_type":"way","osm_id":"1552904860","ref":"A616"}},{"type":"Feature","geometry":{"type":"LineString","coordinates":[[-1.64117,53.68735],[-1.64071,53.6877]]},"properties":{"name":"Huddersfield Road","category":"trunk","osm_type":"way","osm_id":"1552961737","ref":"A644"}},{"type":"Feature","geometry":{"type":"LineString","coordinates":[[-1.64019,53.68784],[-1.64055,53.68759]]},"properties":{"name":"Huddersfield Road","category":"trunk","osm_type":"way","osm_id":"1552961738","ref":"A644"}},{"type":"Feature","geometry":{"type":"LineString","coordinates":[[-1.62503,53.69161],[-1.62527,53.69159]]},"properties":{"name":"Major roads","category":"trunk_link","osm_type":"way","osm_id":"1552961741"}},{"type":"Feature","geometry":{"type":"LineString","coordinates":[[-1.62989,53.6895],[-1.62977,53.68907]]},"properties":{"name":"Major roads","category":"trunk_link","osm_type":"way","osm_id":"1552961742"}},{"type":"Feature","geometry":{"type":"LineString","coordinates":[[-1.62981,53.68973],[-1.63027,53.68955]]},"properties":{"name":"Vicarage Road","category":"trunk","osm_type":"way","osm_id":"1552961743","ref":"A638"}},{"type":"Feature","geometry":{"type":"LineString","coordinates":[[-1.63027,53.68955],[-1.6304,53.6895]]},"properties":{"name":"Aldams Road","category":"trunk","osm_type":"way","osm_id":"1552961744","ref":"A638"}},{"type":"Feature","geometry":{"type":"LineString","coordinates":[[-1.63476,53.68935],[-1.6351,53.6894]]},"properties":{"name":"Webster Hill","category":"trunk","osm_type":"way","osm_id":"1552961745","ref":"A638"}},{"type":"Feature","geometry":{"type":"LineString","coordinates":[[-1.6343,53.68937],[-1.63335,53.68923]]},"properties":{"name":"Webster Hill","category":"trunk","osm_type":"way","osm_id":"1552961747","ref":"A638"}},{"type":"Feature","geometry":{"type":"LineString","coordinates":[[-1.63548,53.68979],[-1.63533,53.68987]]},"properties":{"name":"Wellington Road West","category":"trunk","osm_type":"way","osm_id":"1552961757","ref":"A638"}},{"type":"Feature","geometry":{"type":"LineString","coordinates":[[-1.63339,53.68916],[-1.63408,53.68924]]},"properties":{"name":"Webster Hill","category":"trunk","osm_type":"way","osm_id":"1552961758","ref":"A638"}},{"type":"Feature","geometry":{"type":"LineString","coordinates":[[-1.62971,53.68991],[-1.62952,53.68998]]},"properties":{"name":"Vicarage Road","category":"trunk","osm_type":"way","osm_id":"1552961786","ref":"A638"}},{"type":"Feature","geometry":{"type":"LineString","coordinates":[[-1.62999,53.68978],[-1.62971,53.68991]]},"properties":{"name":"Vicarage Road","category":"trunk","osm_type":"way","osm_id":"1552961787","ref":"A638"}},{"type":"Feature","geometry":{"type":"LineString","coordinates":[[-1.6313,53.68939],[-1.63043,53.68961]]},"properties":{"name":"Aldams Road","category":"trunk","osm_type":"way","osm_id":"1552961794","ref":"A638"}},{"type":"Feature","geometry":{"type":"LineString","coordinates":[[-1.62873,53.69006],[-1.62901,53.68999]]},"properties":{"name":"Vicarage Road","category":"trunk","osm_type":"way","osm_id":"1552961795","ref":"A638"}},{"type":"Feature","geometry":{"type":"LineString","coordinates":[[-1.62615,53.69099],[-1.6267,53.69064]]},"properties":{"name":"Rishworth Road","category":"trunk","osm_type":"way","osm_id":"1552961798","ref":"A638"}},{"type":"Feature","geometry":{"type":"LineString","coordinates":[[-1.62687,53.69056],[-1.62721,53.69042]]},"properties":{"name":"Vicarage Road","category":"trunk","osm_type":"way","osm_id":"1552961799","ref":"A638"}},{"type":"Feature","geometry":{"type":"LineString","coordinates":[[-1.625,53.6918],[-1.62488,53.69179]]},"properties":{"name":"Rishworth Road","category":"trunk","osm_type":"way","osm_id":"1552961800","ref":"A638"}},{"type":"Feature","geometry":{"type":"LineString","coordinates":[[-1.625,53.6918],[-1.62504,53.69173]]},"properties":{"name":"Rishworth Road","category":"trunk","osm_type":"way","osm_id":"1552961801","ref":"A638"}},{"type":"Feature","geometry":{"type":"LineString","coordinates":[[-1.62586,53.69134],[-1.62542,53.69163]]},"properties":{"name":"Rishworth Road","category":"trunk","osm_type":"way","osm_id":"1552961802","ref":"A638"}},{"type":"Feature","geometry":{"type":"LineString","coordinates":[[-1.62552,53.69244],[-1.62548,53.6924]]},"properties":{"name":"Dewsbury Ring Road","category":"trunk","osm_type":"way","osm_id":"1552961803","ref":"A638"}},{"type":"Feature","geometry":{"type":"LineString","coordinates":[[-1.61932,53.68989],[-1.62034,53.69016]]},"properties":{"name":"Wakefield Road","category":"trunk","osm_type":"way","osm_id":"1552961805","ref":"A638"}},{"type":"Feature","geometry":{"type":"LineString","coordinates":[[-1.6244,53.69145],[-1.62467,53.69159]]},"properties":{"name":"Wakefield Road","category":"trunk","osm_type":"way","osm_id":"1552961806","ref":"A638"}},{"type":"Feature","geometry":{"type":"LineString","coordinates":[[-1.62417,53.69137],[-1.6244,53.69145]]},"properties":{"name":"Wakefield Road","category":"trunk","osm_type":"way","osm_id":"1552961807","ref":"A638"}},{"type":"Feature","geometry":{"type":"LineString","coordinates":[[-1.51782,53.5667],[-1.51802,53.5666]]},"properties":{"name":"Barnsley Road","category":"trunk","osm_type":"way","osm_id":"1552998625","ref":"A635"}},{"type":"Feature","geometry":{"type":"LineString","coordinates":[[-1.51814,53.56662],[-1.51827,53.56673]]},"properties":{"name":"Barnsley Road","category":"trunk","osm_type":"way","osm_id":"1552998626","ref":"A635"}},{"type":"Feature","geometry":{"type":"LineString","coordinates":[[-1.52543,53.56732],[-1.52506,53.56729]]},"properties":{"name":"Barugh Green Road","category":"primary","osm_type":"way","osm_id":"1552998629"}},{"type":"Feature","geometry":{"type":"LineString","coordinates":[[-1.51802,53.5666],[-1.51814,53.56662]]},"properties":{"name":"Barnsley Road","category":"trunk","osm_type":"way","osm_id":"1552998630","ref":"A635"}},{"type":"Feature","geometry":{"type":"LineString","coordinates":[[-1.6394,53.52921],[-1.64079,53.52873]]},"properties":{"name":"Thurlstone Road","category":"trunk","osm_type":"way","osm_id":"1553436131","ref":"A628"}},{"type":"Feature","geometry":{"type":"LineString","coordinates":[[-1.64079,53.52873],[-1.64129,53.5286]]},"properties":{"name":"Thurlstone Road","category":"trunk","osm_type":"way","osm_id":"1553436179","ref":"A628"}},{"type":"Feature","geometry":{"type":"LineString","coordinates":[[-1.63142,53.69283],[-1.63172,53.69236]]},"properties":{"name":"Dewsbury Ring Road","category":"trunk","osm_type":"way","osm_id":"1553449070","ref":"A638"}},{"type":"Feature","geometry":{"type":"LineString","coordinates":[[-1.63133,53.69298],[-1.63142,53.69283]]},"properties":{"name":"Dewsbury Ring Road","category":"trunk","osm_type":"way","osm_id":"1553449071","ref":"A638"}},{"type":"Feature","geometry":{"type":"LineString","coordinates":[[-1.6305,53.69401],[-1.63016,53.69413]]},"properties":{"name":"Dewsbury Ring Road","category":"trunk","osm_type":"way","osm_id":"1553449073","ref":"A638"}},{"type":"Feature","geometry":{"type":"LineString","coordinates":[[-1.6321,53.69196],[-1.63242,53.69181]]},"properties":{"name":"Wellington Road","category":"trunk","osm_type":"way","osm_id":"1553449075","ref":"A638"}},{"type":"Feature","geometry":{"type":"LineString","coordinates":[[-1.63152,53.69295],[-1.63115,53.69354]]},"properties":{"name":"Dewsbury Ring Road","category":"trunk","osm_type":"way","osm_id":"1553449079","ref":"A638"}},{"type":"Feature","geometry":{"type":"LineString","coordinates":[[-1.63095,53.69352],[-1.63099,53.69348]]},"properties":{"name":"Dewsbury Ring Road","category":"trunk","osm_type":"way","osm_id":"1553449080","ref":"A638"}},{"type":"Feature","geometry":{"type":"LineString","coordinates":[[-1.63039,53.6939],[-1.63064,53.69376]]},"properties":{"name":"Dewsbury Ring Road","category":"trunk","osm_type":"way","osm_id":"1553449081","ref":"A638"}},{"type":"Feature","geometry":{"type":"LineString","coordinates":[[-1.63075,53.69425],[-1.63077,53.69428]]},"properties":{"name":"Bradford Road","category":"primary","osm_type":"way","osm_id":"1553449084","ref":"A652"}},{"type":"Feature","geometry":{"type":"LineString","coordinates":[[-1.63077,53.69428],[-1.63086,53.69441]]},"properties":{"name":"Bradford Road","category":"primary","osm_type":"way","osm_id":"1553449085","ref":"A652"}},{"type":"Feature","geometry":{"type":"LineString","coordinates":[[-1.63072,53.69419],[-1.63075,53.69425]]},"properties":{"name":"Bradford Road","category":"primary","osm_type":"way","osm_id":"1553449086","ref":"A652"}},{"type":"Feature","geometry":{"type":"LineString","coordinates":[[-1.6309,53.69379],[-1.63082,53.69385]]},"properties":{"name":"Dewsbury Ring Road","category":"trunk","osm_type":"way","osm_id":"1553449087","ref":"A638"}},{"type":"Feature","geometry":{"type":"LineString","coordinates":[[-1.6311,53.6936],[-1.6309,53.69379]]},"properties":{"name":"Dewsbury Ring Road","category":"trunk","osm_type":"way","osm_id":"1553449088","ref":"A638"}},{"type":"Feature","geometry":{"type":"LineString","coordinates":[[-1.62942,53.69414],[-1.62991,53.69406]]},"properties":{"name":"Dewsbury Ring Road","category":"trunk","osm_type":"way","osm_id":"1553449089","ref":"A638"}},{"type":"Feature","geometry":{"type":"LineString","coordinates":[[-1.62616,53.69287],[-1.62732,53.69349]]},"properties":{"name":"Dewsbury Ring Road","category":"trunk","osm_type":"way","osm_id":"1553449090","ref":"A638"}},{"type":"Feature","geometry":{"type":"LineString","coordinates":[[-1.62598,53.69276],[-1.62605,53.6928]]},"properties":{"name":"Dewsbury Ring Road","category":"trunk","osm_type":"way","osm_id":"1553449091","ref":"A638"}},{"type":"Feature","geometry":{"type":"LineString","coordinates":[[-1.63156,53.69288],[-1.63152,53.69295]]},"properties":{"name":"Dewsbury Ring Road","category":"trunk","osm_type":"way","osm_id":"1553476921","ref":"A638"}},{"type":"Feature","geometry":{"type":"LineString","coordinates":[[-1.04571,53.78843],[-1.0456,53.7885]]},"properties":{"name":"Major roads","category":"primary","osm_type":"way","osm_id":"1553642826"}},{"type":"Feature","geometry":{"type":"LineString","coordinates":[[-1.0457,53.78828],[-1.04571,53.78843]]},"properties":{"name":"Major roads","category":"primary","osm_type":"way","osm_id":"1553642827"}},{"type":"Feature","geometry":{"type":"LineString","coordinates":[[-1.0456,53.7885],[-1.04529,53.78851]]},"properties":{"name":"Major roads","category":"primary","osm_type":"way","osm_id":"1553642828"}},{"type":"Feature","geometry":{"type":"LineString","coordinates":[[-1.06585,53.92467],[-1.06552,53.92417]]},"properties":{"name":"A19","category":"trunk","osm_type":"way","osm_id":"1553642829","ref":"A19"}},{"type":"Feature","geometry":{"type":"LineString","coordinates":[[-1.06672,53.92428],[-1.0667,53.92442]]},"properties":{"name":"A19","category":"trunk","osm_type":"way","osm_id":"1553642830","ref":"A19"}},{"type":"Feature","geometry":{"type":"LineString","coordinates":[[-1.52066,53.7087],[-1.52018,53.70871]]},"properties":{"name":"A650","category":"trunk","osm_type":"way","osm_id":"1553661936","ref":"A650"}},{"type":"Feature","geometry":{"type":"LineString","coordinates":[[-1.51605,53.70766],[-1.5189,53.70832]]},"properties":{"name":"A650","category":"trunk","osm_type":"way","osm_id":"1553661937","ref":"A650"}},{"type":"Feature","geometry":{"type":"LineString","coordinates":[[-1.50513,53.69467],[-1.50505,53.6957]]},"properties":{"name":"A650","category":"trunk","osm_type":"way","osm_id":"1553661938","ref":"A650"}},{"type":"Feature","geometry":{"type":"LineString","coordinates":[[-1.50533,53.69733],[-1.50527,53.69665]]},"properties":{"name":"A650","category":"trunk","osm_type":"way","osm_id":"1553661939","ref":"A650"}},{"type":"Feature","geometry":{"type":"LineString","coordinates":[[-1.50564,53.69844],[-1.50607,53.69885]]},"properties":{"name":"A650","category":"trunk","osm_type":"way","osm_id":"1553661940","ref":"A650"}},{"type":"Feature","geometry":{"type":"LineString","coordinates":[[-1.50562,53.70013],[-1.50571,53.69934]]},"properties":{"name":"A650","category":"trunk","osm_type":"way","osm_id":"1553661941","ref":"A650"}},{"type":"Feature","geometry":{"type":"LineString","coordinates":[[-1.51781,53.56676],[-1.51782,53.5667]]},"properties":{"name":"Barnsley Road","category":"trunk","osm_type":"way","osm_id":"1553671030","ref":"A635"}},{"type":"Feature","geometry":{"type":"LineString","coordinates":[[-1.51805,53.56688],[-1.51793,53.56686]]},"properties":{"name":"Barnsley Road","category":"trunk","osm_type":"way","osm_id":"1553671031","ref":"A635"}},{"type":"Feature","geometry":{"type":"LineString","coordinates":[[-1.51822,53.56683],[-1.51805,53.56688]]},"properties":{"name":"Barnsley Road","category":"trunk","osm_type":"way","osm_id":"1553671032","ref":"A635"}},{"type":"Feature","geometry":{"type":"LineString","coordinates":[[-1.51827,53.56673],[-1.51822,53.56683]]},"properties":{"name":"Barnsley Road","category":"trunk","osm_type":"way","osm_id":"1553671033","ref":"A635"}},{"type":"Feature","geometry":{"type":"LineString","coordinates":[[-1.51889,53.5667],[-1.51867,53.56667]]},"properties":{"name":"Barugh Green Road","category":"primary","osm_type":"way","osm_id":"1553671048","ref":"A635"}},{"type":"Feature","geometry":{"type":"LineString","coordinates":[[-1.51758,53.56644],[-1.51741,53.56634]]},"properties":{"name":"Barugh Green Road","category":"trunk","osm_type":"way","osm_id":"1553671053","ref":"A635"}},{"type":"Feature","geometry":{"type":"LineString","coordinates":[[-1.51768,53.5665],[-1.51758,53.56644]]},"properties":{"name":"Barugh Green Road","category":"trunk","osm_type":"way","osm_id":"1553671054","ref":"A635"}},{"type":"Feature","geometry":{"type":"LineString","coordinates":[[-1.63025,53.69395],[-1.63039,53.6939]]},"properties":{"name":"Dewsbury Ring Road","category":"trunk","osm_type":"way","osm_id":"1553689028","ref":"A638"}},{"type":"Feature","geometry":{"type":"LineString","coordinates":[[-1.62563,53.69278],[-1.62521,53.69279]]},"properties":{"name":"Major roads","category":"trunk_link","osm_type":"way","osm_id":"1553689029"}},{"type":"Feature","geometry":{"type":"LineString","coordinates":[[-1.78458,53.64246],[-1.78477,53.64236]]},"properties":{"name":"Manchester Road","category":"primary","osm_type":"way","osm_id":"1553693845","ref":"A62"}},{"type":"Feature","geometry":{"type":"LineString","coordinates":[[-1.77374,53.64401],[-1.77364,53.64396]]},"properties":{"name":"Wakefield Road","category":"trunk","osm_type":"way","osm_id":"1553693846","ref":"A629"}},{"type":"Feature","geometry":{"type":"LineString","coordinates":[[-1.78726,53.64409],[-1.78751,53.64449]]},"properties":{"name":"Castlegate","category":"trunk","osm_type":"way","osm_id":"1553944512","ref":"A62"}},{"type":"Feature","geometry":{"type":"LineString","coordinates":[[-1.2809,53.74111],[-1.28087,53.74114]]},"properties":{"name":"A1246","category":"primary","osm_type":"way","osm_id":"1553949625","ref":"A1246"}},{"type":"Feature","geometry":{"type":"LineString","coordinates":[[-1.28084,53.74094],[-1.2809,53.74111]]},"properties":{"name":"A1246","category":"primary","osm_type":"way","osm_id":"1553949630","ref":"A1246"}},{"type":"Feature","geometry":{"type":"LineString","coordinates":[[-1.28072,53.74091],[-1.28084,53.74094]]},"properties":{"name":"A1246","category":"primary","osm_type":"way","osm_id":"1553949631","ref":"A1246"}},{"type":"Feature","geometry":{"type":"LineString","coordinates":[[-1.2742,53.73321],[-1.27422,53.73338]]},"properties":{"name":"Major roads","category":"primary","osm_type":"way","osm_id":"1553949632"}},{"type":"Feature","geometry":{"type":"LineString","coordinates":[[-1.78429,53.64252],[-1.78426,53.64257]]},"properties":{"name":"Chapel Hill","category":"primary","osm_type":"way","osm_id":"1553989261","ref":"A616"}},{"type":"Feature","geometry":{"type":"LineString","coordinates":[[-1.78429,53.64252],[-1.78441,53.64249]]},"properties":{"name":"Major roads","category":"trunk_link","osm_type":"way","osm_id":"1553989262"}},{"type":"Feature","geometry":{"type":"LineString","coordinates":[[-1.78418,53.64261],[-1.78412,53.64255]]},"properties":{"name":"Major roads","category":"trunk_link","osm_type":"way","osm_id":"1553989263"}},{"type":"Feature","geometry":{"type":"LineString","coordinates":[[-1.78426,53.64257],[-1.78418,53.64261]]},"properties":{"name":"Major roads","category":"trunk_link","osm_type":"way","osm_id":"1553989264"}},{"type":"Feature","geometry":{"type":"LineString","coordinates":[[-1.78412,53.64255],[-1.78426,53.64257]]},"properties":{"name":"Castlegate","category":"trunk","osm_type":"way","osm_id":"1553989265","ref":"A62"}},{"type":"Feature","geometry":{"type":"LineString","coordinates":[[-1.78563,53.64041],[-1.78573,53.64028]]},"properties":{"name":"Chapel Hill","category":"primary","osm_type":"way","osm_id":"1554334542","ref":"A616"}},{"type":"Feature","geometry":{"type":"LineString","coordinates":[[-1.56567,53.54373],[-1.56516,53.54386]]},"properties":{"name":"Barnsley Road","category":"trunk","osm_type":"way","osm_id":"1554341234","ref":"A628"}},{"type":"Feature","geometry":{"type":"LineString","coordinates":[[-1.78063,53.64312],[-1.78069,53.643]]},"properties":{"name":"Queensgate","category":"trunk","osm_type":"way","osm_id":"1554607458","ref":"A62"}},{"type":"Feature","geometry":{"type":"LineString","coordinates":[[-1.04894,53.9797],[-1.0492,53.97949]]},"properties":{"name":"Malton Road","category":"primary","osm_type":"way","osm_id":"1554613456","ref":"A1036"}},{"type":"Feature","geometry":{"type":"LineString","coordinates":[[-1.04835,53.97999],[-1.04847,53.97997]]},"properties":{"name":"Major roads","category":"primary","osm_type":"way","osm_id":"1554613457"}},{"type":"Feature","geometry":{"type":"LineString","coordinates":[[-1.04809,53.98015],[-1.04814,53.98009]]},"properties":{"name":"Major roads","category":"primary","osm_type":"way","osm_id":"1554613458"}},{"type":"Feature","geometry":{"type":"LineString","coordinates":[[-1.04817,53.98041],[-1.04809,53.98015]]},"properties":{"name":"Major roads","category":"primary","osm_type":"way","osm_id":"1554613459"}},{"type":"Feature","geometry":{"type":"LineString","coordinates":[[-1.04824,53.98046],[-1.04817,53.98041]]},"properties":{"name":"Major roads","category":"primary","osm_type":"way","osm_id":"1554613460"}},{"type":"Feature","geometry":{"type":"LineString","coordinates":[[-1.76492,53.64297],[-1.76522,53.64292]]},"properties":{"name":"Wakefield Road","category":"trunk","osm_type":"way","osm_id":"1554816228","ref":"A629"}},{"type":"Feature","geometry":{"type":"LineString","coordinates":[[-1.77373,53.64412],[-1.77364,53.64396]]},"properties":{"name":"B6432","category":"trunk_link","osm_type":"way","osm_id":"1554816254","ref":"B6432"}},{"type":"Feature","geometry":{"type":"LineString","coordinates":[[-1.77892,53.6442],[-1.7793,53.6441]]},"properties":{"name":"Queensgate","category":"trunk","osm_type":"way","osm_id":"1554818976","ref":"A62"}},{"type":"Feature","geometry":{"type":"LineString","coordinates":[[-1.62668,53.53233],[-1.62543,53.5325]]},"properties":{"name":"Barnsley Road","category":"trunk","osm_type":"way","osm_id":"1555018778","ref":"A628"}},{"type":"Feature","geometry":{"type":"LineString","coordinates":[[-1.62673,53.53233],[-1.62668,53.53233]]},"properties":{"name":"Barnsley Road","category":"trunk","osm_type":"way","osm_id":"1555047285","ref":"A628"}},{"type":"Feature","geometry":{"type":"LineString","coordinates":[[-1.11763,53.96354],[-1.11745,53.96346]]},"properties":{"name":"Boroughbridge Road","category":"primary","osm_type":"way","osm_id":"1555086032","ref":"A59"}},{"type":"Feature","geometry":{"type":"LineString","coordinates":[[-1.8776,53.71612],[-1.87861,53.71549]]},"properties":{"name":"Aachen Way","category":"trunk","osm_type":"way","osm_id":"1555105787","ref":"A58"}},{"type":"Feature","geometry":{"type":"LineString","coordinates":[[-1.25445,53.70871],[-1.25326,53.7089]]},"properties":{"name":"Hill Top","category":"primary","osm_type":"way","osm_id":"1555345003","ref":"A645"}},{"type":"Feature","geometry":{"type":"LineString","coordinates":[[-1.25863,53.70783],[-1.25816,53.70798]]},"properties":{"name":"Pontefract Road","category":"primary","osm_type":"way","osm_id":"1555345135","ref":"A645"}},{"type":"Feature","geometry":{"type":"LineString","coordinates":[[-1.6411,53.73664],[-1.64794,53.73484]]},"properties":{"name":"Leeds Road","category":"primary","osm_type":"way","osm_id":"1555350405","ref":"A643"}},{"type":"Feature","geometry":{"type":"LineString","coordinates":[[-1.50616,53.68087],[-1.50623,53.68085]]},"properties":{"name":"Westgate","category":"trunk","osm_type":"way","osm_id":"1556362242","ref":"A642"}},{"type":"Feature","geometry":{"type":"LineString","coordinates":[[-1.5074,53.68053],[-1.50749,53.68051]]},"properties":{"name":"Westgate","category":"trunk","osm_type":"way","osm_id":"1556362259","ref":"A642"}},{"type":"Feature","geometry":{"type":"LineString","coordinates":[[-1.5073,53.68028],[-1.5076,53.68039]]},"properties":{"name":"Ings Road","category":"trunk_link","osm_type":"way","osm_id":"1556362260","ref":"A638"}},{"type":"Feature","geometry":{"type":"LineString","coordinates":[[-1.50593,53.67954],[-1.50628,53.67961]]},"properties":{"name":"Ings Road","category":"trunk","osm_type":"way","osm_id":"1556362265","ref":"A638"}},{"type":"Feature","geometry":{"type":"LineString","coordinates":[[-1.50628,53.67961],[-1.50677,53.67988]]},"properties":{"name":"Ings Road","category":"trunk","osm_type":"way","osm_id":"1556362269","ref":"A638"}},{"type":"Feature","geometry":{"type":"LineString","coordinates":[[-1.50448,53.67926],[-1.50465,53.67928]]},"properties":{"name":"Ings Road","category":"trunk","osm_type":"way","osm_id":"1556362270","ref":"A638"}},{"type":"Feature","geometry":{"type":"LineString","coordinates":[[-1.50346,53.67917],[-1.50358,53.67918]]},"properties":{"name":"Ings Road","category":"trunk","osm_type":"way","osm_id":"1556362276","ref":"A638"}},{"type":"Feature","geometry":{"type":"LineString","coordinates":[[-1.5039,53.67939],[-1.50364,53.67935]]},"properties":{"name":"Quebec Street","category":"trunk","osm_type":"way","osm_id":"1556362287","ref":"A638"}},{"type":"Feature","geometry":{"type":"LineString","coordinates":[[-1.50358,53.67918],[-1.50376,53.6791]]},"properties":{"name":"Major roads","category":"trunk_link","osm_type":"way","osm_id":"1556362288"}},{"type":"Feature","geometry":{"type":"LineString","coordinates":[[-1.50083,53.68656],[-1.5009,53.68665]]},"properties":{"name":"A61","category":"trunk","osm_type":"way","osm_id":"1556362291","ref":"A61"}},{"type":"Feature","geometry":{"type":"LineString","coordinates":[[-1.49702,53.686],[-1.49689,53.68597]]},"properties":{"name":"Marsh Way","category":"trunk","osm_type":"way","osm_id":"1556362293","ref":"A61"}},{"type":"Feature","geometry":{"type":"LineString","coordinates":[[-1.49474,53.6865],[-1.49443,53.68653]]},"properties":{"name":"Jacobs Well Lane","category":"trunk","osm_type":"way","osm_id":"1556362306","ref":"A61"}},{"type":"Feature","geometry":{"type":"LineString","coordinates":[[-1.49217,53.68674],[-1.49137,53.6868]]},"properties":{"name":"Jacobs Well Lane","category":"primary","osm_type":"way","osm_id":"1556362308","ref":"A642"}},{"type":"Feature","geometry":{"type":"LineString","coordinates":[[-1.49282,53.68663],[-1.49266,53.68668]]},"properties":{"name":"Jacobs Well Lane","category":"primary","osm_type":"way","osm_id":"1556362309","ref":"A642"}},{"type":"Feature","geometry":{"type":"LineString","coordinates":[[-1.4926,53.68512],[-1.49262,53.68499]]},"properties":{"name":"Marsh Way","category":"trunk","osm_type":"way","osm_id":"1556362312","ref":"A61"}},{"type":"Feature","geometry":{"type":"LineString","coordinates":[[-1.49245,53.68567],[-1.49246,53.6856]]},"properties":{"name":"Marsh Way","category":"trunk","osm_type":"way","osm_id":"1556362313","ref":"A61"}},{"type":"Feature","geometry":{"type":"LineString","coordinates":[[-1.49261,53.68415],[-1.49253,53.68393]]},"properties":{"name":"Marsh Way","category":"trunk","osm_type":"way","osm_id":"1556362316","ref":"A61"}},{"type":"Feature","geometry":{"type":"LineString","coordinates":[[-1.4914,53.68101],[-1.49129,53.68098]]},"properties":{"name":"A61","category":"trunk","osm_type":"way","osm_id":"1556362333","ref":"A61"}},{"type":"Feature","geometry":{"type":"LineString","coordinates":[[-1.50393,53.67894],[-1.50398,53.67855]]},"properties":{"name":"Charlesworth Way","category":"primary","osm_type":"way","osm_id":"1556362349","ref":"A636"}},{"type":"Feature","geometry":{"type":"LineString","coordinates":[[-1.49089,53.67763],[-1.49081,53.67749]]},"properties":{"name":"Kirkgate","category":"trunk","osm_type":"way","osm_id":"1556362350","ref":"A61"}},{"type":"Feature","geometry":{"type":"LineString","coordinates":[[-1.49393,53.67786],[-1.49342,53.67786]]},"properties":{"name":"Ings Road","category":"trunk","osm_type":"way","osm_id":"1556362351"}},{"type":"Feature","geometry":{"type":"LineString","coordinates":[[-1.49415,53.67787],[-1.49393,53.67786]]},"properties":{"name":"Ings Road","category":"trunk","osm_type":"way","osm_id":"1556362352"}},{"type":"Feature","geometry":{"type":"LineString","coordinates":[[-1.4916,53.67847],[-1.49177,53.67838]]},"properties":{"name":"Ings Road","category":"trunk","osm_type":"way","osm_id":"1556362353"}},{"type":"Feature","geometry":{"type":"LineString","coordinates":[[-1.49089,53.67719],[-1.49094,53.6772]]},"properties":{"name":"A638","category":"trunk","osm_type":"way","osm_id":"1556362354","ref":"A638"}},{"type":"Feature","geometry":{"type":"LineString","coordinates":[[-1.49169,53.67734],[-1.4919,53.67738]]},"properties":{"name":"A638","category":"trunk","osm_type":"way","osm_id":"1556362355","ref":"A638"}},{"type":"Feature","geometry":{"type":"LineString","coordinates":[[-1.50056,53.67905],[-1.50047,53.67906]]},"properties":{"name":"Ings Road","category":"trunk","osm_type":"way","osm_id":"1556362358","ref":"A638"}},{"type":"Feature","geometry":{"type":"LineString","coordinates":[[-1.50001,53.67903],[-1.49999,53.67901]]},"properties":{"name":"A638","category":"trunk","osm_type":"way","osm_id":"1556362359","ref":"A638"}},{"type":"Feature","geometry":{"type":"LineString","coordinates":[[-1.50004,53.67886],[-1.5001,53.67884]]},"properties":{"name":"A638","category":"trunk","osm_type":"way","osm_id":"1556362360","ref":"A638"}},{"type":"Feature","geometry":{"type":"LineString","coordinates":[[-1.49999,53.67901],[-1.50004,53.67886]]},"properties":{"name":"A638","category":"trunk","osm_type":"way","osm_id":"1556362361","ref":"A638"}},{"type":"Feature","geometry":{"type":"LineString","coordinates":[[-1.5004,53.67891],[-1.50034,53.67906]]},"properties":{"name":"A638","category":"trunk","osm_type":"way","osm_id":"1556362362","ref":"A638"}},{"type":"Feature","geometry":{"type":"LineString","coordinates":[[-1.50036,53.67887],[-1.5004,53.67891]]},"properties":{"name":"A638","category":"trunk","osm_type":"way","osm_id":"1556362363","ref":"A638"}},{"type":"Feature","geometry":{"type":"LineString","coordinates":[[-1.50029,53.67908],[-1.50016,53.67909]]},"properties":{"name":"A638","category":"trunk","osm_type":"way","osm_id":"1556362364","ref":"A638"}},{"type":"Feature","geometry":{"type":"LineString","coordinates":[[-1.50034,53.67906],[-1.50029,53.67908]]},"properties":{"name":"A638","category":"trunk","osm_type":"way","osm_id":"1556362365","ref":"A638"}},{"type":"Feature","geometry":{"type":"LineString","coordinates":[[-1.58279,53.79903],[-1.58187,53.79902]]},"properties":{"name":"Armley Road","category":"primary","osm_type":"way","osm_id":"1556818794","ref":"A647"}},{"type":"Feature","geometry":{"type":"LineString","coordinates":[[-1.82217,53.98854],[-1.81149,53.9907]]},"properties":{"name":"Kex Gill Road","category":"trunk","osm_type":"way","osm_id":"1556840660","ref":"A59"}},{"type":"Feature","geometry":{"type":"LineString","coordinates":[[-1.88796,53.97162],[-1.88605,53.9717]]},"properties":{"name":"Bolton Bridge Bypass","category":"trunk","osm_type":"way","osm_id":"1556840661","ref":"A59"}},{"type":"Feature","geometry":{"type":"LineString","coordinates":[[-1.90528,53.97655],[-1.90248,53.97568]]},"properties":{"name":"Bolton Bridge Bypass","category":"trunk","osm_type":"way","osm_id":"1556840662","ref":"A59"}},{"type":"Feature","geometry":{"type":"LineString","coordinates":[[-1.93447,53.97507],[-1.9258,53.97615]]},"properties":{"name":"Long Causeway","category":"trunk","osm_type":"way","osm_id":"1556840663","ref":"A59"}},{"type":"Feature","geometry":{"type":"LineString","coordinates":[[-1.78198,53.68547],[-1.78182,53.68497]]},"properties":{"name":"Huddersfield Road","category":"primary","osm_type":"way","osm_id":"1556855455","ref":"A641"}},{"type":"Feature","geometry":{"type":"LineString","coordinates":[[-1.78182,53.68415],[-1.78198,53.68547]]},"properties":{"name":"Huddersfield Road","category":"primary","osm_type":"way","osm_id":"1556855456","ref":"A641"}},{"type":"Feature","geometry":{"type":"LineString","coordinates":[[-1.77575,53.67984],[-1.7754,53.67899]]},"properties":{"name":"Bradford Road","category":"primary","osm_type":"way","osm_id":"1556855483","ref":"A641"}},{"type":"Feature","geometry":{"type":"LineString","coordinates":[[-1.77588,53.67704],[-1.77568,53.67773]]},"properties":{"name":"Bradford Road","category":"primary","osm_type":"way","osm_id":"1556855484","ref":"A641"}},{"type":"Feature","geometry":{"type":"LineString","coordinates":[[-1.78016,53.67056],[-1.78031,53.67031]]},"properties":{"name":"Bradford Road","category":"primary","osm_type":"way","osm_id":"1556855491","ref":"A641"}},{"type":"Feature","geometry":{"type":"LineString","coordinates":[[-1.78002,53.67072],[-1.78016,53.67056]]},"properties":{"name":"Bradford Road","category":"primary","osm_type":"way","osm_id":"1556855492","ref":"A641"}},{"type":"Feature","geometry":{"type":"LineString","coordinates":[[-1.78031,53.67031],[-1.78028,53.6684]]},"properties":{"name":"Bradford Road","category":"primary","osm_type":"way","osm_id":"1556855493","ref":"A641"}},{"type":"Feature","geometry":{"type":"LineString","coordinates":[[-1.78006,53.6674],[-1.78015,53.66763]]},"properties":{"name":"Bradford Road","category":"primary","osm_type":"way","osm_id":"1556855494","ref":"A641"}},{"type":"Feature","geometry":{"type":"LineString","coordinates":[[-1.78018,53.66521],[-1.78007,53.66608]]},"properties":{"name":"Bradford Road","category":"primary","osm_type":"way","osm_id":"1556855495","ref":"A641"}},{"type":"Feature","geometry":{"type":"LineString","coordinates":[[-1.78015,53.66763],[-1.7803,53.66796]]},"properties":{"name":"Bradford Road","category":"primary","osm_type":"way","osm_id":"1556855502","ref":"A641"}},{"type":"Feature","geometry":{"type":"LineString","coordinates":[[-1.78007,53.66608],[-1.78006,53.6674]]},"properties":{"name":"Bradford Road","category":"primary","osm_type":"way","osm_id":"1556855503","ref":"A641"}},{"type":"Feature","geometry":{"type":"LineString","coordinates":[[-1.78028,53.6684],[-1.78011,53.66803]]},"properties":{"name":"Bradford Road","category":"primary","osm_type":"way","osm_id":"1556855504","ref":"A641"}},{"type":"Feature","geometry":{"type":"LineString","coordinates":[[-1.78022,53.66478],[-1.78018,53.66521]]},"properties":{"name":"Bradford Road","category":"primary","osm_type":"way","osm_id":"1556855505","ref":"A641"}},{"type":"Feature","geometry":{"type":"LineString","coordinates":[[-1.78038,53.6632],[-1.78022,53.66478]]},"properties":{"name":"Bradford Road","category":"primary","osm_type":"way","osm_id":"1556855506","ref":"A641"}},{"type":"Feature","geometry":{"type":"LineString","coordinates":[[-1.77985,53.6664],[-1.77988,53.66606]]},"properties":{"name":"A641","category":"primary","osm_type":"way","osm_id":"1556855507","ref":"A641"}},{"type":"Feature","geometry":{"type":"LineString","coordinates":[[-1.78011,53.66803],[-1.77985,53.6664]]},"properties":{"name":"A641","category":"primary","osm_type":"way","osm_id":"1556855508","ref":"A641"}},{"type":"Feature","geometry":{"type":"LineString","coordinates":[[-1.78046,53.66264],[-1.78038,53.6632]]},"properties":{"name":"A641","category":"primary","osm_type":"way","osm_id":"1556855518","ref":"A641"}},{"type":"Feature","geometry":{"type":"LineString","coordinates":[[-1.78056,53.66179],[-1.78057,53.6619]]},"properties":{"name":"Bradford Road","category":"primary","osm_type":"way","osm_id":"1556855522","ref":"A641"}},{"type":"Feature","geometry":{"type":"LineString","coordinates":[[-1.7803,53.66268],[-1.78032,53.66249]]},"properties":{"name":"A641","category":"primary","osm_type":"way","osm_id":"1556855525","ref":"A641"}},{"type":"Feature","geometry":{"type":"LineString","coordinates":[[-1.78022,53.6632],[-1.7803,53.66268]]},"properties":{"name":"A641","category":"primary","osm_type":"way","osm_id":"1556855526","ref":"A641"}},{"type":"Feature","geometry":{"type":"LineString","coordinates":[[-1.78032,53.66249],[-1.78036,53.66223]]},"properties":{"name":"A641","category":"primary","osm_type":"way","osm_id":"1556855548","ref":"A641"}},{"type":"Feature","geometry":{"type":"LineString","coordinates":[[-1.78057,53.6619],[-1.78052,53.66217]]},"properties":{"name":"Bradford Road","category":"primary","osm_type":"way","osm_id":"1556855549","ref":"A641"}},{"type":"Feature","geometry":{"type":"LineString","coordinates":[[-1.78213,53.65456],[-1.782,53.65426]]},"properties":{"name":"Bradford Road","category":"primary","osm_type":"way","osm_id":"1556855552","ref":"A641"}},{"type":"Feature","geometry":{"type":"LineString","coordinates":[[-1.781,53.65996],[-1.78097,53.66015]]},"properties":{"name":"Bradford Road","category":"primary","osm_type":"way","osm_id":"1556855554","ref":"A641"}},{"type":"Feature","geometry":{"type":"LineString","coordinates":[[-1.78161,53.65754],[-1.78167,53.65728]]},"properties":{"name":"Bradford Road","category":"primary","osm_type":"way","osm_id":"1556855558","ref":"A641"}},{"type":"Feature","geometry":{"type":"LineString","coordinates":[[-1.78167,53.65728],[-1.78161,53.65754]]},"properties":{"name":"Bradford Road","category":"primary","osm_type":"way","osm_id":"1556855559","ref":"A641"}},{"type":"Feature","geometry":{"type":"LineString","coordinates":[[-1.78195,53.65654],[-1.78167,53.65728]]},"properties":{"name":"Bradford Road","category":"primary","osm_type":"way","osm_id":"1556855560","ref":"A641"}},{"type":"Feature","geometry":{"type":"LineString","coordinates":[[-1.78204,53.65632],[-1.78195,53.65654]]},"properties":{"name":"Bradford Road","category":"primary","osm_type":"way","osm_id":"1556855561","ref":"A641"}},{"type":"Feature","geometry":{"type":"LineString","coordinates":[[-1.78218,53.65583],[-1.78204,53.65632]]},"properties":{"name":"Bradford Road","category":"primary","osm_type":"way","osm_id":"1556855562","ref":"A641"}},{"type":"Feature","geometry":{"type":"LineString","coordinates":[[-1.78213,53.65456],[-1.78218,53.65583]]},"properties":{"name":"Bradford Road","category":"primary","osm_type":"way","osm_id":"1556855563","ref":"A641"}},{"type":"Feature","geometry":{"type":"LineString","coordinates":[[-1.77766,53.67854],[-1.77622,53.67868]]},"properties":{"name":"Fixby Road","category":"primary","osm_type":"way","osm_id":"1556865154","ref":"A6107"}},{"type":"Feature","geometry":{"type":"LineString","coordinates":[[-1.77594,53.67692],[-1.77588,53.67704]]},"properties":{"name":"Bradford Road","category":"primary","osm_type":"way","osm_id":"1556865155","ref":"A641"}},{"type":"Feature","geometry":{"type":"LineString","coordinates":[[-1.7758,53.67689],[-1.77834,53.67466]]},"properties":{"name":"Bradford Road","category":"primary","osm_type":"way","osm_id":"1556865156","ref":"A641"}},{"type":"Feature","geometry":{"type":"LineString","coordinates":[[-1.84294,53.65649],[-1.84308,53.65647]]},"properties":{"name":"New Hey Road","category":"trunk","osm_type":"way","osm_id":"1557329701","ref":"A640"}},{"type":"Feature","geometry":{"type":"LineString","coordinates":[[-1.84305,53.65656],[-1.84294,53.65649]]},"properties":{"name":"New Hey Road","category":"trunk","osm_type":"way","osm_id":"1557329702","ref":"A640"}},{"type":"Feature","geometry":{"type":"LineString","coordinates":[[-1.85882,53.66016],[-1.85886,53.65991]]},"properties":{"name":"Lindley Moor Road","category":"primary","osm_type":"way","osm_id":"1557329707","ref":"A643"}},{"type":"Feature","geometry":{"type":"LineString","coordinates":[[-1.85922,53.66021],[-1.85815,53.66068]]},"properties":{"name":"Lindley Moor Road","category":"primary","osm_type":"way","osm_id":"1557329708","ref":"A643"}},{"type":"Feature","geometry":{"type":"LineString","coordinates":[[-1.86629,53.65797],[-1.86879,53.65711]]},"properties":{"name":"Outlane Interchange","category":"motorway_link","osm_type":"way","osm_id":"1557329709","operator":"National Highways"}},{"type":"Feature","geometry":{"type":"LineString","coordinates":[[-1.86449,53.65895],[-1.86199,53.66003]]},"properties":{"name":"Outlane Interchange","category":"motorway_link","osm_type":"way","osm_id":"1557329710","operator":"National Highways"}},{"type":"Feature","geometry":{"type":"LineString","coordinates":[[-1.86173,53.66203],[-1.86265,53.66136],[-1.86185,53.66048]]},"properties":{"name":"Outlane Interchange","category":"motorway_link","osm_type":"way","osm_id":"1557329711","operator":"National Highways"}},{"type":"Feature","geometry":{"type":"LineString","coordinates":[[-1.86319,53.66069],[-1.86409,53.66069]]},"properties":{"name":"New Hey Road","category":"primary","osm_type":"way","osm_id":"1557329712","ref":"A640"}},{"type":"Feature","geometry":{"type":"LineString","coordinates":[[-1.86478,53.66067],[-1.86374,53.66082]]},"properties":{"name":"New Hey Road","category":"primary","osm_type":"way","osm_id":"1557329713","ref":"A640"}},{"type":"Feature","geometry":{"type":"LineString","coordinates":[[-1.86504,53.66054],[-1.86478,53.66067]]},"properties":{"name":"New Hey Road","category":"primary","osm_type":"way","osm_id":"1557329714","ref":"A640"}},{"type":"Feature","geometry":{"type":"LineString","coordinates":[[-1.86409,53.66069],[-1.86504,53.66054]]},"properties":{"name":"New Hey Road","category":"primary","osm_type":"way","osm_id":"1557329715","ref":"A640"}},{"type":"Feature","geometry":{"type":"LineString","coordinates":[[-1.85475,53.65859],[-1.85376,53.65845]]},"properties":{"name":"New Hey Road","category":"trunk","osm_type":"way","osm_id":"1557329716","ref":"A640"}},{"type":"Feature","geometry":{"type":"LineString","coordinates":[[-1.84935,53.6575],[-1.85086,53.65777]]},"properties":{"name":"New Hey Road","category":"trunk","osm_type":"way","osm_id":"1557329719","ref":"A640"}},{"type":"Feature","geometry":{"type":"LineString","coordinates":[[-1.84832,53.65741],[-1.84773,53.6573]]},"properties":{"name":"New Hey Road","category":"trunk","osm_type":"way","osm_id":"1557329720","ref":"A640"}},{"type":"Feature","geometry":{"type":"LineString","coordinates":[[-1.84308,53.65647],[-1.8439,53.65664]]},"properties":{"name":"New Hey Road","category":"trunk","osm_type":"way","osm_id":"1557329728","ref":"A640"}},{"type":"Feature","geometry":{"type":"LineString","coordinates":[[-1.8439,53.65664],[-1.84305,53.65656]]},"properties":{"name":"New Hey Road","category":"trunk","osm_type":"way","osm_id":"1557329729","ref":"A640"}},{"type":"Feature","geometry":{"type":"LineString","coordinates":[[-1.84264,53.65644],[-1.84202,53.65634]]},"properties":{"name":"New Hey Road","category":"trunk","osm_type":"way","osm_id":"1557329730","ref":"A640"}},{"type":"Feature","geometry":{"type":"LineString","coordinates":[[-1.84202,53.65634],[-1.84157,53.65627]]},"properties":{"name":"New Hey Road","category":"trunk","osm_type":"way","osm_id":"1557329734","ref":"A640"}},{"type":"Feature","geometry":{"type":"LineString","coordinates":[[-1.84294,53.65649],[-1.84264,53.65644]]},"properties":{"name":"New Hey Road","category":"trunk","osm_type":"way","osm_id":"1557329735","ref":"A640"}},{"type":"Feature","geometry":{"type":"LineString","coordinates":[[-1.82413,53.65395],[-1.82502,53.65408]]},"properties":{"name":"New Hey Road","category":"trunk","osm_type":"way","osm_id":"1557329739","ref":"A640"}},{"type":"Feature","geometry":{"type":"LineString","coordinates":[[-1.82519,53.6541],[-1.82502,53.65408]]},"properties":{"name":"New Hey Road","category":"trunk","osm_type":"way","osm_id":"1557329756","ref":"A640"}},{"type":"Feature","geometry":{"type":"LineString","coordinates":[[-1.8173,53.65294],[-1.81704,53.65289]]},"properties":{"name":"New Hey Road","category":"trunk","osm_type":"way","osm_id":"1557329757","ref":"A640"}},{"type":"Feature","geometry":{"type":"LineString","coordinates":[[-1.80086,53.65121],[-1.80092,53.65125]]},"properties":{"name":"Gledholt Roundabout","category":"trunk","osm_type":"way","osm_id":"1557329762","ref":"A640"}},{"type":"Feature","geometry":{"type":"LineString","coordinates":[[-1.8005,53.65125],[-1.80063,53.65118]]},"properties":{"name":"Gledholt Roundabout","category":"trunk","osm_type":"way","osm_id":"1557329763","ref":"A640"}},{"type":"Feature","geometry":{"type":"LineString","coordinates":[[-1.80056,53.65142],[-1.80049,53.65136]]},"properties":{"name":"Gledholt Roundabout","category":"trunk","osm_type":"way","osm_id":"1557329764","ref":"A640"}},{"type":"Feature","geometry":{"type":"LineString","coordinates":[[-1.8009,53.65139],[-1.80078,53.65144]]},"properties":{"name":"Gledholt Roundabout","category":"trunk","osm_type":"way","osm_id":"1557329765","ref":"A640"}},{"type":"Feature","geometry":{"type":"LineString","coordinates":[[-1.80229,53.65155],[-1.8025,53.6516]]},"properties":{"name":"Westbourne Road","category":"trunk","osm_type":"way","osm_id":"1557329766","ref":"A640"}},{"type":"Feature","geometry":{"type":"LineString","coordinates":[[-1.8018,53.65153],[-1.80151,53.65147]]},"properties":{"name":"Westbourne Road","category":"trunk","osm_type":"way","osm_id":"1557329772","ref":"A640"}},{"type":"Feature","geometry":{"type":"LineString","coordinates":[[-1.8025,53.6516],[-1.8018,53.65153]]},"properties":{"name":"Westbourne Road","category":"trunk","osm_type":"way","osm_id":"1557329773","ref":"A640"}},{"type":"Feature","geometry":{"type":"LineString","coordinates":[[-1.79222,53.64861],[-1.79259,53.64877]]},"properties":{"name":"Trinity Street","category":"trunk","osm_type":"way","osm_id":"1557329781","ref":"A640"}},{"type":"Feature","geometry":{"type":"LineString","coordinates":[[-1.7319,53.6859],[-1.7324,53.68606]]},"properties":{"name":"Wakefield Road","category":"trunk","osm_type":"way","osm_id":"1557353327","ref":"A644"}},{"type":"Feature","geometry":{"type":"LineString","coordinates":[[-1.72756,53.68613],[-1.72703,53.68614]]},"properties":{"name":"Leeds Road","category":"trunk","osm_type":"way","osm_id":"1557353328","ref":"A62"}},{"type":"Feature","geometry":{"type":"LineString","coordinates":[[-1.73073,53.68579],[-1.72999,53.68594]]},"properties":{"name":"Leeds Road","category":"trunk","osm_type":"way","osm_id":"1557353330","ref":"A62"}},{"type":"Feature","geometry":{"type":"LineString","coordinates":[[-1.5328,53.58469],[-1.531,53.58218]]},"properties":{"name":"Barnsley Road","category":"trunk","osm_type":"way","osm_id":"1558137759","ref":"A637"}},{"type":"Feature","geometry":{"type":"LineString","coordinates":[[-1.50469,53.55219],[-1.5005,53.55254]]},"properties":{"name":"Dodworth Road","category":"trunk","osm_type":"way","osm_id":"1558147512","ref":"A628"}},{"type":"Feature","geometry":{"type":"LineString","coordinates":[[-1.5078,53.55053],[-1.50793,53.55066]]},"properties":{"name":"Broadway","category":"trunk","osm_type":"way","osm_id":"1558147517","ref":"A6133"}},{"type":"Feature","geometry":{"type":"LineString","coordinates":[[-1.50653,53.55161],[-1.50711,53.55142]]},"properties":{"name":"Dodworth Road","category":"trunk","osm_type":"way","osm_id":"1558147548","ref":"A628"}},{"type":"Feature","geometry":{"type":"LineString","coordinates":[[-1.50799,53.55151],[-1.50808,53.5516]]},"properties":{"name":"A628","category":"trunk","osm_type":"way","osm_id":"1558147550","ref":"A628"}},{"type":"Feature","geometry":{"type":"LineString","coordinates":[[-1.5551,53.60732],[-1.55476,53.60677]]},"properties":{"name":"Huddersfield Road","category":"trunk","osm_type":"way","osm_id":"1558151011","ref":"A637"}},{"type":"Feature","geometry":{"type":"LineString","coordinates":[[-1.5035,53.68967],[-1.50285,53.68912]]},"properties":{"name":"Leeds Road","category":"trunk","osm_type":"way","osm_id":"1558353579","ref":"A61"}},{"type":"Feature","geometry":{"type":"LineString","coordinates":[[-1.50556,53.69134],[-1.50457,53.69054]]},"properties":{"name":"Leeds Road","category":"trunk","osm_type":"way","osm_id":"1558353580","ref":"A61"}},{"type":"Feature","geometry":{"type":"LineString","coordinates":[[-1.48895,53.67462],[-1.4891,53.67479]]},"properties":{"name":"Doncaster Road","category":"trunk","osm_type":"way","osm_id":"1558357358","ref":"A638"}},{"type":"Feature","geometry":{"type":"LineString","coordinates":[[-1.48874,53.6744],[-1.48895,53.67462]]},"properties":{"name":"Doncaster Road","category":"trunk","osm_type":"way","osm_id":"1558357359","ref":"A638"}},{"type":"Feature","geometry":{"type":"LineString","coordinates":[[-1.4872,53.6736],[-1.48641,53.67329]]},"properties":{"name":"Doncaster Road","category":"trunk","osm_type":"way","osm_id":"1558357360","ref":"A638"}},{"type":"Feature","geometry":{"type":"LineString","coordinates":[[-1.48905,53.67495],[-1.48898,53.67486]]},"properties":{"name":"Doncaster Road","category":"trunk","osm_type":"way","osm_id":"1558357361","ref":"A638"}},{"type":"Feature","geometry":{"type":"LineString","coordinates":[[-1.48963,53.67574],[-1.48931,53.67532]]},"properties":{"name":"Doncaster Road","category":"trunk","osm_type":"way","osm_id":"1558357362","ref":"A638"}},{"type":"Feature","geometry":{"type":"LineString","coordinates":[[-1.48974,53.67589],[-1.48963,53.67574]]},"properties":{"name":"Doncaster Road","category":"trunk","osm_type":"way","osm_id":"1558357363","ref":"A61"}},{"type":"Feature","geometry":{"type":"LineString","coordinates":[[-1.49,53.67612],[-1.48992,53.67598]]},"properties":{"name":"Doncaster Road","category":"trunk","osm_type":"way","osm_id":"1558357364","ref":"A61"}},{"type":"Feature","geometry":{"type":"LineString","coordinates":[[-1.49032,53.67393],[-1.49036,53.67376]]},"properties":{"name":"Bridge Street","category":"primary","osm_type":"way","osm_id":"1558357365","ref":"A61"}},{"type":"Feature","geometry":{"type":"LineString","coordinates":[[-1.47486,53.66934],[-1.47474,53.66931]]},"properties":{"name":"Doncaster Road","category":"trunk","osm_type":"way","osm_id":"1558851147","ref":"A638"}},{"type":"Feature","geometry":{"type":"LineString","coordinates":[[-1.47458,53.66919],[-1.47476,53.66923]]},"properties":{"name":"Doncaster Road","category":"trunk","osm_type":"way","osm_id":"1558851148","ref":"A638"}},{"type":"Feature","geometry":{"type":"LineString","coordinates":[[-1.47519,53.66937],[-1.47523,53.66939]]},"properties":{"name":"Doncaster Road","category":"trunk","osm_type":"way","osm_id":"1558851149","ref":"A638"}},{"type":"Feature","geometry":{"type":"LineString","coordinates":[[-1.47419,53.66913],[-1.4737,53.669]]},"properties":{"name":"Doncaster Road","category":"trunk","osm_type":"way","osm_id":"1558851161","ref":"A638"}},{"type":"Feature","geometry":{"type":"LineString","coordinates":[[-1.47333,53.6689],[-1.4719,53.66863]]},"properties":{"name":"Doncaster Road","category":"trunk","osm_type":"way","osm_id":"1558851162","ref":"A638"}},{"type":"Feature","geometry":{"type":"LineString","coordinates":[[-1.47474,53.66931],[-1.47466,53.66929]]},"properties":{"name":"Doncaster Road","category":"trunk","osm_type":"way","osm_id":"1558851163","ref":"A638"}},{"type":"Feature","geometry":{"type":"LineString","coordinates":[[-1.47487,53.66925],[-1.47519,53.66937]]},"properties":{"name":"Doncaster Road","category":"trunk","osm_type":"way","osm_id":"1558851165","ref":"A638"}},{"type":"Feature","geometry":{"type":"LineString","coordinates":[[-1.47476,53.66923],[-1.47487,53.66925]]},"properties":{"name":"Doncaster Road","category":"trunk","osm_type":"way","osm_id":"1558851166","ref":"A638"}},{"type":"Feature","geometry":{"type":"LineString","coordinates":[[-1.47523,53.66939],[-1.47486,53.66934]]},"properties":{"name":"Doncaster Road","category":"trunk","osm_type":"way","osm_id":"1558851169","ref":"A638"}},{"type":"Feature","geometry":{"type":"LineString","coordinates":[[-1.47466,53.66929],[-1.47419,53.66913]]},"properties":{"name":"Doncaster Road","category":"trunk","osm_type":"way","osm_id":"1558851170","ref":"A638"}},{"type":"Feature","geometry":{"type":"LineString","coordinates":[[-1.47419,53.66913],[-1.47458,53.66919]]},"properties":{"name":"Doncaster Road","category":"trunk","osm_type":"way","osm_id":"1558851171","ref":"A638"}},{"type":"Feature","geometry":{"type":"LineString","coordinates":[[-1.48702,53.65503],[-1.48731,53.65473]]},"properties":{"name":"Barnsley Road","category":"primary","osm_type":"way","osm_id":"1558859477","ref":"A61"}},{"type":"Feature","geometry":{"type":"LineString","coordinates":[[-1.48766,53.65453],[-1.48797,53.65428]]},"properties":{"name":"Barnsley Road","category":"primary","osm_type":"way","osm_id":"1558859478","ref":"A61"}},{"type":"Feature","geometry":{"type":"LineString","coordinates":[[-1.48797,53.65428],[-1.48824,53.654]]},"properties":{"name":"Barnsley Road","category":"primary","osm_type":"way","osm_id":"1558859479","ref":"A61"}},{"type":"Feature","geometry":{"type":"LineString","coordinates":[[-1.48766,53.65453],[-1.48745,53.65478]]},"properties":{"name":"Barnsley Road","category":"primary","osm_type":"way","osm_id":"1558859480","ref":"A61"}},{"type":"Feature","geometry":{"type":"LineString","coordinates":[[-1.48731,53.65473],[-1.48766,53.65453]]},"properties":{"name":"Barnsley Road","category":"primary","osm_type":"way","osm_id":"1558859483","ref":"A61"}},{"type":"Feature","geometry":{"type":"LineString","coordinates":[[-1.48299,53.65836],[-1.48326,53.65808]]},"properties":{"name":"Barnsley Road","category":"primary","osm_type":"way","osm_id":"1558859487","ref":"A61"}},{"type":"Feature","geometry":{"type":"LineString","coordinates":[[-1.48281,53.65869],[-1.4826,53.6591]]},"properties":{"name":"Barnsley Road","category":"primary","osm_type":"way","osm_id":"1558859488","ref":"A61"}},{"type":"Feature","geometry":{"type":"LineString","coordinates":[[-1.48326,53.65808],[-1.48306,53.65845]]},"properties":{"name":"Barnsley Road","category":"primary","osm_type":"way","osm_id":"1558859492","ref":"A61"}},{"type":"Feature","geometry":{"type":"LineString","coordinates":[[-1.48306,53.65845],[-1.48281,53.65869]]},"properties":{"name":"Barnsley Road","category":"primary","osm_type":"way","osm_id":"1558859493","ref":"A61"}},{"type":"Feature","geometry":{"type":"LineString","coordinates":[[-1.48281,53.65869],[-1.48299,53.65836]]},"properties":{"name":"Barnsley Road","category":"primary","osm_type":"way","osm_id":"1558859494","ref":"A61"}},{"type":"Feature","geometry":{"type":"LineString","coordinates":[[-1.4925,53.64909],[-1.49266,53.64871]]},"properties":{"name":"Barnsley Road","category":"primary","osm_type":"way","osm_id":"1558863838","ref":"A61"}},{"type":"Feature","geometry":{"type":"LineString","coordinates":[[-1.49127,53.65011],[-1.49201,53.64971]]},"properties":{"name":"Barnsley Road","category":"primary","osm_type":"way","osm_id":"1558863839","ref":"A61"}},{"type":"Feature","geometry":{"type":"LineString","coordinates":[[-1.4747,53.67641],[-1.47473,53.67641]]},"properties":{"name":"Neil Fox Way","category":"primary","osm_type":"way","osm_id":"1558885499","ref":"A6194"}},{"type":"Feature","geometry":{"type":"LineString","coordinates":[[-1.47449,53.67652],[-1.4747,53.67641]]},"properties":{"name":"Neil Fox Way","category":"primary","osm_type":"way","osm_id":"1558885500","ref":"A6194"}},{"type":"Feature","geometry":{"type":"LineString","coordinates":[[-1.47449,53.6766],[-1.47449,53.67652]]},"properties":{"name":"Neil Fox Way","category":"primary","osm_type":"way","osm_id":"1558885501","ref":"A6194"}},{"type":"Feature","geometry":{"type":"LineString","coordinates":[[-1.47465,53.67669],[-1.47449,53.6766]]},"properties":{"name":"Neil Fox Way","category":"primary","osm_type":"way","osm_id":"1558885502","ref":"A6194"}},{"type":"Feature","geometry":{"type":"LineString","coordinates":[[-1.47478,53.6767],[-1.47465,53.67669]]},"properties":{"name":"Neil Fox Way","category":"primary","osm_type":"way","osm_id":"1558885503","ref":"A6194"}},{"type":"Feature","geometry":{"type":"LineString","coordinates":[[-1.47496,53.67659],[-1.47478,53.6767]]},"properties":{"name":"Neil Fox Way","category":"primary","osm_type":"way","osm_id":"1558885504","ref":"A6194"}},{"type":"Feature","geometry":{"type":"LineString","coordinates":[[-1.47497,53.67657],[-1.47496,53.67659]]},"properties":{"name":"Neil Fox Way","category":"primary","osm_type":"way","osm_id":"1558885505","ref":"A6194"}},{"type":"Feature","geometry":{"type":"LineString","coordinates":[[-1.47414,53.69547],[-1.47208,53.69392]]},"properties":{"name":"Neil Fox Way","category":"primary","osm_type":"way","osm_id":"1558885513","ref":"A6194"}},{"type":"Feature","geometry":{"type":"LineString","coordinates":[[-1.47423,53.69556],[-1.47414,53.69547]]},"properties":{"name":"Neil Fox Way","category":"primary","osm_type":"way","osm_id":"1558885514","ref":"A6194"}},{"type":"Feature","geometry":{"type":"LineString","coordinates":[[-1.47447,53.69566],[-1.47423,53.69556]]},"properties":{"name":"Neil Fox Way","category":"primary","osm_type":"way","osm_id":"1558885515","ref":"A6194"}},{"type":"Feature","geometry":{"type":"LineString","coordinates":[[-1.47892,53.6965],[-1.47447,53.69566]]},"properties":{"name":"Neil Fox Way","category":"primary","osm_type":"way","osm_id":"1558885516","ref":"A6194"}},{"type":"Feature","geometry":{"type":"LineString","coordinates":[[-1.47414,53.69547],[-1.47447,53.69566]]},"properties":{"name":"Neil Fox Way","category":"primary","osm_type":"way","osm_id":"1558885519","ref":"A6194"}},{"type":"Feature","geometry":{"type":"LineString","coordinates":[[-1.46956,53.68553],[-1.47021,53.68299]]},"properties":{"name":"Neil Fox Way","category":"primary","osm_type":"way","osm_id":"1558885540","ref":"A6194"}},{"type":"Feature","geometry":{"type":"LineString","coordinates":[[-1.46954,53.68562],[-1.46956,53.68553]]},"properties":{"name":"Neil Fox Way","category":"primary","osm_type":"way","osm_id":"1558885541","ref":"A6194"}},{"type":"Feature","geometry":{"type":"LineString","coordinates":[[-1.46765,53.69099],[-1.46954,53.68562]]},"properties":{"name":"Neil Fox Way","category":"primary","osm_type":"way","osm_id":"1558885554","ref":"A6194"}},{"type":"Feature","geometry":{"type":"LineString","coordinates":[[-1.46753,53.69139],[-1.46765,53.69099]]},"properties":{"name":"Neil Fox Way","category":"primary","osm_type":"way","osm_id":"1558885555","ref":"A6194"}},{"type":"Feature","geometry":{"type":"LineString","coordinates":[[-1.47021,53.68299],[-1.47037,53.68005],[-1.4743,53.67673]]},"properties":{"name":"Neil Fox Way","category":"primary","osm_type":"way","osm_id":"1558885573","ref":"A6194"}},{"type":"Feature","geometry":{"type":"LineString","coordinates":[[-1.71386,53.69002],[-1.71363,53.69009]]},"properties":{"name":"Leeds Road","category":"primary","osm_type":"way","osm_id":"1559134756","ref":"A62"}},{"type":"Feature","geometry":{"type":"LineString","coordinates":[[-1.69999,53.69587],[-1.69995,53.6959]]},"properties":{"name":"Leeds Road","category":"primary","osm_type":"way","osm_id":"1559134758","ref":"A62"}}]}