{"type":"FeatureCollection","features":[{"type":"Feature","geometry":{"type":"LineString","coordinates":[[-2.22081,55.25125],[-2.22196,55.24968]]},"properties":{"name":"A68","category":"trunk","osm_type":"way","osm_id":"4088599","ref":"A68"}},{"type":"Feature","geometry":{"type":"LineString","coordinates":[[-2.15456,55.22544],[-2.14439,55.22449],[-2.14139,55.22327]]},"properties":{"name":"A696","category":"trunk","osm_type":"way","osm_id":"4088601","ref":"A696"}},{"type":"Feature","geometry":{"type":"LineString","coordinates":[[-2.0851,55.19713],[-2.06944,55.19218],[-2.06007,55.19154],[-2.04752,55.18858],[-2.04202,55.1845],[-2.03585,55.17749],[-2.02677,55.17404],[-2.01764,55.16332]]},"properties":{"name":"A696","category":"trunk","osm_type":"way","osm_id":"4088602","ref":"A696"}},{"type":"Feature","geometry":{"type":"LineString","coordinates":[[-2.01764,55.16332],[-2.01513,55.16003],[-2.01157,55.15787],[-2.01165,55.15437]]},"properties":{"name":"A696","category":"trunk","osm_type":"way","osm_id":"4088603","ref":"A696"}},{"type":"Feature","geometry":{"type":"LineString","coordinates":[[-2.22331,55.25294],[-2.22056,55.25156]]},"properties":{"name":"A68","category":"trunk","osm_type":"way","osm_id":"4088835","ref":"A68"}},{"type":"Feature","geometry":{"type":"LineString","coordinates":[[-2.30899,55.29226],[-2.33726,55.2977],[-2.34386,55.30442]]},"properties":{"name":"A68","category":"trunk","osm_type":"way","osm_id":"4088837","ref":"A68"}},{"type":"Feature","geometry":{"type":"LineString","coordinates":[[-2.40064,55.3235],[-2.40644,55.32362],[-2.41579,55.32504],[-2.42534,55.32855]]},"properties":{"name":"A68","category":"trunk","osm_type":"way","osm_id":"4088838","ref":"A68"}},{"type":"Feature","geometry":{"type":"LineString","coordinates":[[-2.46468,55.34524],[-2.46472,55.34733],[-2.47275,55.3491],[-2.47682,55.35225],[-2.47719,55.35356]]},"properties":{"name":"A68","category":"trunk","osm_type":"way","osm_id":"4088839","ref":"A68"}},{"type":"Feature","geometry":{"type":"LineString","coordinates":[[-2.02047,55.01317],[-2.02084,55.01282],[-2.02153,55.01306],[-2.02112,55.01341],[-2.02047,55.01317]]},"properties":{"name":"Major roads","category":"trunk","osm_type":"way","osm_id":"5016050"}},{"type":"Feature","geometry":{"type":"LineString","coordinates":[[-2.12407,55.02594],[-2.12236,55.027]]},"properties":{"name":"A6079","category":"primary","osm_type":"way","osm_id":"5016054","ref":"A6079"}},{"type":"Feature","geometry":{"type":"LineString","coordinates":[[-2.10942,55.04059],[-2.10729,55.04369]]},"properties":{"name":"A6079","category":"primary","osm_type":"way","osm_id":"7873341","ref":"A6079"}},{"type":"Feature","geometry":{"type":"LineString","coordinates":[[-2.97196,55.00875],[-2.97255,55.00939]]},"properties":{"name":"High Street","category":"trunk","osm_type":"way","osm_id":"8822590","ref":"A7"}},{"type":"Feature","geometry":{"type":"LineString","coordinates":[[-2.12633,55.10581],[-2.11412,55.09276],[-2.10445,55.08407]]},"properties":{"name":"Dere Street","category":"trunk","osm_type":"way","osm_id":"23965209","ref":"A68"}},{"type":"Feature","geometry":{"type":"LineString","coordinates":[[-2.12706,55.10662],[-2.12633,55.10581]]},"properties":{"name":"A68","category":"trunk","osm_type":"way","osm_id":"23965211","ref":"A68"}},{"type":"Feature","geometry":{"type":"LineString","coordinates":[[-2.25058,55.26799],[-2.25862,55.27306],[-2.26299,55.27459]]},"properties":{"name":"A68","category":"trunk","osm_type":"way","osm_id":"29038796","ref":"A68"}},{"type":"Feature","geometry":{"type":"LineString","coordinates":[[-2.16093,55.16781],[-2.14364,55.16001]]},"properties":{"name":"A68","category":"trunk","osm_type":"way","osm_id":"29038852","ref":"A68"}},{"type":"Feature","geometry":{"type":"LineString","coordinates":[[-2.97384,55.01042],[-2.9757,55.01092]]},"properties":{"name":"Bridge Street","category":"trunk","osm_type":"way","osm_id":"30980679","ref":"A7"}},{"type":"Feature","geometry":{"type":"LineString","coordinates":[[-2.98059,55.01149],[-2.98655,55.01017]]},"properties":{"name":"A6071","category":"primary","osm_type":"way","osm_id":"30980680","ref":"A6071"}},{"type":"Feature","geometry":{"type":"LineString","coordinates":[[-2.21226,55.23005],[-2.20986,55.22602],[-2.20271,55.22208]]},"properties":{"name":"A68","category":"trunk","osm_type":"way","osm_id":"32504639","ref":"A68"}},{"type":"Feature","geometry":{"type":"LineString","coordinates":[[-2.9757,55.01092],[-2.98059,55.01149]]},"properties":{"name":"A7","category":"trunk","osm_type":"way","osm_id":"32791055","ref":"A7"}},{"type":"Feature","geometry":{"type":"LineString","coordinates":[[-2.98107,55.01183],[-2.98526,55.01982]]},"properties":{"name":"A7","category":"trunk","osm_type":"way","osm_id":"38347509","ref":"A7"}},{"type":"Feature","geometry":{"type":"LineString","coordinates":[[-2.13503,55.21919],[-2.12982,55.21796],[-2.11856,55.21717]]},"properties":{"name":"A696","category":"trunk","osm_type":"way","osm_id":"42016530","ref":"A696"}},{"type":"Feature","geometry":{"type":"LineString","coordinates":[[-2.11652,55.21679],[-2.1092,55.21573],[-2.11027,55.21262],[-2.10634,55.21135],[-2.10421,55.20841],[-2.10152,55.20776]]},"properties":{"name":"A696","category":"trunk","osm_type":"way","osm_id":"42016531","ref":"A696"}},{"type":"Feature","geometry":{"type":"LineString","coordinates":[[-2.16992,55.17553],[-2.16974,55.17539]]},"properties":{"name":"A68","category":"trunk","osm_type":"way","osm_id":"42016537","ref":"A68"}},{"type":"Feature","geometry":{"type":"LineString","coordinates":[[-2.16808,55.17397],[-2.1671,55.17304]]},"properties":{"name":"A68","category":"trunk","osm_type":"way","osm_id":"42016538","ref":"A68"}},{"type":"Feature","geometry":{"type":"LineString","coordinates":[[-2.96289,55.00539],[-2.96835,55.0074],[-2.97076,55.00692]]},"properties":{"name":"Albert Street","category":"primary","osm_type":"way","osm_id":"55349804","ref":"A6071"}},{"type":"Feature","geometry":{"type":"LineString","coordinates":[[-2.97076,55.00692],[-2.97196,55.00875]]},"properties":{"name":"English Street","category":"trunk","osm_type":"way","osm_id":"58560791","ref":"A7"}},{"type":"Feature","geometry":{"type":"LineString","coordinates":[[-2.96724,55.00349],[-2.97076,55.00692]]},"properties":{"name":"Carlisle Road","category":"trunk","osm_type":"way","osm_id":"68765448","ref":"A7"}},{"type":"Feature","geometry":{"type":"LineString","coordinates":[[-2.13013,55.01897],[-2.13,55.02176],[-2.12561,55.02501]]},"properties":{"name":"Front Street","category":"primary","osm_type":"way","osm_id":"70070691","ref":"A6079"}},{"type":"Feature","geometry":{"type":"LineString","coordinates":[[-2.98526,55.01982],[-2.9765,55.02671]]},"properties":{"name":"A7","category":"trunk","osm_type":"way","osm_id":"87779699","ref":"A7"}},{"type":"Feature","geometry":{"type":"LineString","coordinates":[[-2.12561,55.02501],[-2.12407,55.02594]]},"properties":{"name":"Front Street","category":"primary","osm_type":"way","osm_id":"93161286","ref":"A6079"}},{"type":"Feature","geometry":{"type":"LineString","coordinates":[[-2.13007,55.01069],[-2.13178,55.01299]]},"properties":{"name":"Front Street","category":"primary","osm_type":"way","osm_id":"93190953","ref":"A6079"}},{"type":"Feature","geometry":{"type":"LineString","coordinates":[[-2.36235,55.31477],[-2.36334,55.31531]]},"properties":{"name":"A68","category":"trunk","osm_type":"way","osm_id":"102437947","ref":"A68"}},{"type":"Feature","geometry":{"type":"LineString","coordinates":[[-2.36334,55.31531],[-2.3795,55.32109],[-2.39827,55.32347]]},"properties":{"name":"A68","category":"trunk","osm_type":"way","osm_id":"102437952","ref":"A68"}},{"type":"Feature","geometry":{"type":"LineString","coordinates":[[-2.98887,55.00962],[-2.98921,55.0095]]},"properties":{"name":"A6071","category":"primary","osm_type":"way","osm_id":"108135307","ref":"A6071"}},{"type":"Feature","geometry":{"type":"LineString","coordinates":[[-2.98921,55.0095],[-2.99665,55.00759]]},"properties":{"name":"A6071","category":"primary","osm_type":"way","osm_id":"108135309","ref":"A6071"}},{"type":"Feature","geometry":{"type":"LineString","coordinates":[[-2.98655,55.01017],[-2.98887,55.00962]]},"properties":{"name":"A6071","category":"primary","osm_type":"way","osm_id":"108135316","ref":"A6071"}},{"type":"Feature","geometry":{"type":"LineString","coordinates":[[-2.97255,55.00939],[-2.97384,55.01042]]},"properties":{"name":"Bridge Street","category":"trunk","osm_type":"way","osm_id":"112260494","ref":"A7"}},{"type":"Feature","geometry":{"type":"LineString","coordinates":[[-2.01165,55.15437],[-2.01158,55.15409]]},"properties":{"name":"A696","category":"trunk","osm_type":"way","osm_id":"117676748","ref":"A696"}},{"type":"Feature","geometry":{"type":"LineString","coordinates":[[-2.26299,55.27459],[-2.26885,55.27632]]},"properties":{"name":"A68","category":"trunk","osm_type":"way","osm_id":"117681288","ref":"A68"}},{"type":"Feature","geometry":{"type":"LineString","coordinates":[[-2.27399,55.27785],[-2.29568,55.28818],[-2.30899,55.29226]]},"properties":{"name":"A68","category":"trunk","osm_type":"way","osm_id":"117681290","ref":"A68"}},{"type":"Feature","geometry":{"type":"LineString","coordinates":[[-2.17317,55.2303],[-2.17206,55.23]]},"properties":{"name":"A696","category":"trunk","osm_type":"way","osm_id":"117681297","ref":"A696"}},{"type":"Feature","geometry":{"type":"LineString","coordinates":[[-2.09112,55.07461],[-2.07862,55.06566]]},"properties":{"name":"Dere Street","category":"trunk","osm_type":"way","osm_id":"122643870","ref":"A68"}},{"type":"Feature","geometry":{"type":"LineString","coordinates":[[-2.02635,55.02419],[-2.02135,55.01364]]},"properties":{"name":"A68","category":"trunk","osm_type":"way","osm_id":"122643875","ref":"A68"}},{"type":"Feature","geometry":{"type":"LineString","coordinates":[[-2.16598,55.17203],[-2.1643,55.17051]]},"properties":{"name":"A68","category":"trunk","osm_type":"way","osm_id":"123869079","ref":"A68"}},{"type":"Feature","geometry":{"type":"LineString","coordinates":[[-2.16974,55.17539],[-2.16931,55.17504]]},"properties":{"name":"A68","category":"trunk","osm_type":"way","osm_id":"123869080","ref":"A68"}},{"type":"Feature","geometry":{"type":"LineString","coordinates":[[-2.16931,55.17504],[-2.16808,55.17397]]},"properties":{"name":"A68","category":"trunk","osm_type":"way","osm_id":"123869081","ref":"A68"}},{"type":"Feature","geometry":{"type":"LineString","coordinates":[[-2.22196,55.24968],[-2.22229,55.24943]]},"properties":{"name":"Elishaw Bridge","category":"trunk","osm_type":"way","osm_id":"123869082","ref":"A68"}},{"type":"Feature","geometry":{"type":"LineString","coordinates":[[-2.22229,55.24943],[-2.22542,55.24493]]},"properties":{"name":"A68","category":"trunk","osm_type":"way","osm_id":"123869083","ref":"A68"}},{"type":"Feature","geometry":{"type":"LineString","coordinates":[[-2.14492,55.15344],[-2.14734,55.14905]]},"properties":{"name":"Westmacott Street","category":"trunk","osm_type":"way","osm_id":"123869086","ref":"A68"}},{"type":"Feature","geometry":{"type":"LineString","coordinates":[[-2.1431,55.15975],[-2.14181,55.15878],[-2.14286,55.15679]]},"properties":{"name":"A68","category":"trunk","osm_type":"way","osm_id":"123869089","ref":"A68"}},{"type":"Feature","geometry":{"type":"LineString","coordinates":[[-2.17434,55.17854],[-2.17385,55.17821]]},"properties":{"name":"Dere Street","category":"trunk","osm_type":"way","osm_id":"123869094","ref":"A68"}},{"type":"Feature","geometry":{"type":"LineString","coordinates":[[-2.21823,55.24795],[-2.21816,55.24776]]},"properties":{"name":"Shittleheugh Bridge","category":"trunk","osm_type":"way","osm_id":"123869096","ref":"A696"}},{"type":"Feature","geometry":{"type":"LineString","coordinates":[[-2.21816,55.24776],[-2.21603,55.24418],[-2.21356,55.24225],[-2.20627,55.23983]]},"properties":{"name":"A696","category":"trunk","osm_type":"way","osm_id":"123869097","ref":"A696"}},{"type":"Feature","geometry":{"type":"LineString","coordinates":[[-2.13178,55.01299],[-2.13268,55.01574],[-2.13075,55.01762]]},"properties":{"name":"Front Street","category":"primary","osm_type":"way","osm_id":"123890914","ref":"A6079"}},{"type":"Feature","geometry":{"type":"LineString","coordinates":[[-2.11187,55.03164],[-2.10804,55.03547],[-2.10817,55.0367]]},"properties":{"name":"A6079","category":"primary","osm_type":"way","osm_id":"123890915","ref":"A6079"}},{"type":"Feature","geometry":{"type":"LineString","coordinates":[[-2.10729,55.04369],[-2.10427,55.05438],[-2.09178,55.06028],[-2.08031,55.06332],[-2.07755,55.06492]]},"properties":{"name":"A6079","category":"primary","osm_type":"way","osm_id":"123890916","ref":"A6079"}},{"type":"Feature","geometry":{"type":"LineString","coordinates":[[-2.09475,55.08089],[-2.09452,55.08069]]},"properties":{"name":"A68","category":"trunk","osm_type":"way","osm_id":"123890918","ref":"A68"}},{"type":"Feature","geometry":{"type":"LineString","coordinates":[[-2.09388,55.0772],[-2.09308,55.07599]]},"properties":{"name":"A68","category":"trunk","osm_type":"way","osm_id":"123890919","ref":"A68"}},{"type":"Feature","geometry":{"type":"LineString","coordinates":[[-2.07749,55.06488],[-2.02929,55.0304],[-2.02635,55.02419]]},"properties":{"name":"Dere Street","category":"trunk","osm_type":"way","osm_id":"123890921","ref":"A68"}},{"type":"Feature","geometry":{"type":"LineString","coordinates":[[-2.12396,55.00068],[-2.12724,55.00457],[-2.12753,55.00708],[-2.13007,55.01069]]},"properties":{"name":"Front Street","category":"primary","osm_type":"way","osm_id":"126665367","ref":"A6079"}},{"type":"Feature","geometry":{"type":"LineString","coordinates":[[-2.45375,55.33803],[-2.45882,55.33819],[-2.46128,55.33913],[-2.46488,55.34346],[-2.46468,55.34524]]},"properties":{"name":"A68","category":"trunk","osm_type":"way","osm_id":"131533621","ref":"A68"}},{"type":"Feature","geometry":{"type":"LineString","coordinates":[[-2.4535,55.33798],[-2.45375,55.33803]]},"properties":{"name":"Whitelee Bridge","category":"trunk","osm_type":"way","osm_id":"131533627","ref":"A68"}},{"type":"Feature","geometry":{"type":"LineString","coordinates":[[-2.14115,55.22311],[-2.13659,55.21988]]},"properties":{"name":"A696","category":"trunk","osm_type":"way","osm_id":"136340354","ref":"A696"}},{"type":"Feature","geometry":{"type":"LineString","coordinates":[[-2.14139,55.22327],[-2.14115,55.22311]]},"properties":{"name":"Monkridge Bridge","category":"trunk","osm_type":"way","osm_id":"136340375","ref":"A696"}},{"type":"Feature","geometry":{"type":"LineString","coordinates":[[-2.21968,55.2507],[-2.21823,55.24795]]},"properties":{"name":"A696","category":"trunk","osm_type":"way","osm_id":"137830840","ref":"A696"}},{"type":"Feature","geometry":{"type":"LineString","coordinates":[[-2.21968,55.2507],[-2.22033,55.25128]]},"properties":{"name":"A696","category":"trunk","osm_type":"way","osm_id":"137830841","ref":"A696"}},{"type":"Feature","geometry":{"type":"LineString","coordinates":[[-2.22565,55.25412],[-2.25058,55.26799]]},"properties":{"name":"A68","category":"trunk","osm_type":"way","osm_id":"137830843","ref":"A68"}},{"type":"Feature","geometry":{"type":"LineString","coordinates":[[-2.22264,55.25247],[-2.22411,55.25322]]},"properties":{"name":"A68","category":"trunk","osm_type":"way","osm_id":"137830911","ref":"A68"}},{"type":"Feature","geometry":{"type":"LineString","coordinates":[[-2.34386,55.30442],[-2.34812,55.30756]]},"properties":{"name":"A68","category":"trunk","osm_type":"way","osm_id":"147339580","ref":"A68"}},{"type":"Feature","geometry":{"type":"LineString","coordinates":[[-2.17912,55.23161],[-2.17405,55.23057]]},"properties":{"name":"A696","category":"trunk","osm_type":"way","osm_id":"158475726","ref":"A696"}},{"type":"Feature","geometry":{"type":"LineString","coordinates":[[-2.17934,55.23166],[-2.17912,55.23161]]},"properties":{"name":"A696","category":"trunk","osm_type":"way","osm_id":"158475727","ref":"A696"}},{"type":"Feature","geometry":{"type":"LineString","coordinates":[[-2.9765,55.02671],[-2.96958,55.03164]]},"properties":{"name":"A7","category":"trunk","osm_type":"way","osm_id":"169682745","ref":"A7"}},{"type":"Feature","geometry":{"type":"LineString","coordinates":[[-2.96942,55.03175],[-2.96069,55.04202],[-2.96053,55.04955]]},"properties":{"name":"A7","category":"trunk","osm_type":"way","osm_id":"169682753","ref":"A7"}},{"type":"Feature","geometry":{"type":"LineString","coordinates":[[-2.22056,55.25156],[-2.21968,55.2507]]},"properties":{"name":"A696","category":"trunk","osm_type":"way","osm_id":"185658589","ref":"A696"}},{"type":"Feature","geometry":{"type":"LineString","coordinates":[[-2.18724,55.23258],[-2.18344,55.2322]]},"properties":{"name":"A696","category":"trunk","osm_type":"way","osm_id":"185658590","ref":"A696"}},{"type":"Feature","geometry":{"type":"LineString","coordinates":[[-2.22411,55.25322],[-2.22565,55.25412]]},"properties":{"name":"A68","category":"trunk","osm_type":"way","osm_id":"185658591","ref":"A68"}},{"type":"Feature","geometry":{"type":"LineString","coordinates":[[-2.22565,55.25412],[-2.2236,55.25308]]},"properties":{"name":"A68","category":"trunk","osm_type":"way","osm_id":"185658592","ref":"A68"}},{"type":"Feature","geometry":{"type":"LineString","coordinates":[[-2.22033,55.25128],[-2.22065,55.25147]]},"properties":{"name":"A696","category":"trunk","osm_type":"way","osm_id":"185658594","ref":"A696"}},{"type":"Feature","geometry":{"type":"LineString","coordinates":[[-2.17206,55.23],[-2.16006,55.2285],[-2.15456,55.22544]]},"properties":{"name":"A696","category":"trunk","osm_type":"way","osm_id":"185658595","ref":"A696"}},{"type":"Feature","geometry":{"type":"LineString","coordinates":[[-2.21813,55.2375],[-2.21356,55.23299]]},"properties":{"name":"A68","category":"trunk","osm_type":"way","osm_id":"204645108","ref":"A68"}},{"type":"Feature","geometry":{"type":"LineString","coordinates":[[-2.21827,55.23763],[-2.21813,55.2375]]},"properties":{"name":"Dargues Bridge","category":"trunk","osm_type":"way","osm_id":"204645109","ref":"A68"}},{"type":"Feature","geometry":{"type":"LineString","coordinates":[[-2.09431,55.08048],[-2.09303,55.07921],[-2.09388,55.0772]]},"properties":{"name":"A68","category":"trunk","osm_type":"way","osm_id":"205928495","ref":"A68"}},{"type":"Feature","geometry":{"type":"LineString","coordinates":[[-2.09452,55.08069],[-2.09431,55.08048]]},"properties":{"name":"Woodford Bridge","category":"trunk","osm_type":"way","osm_id":"205928517","ref":"A68"}},{"type":"Feature","geometry":{"type":"LineString","coordinates":[[-2.14734,55.14905],[-2.1466,55.14117],[-2.14838,55.13688]]},"properties":{"name":"A68","category":"trunk","osm_type":"way","osm_id":"207244283","ref":"A68"}},{"type":"Feature","geometry":{"type":"LineString","coordinates":[[-2.1442,55.15462],[-2.14492,55.15344]]},"properties":{"name":"Westmacott Street","category":"trunk","osm_type":"way","osm_id":"207244286","ref":"A68"}},{"type":"Feature","geometry":{"type":"LineString","coordinates":[[-2.17049,55.17594],[-2.16992,55.17553]]},"properties":{"name":"A68","category":"trunk","osm_type":"way","osm_id":"207244832","ref":"A68"}},{"type":"Feature","geometry":{"type":"LineString","coordinates":[[-2.14581,55.13141],[-2.14116,55.12177],[-2.12861,55.10829]]},"properties":{"name":"A68","category":"trunk","osm_type":"way","osm_id":"207557271","ref":"A68"}},{"type":"Feature","geometry":{"type":"LineString","coordinates":[[-2.10394,55.08387],[-2.09712,55.08336],[-2.09475,55.08089]]},"properties":{"name":"A68","category":"trunk","osm_type":"way","osm_id":"207557273","ref":"A68"}},{"type":"Feature","geometry":{"type":"LineString","coordinates":[[-2.19525,55.21425],[-2.19513,55.21406]]},"properties":{"name":"A68","category":"trunk","osm_type":"way","osm_id":"216605937","ref":"A68"}},{"type":"Feature","geometry":{"type":"LineString","coordinates":[[-2.19513,55.21406],[-2.18759,55.20438]]},"properties":{"name":"A68","category":"trunk","osm_type":"way","osm_id":"216605938","ref":"A68"}},{"type":"Feature","geometry":{"type":"LineString","coordinates":[[-2.10843,55.03745],[-2.10942,55.04059]]},"properties":{"name":"A6079","category":"primary","osm_type":"way","osm_id":"242337224","ref":"A6079"}},{"type":"Feature","geometry":{"type":"LineString","coordinates":[[-2.1083,55.03735],[-2.10843,55.03745]]},"properties":{"name":"A6079","category":"primary","osm_type":"way","osm_id":"242337225","ref":"A6079"}},{"type":"Feature","geometry":{"type":"LineString","coordinates":[[-2.42534,55.32855],[-2.42558,55.32858]]},"properties":{"name":"A68","category":"trunk","osm_type":"way","osm_id":"301588904","ref":"A68"}},{"type":"Feature","geometry":{"type":"LineString","coordinates":[[-2.42558,55.32858],[-2.4372,55.33155],[-2.44461,55.335],[-2.4535,55.33798]]},"properties":{"name":"A68","category":"trunk","osm_type":"way","osm_id":"301588905","ref":"A68"}},{"type":"Feature","geometry":{"type":"LineString","coordinates":[[-2.96958,55.03164],[-2.96942,55.03175]]},"properties":{"name":"A7","category":"trunk","osm_type":"way","osm_id":"330784970","ref":"A7"}},{"type":"Feature","geometry":{"type":"LineString","coordinates":[[-2.96248,54.99892],[-2.96724,55.00349]]},"properties":{"name":"Carlisle Road","category":"trunk","osm_type":"way","osm_id":"330784978","ref":"A7"}},{"type":"Feature","geometry":{"type":"LineString","coordinates":[[-2.99665,55.00759],[-2.997,55.00751]]},"properties":{"name":"A6071","category":"primary","osm_type":"way","osm_id":"374678597","ref":"A6071"}},{"type":"Feature","geometry":{"type":"LineString","coordinates":[[-2.34812,55.30756],[-2.36235,55.31477]]},"properties":{"name":"A68","category":"trunk","osm_type":"way","osm_id":"417813435","ref":"A68"}},{"type":"Feature","geometry":{"type":"LineString","coordinates":[[-2.02135,55.01364],[-2.02085,55.0134]]},"properties":{"name":"A68","category":"trunk","osm_type":"way","osm_id":"461233766","ref":"A68"}},{"type":"Feature","geometry":{"type":"LineString","coordinates":[[-2.02065,55.01287],[-2.02105,55.01259]]},"properties":{"name":"A68","category":"trunk","osm_type":"way","osm_id":"461233768","ref":"A68"}},{"type":"Feature","geometry":{"type":"LineString","coordinates":[[-2.27178,55.277],[-2.27399,55.27785]]},"properties":{"name":"A68","category":"trunk","osm_type":"way","osm_id":"498276060","ref":"A68"}},{"type":"Feature","geometry":{"type":"LineString","coordinates":[[-2.27147,55.27694],[-2.27178,55.277]]},"properties":{"name":"A68","category":"trunk","osm_type":"way","osm_id":"498276063","ref":"A68"}},{"type":"Feature","geometry":{"type":"LineString","coordinates":[[-2.22065,55.25147],[-2.22081,55.25125]]},"properties":{"name":"Major roads","category":"trunk","osm_type":"way","osm_id":"498534233"}},{"type":"Feature","geometry":{"type":"LineString","coordinates":[[-2.22056,55.25156],[-2.22065,55.25147]]},"properties":{"name":"Major roads","category":"trunk","osm_type":"way","osm_id":"498534234"}},{"type":"Feature","geometry":{"type":"LineString","coordinates":[[-2.2236,55.25308],[-2.22331,55.25294]]},"properties":{"name":"A68","category":"trunk","osm_type":"way","osm_id":"498534236","ref":"A68"}},{"type":"Feature","geometry":{"type":"LineString","coordinates":[[-2.22081,55.25125],[-2.22098,55.25163]]},"properties":{"name":"A68","category":"trunk_link","osm_type":"way","osm_id":"498534237","ref":"A68"}},{"type":"Feature","geometry":{"type":"LineString","coordinates":[[-2.22033,55.25128],[-2.22081,55.25125]]},"properties":{"name":"Major roads","category":"trunk_link","osm_type":"way","osm_id":"498534238"}},{"type":"Feature","geometry":{"type":"LineString","coordinates":[[-2.11678,55.21686],[-2.11652,55.21679]]},"properties":{"name":"A696","category":"trunk","osm_type":"way","osm_id":"498534239","ref":"A696"}},{"type":"Feature","geometry":{"type":"LineString","coordinates":[[-2.11856,55.21717],[-2.11678,55.21686]]},"properties":{"name":"A696","category":"trunk","osm_type":"way","osm_id":"498534240","ref":"A696"}},{"type":"Feature","geometry":{"type":"LineString","coordinates":[[-2.0918,55.20189],[-2.09143,55.20132]]},"properties":{"name":"A696","category":"trunk","osm_type":"way","osm_id":"498534243","ref":"A696"}},{"type":"Feature","geometry":{"type":"LineString","coordinates":[[-2.09143,55.20132],[-2.08929,55.19863],[-2.0851,55.19713]]},"properties":{"name":"A696","category":"trunk","osm_type":"way","osm_id":"498534245","ref":"A696"}},{"type":"Feature","geometry":{"type":"LineString","coordinates":[[-2.10152,55.20776],[-2.09776,55.20704],[-2.09456,55.20544],[-2.0918,55.20189]]},"properties":{"name":"A696","category":"trunk","osm_type":"way","osm_id":"498534246","ref":"A696"}},{"type":"Feature","geometry":{"type":"LineString","coordinates":[[-2.47719,55.35356],[-2.47762,55.35431]]},"properties":{"name":"A68","category":"trunk","osm_type":"way","osm_id":"498592677","ref":"A68"}},{"type":"Feature","geometry":{"type":"LineString","coordinates":[[-2.22542,55.24493],[-2.21827,55.23763]]},"properties":{"name":"A68","category":"trunk","osm_type":"way","osm_id":"528701937","ref":"A68"}},{"type":"Feature","geometry":{"type":"LineString","coordinates":[[-2.19967,55.21907],[-2.19525,55.21425]]},"properties":{"name":"A68","category":"trunk","osm_type":"way","osm_id":"528701939","ref":"A68"}},{"type":"Feature","geometry":{"type":"LineString","coordinates":[[-2.10445,55.08407],[-2.10394,55.08387]]},"properties":{"name":"Dere Street","category":"trunk","osm_type":"way","osm_id":"528701942","ref":"A68"}},{"type":"Feature","geometry":{"type":"LineString","coordinates":[[-2.18759,55.20438],[-2.17984,55.19616]]},"properties":{"name":"A68","category":"trunk","osm_type":"way","osm_id":"528701946","ref":"A68"}},{"type":"Feature","geometry":{"type":"LineString","coordinates":[[-2.21356,55.23299],[-2.21226,55.23005]]},"properties":{"name":"A68","category":"trunk","osm_type":"way","osm_id":"528701949","ref":"A68"}},{"type":"Feature","geometry":{"type":"LineString","coordinates":[[-2.17572,55.18394],[-2.1757,55.181]]},"properties":{"name":"Dere Street","category":"trunk","osm_type":"way","osm_id":"528701950","ref":"A68"}},{"type":"Feature","geometry":{"type":"LineString","coordinates":[[-2.17984,55.19616],[-2.17572,55.18394]]},"properties":{"name":"A68","category":"trunk","osm_type":"way","osm_id":"528701951","ref":"A68"}},{"type":"Feature","geometry":{"type":"LineString","coordinates":[[-2.17434,55.17854],[-2.1757,55.181]]},"properties":{"name":"Dere Street","category":"trunk","osm_type":"way","osm_id":"528701952","ref":"A68"}},{"type":"Feature","geometry":{"type":"LineString","coordinates":[[-2.09308,55.07599],[-2.09112,55.07461]]},"properties":{"name":"A68","category":"trunk","osm_type":"way","osm_id":"528701953","ref":"A68"}},{"type":"Feature","geometry":{"type":"LineString","coordinates":[[-2.13075,55.01762],[-2.13013,55.01897]]},"properties":{"name":"Front Street","category":"primary","osm_type":"way","osm_id":"583003356","ref":"A6079"}},{"type":"Feature","geometry":{"type":"LineString","coordinates":[[-2.07862,55.06566],[-2.07806,55.06527]]},"properties":{"name":"Dere Street","category":"trunk","osm_type":"way","osm_id":"722219329","ref":"A68"}},{"type":"Feature","geometry":{"type":"LineString","coordinates":[[-2.07806,55.06527],[-2.07749,55.06488]]},"properties":{"name":"Dere Street","category":"trunk","osm_type":"way","osm_id":"722219347","ref":"A68"}},{"type":"Feature","geometry":{"type":"LineString","coordinates":[[-2.12861,55.10829],[-2.12706,55.10662]]},"properties":{"name":"A68","category":"trunk","osm_type":"way","osm_id":"745657120","ref":"A68"}},{"type":"Feature","geometry":{"type":"LineString","coordinates":[[-2.11235,55.03126],[-2.11187,55.03164]]},"properties":{"name":"A6079","category":"primary","osm_type":"way","osm_id":"751798887","ref":"A6079"}},{"type":"Feature","geometry":{"type":"LineString","coordinates":[[-2.12236,55.027],[-2.11235,55.03126]]},"properties":{"name":"A6079","category":"primary","osm_type":"way","osm_id":"751798888","ref":"A6079"}},{"type":"Feature","geometry":{"type":"LineString","coordinates":[[-2.01158,55.15409],[-2.00916,55.15186],[-1.99399,55.14682],[-1.99142,55.1436]]},"properties":{"name":"A696","category":"trunk","osm_type":"way","osm_id":"892475195","ref":"A696"}},{"type":"Feature","geometry":{"type":"LineString","coordinates":[[-2.22156,55.25193],[-2.22264,55.25247]]},"properties":{"name":"A68","category":"trunk","osm_type":"way","osm_id":"1030790081","ref":"A68"}},{"type":"Feature","geometry":{"type":"LineString","coordinates":[[-2.22065,55.25147],[-2.22156,55.25193]]},"properties":{"name":"A68","category":"trunk","osm_type":"way","osm_id":"1030790082","ref":"A68"}},{"type":"Feature","geometry":{"type":"LineString","coordinates":[[-2.02105,55.01259],[-2.02119,55.01283]]},"properties":{"name":"A68","category":"trunk","osm_type":"way","osm_id":"1053877524","ref":"A68"}},{"type":"Feature","geometry":{"type":"LineString","coordinates":[[-2.02142,55.01332],[-2.02135,55.01364]]},"properties":{"name":"A68","category":"trunk","osm_type":"way","osm_id":"1053879272","ref":"A68"}},{"type":"Feature","geometry":{"type":"LineString","coordinates":[[-2.13659,55.21988],[-2.13503,55.21919]]},"properties":{"name":"A696","category":"trunk","osm_type":"way","osm_id":"1100638655","ref":"A696"}},{"type":"Feature","geometry":{"type":"LineString","coordinates":[[-2.17405,55.23057],[-2.17317,55.2303]]},"properties":{"name":"A696","category":"trunk","osm_type":"way","osm_id":"1100639751","ref":"A696"}},{"type":"Feature","geometry":{"type":"LineString","coordinates":[[-2.18024,55.23185],[-2.17934,55.23166]]},"properties":{"name":"A696","category":"trunk","osm_type":"way","osm_id":"1100639815","ref":"A696"}},{"type":"Feature","geometry":{"type":"LineString","coordinates":[[-2.18344,55.2322],[-2.18024,55.23185]]},"properties":{"name":"A696","category":"trunk","osm_type":"way","osm_id":"1100639828","ref":"A696"}},{"type":"Feature","geometry":{"type":"LineString","coordinates":[[-2.18855,55.23283],[-2.18724,55.23258]]},"properties":{"name":"A696","category":"trunk","osm_type":"way","osm_id":"1100639873","ref":"A696"}},{"type":"Feature","geometry":{"type":"LineString","coordinates":[[-2.19917,55.23753],[-2.18855,55.23283]]},"properties":{"name":"A696","category":"trunk","osm_type":"way","osm_id":"1100639935","ref":"A696"}},{"type":"Feature","geometry":{"type":"LineString","coordinates":[[-2.26885,55.27632],[-2.27147,55.27694]]},"properties":{"name":"A68","category":"trunk","osm_type":"way","osm_id":"1100640794","ref":"A68"}},{"type":"Feature","geometry":{"type":"LineString","coordinates":[[-2.39827,55.32347],[-2.40064,55.3235]]},"properties":{"name":"A68","category":"trunk","osm_type":"way","osm_id":"1100641943","ref":"A68"}},{"type":"Feature","geometry":{"type":"LineString","coordinates":[[-2.20498,55.23952],[-2.19917,55.23753]]},"properties":{"name":"A696","category":"trunk","osm_type":"way","osm_id":"1289454237","ref":"A696"}},{"type":"Feature","geometry":{"type":"LineString","coordinates":[[-2.1671,55.17304],[-2.16598,55.17203]]},"properties":{"name":"A68","category":"trunk","osm_type":"way","osm_id":"1319285896","ref":"A68"}},{"type":"Feature","geometry":{"type":"LineString","coordinates":[[-2.17223,55.17712],[-2.17183,55.17685]]},"properties":{"name":"A68","category":"trunk","osm_type":"way","osm_id":"1319285897","ref":"A68"}},{"type":"Feature","geometry":{"type":"LineString","coordinates":[[-2.95343,55.00184],[-2.96289,55.00539]]},"properties":{"name":"A6071","category":"primary","osm_type":"way","osm_id":"1360365571","ref":"A6071"}},{"type":"Feature","geometry":{"type":"LineString","coordinates":[[-2.9533,55.00179],[-2.95343,55.00184]]},"properties":{"name":"A6071","category":"primary","osm_type":"way","osm_id":"1360365572","ref":"A6071"}},{"type":"Feature","geometry":{"type":"LineString","coordinates":[[-2.10817,55.0367],[-2.1083,55.03735]]},"properties":{"name":"A6079","category":"primary","osm_type":"way","osm_id":"1378281205","ref":"A6079"}},{"type":"Feature","geometry":{"type":"LineString","coordinates":[[-2.98059,55.01149],[-2.98107,55.01183]]},"properties":{"name":"A7","category":"trunk","osm_type":"way","osm_id":"1388030700","ref":"A7"}},{"type":"Feature","geometry":{"type":"LineString","coordinates":[[-2.14364,55.16001],[-2.1431,55.15975]]},"properties":{"name":"A68","category":"trunk","osm_type":"way","osm_id":"1433834688","ref":"A68"}},{"type":"Feature","geometry":{"type":"LineString","coordinates":[[-2.14286,55.15679],[-2.1442,55.15462]]},"properties":{"name":"Westmacott Street","category":"trunk","osm_type":"way","osm_id":"1433834689","ref":"A68"}},{"type":"Feature","geometry":{"type":"LineString","coordinates":[[-2.14838,55.13688],[-2.14581,55.13141]]},"properties":{"name":"A68","category":"trunk","osm_type":"way","osm_id":"1433834690","ref":"A68"}},{"type":"Feature","geometry":{"type":"LineString","coordinates":[[-2.17385,55.17821],[-2.17223,55.17712]]},"properties":{"name":"Dere Street","category":"trunk","osm_type":"way","osm_id":"1433885596","ref":"A68"}},{"type":"Feature","geometry":{"type":"LineString","coordinates":[[-2.17183,55.17685],[-2.17049,55.17594]]},"properties":{"name":"A68","category":"trunk","osm_type":"way","osm_id":"1433885597","ref":"A68"}},{"type":"Feature","geometry":{"type":"LineString","coordinates":[[-2.1643,55.17051],[-2.16093,55.16781]]},"properties":{"name":"A68","category":"trunk","osm_type":"way","osm_id":"1433885599","ref":"A68"}},{"type":"Feature","geometry":{"type":"LineString","coordinates":[[-2.20271,55.22208],[-2.19967,55.21907]]},"properties":{"name":"A68","category":"trunk","osm_type":"way","osm_id":"1434457937","ref":"A68"}},{"type":"Feature","geometry":{"type":"LineString","coordinates":[[-2.20627,55.23983],[-2.20498,55.23952]]},"properties":{"name":"A696","category":"trunk","osm_type":"way","osm_id":"1435530178","ref":"A696"}}]}