{"type":"FeatureCollection","features":[{"type":"Feature","geometry":{"type":"LineString","coordinates":[[-3.5129,50.69226],[-3.51308,50.69226]]},"properties":{"name":"A379","category":"primary","osm_type":"way","osm_id":"1120670792","ref":"A379"}},{"type":"Feature","geometry":{"type":"LineString","coordinates":[[-3.51163,50.69225],[-3.5129,50.69226]]},"properties":{"name":"A379","category":"primary","osm_type":"way","osm_id":"1120670793","ref":"A379"}},{"type":"Feature","geometry":{"type":"LineString","coordinates":[[-3.51163,50.69225],[-3.50993,50.69198]]},"properties":{"name":"A379","category":"primary","osm_type":"way","osm_id":"1120670797","ref":"A379"}},{"type":"Feature","geometry":{"type":"LineString","coordinates":[[-3.51308,50.69226],[-3.51432,50.69232]]},"properties":{"name":"A379","category":"primary","osm_type":"way","osm_id":"1120670798","ref":"A379"}},{"type":"Feature","geometry":{"type":"LineString","coordinates":[[-3.51432,50.69232],[-3.51163,50.69225]]},"properties":{"name":"A379","category":"primary","osm_type":"way","osm_id":"1120670799","ref":"A379"}},{"type":"Feature","geometry":{"type":"LineString","coordinates":[[-3.46379,50.58199],[-3.46508,50.58198]]},"properties":{"name":"Exeter Road","category":"primary","osm_type":"way","osm_id":"1120908265","ref":"A379"}},{"type":"Feature","geometry":{"type":"LineString","coordinates":[[-3.46181,50.58307],[-3.46379,50.58199]]},"properties":{"name":"Exeter Road","category":"primary","osm_type":"way","osm_id":"1120908266","ref":"A379"}},{"type":"Feature","geometry":{"type":"LineString","coordinates":[[-3.46334,50.61289],[-3.46347,50.61257]]},"properties":{"name":"A379","category":"primary","osm_type":"way","osm_id":"1120908428","ref":"A379"}},{"type":"Feature","geometry":{"type":"LineString","coordinates":[[-3.46529,50.60744],[-3.46527,50.60728]]},"properties":{"name":"A379","category":"primary","osm_type":"way","osm_id":"1120908429","ref":"A379"}},{"type":"Feature","geometry":{"type":"LineString","coordinates":[[-3.46527,50.60728],[-3.46506,50.60609]]},"properties":{"name":"Exeter Road","category":"primary","osm_type":"way","osm_id":"1120908430","ref":"A379"}},{"type":"Feature","geometry":{"type":"LineString","coordinates":[[-3.46383,50.59984],[-3.46359,50.59909]]},"properties":{"name":"Exeter Road","category":"primary","osm_type":"way","osm_id":"1120908431","ref":"A379"}},{"type":"Feature","geometry":{"type":"LineString","coordinates":[[-3.46506,50.60609],[-3.46506,50.60476]]},"properties":{"name":"Exeter Road","category":"primary","osm_type":"way","osm_id":"1120908432","ref":"A379"}},{"type":"Feature","geometry":{"type":"LineString","coordinates":[[-3.46506,50.60476],[-3.46487,50.60381]]},"properties":{"name":"Exeter Road","category":"primary","osm_type":"way","osm_id":"1120908433","ref":"A379"}},{"type":"Feature","geometry":{"type":"LineString","coordinates":[[-3.46386,50.6001],[-3.46383,50.59984]]},"properties":{"name":"Exeter Road","category":"primary","osm_type":"way","osm_id":"1120908434","ref":"A379"}},{"type":"Feature","geometry":{"type":"LineString","coordinates":[[-3.46345,50.59902],[-3.46335,50.59897]]},"properties":{"name":"A379","category":"primary","osm_type":"way","osm_id":"1120908441","ref":"A379"}},{"type":"Feature","geometry":{"type":"LineString","coordinates":[[-3.46286,50.59801],[-3.4632,50.59861]]},"properties":{"name":"Exeter Road","category":"primary","osm_type":"way","osm_id":"1120908443","ref":"A379"}},{"type":"Feature","geometry":{"type":"LineString","coordinates":[[-3.46253,50.59758],[-3.46286,50.59801]]},"properties":{"name":"Exeter Road","category":"primary","osm_type":"way","osm_id":"1120908444","ref":"A379"}},{"type":"Feature","geometry":{"type":"LineString","coordinates":[[-3.53039,50.71988],[-3.53015,50.71982]]},"properties":{"name":"Western Way","category":"primary","osm_type":"way","osm_id":"1123957219"}},{"type":"Feature","geometry":{"type":"LineString","coordinates":[[-3.44757,50.61906],[-3.44839,50.61873]]},"properties":{"name":"The Strand","category":"primary","osm_type":"way","osm_id":"1126575319","ref":"A379"}},{"type":"Feature","geometry":{"type":"LineString","coordinates":[[-3.44767,50.62714],[-3.44741,50.62671]]},"properties":{"name":"The Strand","category":"primary","osm_type":"way","osm_id":"1126575329","ref":"A379"}},{"type":"Feature","geometry":{"type":"LineString","coordinates":[[-3.4479,50.62751],[-3.44782,50.62737]]},"properties":{"name":"The Strand","category":"primary","osm_type":"way","osm_id":"1126575376","ref":"A379"}},{"type":"Feature","geometry":{"type":"LineString","coordinates":[[-3.45049,50.63208],[-3.44938,50.63026]]},"properties":{"name":"The Strand","category":"primary","osm_type":"way","osm_id":"1126575380","ref":"A379"}},{"type":"Feature","geometry":{"type":"LineString","coordinates":[[-3.44833,50.62859],[-3.44805,50.62785]]},"properties":{"name":"The Strand","category":"primary","osm_type":"way","osm_id":"1126575381","ref":"A379"}},{"type":"Feature","geometry":{"type":"LineString","coordinates":[[-3.4867,50.6747],[-3.48668,50.67439]]},"properties":{"name":"A379","category":"primary","osm_type":"way","osm_id":"1126575481","ref":"A379"}},{"type":"Feature","geometry":{"type":"LineString","coordinates":[[-3.48509,50.65956],[-3.48502,50.6594]]},"properties":{"name":"A379","category":"primary","osm_type":"way","osm_id":"1126575577","ref":"A379"}},{"type":"Feature","geometry":{"type":"LineString","coordinates":[[-3.44426,50.68632],[-3.44437,50.68639]]},"properties":{"name":"A376","category":"trunk","osm_type":"way","osm_id":"1126819248","ref":"A376"}},{"type":"Feature","geometry":{"type":"LineString","coordinates":[[-3.44437,50.68639],[-3.44423,50.68642]]},"properties":{"name":"A376","category":"trunk","osm_type":"way","osm_id":"1126819249","ref":"A376"}},{"type":"Feature","geometry":{"type":"LineString","coordinates":[[-3.50099,50.69532],[-3.50111,50.69523]]},"properties":{"name":"Bridge Road","category":"primary","osm_type":"way","osm_id":"1128298442","ref":"A379"}},{"type":"Feature","geometry":{"type":"LineString","coordinates":[[-3.42929,50.66242],[-3.42725,50.66157]]},"properties":{"name":"Exmouth Road","category":"trunk","osm_type":"way","osm_id":"1132053700","ref":"A376"}},{"type":"Feature","geometry":{"type":"LineString","coordinates":[[-3.43133,50.66316],[-3.42929,50.66242]]},"properties":{"name":"Exmouth Road","category":"trunk","osm_type":"way","osm_id":"1132053701","ref":"A376"}},{"type":"Feature","geometry":{"type":"LineString","coordinates":[[-3.43702,50.66687],[-3.43496,50.66486]]},"properties":{"name":"Exmouth Road","category":"trunk","osm_type":"way","osm_id":"1132053702","ref":"A376"}},{"type":"Feature","geometry":{"type":"LineString","coordinates":[[-3.43766,50.66763],[-3.43702,50.66687]]},"properties":{"name":"A376","category":"trunk","osm_type":"way","osm_id":"1132053704","ref":"A376"}},{"type":"Feature","geometry":{"type":"LineString","coordinates":[[-3.4383,50.66837],[-3.4381,50.66814]]},"properties":{"name":"A376","category":"trunk","osm_type":"way","osm_id":"1132053705","ref":"A376"}},{"type":"Feature","geometry":{"type":"LineString","coordinates":[[-3.43986,50.67241],[-3.43933,50.67131]]},"properties":{"name":"A376","category":"trunk","osm_type":"way","osm_id":"1132053706","ref":"A376"}},{"type":"Feature","geometry":{"type":"LineString","coordinates":[[-3.44175,50.67467],[-3.44104,50.6738]]},"properties":{"name":"Exmouth Road","category":"trunk","osm_type":"way","osm_id":"1132053707","ref":"A376"}},{"type":"Feature","geometry":{"type":"LineString","coordinates":[[-3.4421,50.67535],[-3.4419,50.67497]]},"properties":{"name":"Exmouth Road","category":"trunk","osm_type":"way","osm_id":"1132053708","ref":"A376"}},{"type":"Feature","geometry":{"type":"LineString","coordinates":[[-3.44246,50.67633],[-3.4421,50.67535]]},"properties":{"name":"Exmouth Road","category":"trunk","osm_type":"way","osm_id":"1132053709","ref":"A376"}},{"type":"Feature","geometry":{"type":"LineString","coordinates":[[-3.4442,50.68209],[-3.44437,50.68071]]},"properties":{"name":"Exmouth Road","category":"trunk","osm_type":"way","osm_id":"1132053710","ref":"A376"}},{"type":"Feature","geometry":{"type":"LineString","coordinates":[[-3.44437,50.68071],[-3.44425,50.67902]]},"properties":{"name":"Exmouth Road","category":"trunk","osm_type":"way","osm_id":"1132053711","ref":"A376"}},{"type":"Feature","geometry":{"type":"LineString","coordinates":[[-3.44417,50.68253],[-3.44419,50.6824]]},"properties":{"name":"Exmouth Road","category":"trunk","osm_type":"way","osm_id":"1132053718","ref":"A376"}},{"type":"Feature","geometry":{"type":"LineString","coordinates":[[-3.44406,50.68416],[-3.44416,50.68259]]},"properties":{"name":"Exmouth Road","category":"trunk","osm_type":"way","osm_id":"1132053719","ref":"A376"}},{"type":"Feature","geometry":{"type":"LineString","coordinates":[[-3.44426,50.68632],[-3.44423,50.68621]]},"properties":{"name":"Exmouth Road","category":"trunk","osm_type":"way","osm_id":"1132053720","ref":"A376"}},{"type":"Feature","geometry":{"type":"LineString","coordinates":[[-3.02298,50.91323],[-3.02238,50.91345]]},"properties":{"name":"A303","category":"trunk","osm_type":"way","osm_id":"1134044043","operator":"National Highways","ref":"A303"}},{"type":"Feature","geometry":{"type":"LineString","coordinates":[[-3.00271,50.77959],[-3.00261,50.78013]]},"properties":{"name":"King Edward Road","category":"primary","osm_type":"way","osm_id":"1134105801","ref":"A358"}},{"type":"Feature","geometry":{"type":"LineString","coordinates":[[-3.0029,50.78032],[-3.00283,50.78045]]},"properties":{"name":"Major roads","category":"primary","osm_type":"way","osm_id":"1134105802"}},{"type":"Feature","geometry":{"type":"LineString","coordinates":[[-3.00264,50.78035],[-3.00278,50.78027]]},"properties":{"name":"Major roads","category":"primary","osm_type":"way","osm_id":"1134105803"}},{"type":"Feature","geometry":{"type":"LineString","coordinates":[[-3.38326,50.86084],[-3.38342,50.86084]]},"properties":{"name":"Honiton Road","category":"primary","osm_type":"way","osm_id":"1135136550","ref":"A373"}},{"type":"Feature","geometry":{"type":"LineString","coordinates":[[-3.51755,50.69267],[-3.51688,50.69252]]},"properties":{"name":"A379","category":"primary","osm_type":"way","osm_id":"1135163687","ref":"A379"}},{"type":"Feature","geometry":{"type":"LineString","coordinates":[[-3.22794,50.70348],[-3.22839,50.70334]]},"properties":{"name":"Church Street","category":"primary","osm_type":"way","osm_id":"1135672568","ref":"A3052"}},{"type":"Feature","geometry":{"type":"LineString","coordinates":[[-3.34454,50.91753],[-3.34479,50.91764]]},"properties":{"name":"A38","category":"primary","osm_type":"way","osm_id":"1135679605","ref":"A38"}},{"type":"Feature","geometry":{"type":"LineString","coordinates":[[-3.20132,50.79589],[-3.20135,50.79464]]},"properties":{"name":"Sidmouth Road","category":"primary","osm_type":"way","osm_id":"1135730415","operator":"Devon County Council","ref":"A375"}},{"type":"Feature","geometry":{"type":"LineString","coordinates":[[-3.24356,50.78402],[-3.23856,50.78558]]},"properties":{"name":"A30","category":"trunk","osm_type":"way","osm_id":"1135730416","operator":"National Highways","ref":"A30"}},{"type":"Feature","geometry":{"type":"LineString","coordinates":[[-3.61635,50.53482],[-3.61644,50.53453]]},"properties":{"name":"Exeter Road","category":"primary","osm_type":"way","osm_id":"1135790034","ref":"A382"}},{"type":"Feature","geometry":{"type":"LineString","coordinates":[[-3.51758,50.6925],[-3.51765,50.69245]]},"properties":{"name":"Major roads","category":"primary","osm_type":"way","osm_id":"1135793592"}},{"type":"Feature","geometry":{"type":"LineString","coordinates":[[-3.51299,50.71077],[-3.51307,50.7108]]},"properties":{"name":"Topsham Road","category":"primary","osm_type":"way","osm_id":"1136286251"}},{"type":"Feature","geometry":{"type":"LineString","coordinates":[[-3.51295,50.71074],[-3.51299,50.71077]]},"properties":{"name":"Topsham Road","category":"primary","osm_type":"way","osm_id":"1136286255"}},{"type":"Feature","geometry":{"type":"LineString","coordinates":[[-3.41457,50.64589],[-3.41429,50.64554]]},"properties":{"name":"Exmouth Road","category":"trunk","osm_type":"way","osm_id":"1136299176","ref":"A376"}},{"type":"Feature","geometry":{"type":"LineString","coordinates":[[-3.4149,50.6463],[-3.41457,50.64589]]},"properties":{"name":"Exmouth Road","category":"trunk","osm_type":"way","osm_id":"1136299177","ref":"A376"}},{"type":"Feature","geometry":{"type":"LineString","coordinates":[[-3.41699,50.64864],[-3.41681,50.64836]]},"properties":{"name":"Exmouth Road","category":"trunk","osm_type":"way","osm_id":"1136299178","ref":"A376"}},{"type":"Feature","geometry":{"type":"LineString","coordinates":[[-3.41681,50.64836],[-3.41649,50.64787]]},"properties":{"name":"Exmouth Road","category":"trunk","osm_type":"way","osm_id":"1136299179","ref":"A376"}},{"type":"Feature","geometry":{"type":"LineString","coordinates":[[-3.41735,50.64922],[-3.41699,50.64864]]},"properties":{"name":"Exmouth Road","category":"trunk","osm_type":"way","osm_id":"1136299180","ref":"A376"}},{"type":"Feature","geometry":{"type":"LineString","coordinates":[[-3.41847,50.65199],[-3.41735,50.64922]]},"properties":{"name":"Exmouth Road","category":"trunk","osm_type":"way","osm_id":"1136299181","ref":"A376"}},{"type":"Feature","geometry":{"type":"LineString","coordinates":[[-3.41976,50.65403],[-3.4186,50.65236]]},"properties":{"name":"Exmouth Road","category":"trunk","osm_type":"way","osm_id":"1136299182","ref":"A376"}},{"type":"Feature","geometry":{"type":"LineString","coordinates":[[-3.4186,50.65236],[-3.41847,50.65199]]},"properties":{"name":"Exmouth Road","category":"trunk","osm_type":"way","osm_id":"1136299183","ref":"A376"}},{"type":"Feature","geometry":{"type":"LineString","coordinates":[[-3.4697,50.71057],[-3.47123,50.7103]]},"properties":{"name":"A379","category":"primary","osm_type":"way","osm_id":"1136746401","ref":"A379"}},{"type":"Feature","geometry":{"type":"LineString","coordinates":[[-3.53775,50.70601],[-3.5378,50.70592]]},"properties":{"name":"Alphington Road","category":"trunk","osm_type":"way","osm_id":"1137678660","ref":"A377"}},{"type":"Feature","geometry":{"type":"LineString","coordinates":[[-3.68064,50.58791],[-3.68091,50.59057]]},"properties":{"name":"Monks Way","category":"primary","osm_type":"way","osm_id":"1150018141","ref":"A382"}},{"type":"Feature","geometry":{"type":"LineString","coordinates":[[-3.47658,50.70853],[-3.47685,50.70842]]},"properties":{"name":"A379","category":"primary_link","osm_type":"way","osm_id":"1150583959","ref":"A379"}},{"type":"Feature","geometry":{"type":"LineString","coordinates":[[-3.45376,50.70512],[-3.45284,50.70369]]},"properties":{"name":"Exmouth Road","category":"trunk","osm_type":"way","osm_id":"1150583961","ref":"A376"}},{"type":"Feature","geometry":{"type":"LineString","coordinates":[[-3.8489,50.71959],[-3.84927,50.71945]]},"properties":{"name":"Exeter Road","category":"primary","osm_type":"way","osm_id":"1152729961","ref":"A382"}},{"type":"Feature","geometry":{"type":"LineString","coordinates":[[-3.85467,50.71983],[-3.85352,50.71869]]},"properties":{"name":"A3124","category":"primary","osm_type":"way","osm_id":"1152729962","ref":"A3124"}},{"type":"Feature","geometry":{"type":"LineString","coordinates":[[-3.86028,50.71686],[-3.86022,50.71668]]},"properties":{"name":"A382","category":"primary","osm_type":"way","osm_id":"1152729964","ref":"A382"}},{"type":"Feature","geometry":{"type":"LineString","coordinates":[[-3.94488,50.86128],[-3.94463,50.86051]]},"properties":{"name":"A3124","category":"primary","osm_type":"way","osm_id":"1154520038","ref":"A3124"}},{"type":"Feature","geometry":{"type":"LineString","coordinates":[[-3.77622,50.831],[-3.77483,50.82982]]},"properties":{"name":"A377","category":"trunk","osm_type":"way","osm_id":"1154523916","ref":"A377"}},{"type":"Feature","geometry":{"type":"LineString","coordinates":[[-3.75062,50.8127],[-3.74956,50.81203]]},"properties":{"name":"A377","category":"trunk","osm_type":"way","osm_id":"1154524334","ref":"A377"}},{"type":"Feature","geometry":{"type":"LineString","coordinates":[[-3.74716,50.81065],[-3.74624,50.81003]]},"properties":{"name":"A377","category":"trunk","osm_type":"way","osm_id":"1154524484","ref":"A377"}},{"type":"Feature","geometry":{"type":"LineString","coordinates":[[-3.72824,50.80475],[-3.7214,50.80368]]},"properties":{"name":"A377","category":"trunk","osm_type":"way","osm_id":"1154525102","ref":"A377"}},{"type":"Feature","geometry":{"type":"LineString","coordinates":[[-3.67676,50.793],[-3.67628,50.79291]]},"properties":{"name":"Western Road","category":"trunk","osm_type":"way","osm_id":"1154525694","ref":"A377"}},{"type":"Feature","geometry":{"type":"LineString","coordinates":[[-3.5858,50.7697],[-3.58428,50.76916]]},"properties":{"name":"A377","category":"trunk","osm_type":"way","osm_id":"1154527182","ref":"A377"}},{"type":"Feature","geometry":{"type":"LineString","coordinates":[[-3.55754,50.75884],[-3.55681,50.75815]]},"properties":{"name":"Newbridge Hill","category":"trunk","osm_type":"way","osm_id":"1154528156","ref":"A377"}},{"type":"Feature","geometry":{"type":"LineString","coordinates":[[-3.554,50.75439],[-3.55397,50.75432]]},"properties":{"name":"A377","category":"trunk","osm_type":"way","osm_id":"1154528187","ref":"A377"}},{"type":"Feature","geometry":{"type":"LineString","coordinates":[[-3.55358,50.75363],[-3.55304,50.75262]]},"properties":{"name":"A377","category":"trunk","osm_type":"way","osm_id":"1154528188","ref":"A377"}},{"type":"Feature","geometry":{"type":"LineString","coordinates":[[-3.55304,50.75262],[-3.55274,50.75153]]},"properties":{"name":"Cowley Hill","category":"trunk","osm_type":"way","osm_id":"1154528296","ref":"A377"}},{"type":"Feature","geometry":{"type":"LineString","coordinates":[[-3.55274,50.75153],[-3.5524,50.75086]]},"properties":{"name":"Cowley Hill","category":"trunk","osm_type":"way","osm_id":"1154528297","ref":"A377"}},{"type":"Feature","geometry":{"type":"LineString","coordinates":[[-3.52071,50.71505],[-3.5227,50.71642]]},"properties":{"name":"Topsham Road","category":"primary","osm_type":"way","osm_id":"1154546015"}},{"type":"Feature","geometry":{"type":"LineString","coordinates":[[-3.51307,50.7108],[-3.51328,50.7109]]},"properties":{"name":"Topsham Road","category":"primary","osm_type":"way","osm_id":"1154546067"}},{"type":"Feature","geometry":{"type":"LineString","coordinates":[[-3.50703,50.70788],[-3.50744,50.70807]]},"properties":{"name":"Topsham Road","category":"primary","osm_type":"way","osm_id":"1154547034"}},{"type":"Feature","geometry":{"type":"LineString","coordinates":[[-3.48368,50.70741],[-3.48053,50.70787]]},"properties":{"name":"A379","category":"primary_link","osm_type":"way","osm_id":"1154547929","ref":"A379"}},{"type":"Feature","geometry":{"type":"LineString","coordinates":[[-3.4803,50.70796],[-3.47906,50.70819]]},"properties":{"name":"A379","category":"primary","osm_type":"way","osm_id":"1154548028","ref":"A379"}},{"type":"Feature","geometry":{"type":"LineString","coordinates":[[-3.49359,50.92327],[-3.49354,50.92119]]},"properties":{"name":"Bolham Road","category":"primary","osm_type":"way","osm_id":"1154551369","ref":"A396"}},{"type":"Feature","geometry":{"type":"LineString","coordinates":[[-3.2377,50.68414],[-3.23846,50.68288]]},"properties":{"name":"Vicarage Road","category":"primary","osm_type":"way","osm_id":"1155336254","ref":"A375"}},{"type":"Feature","geometry":{"type":"LineString","coordinates":[[-3.44504,50.79283],[-3.44627,50.78847]]},"properties":{"name":"M5","category":"motorway","osm_type":"way","osm_id":"1157201150","operator":"National Highways","ref":"M5"}},{"type":"Feature","geometry":{"type":"LineString","coordinates":[[-3.445,50.79307],[-3.44504,50.79283]]},"properties":{"name":"M5","category":"motorway","osm_type":"way","osm_id":"1157201151","operator":"National Highways","ref":"M5"}},{"type":"Feature","geometry":{"type":"LineString","coordinates":[[-3.44525,50.79285],[-3.4452,50.79309]]},"properties":{"name":"M5","category":"motorway","osm_type":"way","osm_id":"1157201152","operator":"National Highways","ref":"M5"}},{"type":"Feature","geometry":{"type":"LineString","coordinates":[[-3.4465,50.7885],[-3.44525,50.79285]]},"properties":{"name":"M5","category":"motorway","osm_type":"way","osm_id":"1157201153","operator":"National Highways","ref":"M5"}},{"type":"Feature","geometry":{"type":"LineString","coordinates":[[-3.45853,50.59162],[-3.45774,50.591]]},"properties":{"name":"Exeter Road","category":"primary","osm_type":"way","osm_id":"1158456658","ref":"A379"}},{"type":"Feature","geometry":{"type":"LineString","coordinates":[[-3.26083,50.70277],[-3.26431,50.70267]]},"properties":{"name":"A3052","category":"primary","osm_type":"way","osm_id":"1158716435","ref":"A3052"}},{"type":"Feature","geometry":{"type":"LineString","coordinates":[[-3.26489,50.70254],[-3.26536,50.70242]]},"properties":{"name":"A3052","category":"primary","osm_type":"way","osm_id":"1158716436","ref":"A3052"}},{"type":"Feature","geometry":{"type":"LineString","coordinates":[[-3.30529,50.69763],[-3.30495,50.69776]]},"properties":{"name":"High Street","category":"primary","osm_type":"way","osm_id":"1158716439","ref":"A3052"}},{"type":"Feature","geometry":{"type":"LineString","coordinates":[[-3.30495,50.69776],[-3.30376,50.69816]]},"properties":{"name":"High Street","category":"primary","osm_type":"way","osm_id":"1158716440","ref":"A3052"}},{"type":"Feature","geometry":{"type":"LineString","coordinates":[[-3.29184,50.7003],[-3.29139,50.70037]]},"properties":{"name":"Station Road","category":"primary","osm_type":"way","osm_id":"1158716441","ref":"A3052"}},{"type":"Feature","geometry":{"type":"LineString","coordinates":[[-3.29139,50.70037],[-3.29112,50.70041]]},"properties":{"name":"A3052","category":"primary","osm_type":"way","osm_id":"1158716442","ref":"A3052"}},{"type":"Feature","geometry":{"type":"LineString","coordinates":[[-3.27459,50.69875],[-3.27679,50.69915]]},"properties":{"name":"Four Elms Hill","category":"primary","osm_type":"way","osm_id":"1158716444","ref":"A3052"}},{"type":"Feature","geometry":{"type":"LineString","coordinates":[[-3.23754,50.68775],[-3.23726,50.68625]]},"properties":{"name":"Temple Street","category":"primary","osm_type":"way","osm_id":"1160582594","ref":"A375"}},{"type":"Feature","geometry":{"type":"LineString","coordinates":[[-3.19437,50.69866],[-3.19463,50.69855]]},"properties":{"name":"A3052","category":"primary","osm_type":"way","osm_id":"1160582877","ref":"A3052"}},{"type":"Feature","geometry":{"type":"LineString","coordinates":[[-3.20382,50.98221],[-3.20364,50.98215]]},"properties":{"name":"Chelston Roundabout","category":"primary","osm_type":"way","osm_id":"1160897827","ref":"A38"}},{"type":"Feature","geometry":{"type":"LineString","coordinates":[[-3.20364,50.98215],[-3.20351,50.98199]]},"properties":{"name":"Chelston Roundabout","category":"primary","osm_type":"way","osm_id":"1160897828","ref":"A38"}},{"type":"Feature","geometry":{"type":"LineString","coordinates":[[-3.20351,50.98199],[-3.20348,50.9819]]},"properties":{"name":"Chelston Roundabout","category":"primary","osm_type":"way","osm_id":"1160897829","ref":"A38"}},{"type":"Feature","geometry":{"type":"LineString","coordinates":[[-3.20359,50.98172],[-3.20371,50.98168]]},"properties":{"name":"Chelston Roundabout","category":"primary","osm_type":"way","osm_id":"1160897830","ref":"A38"}},{"type":"Feature","geometry":{"type":"LineString","coordinates":[[-3.19163,50.97237],[-3.19229,50.97336]]},"properties":{"name":"Chelston Interchange","category":"primary","osm_type":"way","osm_id":"1160897831"}},{"type":"Feature","geometry":{"type":"LineString","coordinates":[[-3.19223,50.97344],[-3.19157,50.97372]]},"properties":{"name":"Chelston Interchange","category":"primary","osm_type":"way","osm_id":"1160897832"}},{"type":"Feature","geometry":{"type":"LineString","coordinates":[[-3.19229,50.97336],[-3.19223,50.97344]]},"properties":{"name":"Chelston Interchange","category":"primary","osm_type":"way","osm_id":"1160897833"}},{"type":"Feature","geometry":{"type":"LineString","coordinates":[[-3.19063,50.97261],[-3.19151,50.97236]]},"properties":{"name":"Chelston Interchange","category":"primary","osm_type":"way","osm_id":"1160897834"}},{"type":"Feature","geometry":{"type":"LineString","coordinates":[[-3.19151,50.97236],[-3.19163,50.97237]]},"properties":{"name":"Chelston Interchange","category":"primary","osm_type":"way","osm_id":"1160897835"}},{"type":"Feature","geometry":{"type":"LineString","coordinates":[[-3.50541,50.69147],[-3.50476,50.69174]]},"properties":{"name":"A379","category":"primary","osm_type":"way","osm_id":"1161082685","ref":"A379"}},{"type":"Feature","geometry":{"type":"LineString","coordinates":[[-3.50867,50.69159],[-3.50816,50.69141]]},"properties":{"name":"A379","category":"primary","osm_type":"way","osm_id":"1161082686","ref":"A379"}},{"type":"Feature","geometry":{"type":"LineString","coordinates":[[-3.20404,50.98172],[-3.2042,50.98189]]},"properties":{"name":"Chelston Roundabout","category":"primary","osm_type":"way","osm_id":"1164722210","ref":"A38"}},{"type":"Feature","geometry":{"type":"LineString","coordinates":[[-3.2042,50.98189],[-3.20418,50.98209]]},"properties":{"name":"Chelston Roundabout","category":"primary","osm_type":"way","osm_id":"1164722211","ref":"A38"}},{"type":"Feature","geometry":{"type":"LineString","coordinates":[[-3.19147,50.97372],[-3.19101,50.97363]]},"properties":{"name":"Chelston Interchange","category":"primary","osm_type":"way","osm_id":"1164722216"}},{"type":"Feature","geometry":{"type":"LineString","coordinates":[[-3.00265,50.7804],[-3.00264,50.78035]]},"properties":{"name":"Major roads","category":"primary","osm_type":"way","osm_id":"1167425950"}},{"type":"Feature","geometry":{"type":"LineString","coordinates":[[-3.00278,50.78027],[-3.0029,50.78032]]},"properties":{"name":"Major roads","category":"primary","osm_type":"way","osm_id":"1167425951"}},{"type":"Feature","geometry":{"type":"LineString","coordinates":[[-3.05921,50.72855],[-3.05906,50.72868]]},"properties":{"name":"A3052","category":"primary","osm_type":"way","osm_id":"1167454067","ref":"A3052"}},{"type":"Feature","geometry":{"type":"LineString","coordinates":[[-3.05972,50.7282],[-3.05944,50.72838]]},"properties":{"name":"A3052","category":"primary","osm_type":"way","osm_id":"1167454068","ref":"A3052"}},{"type":"Feature","geometry":{"type":"LineString","coordinates":[[-3.06102,50.72772],[-3.05972,50.7282]]},"properties":{"name":"A3052","category":"primary","osm_type":"way","osm_id":"1167454069","ref":"A3052"}},{"type":"Feature","geometry":{"type":"LineString","coordinates":[[-3.06134,50.72767],[-3.06102,50.72772]]},"properties":{"name":"A3052","category":"primary","osm_type":"way","osm_id":"1167454070","ref":"A3052"}},{"type":"Feature","geometry":{"type":"LineString","coordinates":[[-3.49215,50.91369],[-3.49235,50.91378]]},"properties":{"name":"Bolham Road","category":"primary","osm_type":"way","osm_id":"1184802228","ref":"A3126"}},{"type":"Feature","geometry":{"type":"LineString","coordinates":[[-3.49294,50.91441],[-3.49266,50.91429]]},"properties":{"name":"Bolham Road","category":"primary","osm_type":"way","osm_id":"1184802229","ref":"A396"}},{"type":"Feature","geometry":{"type":"LineString","coordinates":[[-3.49093,50.91305],[-3.49096,50.91255]]},"properties":{"name":"Bolham Road","category":"primary","osm_type":"way","osm_id":"1184802232","ref":"A3126"}},{"type":"Feature","geometry":{"type":"LineString","coordinates":[[-3.49126,50.91305],[-3.4918,50.9134]]},"properties":{"name":"Bolham Road","category":"primary","osm_type":"way","osm_id":"1184802233","ref":"A3126"}},{"type":"Feature","geometry":{"type":"LineString","coordinates":[[-3.49316,50.91401],[-3.49292,50.91412]]},"properties":{"name":"North Devon Link Road","category":"trunk","osm_type":"way","osm_id":"1184802234","ref":"A361"}},{"type":"Feature","geometry":{"type":"LineString","coordinates":[[-3.49235,50.91378],[-3.49259,50.91389]]},"properties":{"name":"Bolham Road","category":"primary","osm_type":"way","osm_id":"1184802235","ref":"A3126"}},{"type":"Feature","geometry":{"type":"LineString","coordinates":[[-3.4929,50.91417],[-3.49322,50.91452]]},"properties":{"name":"Bolham Road","category":"primary","osm_type":"way","osm_id":"1184802236","ref":"A396"}},{"type":"Feature","geometry":{"type":"LineString","coordinates":[[-3.46839,50.91132],[-3.46867,50.9111]]},"properties":{"name":"Heathcoat Way","category":"primary","osm_type":"way","osm_id":"1189938864","ref":"A396"}},{"type":"Feature","geometry":{"type":"LineString","coordinates":[[-3.49369,50.91491],[-3.49322,50.91452]]},"properties":{"name":"Bolham Road","category":"primary","osm_type":"way","osm_id":"1189940261","ref":"A396"}},{"type":"Feature","geometry":{"type":"LineString","coordinates":[[-3.48929,50.9102],[-3.48941,50.91062]]},"properties":{"name":"Bolham Road","category":"primary","osm_type":"way","osm_id":"1189940262","ref":"A3126"}},{"type":"Feature","geometry":{"type":"LineString","coordinates":[[-3.20422,50.97976],[-3.20424,50.97984]]},"properties":{"name":"West Buckland Road","category":"primary","osm_type":"way","osm_id":"1190069884","ref":"A38"}},{"type":"Feature","geometry":{"type":"LineString","coordinates":[[-3.00118,50.78099],[-3.00265,50.7804]]},"properties":{"name":"West Street","category":"primary","osm_type":"way","osm_id":"1190782330","ref":"A358"}},{"type":"Feature","geometry":{"type":"LineString","coordinates":[[-3.46204,50.7303],[-3.46191,50.72946]]},"properties":{"name":"M5","category":"motorway_link","osm_type":"way","osm_id":"1197685373","operator":"National Highways","ref":"M5"}},{"type":"Feature","geometry":{"type":"LineString","coordinates":[[-3.46191,50.72946],[-3.46192,50.72898]]},"properties":{"name":"M5","category":"motorway_link","osm_type":"way","osm_id":"1197685374","operator":"National Highways","ref":"M5"}},{"type":"Feature","geometry":{"type":"LineString","coordinates":[[-3.43772,50.6677],[-3.43766,50.66763]]},"properties":{"name":"A376","category":"trunk","osm_type":"way","osm_id":"1213433575","ref":"A376"}},{"type":"Feature","geometry":{"type":"LineString","coordinates":[[-3.4381,50.66814],[-3.43772,50.6677]]},"properties":{"name":"A376","category":"trunk","osm_type":"way","osm_id":"1213433576","ref":"A376"}},{"type":"Feature","geometry":{"type":"LineString","coordinates":[[-3.64277,50.57471],[-3.64287,50.57463]]},"properties":{"name":"Devon Expressway","category":"trunk","osm_type":"way","osm_id":"1215638959","operator":"National Highways","ref":"A38"}},{"type":"Feature","geometry":{"type":"LineString","coordinates":[[-3.64303,50.57471],[-3.64294,50.5748]]},"properties":{"name":"Devon Expressway","category":"trunk","osm_type":"way","osm_id":"1215638960","operator":"National Highways","ref":"A38"}},{"type":"Feature","geometry":{"type":"LineString","coordinates":[[-3.18909,50.79964],[-3.19023,50.79931]]},"properties":{"name":"High Street","category":"primary","osm_type":"way","osm_id":"1215857597","operator":"Devon County Council","ref":"A375"}},{"type":"Feature","geometry":{"type":"LineString","coordinates":[[-3.19023,50.79931],[-3.18909,50.79964]]},"properties":{"name":"High Street","category":"primary","osm_type":"way","osm_id":"1215857598","operator":"Devon County Council","ref":"A375"}},{"type":"Feature","geometry":{"type":"LineString","coordinates":[[-3.43066,50.72889],[-3.43087,50.729]]},"properties":{"name":"Major roads","category":"trunk_link","osm_type":"way","osm_id":"1215866267","operator":"National Highways"}},{"type":"Feature","geometry":{"type":"LineString","coordinates":[[-3.19487,50.79797],[-3.19231,50.79874]]},"properties":{"name":"High Street","category":"primary","osm_type":"way","osm_id":"1215946647","operator":"Devon County Council","ref":"A375"}},{"type":"Feature","geometry":{"type":"LineString","coordinates":[[-3.43005,50.72902],[-3.43013,50.72896]]},"properties":{"name":"Major roads","category":"trunk_link","osm_type":"way","osm_id":"1215958390","operator":"National Highways"}},{"type":"Feature","geometry":{"type":"LineString","coordinates":[[-3.43106,50.73019],[-3.43094,50.73028]]},"properties":{"name":"Major roads","category":"trunk_link","osm_type":"way","osm_id":"1215958406","operator":"National Highways"}},{"type":"Feature","geometry":{"type":"LineString","coordinates":[[-3.43014,50.73017],[-3.43007,50.73004]]},"properties":{"name":"Major roads","category":"trunk_link","osm_type":"way","osm_id":"1215958407","operator":"National Highways"}},{"type":"Feature","geometry":{"type":"LineString","coordinates":[[-3.19683,50.69825],[-3.19976,50.69931]]},"properties":{"name":"A3052","category":"primary","osm_type":"way","osm_id":"1216003455","ref":"A3052"}},{"type":"Feature","geometry":{"type":"LineString","coordinates":[[-3.19976,50.69931],[-3.1999,50.69935]]},"properties":{"name":"A3052","category":"primary","osm_type":"way","osm_id":"1216003456","ref":"A3052"}},{"type":"Feature","geometry":{"type":"LineString","coordinates":[[-3.65622,50.56427],[-3.65563,50.56514]]},"properties":{"name":"A38","category":"trunk_link","osm_type":"way","osm_id":"1216220457","ref":"A38"}},{"type":"Feature","geometry":{"type":"LineString","coordinates":[[-3.65242,50.56374],[-3.65283,50.56398]]},"properties":{"name":"Newton Road","category":"primary","osm_type":"way","osm_id":"1216220458","ref":"A382"}},{"type":"Feature","geometry":{"type":"LineString","coordinates":[[-3.65549,50.56656],[-3.65524,50.5664]]},"properties":{"name":"Newton Road","category":"primary","osm_type":"way","osm_id":"1216220459","ref":"A382"}},{"type":"Feature","geometry":{"type":"LineString","coordinates":[[-3.65539,50.5658],[-3.65528,50.566]]},"properties":{"name":"Newton Road","category":"primary","osm_type":"way","osm_id":"1216220460","ref":"A382"}},{"type":"Feature","geometry":{"type":"LineString","coordinates":[[-3.6532,50.56537],[-3.65328,50.56511]]},"properties":{"name":"A38","category":"trunk_link","osm_type":"way","osm_id":"1216220474","ref":"A38"}},{"type":"Feature","geometry":{"type":"LineString","coordinates":[[-3.65242,50.56616],[-3.6532,50.56537]]},"properties":{"name":"A38","category":"trunk_link","osm_type":"way","osm_id":"1216220479","ref":"A38"}},{"type":"Feature","geometry":{"type":"LineString","coordinates":[[-3.50276,50.70562],[-3.50295,50.70575]]},"properties":{"name":"Topsham Road","category":"primary","osm_type":"way","osm_id":"1223808576"}},{"type":"Feature","geometry":{"type":"LineString","coordinates":[[-3.45025,50.91215],[-3.44991,50.91212]]},"properties":{"name":"A361","category":"trunk_link","osm_type":"way","osm_id":"1226445487","ref":"A361"}},{"type":"Feature","geometry":{"type":"LineString","coordinates":[[-3.44991,50.91212],[-3.44752,50.91257]]},"properties":{"name":"A361","category":"trunk_link","osm_type":"way","osm_id":"1226445488","ref":"A361"}},{"type":"Feature","geometry":{"type":"LineString","coordinates":[[-3.44991,50.91212],[-3.45028,50.91202]]},"properties":{"name":"A361","category":"trunk_link","osm_type":"way","osm_id":"1226445489","ref":"A361"}},{"type":"Feature","geometry":{"type":"LineString","coordinates":[[-3.43547,50.70883],[-3.42864,50.70823]]},"properties":{"name":"East Devon Heritage Coast Way","category":"primary","osm_type":"way","osm_id":"1230513072","ref":"A3052"}},{"type":"Feature","geometry":{"type":"LineString","coordinates":[[-3.60484,50.5351],[-3.60481,50.53514]]},"properties":{"name":"Newton Road","category":"primary","osm_type":"way","osm_id":"1240257111","ref":"A383"}},{"type":"Feature","geometry":{"type":"LineString","coordinates":[[-3.50099,50.69532],[-3.50082,50.6954]]},"properties":{"name":"Bridge Road","category":"primary","osm_type":"way","osm_id":"1258788771","ref":"A379"}},{"type":"Feature","geometry":{"type":"LineString","coordinates":[[-3.50014,50.69572],[-3.49996,50.69582]]},"properties":{"name":"Bridge Road","category":"primary","osm_type":"way","osm_id":"1258788773","ref":"A379"}},{"type":"Feature","geometry":{"type":"LineString","coordinates":[[-3.50031,50.69564],[-3.50014,50.69572]]},"properties":{"name":"Bridge Road","category":"primary","osm_type":"way","osm_id":"1258788774","ref":"A379"}},{"type":"Feature","geometry":{"type":"LineString","coordinates":[[-3.51874,50.51142],[-3.51885,50.50841]]},"properties":{"name":"Teignmouth Road","category":"primary","osm_type":"way","osm_id":"1266673052","ref":"A379"}},{"type":"Feature","geometry":{"type":"LineString","coordinates":[[-3.19753,50.79722],[-3.19487,50.79797]]},"properties":{"name":"High Street","category":"primary","osm_type":"way","osm_id":"1273378443","operator":"Devon County Council","ref":"A375"}},{"type":"Feature","geometry":{"type":"LineString","coordinates":[[-3.254,50.96638],[-3.25444,50.96621]]},"properties":{"name":"Perry Elm","category":"primary","osm_type":"way","osm_id":"1273530585"}},{"type":"Feature","geometry":{"type":"LineString","coordinates":[[-3.4907,50.91464],[-3.48254,50.91708],[-3.47684,50.91757],[-3.4718,50.91671],[-3.46141,50.91305]]},"properties":{"name":"North Devon Link Road","category":"trunk","osm_type":"way","osm_id":"1274279715","ref":"A361"}},{"type":"Feature","geometry":{"type":"LineString","coordinates":[[-3.46194,50.91307],[-3.47553,50.91736],[-3.48062,50.91732],[-3.48646,50.91587]]},"properties":{"name":"North Devon Link Road","category":"trunk","osm_type":"way","osm_id":"1274279716","ref":"A361"}},{"type":"Feature","geometry":{"type":"LineString","coordinates":[[-3.46492,50.91469],[-3.46527,50.91451]]},"properties":{"name":"A396","category":"primary","osm_type":"way","osm_id":"1274279717","ref":"A396"}},{"type":"Feature","geometry":{"type":"LineString","coordinates":[[-3.46598,50.91392],[-3.46579,50.91386]]},"properties":{"name":"Major roads","category":"primary","osm_type":"way","osm_id":"1274279719"}},{"type":"Feature","geometry":{"type":"LineString","coordinates":[[-3.46609,50.9138],[-3.46608,50.91387]]},"properties":{"name":"Major roads","category":"primary","osm_type":"way","osm_id":"1274279720"}},{"type":"Feature","geometry":{"type":"LineString","coordinates":[[-3.46608,50.91387],[-3.46598,50.91392]]},"properties":{"name":"Major roads","category":"primary","osm_type":"way","osm_id":"1274279721"}},{"type":"Feature","geometry":{"type":"LineString","coordinates":[[-3.4659,50.91373],[-3.46609,50.9138]]},"properties":{"name":"Major roads","category":"primary","osm_type":"way","osm_id":"1274279722"}},{"type":"Feature","geometry":{"type":"LineString","coordinates":[[-3.46586,50.91374],[-3.4659,50.91373]]},"properties":{"name":"Major roads","category":"primary","osm_type":"way","osm_id":"1274279723"}},{"type":"Feature","geometry":{"type":"LineString","coordinates":[[-3.46828,50.91148],[-3.46839,50.91132]]},"properties":{"name":"Major roads","category":"primary","osm_type":"way","osm_id":"1274279724"}},{"type":"Feature","geometry":{"type":"LineString","coordinates":[[-3.46839,50.91132],[-3.46858,50.91139]]},"properties":{"name":"Major roads","category":"primary","osm_type":"way","osm_id":"1274279725"}},{"type":"Feature","geometry":{"type":"LineString","coordinates":[[-3.46844,50.91153],[-3.46828,50.91148]]},"properties":{"name":"Major roads","category":"primary","osm_type":"way","osm_id":"1274279726"}},{"type":"Feature","geometry":{"type":"LineString","coordinates":[[-3.47403,50.90492],[-3.47397,50.90478]]},"properties":{"name":"A396","category":"primary","osm_type":"way","osm_id":"1274279727","ref":"A396"}},{"type":"Feature","geometry":{"type":"LineString","coordinates":[[-3.47441,50.90485],[-3.47436,50.90491]]},"properties":{"name":"A396","category":"primary","osm_type":"way","osm_id":"1274279728","ref":"A396"}},{"type":"Feature","geometry":{"type":"LineString","coordinates":[[-3.47436,50.90491],[-3.47409,50.90494]]},"properties":{"name":"A396","category":"primary","osm_type":"way","osm_id":"1274279729","ref":"A396"}},{"type":"Feature","geometry":{"type":"LineString","coordinates":[[-3.47431,50.9047],[-3.47441,50.90485]]},"properties":{"name":"A396","category":"primary","osm_type":"way","osm_id":"1274279730","ref":"A396"}},{"type":"Feature","geometry":{"type":"LineString","coordinates":[[-3.48122,50.90245],[-3.48106,50.90263],[-3.48081,50.90254],[-3.48093,50.90237],[-3.48122,50.90245]]},"properties":{"name":"A396","category":"primary","osm_type":"way","osm_id":"1274279731","ref":"A396"}},{"type":"Feature","geometry":{"type":"LineString","coordinates":[[-3.22109,50.96982],[-3.21816,50.97011]]},"properties":{"name":"Oldway Road","category":"primary","osm_type":"way","osm_id":"1276594552","ref":"A38"}},{"type":"Feature","geometry":{"type":"LineString","coordinates":[[-3.71452,50.53595],[-3.71447,50.53594]]},"properties":{"name":"A383","category":"primary","osm_type":"way","osm_id":"1279710587","ref":"A383"}},{"type":"Feature","geometry":{"type":"LineString","coordinates":[[-3.59281,50.5229],[-3.59221,50.52116]]},"properties":{"name":"South Devon Highway","category":"trunk","osm_type":"way","osm_id":"1280680804","ref":"A380"}},{"type":"Feature","geometry":{"type":"LineString","coordinates":[[-3.58788,50.51367],[-3.5879,50.51381]]},"properties":{"name":"South Devon Highway","category":"trunk","osm_type":"way","osm_id":"1280717973","ref":"A380"}},{"type":"Feature","geometry":{"type":"LineString","coordinates":[[-3.45625,50.75076],[-3.45663,50.75657],[-3.45867,50.76297]]},"properties":{"name":"M5","category":"motorway","osm_type":"way","osm_id":"1293134784","operator":"National Highways","ref":"M5"}},{"type":"Feature","geometry":{"type":"LineString","coordinates":[[-3.45867,50.76297],[-3.45872,50.76312]]},"properties":{"name":"M5","category":"motorway","osm_type":"way","osm_id":"1293134785","operator":"National Highways","ref":"M5"}},{"type":"Feature","geometry":{"type":"LineString","coordinates":[[-3.45852,50.76315],[-3.45846,50.76298]]},"properties":{"name":"M5","category":"motorway","osm_type":"way","osm_id":"1293134792","operator":"National Highways","ref":"M5"}},{"type":"Feature","geometry":{"type":"LineString","coordinates":[[-3.45846,50.76298],[-3.45642,50.75656],[-3.45602,50.7509]]},"properties":{"name":"M5","category":"motorway","osm_type":"way","osm_id":"1293134793","operator":"National Highways","ref":"M5"}},{"type":"Feature","geometry":{"type":"LineString","coordinates":[[-3.44355,50.79699],[-3.44346,50.79712]]},"properties":{"name":"M5","category":"motorway","osm_type":"way","osm_id":"1293135063","operator":"National Highways","ref":"M5"}},{"type":"Feature","geometry":{"type":"LineString","coordinates":[[-3.44346,50.79712],[-3.44172,50.79923]]},"properties":{"name":"M5","category":"motorway","osm_type":"way","osm_id":"1293135064","operator":"National Highways","ref":"M5"}},{"type":"Feature","geometry":{"type":"LineString","coordinates":[[-3.44324,50.79709],[-3.44334,50.79695]]},"properties":{"name":"M5","category":"motorway","osm_type":"way","osm_id":"1293136790","operator":"National Highways","ref":"M5"}},{"type":"Feature","geometry":{"type":"LineString","coordinates":[[-3.44334,50.79695],[-3.445,50.79307]]},"properties":{"name":"M5","category":"motorway","osm_type":"way","osm_id":"1293136791","operator":"National Highways","ref":"M5"}},{"type":"Feature","geometry":{"type":"LineString","coordinates":[[-3.55394,50.75425],[-3.55386,50.7541]]},"properties":{"name":"A377","category":"trunk","osm_type":"way","osm_id":"1296667763","ref":"A377"}},{"type":"Feature","geometry":{"type":"LineString","coordinates":[[-3.55397,50.75432],[-3.55394,50.75425]]},"properties":{"name":"A377","category":"trunk","osm_type":"way","osm_id":"1296667764","ref":"A377"}},{"type":"Feature","geometry":{"type":"LineString","coordinates":[[-3.64184,50.79741],[-3.64199,50.79751],[-3.64184,50.7976],[-3.6417,50.79751],[-3.64184,50.79741]]},"properties":{"name":"Major roads","category":"primary","osm_type":"way","osm_id":"1304150463"}},{"type":"Feature","geometry":{"type":"LineString","coordinates":[[-3.05297,50.89511],[-3.05202,50.89633]]},"properties":{"name":"A303","category":"trunk","osm_type":"way","osm_id":"1313577498","operator":"National Highways","ref":"A303"}},{"type":"Feature","geometry":{"type":"LineString","coordinates":[[-3.17505,50.80626],[-3.17436,50.8068]]},"properties":{"name":"Monkton Road","category":"trunk","osm_type":"way","osm_id":"1313580425","operator":"National Highways","ref":"A30"}},{"type":"Feature","geometry":{"type":"LineString","coordinates":[[-3.05985,50.88882],[-3.06025,50.88856]]},"properties":{"name":"A303","category":"trunk","osm_type":"way","osm_id":"1313580987","operator":"National Highways","ref":"A303"}},{"type":"Feature","geometry":{"type":"LineString","coordinates":[[-3.0051,50.77126],[-3.00511,50.77104]]},"properties":{"name":"A358","category":"primary","osm_type":"way","osm_id":"1313590244","ref":"A358"}},{"type":"Feature","geometry":{"type":"LineString","coordinates":[[-3.35421,50.91727],[-3.35353,50.91725]]},"properties":{"name":"A38","category":"primary","osm_type":"way","osm_id":"1313936198","operator":"Devon Council","ref":"A38"}},{"type":"Feature","geometry":{"type":"LineString","coordinates":[[-3.3424,50.91765],[-3.34147,50.91776]]},"properties":{"name":"A38","category":"primary","osm_type":"way","osm_id":"1313936199","operator":"Devon Council","ref":"A38"}},{"type":"Feature","geometry":{"type":"LineString","coordinates":[[-3.34147,50.91776],[-3.34075,50.91799]]},"properties":{"name":"A38","category":"primary","osm_type":"way","osm_id":"1313936200","operator":"Devon Council","ref":"A38"}},{"type":"Feature","geometry":{"type":"LineString","coordinates":[[-3.33576,50.91977],[-3.33478,50.91996]]},"properties":{"name":"A38","category":"primary","osm_type":"way","osm_id":"1314021795","operator":"Devon Council","ref":"A38"}},{"type":"Feature","geometry":{"type":"LineString","coordinates":[[-3.3368,50.91966],[-3.33576,50.91977]]},"properties":{"name":"A38","category":"primary","osm_type":"way","osm_id":"1314021796","operator":"Devon Council","ref":"A38"}},{"type":"Feature","geometry":{"type":"LineString","coordinates":[[-3.31924,50.93],[-3.31842,50.93034]]},"properties":{"name":"A38","category":"primary","osm_type":"way","osm_id":"1314021798","operator":"Devon Council","ref":"A38"}},{"type":"Feature","geometry":{"type":"LineString","coordinates":[[-3.31999,50.92963],[-3.31924,50.93]]},"properties":{"name":"A38","category":"primary","osm_type":"way","osm_id":"1314021799","operator":"Devon Council","ref":"A38"}},{"type":"Feature","geometry":{"type":"LineString","coordinates":[[-3.31783,50.93053],[-3.31875,50.93007]]},"properties":{"name":"A38","category":"primary","osm_type":"way","osm_id":"1314021800","operator":"Devon Council","ref":"A38"}},{"type":"Feature","geometry":{"type":"LineString","coordinates":[[-3.31875,50.93007],[-3.31927,50.92981]]},"properties":{"name":"A38","category":"primary","osm_type":"way","osm_id":"1314021801","operator":"Devon Council","ref":"A38"}},{"type":"Feature","geometry":{"type":"LineString","coordinates":[[-3.2968,50.95833],[-3.29748,50.95791]]},"properties":{"name":"Exeter Road","category":"primary","osm_type":"way","osm_id":"1314021803","ref":"A38"}},{"type":"Feature","geometry":{"type":"LineString","coordinates":[[-3.29748,50.95791],[-3.29753,50.95787]]},"properties":{"name":"Exeter Road","category":"primary","osm_type":"way","osm_id":"1314021804","ref":"A38"}},{"type":"Feature","geometry":{"type":"LineString","coordinates":[[-3.29208,50.95982],[-3.29315,50.95931]]},"properties":{"name":"Exeter Road","category":"primary","osm_type":"way","osm_id":"1314021805","ref":"A38"}},{"type":"Feature","geometry":{"type":"LineString","coordinates":[[-3.29315,50.95931],[-3.29406,50.95908]]},"properties":{"name":"Exeter Road","category":"primary","osm_type":"way","osm_id":"1314021806","ref":"A38"}},{"type":"Feature","geometry":{"type":"LineString","coordinates":[[-3.01966,50.99902],[-3.0194,50.99873]]},"properties":{"name":"Mattock's Tree Hill","category":"trunk","osm_type":"way","osm_id":"1314140617","ref":"A358"}},{"type":"Feature","geometry":{"type":"LineString","coordinates":[[-3.02019,50.99951],[-3.02056,50.99986]]},"properties":{"name":"Mattock's Tree Hill","category":"trunk","osm_type":"way","osm_id":"1314140618","ref":"A358"}},{"type":"Feature","geometry":{"type":"LineString","coordinates":[[-3.90399,50.78769],[-3.90312,50.78804]]},"properties":{"name":"A3072","category":"primary","osm_type":"way","osm_id":"1320056606","ref":"A3072"}},{"type":"Feature","geometry":{"type":"LineString","coordinates":[[-3.90312,50.78804],[-3.90302,50.78805]]},"properties":{"name":"A3072","category":"primary","osm_type":"way","osm_id":"1320056607","ref":"A3072"}},{"type":"Feature","geometry":{"type":"LineString","coordinates":[[-3.48646,50.91587],[-3.49064,50.91454]]},"properties":{"name":"North Devon Link Road","category":"trunk","osm_type":"way","osm_id":"1330275563","ref":"A361"}},{"type":"Feature","geometry":{"type":"LineString","coordinates":[[-3.49163,50.91428],[-3.4923,50.91404]]},"properties":{"name":"North Devon Link Road","category":"trunk","osm_type":"way","osm_id":"1330275564","ref":"A361"}},{"type":"Feature","geometry":{"type":"LineString","coordinates":[[-3.35792,50.91831],[-3.3578,50.91826]]},"properties":{"name":"North Devon Link Road","category":"trunk","osm_type":"way","osm_id":"1330275565","ref":"A361"}},{"type":"Feature","geometry":{"type":"LineString","coordinates":[[-3.36362,50.92186],[-3.36193,50.92074]]},"properties":{"name":"North Devon Link Road","category":"trunk","osm_type":"way","osm_id":"1330275566","ref":"A361"}},{"type":"Feature","geometry":{"type":"LineString","coordinates":[[-3.46574,50.91402],[-3.46569,50.91407]]},"properties":{"name":"A396","category":"primary","osm_type":"way","osm_id":"1330275567","ref":"A396"}},{"type":"Feature","geometry":{"type":"LineString","coordinates":[[-3.71339,50.53573],[-3.71303,50.53567]]},"properties":{"name":"A383","category":"primary","osm_type":"way","osm_id":"1332048402","ref":"A383"}},{"type":"Feature","geometry":{"type":"LineString","coordinates":[[-3.71303,50.53567],[-3.71263,50.53562]]},"properties":{"name":"Major roads","category":"primary","osm_type":"way","osm_id":"1332048403"}},{"type":"Feature","geometry":{"type":"LineString","coordinates":[[-3.71332,50.53536],[-3.71327,50.53551]]},"properties":{"name":"A383","category":"primary","osm_type":"way","osm_id":"1332048404","ref":"A383"}},{"type":"Feature","geometry":{"type":"LineString","coordinates":[[-3.71327,50.53551],[-3.71327,50.53556]]},"properties":{"name":"Major roads","category":"primary","osm_type":"way","osm_id":"1332048405"}},{"type":"Feature","geometry":{"type":"LineString","coordinates":[[-3.54157,50.6524],[-3.53946,50.65826]]},"properties":{"name":"Devon Expressway","category":"trunk","osm_type":"way","osm_id":"1332048407","operator":"National Highways","ref":"A38"}},{"type":"Feature","geometry":{"type":"LineString","coordinates":[[-3.54309,50.63628],[-3.54165,50.639]]},"properties":{"name":"A380","category":"trunk","osm_type":"way","osm_id":"1332705920","ref":"A380"}},{"type":"Feature","geometry":{"type":"LineString","coordinates":[[-3.54329,50.63521],[-3.54309,50.63628]]},"properties":{"name":"A380","category":"trunk","osm_type":"way","osm_id":"1332705921","ref":"A380"}},{"type":"Feature","geometry":{"type":"LineString","coordinates":[[-3.55144,50.62151],[-3.55129,50.62127]]},"properties":{"name":"Major roads","category":"trunk_link","osm_type":"way","osm_id":"1332705922"}},{"type":"Feature","geometry":{"type":"LineString","coordinates":[[-3.55129,50.62127],[-3.55171,50.62116]]},"properties":{"name":"Major roads","category":"trunk_link","osm_type":"way","osm_id":"1332705923"}},{"type":"Feature","geometry":{"type":"LineString","coordinates":[[-3.59648,50.56262],[-3.59665,50.5627]]},"properties":{"name":"Major roads","category":"trunk_link","osm_type":"way","osm_id":"1332705926"}},{"type":"Feature","geometry":{"type":"LineString","coordinates":[[-3.58879,50.509],[-3.58883,50.50891]]},"properties":{"name":"South Devon Highway","category":"trunk","osm_type":"way","osm_id":"1332705928","ref":"A380"}},{"type":"Feature","geometry":{"type":"LineString","coordinates":[[-3.66701,50.98257],[-3.6681,50.98269]]},"properties":{"name":"North Devon Link Road","category":"trunk","osm_type":"way","osm_id":"1332984852","ref":"A361"}},{"type":"Feature","geometry":{"type":"LineString","coordinates":[[-3.66885,50.98277],[-3.66941,50.98282]]},"properties":{"name":"North Devon Link Road","category":"trunk","osm_type":"way","osm_id":"1332984853","ref":"A361"}},{"type":"Feature","geometry":{"type":"LineString","coordinates":[[-3.66941,50.98282],[-3.66985,50.98286]]},"properties":{"name":"North Devon Link Road","category":"trunk","osm_type":"way","osm_id":"1332984854","ref":"A361"}},{"type":"Feature","geometry":{"type":"LineString","coordinates":[[-3.84778,50.72067],[-3.8418,50.71917],[-3.81711,50.71689],[-3.80757,50.71661]]},"properties":{"name":"A30","category":"trunk","osm_type":"way","osm_id":"1333043559","operator":"National Highways","ref":"A30"}},{"type":"Feature","geometry":{"type":"LineString","coordinates":[[-3.84895,50.72133],[-3.84778,50.72067]]},"properties":{"name":"A30","category":"trunk","osm_type":"way","osm_id":"1333043560","operator":"National Highways","ref":"A30"}},{"type":"Feature","geometry":{"type":"LineString","coordinates":[[-3.96117,50.74027],[-3.96097,50.74042]]},"properties":{"name":"A30","category":"trunk_link","osm_type":"way","osm_id":"1333044136","operator":"National Highways","ref":"A30"}},{"type":"Feature","geometry":{"type":"LineString","coordinates":[[-3.65549,50.56656],[-3.65572,50.56681]]},"properties":{"name":"Newton Road","category":"primary","osm_type":"way","osm_id":"1335788524","ref":"A382"}},{"type":"Feature","geometry":{"type":"LineString","coordinates":[[-3.98553,50.99898],[-3.98539,50.99883]]},"properties":{"name":"Pound Lane End","category":"trunk","osm_type":"way","osm_id":"1336297687","ref":"A377"}},{"type":"Feature","geometry":{"type":"LineString","coordinates":[[-3.77483,50.82982],[-3.77447,50.82951]]},"properties":{"name":"A377","category":"trunk","osm_type":"way","osm_id":"1336624115","ref":"A377"}},{"type":"Feature","geometry":{"type":"LineString","coordinates":[[-3.74819,50.81002],[-3.7481,50.81001]]},"properties":{"name":"Beers Hill","category":"primary","osm_type":"way","osm_id":"1336624116","ref":"A3072"}},{"type":"Feature","geometry":{"type":"LineString","coordinates":[[-3.74681,50.80988],[-3.74709,50.80988]]},"properties":{"name":"A377","category":"trunk","osm_type":"way","osm_id":"1336624117","ref":"A377"}},{"type":"Feature","geometry":{"type":"LineString","coordinates":[[-3.44327,50.68953],[-3.44321,50.68977]]},"properties":{"name":"Exmouth Road","category":"trunk","osm_type":"way","osm_id":"1338456713","ref":"A376"}},{"type":"Feature","geometry":{"type":"LineString","coordinates":[[-3.44302,50.68977],[-3.44297,50.68953]]},"properties":{"name":"Exmouth Road","category":"trunk","osm_type":"way","osm_id":"1338456714","ref":"A376"}},{"type":"Feature","geometry":{"type":"LineString","coordinates":[[-3.50247,50.53607],[-3.50303,50.53453]]},"properties":{"name":"Torquay Road","category":"primary","osm_type":"way","osm_id":"1341094634","ref":"A379"}},{"type":"Feature","geometry":{"type":"LineString","coordinates":[[-3.50241,50.53657],[-3.50247,50.53607]]},"properties":{"name":"Torquay Road","category":"primary","osm_type":"way","osm_id":"1341094635","ref":"A379"}},{"type":"Feature","geometry":{"type":"LineString","coordinates":[[-3.50382,50.5382],[-3.50241,50.53657]]},"properties":{"name":"Torquay Road","category":"primary","osm_type":"way","osm_id":"1341094636","ref":"A379"}},{"type":"Feature","geometry":{"type":"LineString","coordinates":[[-3.49967,50.54771],[-3.49937,50.5474]]},"properties":{"name":"Exeter Road","category":"primary","osm_type":"way","osm_id":"1341592712","ref":"A379"}},{"type":"Feature","geometry":{"type":"LineString","coordinates":[[-3.4988,50.54701],[-3.49778,50.54715]]},"properties":{"name":"Exeter Road","category":"primary","osm_type":"way","osm_id":"1341592713","ref":"A379"}},{"type":"Feature","geometry":{"type":"LineString","coordinates":[[-3.4992,50.5472],[-3.49908,50.54712]]},"properties":{"name":"Exeter Road","category":"primary","osm_type":"way","osm_id":"1341592714","ref":"A379"}},{"type":"Feature","geometry":{"type":"LineString","coordinates":[[-3.49937,50.5474],[-3.4992,50.5472]]},"properties":{"name":"Exeter Road","category":"primary","osm_type":"way","osm_id":"1341592715","ref":"A379"}},{"type":"Feature","geometry":{"type":"LineString","coordinates":[[-3.50009,50.54782],[-3.49967,50.54771]]},"properties":{"name":"Exeter Road","category":"primary","osm_type":"way","osm_id":"1341592716","ref":"A379"}},{"type":"Feature","geometry":{"type":"LineString","coordinates":[[-3.49918,50.54706],[-3.49931,50.54717]]},"properties":{"name":"Exeter Road","category":"primary","osm_type":"way","osm_id":"1341592717","ref":"A379"}},{"type":"Feature","geometry":{"type":"LineString","coordinates":[[-3.49908,50.54712],[-3.4988,50.54701]]},"properties":{"name":"Exeter Road","category":"primary","osm_type":"way","osm_id":"1341592719","ref":"A379"}},{"type":"Feature","geometry":{"type":"LineString","coordinates":[[-3.50098,50.54779],[-3.50114,50.54777]]},"properties":{"name":"Bitton Park Road","category":"primary","osm_type":"way","osm_id":"1341592720","ref":"A379"}},{"type":"Feature","geometry":{"type":"LineString","coordinates":[[-3.50009,50.54782],[-3.50098,50.54779]]},"properties":{"name":"Bitton Park Road","category":"primary","osm_type":"way","osm_id":"1341592721","ref":"A379"}},{"type":"Feature","geometry":{"type":"LineString","coordinates":[[-3.49107,50.90034],[-3.491,50.9001]]},"properties":{"name":"West Exe South","category":"primary","osm_type":"way","osm_id":"1342479171","ref":"A3126"}},{"type":"Feature","geometry":{"type":"LineString","coordinates":[[-3.68042,50.58684],[-3.68064,50.58791]]},"properties":{"name":"Monks Way","category":"primary","osm_type":"way","osm_id":"1348539983","ref":"A382"}},{"type":"Feature","geometry":{"type":"LineString","coordinates":[[-3.53798,50.71894],[-3.53798,50.71895]]},"properties":{"name":"Exe Bridges","category":"trunk","osm_type":"way","osm_id":"1349608656","ref":"A377"}},{"type":"Feature","geometry":{"type":"LineString","coordinates":[[-3.53808,50.7184],[-3.53808,50.71843]]},"properties":{"name":"Exe Bridges","category":"trunk","osm_type":"way","osm_id":"1349608660","ref":"A377"}},{"type":"Feature","geometry":{"type":"LineString","coordinates":[[-3.53594,50.71824],[-3.53599,50.71817]]},"properties":{"name":"Exe Bridges","category":"trunk","osm_type":"way","osm_id":"1349608661","ref":"A377"}},{"type":"Feature","geometry":{"type":"LineString","coordinates":[[-3.56471,50.54928],[-3.56913,50.5481]]},"properties":{"name":"Newton Road","category":"primary","osm_type":"way","osm_id":"1353079234","ref":"A381"}},{"type":"Feature","geometry":{"type":"LineString","coordinates":[[-3.53793,50.66183],[-3.53771,50.66169]]},"properties":{"name":"Major roads","category":"trunk_link","osm_type":"way","osm_id":"1353240444"}},{"type":"Feature","geometry":{"type":"LineString","coordinates":[[-3.27077,50.9671],[-3.2703,50.96705]]},"properties":{"name":"Exeter Road","category":"primary","osm_type":"way","osm_id":"1356508233","ref":"A38"}},{"type":"Feature","geometry":{"type":"LineString","coordinates":[[-3.27249,50.96705],[-3.27113,50.96712]]},"properties":{"name":"Exeter Road","category":"primary","osm_type":"way","osm_id":"1356508234","ref":"A38"}},{"type":"Feature","geometry":{"type":"LineString","coordinates":[[-3.27358,50.96677],[-3.27249,50.96705]]},"properties":{"name":"Exeter Road","category":"primary","osm_type":"way","osm_id":"1356508235","ref":"A38"}},{"type":"Feature","geometry":{"type":"LineString","coordinates":[[-3.27473,50.96635],[-3.27414,50.96657]]},"properties":{"name":"Exeter Road","category":"primary","osm_type":"way","osm_id":"1356508236","ref":"A38"}},{"type":"Feature","geometry":{"type":"LineString","coordinates":[[-3.27414,50.96657],[-3.27358,50.96677]]},"properties":{"name":"Exeter Road","category":"primary","osm_type":"way","osm_id":"1356508237","ref":"A38"}},{"type":"Feature","geometry":{"type":"LineString","coordinates":[[-3.83348,50.80072],[-3.83184,50.80082]]},"properties":{"name":"A3072","category":"primary","osm_type":"way","osm_id":"1359165274","ref":"A3072"}},{"type":"Feature","geometry":{"type":"LineString","coordinates":[[-3.50675,50.52803],[-3.5075,50.52805]]},"properties":{"name":"Teignmouth Road","category":"primary","osm_type":"way","osm_id":"1367997443","ref":"A379"}},{"type":"Feature","geometry":{"type":"LineString","coordinates":[[-3.50565,50.52865],[-3.50576,50.52817]]},"properties":{"name":"Teignmouth Road","category":"primary","osm_type":"way","osm_id":"1367997444","ref":"A379"}},{"type":"Feature","geometry":{"type":"LineString","coordinates":[[-3.50513,50.52931],[-3.50513,50.52904]]},"properties":{"name":"Teignmouth Road","category":"primary","osm_type":"way","osm_id":"1367997447","ref":"A379"}},{"type":"Feature","geometry":{"type":"LineString","coordinates":[[-3.51885,50.50841],[-3.51919,50.50792]]},"properties":{"name":"Teignmouth Road","category":"primary","osm_type":"way","osm_id":"1367997475","ref":"A379"}},{"type":"Feature","geometry":{"type":"LineString","coordinates":[[-3.51919,50.50792],[-3.52073,50.5068]]},"properties":{"name":"Teignmouth Road","category":"primary","osm_type":"way","osm_id":"1367997476","ref":"A379"}},{"type":"Feature","geometry":{"type":"LineString","coordinates":[[-3.52548,50.50611],[-3.52546,50.5058]]},"properties":{"name":"Teignmouth Road","category":"primary","osm_type":"way","osm_id":"1367997480","ref":"A379"}},{"type":"Feature","geometry":{"type":"LineString","coordinates":[[-3.49401,50.69996],[-3.49393,50.70038]]},"properties":{"name":"A379","category":"primary","osm_type":"way","osm_id":"1379096596","ref":"A379"}},{"type":"Feature","geometry":{"type":"LineString","coordinates":[[-3.01964,50.77641],[-3.01997,50.77651]]},"properties":{"name":"A35","category":"trunk","osm_type":"way","osm_id":"1380440503","operator":"National Highways","ref":"A35"}},{"type":"Feature","geometry":{"type":"LineString","coordinates":[[-3.51954,50.85176],[-3.51529,50.85414],[-3.51456,50.85645]]},"properties":{"name":"A3072","category":"primary","osm_type":"way","osm_id":"1389527747","ref":"A3072"}},{"type":"Feature","geometry":{"type":"LineString","coordinates":[[-3.22996,50.70228],[-3.22839,50.70334]]},"properties":{"name":"Sidford Road","category":"primary","osm_type":"way","osm_id":"1391980242","ref":"A375"}},{"type":"Feature","geometry":{"type":"LineString","coordinates":[[-3.46203,50.7288],[-3.46284,50.72874]]},"properties":{"name":"Honiton Road","category":"trunk","osm_type":"way","osm_id":"1396709663","operator":"Devon County Council","ref":"A30"}},{"type":"Feature","geometry":{"type":"LineString","coordinates":[[-3.06748,50.72598],[-3.06728,50.72605]]},"properties":{"name":"Swan Hill Road","category":"primary","osm_type":"way","osm_id":"1405755412","ref":"A3052"}},{"type":"Feature","geometry":{"type":"LineString","coordinates":[[-3.65122,50.56756],[-3.64979,50.56841]]},"properties":{"name":"A38","category":"trunk_link","osm_type":"way","osm_id":"1413455981","ref":"A38"}},{"type":"Feature","geometry":{"type":"LineString","coordinates":[[-3.46236,50.59739],[-3.46253,50.59758]]},"properties":{"name":"Exeter Road","category":"primary","osm_type":"way","osm_id":"1422344108","ref":"A379"}},{"type":"Feature","geometry":{"type":"LineString","coordinates":[[-3.46232,50.59734],[-3.46236,50.59739]]},"properties":{"name":"Exeter Road","category":"primary","osm_type":"way","osm_id":"1422344109","ref":"A379"}},{"type":"Feature","geometry":{"type":"LineString","coordinates":[[-3.94113,50.85433],[-3.94251,50.85343]]},"properties":{"name":"A3124","category":"primary","osm_type":"way","osm_id":"1424825702","ref":"A3124"}},{"type":"Feature","geometry":{"type":"LineString","coordinates":[[-3.93202,50.79097],[-3.92878,50.79121]]},"properties":{"name":"Green Hill","category":"primary","osm_type":"way","osm_id":"1424825703","ref":"A3072"}},{"type":"Feature","geometry":{"type":"LineString","coordinates":[[-3.94557,50.79189],[-3.94285,50.79134]]},"properties":{"name":"A3072","category":"primary","osm_type":"way","osm_id":"1424825704","ref":"A3072"}},{"type":"Feature","geometry":{"type":"LineString","coordinates":[[-3.95262,50.79328],[-3.94557,50.79189]]},"properties":{"name":"A3072","category":"primary","osm_type":"way","osm_id":"1424825705","ref":"A3072"}},{"type":"Feature","geometry":{"type":"LineString","coordinates":[[-3.98489,50.79722],[-3.98317,50.79711]]},"properties":{"name":"A3072","category":"primary","osm_type":"way","osm_id":"1424825706","ref":"A3072"}},{"type":"Feature","geometry":{"type":"LineString","coordinates":[[-3.98744,50.79821],[-3.98489,50.79722]]},"properties":{"name":"A3072","category":"primary","osm_type":"way","osm_id":"1424825707","ref":"A3072"}},{"type":"Feature","geometry":{"type":"LineString","coordinates":[[-3.45786,50.72917],[-3.45973,50.72904]]},"properties":{"name":"Honiton Road","category":"trunk","osm_type":"way","osm_id":"1426809205","operator":"National Highways","ref":"A30"}},{"type":"Feature","geometry":{"type":"LineString","coordinates":[[-3.62776,50.54429],[-3.62771,50.54445]]},"properties":{"name":"Major roads","category":"primary","osm_type":"way","osm_id":"1427741564"}},{"type":"Feature","geometry":{"type":"LineString","coordinates":[[-3.62731,50.54443],[-3.62729,50.54427]]},"properties":{"name":"Major roads","category":"primary","osm_type":"way","osm_id":"1427741565"}},{"type":"Feature","geometry":{"type":"LineString","coordinates":[[-3.62771,50.54445],[-3.62731,50.54443]]},"properties":{"name":"Major roads","category":"primary","osm_type":"way","osm_id":"1427741566"}},{"type":"Feature","geometry":{"type":"LineString","coordinates":[[-3.62817,50.54446],[-3.62771,50.54445]]},"properties":{"name":"Bovey Tracey Road","category":"primary","osm_type":"way","osm_id":"1427741567","ref":"A382"}},{"type":"Feature","geometry":{"type":"LineString","coordinates":[[-3.62776,50.54429],[-3.62817,50.54446]]},"properties":{"name":"Bovey Tracey Road","category":"primary","osm_type":"way","osm_id":"1427741568","ref":"A382"}},{"type":"Feature","geometry":{"type":"LineString","coordinates":[[-3.62731,50.54443],[-3.62684,50.54434]]},"properties":{"name":"Bovey Tracey Road","category":"primary","osm_type":"way","osm_id":"1427741569","ref":"A382"}},{"type":"Feature","geometry":{"type":"LineString","coordinates":[[-3.62684,50.54434],[-3.62729,50.54427]]},"properties":{"name":"Bovey Tracey Road","category":"primary","osm_type":"way","osm_id":"1427741570","ref":"A382"}},{"type":"Feature","geometry":{"type":"LineString","coordinates":[[-3.6176,50.54187],[-3.61723,50.54043]]},"properties":{"name":"Exeter Road","category":"primary","osm_type":"way","osm_id":"1433399062","ref":"A382"}},{"type":"Feature","geometry":{"type":"LineString","coordinates":[[-3.62046,50.54262],[-3.61961,50.54234]]},"properties":{"name":"Bovey Tracey Road","category":"primary","osm_type":"way","osm_id":"1433399063","ref":"A382"}},{"type":"Feature","geometry":{"type":"LineString","coordinates":[[-3.47552,50.72359],[-3.47743,50.72324]]},"properties":{"name":"Honiton Road","category":"primary","osm_type":"way","osm_id":"1444290888","ref":"A3015"}},{"type":"Feature","geometry":{"type":"LineString","coordinates":[[-3.19157,50.97372],[-3.19147,50.97372]]},"properties":{"name":"Chelston Interchange","category":"primary","osm_type":"way","osm_id":"1444970926"}},{"type":"Feature","geometry":{"type":"LineString","coordinates":[[-3.19101,50.97363],[-3.19093,50.9736]]},"properties":{"name":"Chelston Interchange","category":"primary","osm_type":"way","osm_id":"1444970927"}},{"type":"Feature","geometry":{"type":"LineString","coordinates":[[-3.46959,50.72603],[-3.46959,50.72603]]},"properties":{"name":"Moor Lane Roundabout","category":"primary","osm_type":"way","osm_id":"1451912969","operator":"Devon County Council"}},{"type":"Feature","geometry":{"type":"LineString","coordinates":[[-3.47409,50.90494],[-3.47403,50.90492]]},"properties":{"name":"A396","category":"primary","osm_type":"way","osm_id":"1455846500","ref":"A396"}},{"type":"Feature","geometry":{"type":"LineString","coordinates":[[-3.19663,50.98469],[-3.19201,50.98618]]},"properties":{"name":"Wellington Road","category":"primary","osm_type":"way","osm_id":"1469947623","ref":"A38"}},{"type":"Feature","geometry":{"type":"LineString","coordinates":[[-3.50063,50.68723],[-3.49979,50.68706]]},"properties":{"name":"Sannerville Way","category":"primary","osm_type":"way","osm_id":"1483013904","ref":"A379"}},{"type":"Feature","geometry":{"type":"LineString","coordinates":[[-3.41346,50.64425],[-3.41263,50.64265]]},"properties":{"name":"Exmouth Road","category":"trunk","osm_type":"way","osm_id":"1498259305","ref":"A376"}},{"type":"Feature","geometry":{"type":"LineString","coordinates":[[-3.45334,50.6334],[-3.45049,50.63208]]},"properties":{"name":"A379","category":"primary","osm_type":"way","osm_id":"1504606421","ref":"A379"}},{"type":"Feature","geometry":{"type":"LineString","coordinates":[[-3.46072,50.63713],[-3.46023,50.63678]]},"properties":{"name":"Southtown","category":"primary","osm_type":"way","osm_id":"1504606422","ref":"A379"}},{"type":"Feature","geometry":{"type":"LineString","coordinates":[[-3.47687,50.64395],[-3.47635,50.64283]]},"properties":{"name":"A379","category":"primary","osm_type":"way","osm_id":"1504606423","ref":"A379"}},{"type":"Feature","geometry":{"type":"LineString","coordinates":[[-3.47333,50.64],[-3.47329,50.63998]]},"properties":{"name":"Fore Street","category":"primary","osm_type":"way","osm_id":"1506058751","ref":"A379"}},{"type":"Feature","geometry":{"type":"LineString","coordinates":[[-3.54375,50.73398],[-3.54431,50.73612]]},"properties":{"name":"Cowley Bridge Road","category":"trunk","osm_type":"way","osm_id":"1508073557","ref":"A377"}},{"type":"Feature","geometry":{"type":"LineString","coordinates":[[-3.25444,50.96621],[-3.25455,50.96632]]},"properties":{"name":"Perry Elm","category":"primary","osm_type":"way","osm_id":"1524785299"}},{"type":"Feature","geometry":{"type":"LineString","coordinates":[[-3.25423,50.96645],[-3.254,50.96638]]},"properties":{"name":"Perry Elm","category":"primary","osm_type":"way","osm_id":"1524785300"}},{"type":"Feature","geometry":{"type":"LineString","coordinates":[[-3.25455,50.96632],[-3.25423,50.96645]]},"properties":{"name":"Perry Elm","category":"primary","osm_type":"way","osm_id":"1524785301"}},{"type":"Feature","geometry":{"type":"LineString","coordinates":[[-3.51757,50.54608],[-3.52293,50.54686]]},"properties":{"name":"Teignmouth Road","category":"primary","osm_type":"way","osm_id":"1528891546","ref":"A381"}},{"type":"Feature","geometry":{"type":"LineString","coordinates":[[-3.51056,50.54693],[-3.5109,50.54678]]},"properties":{"name":"Bishopsteignton Road","category":"primary","osm_type":"way","osm_id":"1528891952","ref":"A381"}},{"type":"Feature","geometry":{"type":"LineString","coordinates":[[-3.44916,50.61835],[-3.45017,50.61806]]},"properties":{"name":"Exeter Road","category":"primary","osm_type":"way","osm_id":"1529621033","ref":"A379"}},{"type":"Feature","geometry":{"type":"LineString","coordinates":[[-3.16026,50.81879],[-3.15942,50.81934]]},"properties":{"name":"A30","category":"trunk","osm_type":"way","osm_id":"1535040538","operator":"National Highways","ref":"A30"}},{"type":"Feature","geometry":{"type":"LineString","coordinates":[[-3.53833,50.66038],[-3.54087,50.65546]]},"properties":{"name":"Devon Expressway","category":"trunk","osm_type":"way","osm_id":"1540015333","operator":"National Highways","ref":"A38"}},{"type":"Feature","geometry":{"type":"LineString","coordinates":[[-3.53828,50.66076],[-3.53833,50.66038]]},"properties":{"name":"Devon Expressway","category":"trunk","osm_type":"way","osm_id":"1540015334","operator":"National Highways","ref":"A38"}},{"type":"Feature","geometry":{"type":"LineString","coordinates":[[-3.53829,50.66156],[-3.53826,50.66107]]},"properties":{"name":"Devon Expressway","category":"trunk","osm_type":"way","osm_id":"1540015335","operator":"National Highways","ref":"A38"}},{"type":"Feature","geometry":{"type":"LineString","coordinates":[[-3.53826,50.66107],[-3.53828,50.66076]]},"properties":{"name":"Devon Expressway","category":"trunk","osm_type":"way","osm_id":"1540015336","operator":"National Highways","ref":"A38"}},{"type":"Feature","geometry":{"type":"LineString","coordinates":[[-3.5386,50.66332],[-3.53839,50.66244]]},"properties":{"name":"Devon Expressway","category":"trunk","osm_type":"way","osm_id":"1540015338","operator":"National Highways","ref":"A38"}},{"type":"Feature","geometry":{"type":"LineString","coordinates":[[-3.53839,50.66244],[-3.53829,50.66156]]},"properties":{"name":"Devon Expressway","category":"trunk","osm_type":"way","osm_id":"1540015339","operator":"National Highways","ref":"A38"}},{"type":"Feature","geometry":{"type":"LineString","coordinates":[[-3.4985,50.78175],[-3.49938,50.78019]]},"properties":{"name":"Exeter Road","category":"primary","osm_type":"way","osm_id":"1545415158","ref":"A396"}},{"type":"Feature","geometry":{"type":"LineString","coordinates":[[-3.28116,50.77287],[-3.28291,50.77228]]},"properties":{"name":"A30","category":"trunk","osm_type":"way","osm_id":"1546087026","operator":"National Highways","ref":"A30"}},{"type":"Feature","geometry":{"type":"LineString","coordinates":[[-3.26017,50.7822],[-3.26735,50.78024]]},"properties":{"name":"A30","category":"trunk","osm_type":"way","osm_id":"1546087027","operator":"National Highways","ref":"A30"}},{"type":"Feature","geometry":{"type":"LineString","coordinates":[[-3.26701,50.78055],[-3.26024,50.78231]]},"properties":{"name":"A30","category":"trunk","osm_type":"way","osm_id":"1546087028","operator":"National Highways","ref":"A30"}},{"type":"Feature","geometry":{"type":"LineString","coordinates":[[-3.28349,50.7721],[-3.28555,50.77148]]},"properties":{"name":"A30","category":"trunk","osm_type":"way","osm_id":"1546087029","operator":"National Highways","ref":"A30"}},{"type":"Feature","geometry":{"type":"LineString","coordinates":[[-3.28561,50.77158],[-3.28353,50.7722]]},"properties":{"name":"A30","category":"trunk","osm_type":"way","osm_id":"1546087030","operator":"National Highways","ref":"A30"}},{"type":"Feature","geometry":{"type":"LineString","coordinates":[[-3.29419,50.77005],[-3.2959,50.76994]]},"properties":{"name":"A30","category":"trunk","osm_type":"way","osm_id":"1546292261","operator":"National Highways","ref":"A30"}},{"type":"Feature","geometry":{"type":"LineString","coordinates":[[-3.29656,50.76988],[-3.29929,50.76945]]},"properties":{"name":"A30","category":"trunk","osm_type":"way","osm_id":"1546292262","operator":"National Highways","ref":"A30"}},{"type":"Feature","geometry":{"type":"LineString","coordinates":[[-3.32159,50.7614],[-3.3247,50.75974]]},"properties":{"name":"A30","category":"trunk","osm_type":"way","osm_id":"1546292264","operator":"National Highways","ref":"A30"}},{"type":"Feature","geometry":{"type":"LineString","coordinates":[[-3.32887,50.75478],[-3.32974,50.75367]]},"properties":{"name":"A30","category":"trunk","osm_type":"way","osm_id":"1546292265","operator":"National Highways","ref":"A30"}},{"type":"Feature","geometry":{"type":"LineString","coordinates":[[-3.33301,50.75121],[-3.33347,50.75097]]},"properties":{"name":"A30","category":"trunk","osm_type":"way","osm_id":"1546292266","operator":"National Highways","ref":"A30"}},{"type":"Feature","geometry":{"type":"LineString","coordinates":[[-3.33177,50.75157],[-3.33185,50.75128]]},"properties":{"name":"A30","category":"trunk_link","osm_type":"way","osm_id":"1546292267","operator":"National Highways","ref":"A30"}},{"type":"Feature","geometry":{"type":"LineString","coordinates":[[-3.33358,50.75108],[-3.33315,50.7513]]},"properties":{"name":"A30","category":"trunk","osm_type":"way","osm_id":"1546292268","operator":"National Highways","ref":"A30"}},{"type":"Feature","geometry":{"type":"LineString","coordinates":[[-3.32996,50.75368],[-3.32905,50.75484]]},"properties":{"name":"A30","category":"trunk","osm_type":"way","osm_id":"1546292269","operator":"National Highways","ref":"A30"}},{"type":"Feature","geometry":{"type":"LineString","coordinates":[[-3.32483,50.75982],[-3.32196,50.76138]]},"properties":{"name":"A30","category":"trunk","osm_type":"way","osm_id":"1546292270","operator":"National Highways","ref":"A30"}},{"type":"Feature","geometry":{"type":"LineString","coordinates":[[-3.29934,50.76956],[-3.29654,50.77]]},"properties":{"name":"A30","category":"trunk","osm_type":"way","osm_id":"1546292271","operator":"National Highways","ref":"A30"}},{"type":"Feature","geometry":{"type":"LineString","coordinates":[[-3.29584,50.77006],[-3.29421,50.77017]]},"properties":{"name":"A30","category":"trunk","osm_type":"way","osm_id":"1546292272","operator":"National Highways","ref":"A30"}},{"type":"Feature","geometry":{"type":"LineString","coordinates":[[-3.4319,50.72944],[-3.43602,50.72956]]},"properties":{"name":"Honiton Road","category":"trunk","osm_type":"way","osm_id":"1546292274","operator":"National Highways","ref":"A30"}},{"type":"Feature","geometry":{"type":"LineString","coordinates":[[-3.43599,50.72966],[-3.43202,50.72955]]},"properties":{"name":"A30","category":"trunk","osm_type":"way","osm_id":"1546292275","operator":"National Highways","ref":"A30"}},{"type":"Feature","geometry":{"type":"LineString","coordinates":[[-3.20727,50.79623],[-3.20764,50.79575]]},"properties":{"name":"A30","category":"trunk_link","osm_type":"way","osm_id":"1546354755","operator":"National Highways","ref":"A30"}},{"type":"Feature","geometry":{"type":"LineString","coordinates":[[-3.1515,50.8264],[-3.1514,50.82659]]},"properties":{"name":"Butler Way","category":"trunk","osm_type":"way","osm_id":"1546380419","operator":"National Highways","ref":"A30"}},{"type":"Feature","geometry":{"type":"LineString","coordinates":[[-3.08696,50.88286],[-3.08625,50.8831]]},"properties":{"name":"A303","category":"trunk","osm_type":"way","osm_id":"1546752925","operator":"National Highways","ref":"A303"}},{"type":"Feature","geometry":{"type":"LineString","coordinates":[[-3.08719,50.88279],[-3.08696,50.88286]]},"properties":{"name":"A303","category":"trunk","osm_type":"way","osm_id":"1546752926","operator":"National Highways","ref":"A303"}},{"type":"Feature","geometry":{"type":"LineString","coordinates":[[-3.1137,50.86072],[-3.11235,50.86195]]},"properties":{"name":"A30","category":"trunk","osm_type":"way","osm_id":"1546752929","operator":"National Highways","ref":"A30"}},{"type":"Feature","geometry":{"type":"LineString","coordinates":[[-3.06346,50.88763],[-3.0627,50.88768]]},"properties":{"name":"A303","category":"trunk","osm_type":"way","osm_id":"1546781148","operator":"National Highways","ref":"A303"}},{"type":"Feature","geometry":{"type":"LineString","coordinates":[[-3.64731,50.55891],[-3.64585,50.55577],[-3.64278,50.55322]]},"properties":{"name":"Bovey Road","category":"primary","osm_type":"way","osm_id":"1548630711","ref":"A382"}},{"type":"Feature","geometry":{"type":"LineString","coordinates":[[-3.61791,50.54207],[-3.6176,50.54187]]},"properties":{"name":"Bovey Tracey Road","category":"primary","osm_type":"way","osm_id":"1548630717","ref":"A382"}},{"type":"Feature","geometry":{"type":"LineString","coordinates":[[-3.6176,50.54187],[-3.61791,50.54207]]},"properties":{"name":"Bovey Tracey Road","category":"primary","osm_type":"way","osm_id":"1551143777","ref":"A382"}}]}