{"type":"FeatureCollection","features":[{"type":"Feature","geometry":{"type":"LineString","coordinates":[[-3.08444,52.12095],[-3.09047,52.1224],[-3.09486,52.12177]]},"properties":{"name":"A438","category":"trunk","osm_type":"way","osm_id":"4801094","ref":"A438"}},{"type":"Feature","geometry":{"type":"LineString","coordinates":[[-3.03356,52.11696],[-3.0382,52.11758],[-3.04697,52.11738],[-3.05227,52.11826],[-3.05658,52.11774],[-3.06344,52.11835]]},"properties":{"name":"A438","category":"trunk","osm_type":"way","osm_id":"4801205","ref":"A438"}},{"type":"Feature","geometry":{"type":"LineString","coordinates":[[-3.02006,52.20161],[-3.01982,52.20155]]},"properties":{"name":"A44","category":"trunk","osm_type":"way","osm_id":"7990175","ref":"A44"}},{"type":"Feature","geometry":{"type":"LineString","coordinates":[[-3.0202,52.20148],[-3.02039,52.20157],[-3.02025,52.20169],[-3.02006,52.20161],[-3.0202,52.20148]]},"properties":{"name":"Major roads","category":"trunk","osm_type":"way","osm_id":"7990203"}},{"type":"Feature","geometry":{"type":"LineString","coordinates":[[-3.02214,52.2061],[-3.02236,52.20591]]},"properties":{"name":"Major roads","category":"trunk","osm_type":"way","osm_id":"7990206"}},{"type":"Feature","geometry":{"type":"LineString","coordinates":[[-3.02183,52.20566],[-3.02209,52.20582]]},"properties":{"name":"Kington Bypass","category":"trunk","osm_type":"way","osm_id":"7990207","ref":"A44"}},{"type":"Feature","geometry":{"type":"LineString","coordinates":[[-3.04414,52.20703],[-3.03597,52.20631],[-3.02719,52.20736]]},"properties":{"name":"Kington Bypass","category":"trunk","osm_type":"way","osm_id":"7990290","ref":"A44"}},{"type":"Feature","geometry":{"type":"LineString","coordinates":[[-3.04283,52.34529],[-3.04294,52.34524]]},"properties":{"name":"A488","category":"primary","osm_type":"way","osm_id":"7999025","ref":"A488"}},{"type":"Feature","geometry":{"type":"LineString","coordinates":[[-3.02015,52.20149],[-3.02031,52.20134]]},"properties":{"name":"Kington Bypass","category":"primary","osm_type":"way","osm_id":"7999115","ref":"A4111"}},{"type":"Feature","geometry":{"type":"LineString","coordinates":[[-3.00486,52.12852],[-3.00207,52.12317]]},"properties":{"name":"A4111","category":"trunk","osm_type":"way","osm_id":"10155694","ref":"A4111"}},{"type":"Feature","geometry":{"type":"LineString","coordinates":[[-3.03433,52.42968],[-3.03594,52.43821],[-3.03446,52.44344],[-3.02986,52.44887],[-3.01527,52.4561],[-3.01551,52.45897]]},"properties":{"name":"Colstey Bank","category":"primary","osm_type":"way","osm_id":"23114134","ref":"A488"}},{"type":"Feature","geometry":{"type":"LineString","coordinates":[[-3.03031,52.42055],[-3.03029,52.42034]]},"properties":{"name":"Clun Bridge","category":"primary","osm_type":"way","osm_id":"36936877","ref":"A488"}},{"type":"Feature","geometry":{"type":"LineString","coordinates":[[-3.03029,52.42034],[-3.03052,52.41906]]},"properties":{"name":"Church Street","category":"primary","osm_type":"way","osm_id":"36936878","ref":"A488"}},{"type":"Feature","geometry":{"type":"LineString","coordinates":[[-3.0308,52.42227],[-3.03082,52.42224]]},"properties":{"name":"Enfield Street","category":"primary","osm_type":"way","osm_id":"108346807","ref":"A488"}},{"type":"Feature","geometry":{"type":"LineString","coordinates":[[-3.02926,52.42134],[-3.03031,52.42055]]},"properties":{"name":"Bridge Street","category":"primary","osm_type":"way","osm_id":"108346827","ref":"A488"}},{"type":"Feature","geometry":{"type":"LineString","coordinates":[[-3.01551,52.45897],[-3.0118,52.46472],[-3.00838,52.47413],[-3.00535,52.47608],[-3.00347,52.47952],[-3.00113,52.48076],[-2.99969,52.48345],[-2.99433,52.48849]]},"properties":{"name":"A488","category":"primary","osm_type":"way","osm_id":"111986718","ref":"A488"}},{"type":"Feature","geometry":{"type":"LineString","coordinates":[[-3.03052,52.41906],[-3.03214,52.41823]]},"properties":{"name":"Knighton Road","category":"primary","osm_type":"way","osm_id":"111986918","ref":"A488"}},{"type":"Feature","geometry":{"type":"LineString","coordinates":[[-3.03214,52.41823],[-3.03958,52.41452],[-3.04251,52.41113],[-3.04183,52.40843],[-3.04717,52.40469],[-3.04722,52.40388]]},"properties":{"name":"Cockford Bank","category":"primary","osm_type":"way","osm_id":"111986919","ref":"A488"}},{"type":"Feature","geometry":{"type":"LineString","coordinates":[[-3.00544,52.13649],[-3.00517,52.13203]]},"properties":{"name":"A4111","category":"primary","osm_type":"way","osm_id":"123074375","ref":"A4111"}},{"type":"Feature","geometry":{"type":"LineString","coordinates":[[-3.00848,52.14032],[-3.00601,52.13734]]},"properties":{"name":"Church Road","category":"primary","osm_type":"way","osm_id":"123074398","ref":"A4111"}},{"type":"Feature","geometry":{"type":"LineString","coordinates":[[-3.03029,52.42138],[-3.02926,52.42134]]},"properties":{"name":"The Square","category":"primary","osm_type":"way","osm_id":"129213072","ref":"A488"}},{"type":"Feature","geometry":{"type":"LineString","coordinates":[[-3.0313,52.42474],[-3.0308,52.42227]]},"properties":{"name":"Castle Street","category":"primary","osm_type":"way","osm_id":"142534090","ref":"A488"}},{"type":"Feature","geometry":{"type":"LineString","coordinates":[[-3.0313,52.42474],[-3.03092,52.42572],[-3.03433,52.42968]]},"properties":{"name":"A488","category":"primary","osm_type":"way","osm_id":"142534095","ref":"A488"}},{"type":"Feature","geometry":{"type":"LineString","coordinates":[[-3.04294,52.34524],[-3.04313,52.34513]]},"properties":{"name":"A488","category":"primary","osm_type":"way","osm_id":"162609653","ref":"A488"}},{"type":"Feature","geometry":{"type":"LineString","coordinates":[[-3.04315,52.34511],[-3.04313,52.34513]]},"properties":{"name":"Station Road","category":"primary","osm_type":"way","osm_id":"162609654","ref":"A488"}},{"type":"Feature","geometry":{"type":"LineString","coordinates":[[-3.06344,52.11835],[-3.07555,52.12111]]},"properties":{"name":"A438","category":"trunk","osm_type":"way","osm_id":"187039274","ref":"A438"}},{"type":"Feature","geometry":{"type":"LineString","coordinates":[[-3.03213,52.1169],[-3.02454,52.11712]]},"properties":{"name":"A438","category":"trunk","osm_type":"way","osm_id":"187039275","ref":"A438"}},{"type":"Feature","geometry":{"type":"LineString","coordinates":[[-3.01879,52.11693],[-3.00556,52.12001],[-3.00308,52.12138]]},"properties":{"name":"A438","category":"trunk","osm_type":"way","osm_id":"187039276","ref":"A438"}},{"type":"Feature","geometry":{"type":"LineString","coordinates":[[-3.07555,52.12111],[-3.08133,52.12108]]},"properties":{"name":"A438","category":"trunk","osm_type":"way","osm_id":"187039277","ref":"A438"}},{"type":"Feature","geometry":{"type":"LineString","coordinates":[[-3.02454,52.11712],[-3.02081,52.11687]]},"properties":{"name":"A438","category":"trunk","osm_type":"way","osm_id":"187039278","ref":"A438"}},{"type":"Feature","geometry":{"type":"LineString","coordinates":[[-3.06614,52.21389],[-3.05718,52.20882],[-3.05002,52.20745]]},"properties":{"name":"Stanner Road","category":"trunk","osm_type":"way","osm_id":"241700630","ref":"A44"}},{"type":"Feature","geometry":{"type":"LineString","coordinates":[[-3.02172,52.196],[-3.02165,52.19464],[-3.01844,52.19057],[-3.02118,52.18895],[-3.02332,52.18578],[-3.02907,52.18104],[-3.03204,52.17739],[-3.0322,52.17581],[-3.02178,52.16836],[-3.02034,52.1658],[-3.01616,52.162],[-3.01528,52.15678],[-3.01218,52.15288],[-3.01319,52.15078],[-3.01279,52.14867],[-3.0099,52.14374]]},"properties":{"name":"A4111","category":"primary","osm_type":"way","osm_id":"241705194","ref":"A4111"}},{"type":"Feature","geometry":{"type":"LineString","coordinates":[[-3.07782,52.21607],[-3.06614,52.21389]]},"properties":{"name":"Stanner Road","category":"trunk","osm_type":"way","osm_id":"242230911","ref":"A44"}},{"type":"Feature","geometry":{"type":"LineString","coordinates":[[-3.03859,52.38408],[-3.04038,52.38134],[-3.04763,52.37571],[-3.05013,52.37228],[-3.04608,52.36668],[-3.04737,52.3657],[-3.04778,52.36199]]},"properties":{"name":"A488","category":"primary","osm_type":"way","osm_id":"243945954","ref":"A488"}},{"type":"Feature","geometry":{"type":"LineString","coordinates":[[-3.00568,52.20018],[-3.00074,52.19934],[-2.99702,52.19973]]},"properties":{"name":"A44","category":"trunk","osm_type":"way","osm_id":"319636628","ref":"A44"}},{"type":"Feature","geometry":{"type":"LineString","coordinates":[[-3.02183,52.20566],[-3.02057,52.20362]]},"properties":{"name":"Kington Bypass","category":"trunk","osm_type":"way","osm_id":"319641512","ref":"A44"}},{"type":"Feature","geometry":{"type":"LineString","coordinates":[[-3.02259,52.20619],[-3.02221,52.20609]]},"properties":{"name":"Kington Bypass","category":"trunk","osm_type":"way","osm_id":"319641517","ref":"A44"}},{"type":"Feature","geometry":{"type":"LineString","coordinates":[[-3.00975,52.20118],[-3.00568,52.20018]]},"properties":{"name":"A44","category":"trunk","osm_type":"way","osm_id":"321068260","ref":"A44"}},{"type":"Feature","geometry":{"type":"LineString","coordinates":[[-3.02057,52.20362],[-3.02025,52.20182]]},"properties":{"name":"Kington Bypass","category":"trunk","osm_type":"way","osm_id":"321069526","ref":"A44"}},{"type":"Feature","geometry":{"type":"LineString","coordinates":[[-3.02719,52.20736],[-3.02259,52.20619]]},"properties":{"name":"Kington Bypass","category":"trunk","osm_type":"way","osm_id":"321069527","ref":"A44"}},{"type":"Feature","geometry":{"type":"LineString","coordinates":[[-3.07799,52.21612],[-3.07782,52.21607]]},"properties":{"name":"A44","category":"trunk","osm_type":"way","osm_id":"321069528","ref":"A44"}},{"type":"Feature","geometry":{"type":"LineString","coordinates":[[-3.03082,52.42224],[-3.03029,52.42138]]},"properties":{"name":"Enfield Street","category":"primary","osm_type":"way","osm_id":"329151017","ref":"A488"}},{"type":"Feature","geometry":{"type":"LineString","coordinates":[[-3.0099,52.14374],[-3.0087,52.14058]]},"properties":{"name":"A4111","category":"primary","osm_type":"way","osm_id":"457986484","ref":"A4111"}},{"type":"Feature","geometry":{"type":"LineString","coordinates":[[-3.00526,52.13079],[-3.00486,52.12852]]},"properties":{"name":"A4111","category":"primary","osm_type":"way","osm_id":"457986485","ref":"A4111"}},{"type":"Feature","geometry":{"type":"LineString","coordinates":[[-3.00525,52.13092],[-3.00526,52.13079]]},"properties":{"name":"A4111","category":"primary","osm_type":"way","osm_id":"737426303","ref":"A4111"}},{"type":"Feature","geometry":{"type":"LineString","coordinates":[[-3.03869,52.38415],[-3.03859,52.38408]]},"properties":{"name":"A488","category":"primary","osm_type":"way","osm_id":"871854853","ref":"A488"}},{"type":"Feature","geometry":{"type":"LineString","coordinates":[[-3.04722,52.40388],[-3.04519,52.40238],[-3.04562,52.39922],[-3.04415,52.39437],[-3.04132,52.39163],[-3.03979,52.38506],[-3.03869,52.38415]]},"properties":{"name":"A488","category":"primary","osm_type":"way","osm_id":"871854854","ref":"A488"}},{"type":"Feature","geometry":{"type":"LineString","coordinates":[[-3.0203,52.20167],[-3.02025,52.20182]]},"properties":{"name":"Kington Bypass","category":"trunk","osm_type":"way","osm_id":"935147461","ref":"A44"}},{"type":"Feature","geometry":{"type":"LineString","coordinates":[[-3.02025,52.20182],[-3.02014,52.20167]]},"properties":{"name":"Kington Bypass","category":"trunk","osm_type":"way","osm_id":"935147462","ref":"A44"}},{"type":"Feature","geometry":{"type":"LineString","coordinates":[[-3.01982,52.20155],[-3.02009,52.20152]]},"properties":{"name":"A44","category":"trunk","osm_type":"way","osm_id":"935147465","ref":"A44"}},{"type":"Feature","geometry":{"type":"LineString","coordinates":[[-3.02031,52.20134],[-3.02163,52.19779]]},"properties":{"name":"Kington Bypass","category":"primary","osm_type":"way","osm_id":"935147466","ref":"A4111"}},{"type":"Feature","geometry":{"type":"LineString","coordinates":[[-3.02031,52.20134],[-3.02034,52.20151]]},"properties":{"name":"Kington Bypass","category":"primary","osm_type":"way","osm_id":"935147467","ref":"A4111"}},{"type":"Feature","geometry":{"type":"LineString","coordinates":[[-3.01982,52.20155],[-3.01477,52.20205],[-3.00975,52.20118]]},"properties":{"name":"A44","category":"trunk","osm_type":"way","osm_id":"935147468","ref":"A44"}},{"type":"Feature","geometry":{"type":"LineString","coordinates":[[-3.04141,52.34502],[-3.04283,52.34529]]},"properties":{"name":"A488","category":"primary","osm_type":"way","osm_id":"947000749","ref":"A488"}},{"type":"Feature","geometry":{"type":"LineString","coordinates":[[-3.09486,52.12177],[-3.10371,52.11983]]},"properties":{"name":"A438","category":"trunk","osm_type":"way","osm_id":"987197445","ref":"A438"}},{"type":"Feature","geometry":{"type":"LineString","coordinates":[[-3.10371,52.11983],[-3.10655,52.11811]]},"properties":{"name":"A438","category":"trunk","osm_type":"way","osm_id":"987197446","ref":"A438"}},{"type":"Feature","geometry":{"type":"LineString","coordinates":[[-3.04778,52.36199],[-3.04774,52.36171]]},"properties":{"name":"Lurkenhope Bridge","category":"primary","osm_type":"way","osm_id":"1005218851","ref":"A488"}},{"type":"Feature","geometry":{"type":"LineString","coordinates":[[-3.04774,52.36171],[-3.03682,52.35441],[-3.02793,52.35203],[-3.02674,52.34951],[-3.02721,52.34865],[-3.03037,52.34835],[-3.03625,52.34563],[-3.04141,52.34502]]},"properties":{"name":"A488","category":"primary","osm_type":"way","osm_id":"1005218852","ref":"A488"}},{"type":"Feature","geometry":{"type":"LineString","coordinates":[[-3.03213,52.1169],[-3.03356,52.11696]]},"properties":{"name":"A438","category":"trunk","osm_type":"way","osm_id":"1028486016","ref":"A438"}},{"type":"Feature","geometry":{"type":"LineString","coordinates":[[-3.08364,52.12096],[-3.08444,52.12095]]},"properties":{"name":"A438","category":"trunk","osm_type":"way","osm_id":"1073367653","ref":"A438"}},{"type":"Feature","geometry":{"type":"LineString","coordinates":[[-3.0087,52.14058],[-3.00848,52.14032]]},"properties":{"name":"A4111","category":"primary","osm_type":"way","osm_id":"1073572485","ref":"A4111"}},{"type":"Feature","geometry":{"type":"LineString","coordinates":[[-3.00601,52.13734],[-3.00544,52.13649]]},"properties":{"name":"A4111","category":"primary","osm_type":"way","osm_id":"1073572486","ref":"A4111"}},{"type":"Feature","geometry":{"type":"LineString","coordinates":[[-3.02236,52.20591],[-3.02238,52.20594]]},"properties":{"name":"Major roads","category":"trunk","osm_type":"way","osm_id":"1073678508"}},{"type":"Feature","geometry":{"type":"LineString","coordinates":[[-3.02238,52.20594],[-3.02214,52.2061]]},"properties":{"name":"Major roads","category":"trunk","osm_type":"way","osm_id":"1073678883"}},{"type":"Feature","geometry":{"type":"LineString","coordinates":[[-3.00087,52.12235],[-3.00022,52.12191]]},"properties":{"name":"A438","category":"trunk","osm_type":"way","osm_id":"1101556692","ref":"A438"}},{"type":"Feature","geometry":{"type":"LineString","coordinates":[[-3.00308,52.12138],[-3.00087,52.12235]]},"properties":{"name":"A438","category":"trunk","osm_type":"way","osm_id":"1101556693","ref":"A438"}},{"type":"Feature","geometry":{"type":"LineString","coordinates":[[-3.00207,52.12317],[-3.00087,52.12235]]},"properties":{"name":"A4111","category":"trunk","osm_type":"way","osm_id":"1101556694","ref":"A4111"}},{"type":"Feature","geometry":{"type":"LineString","coordinates":[[-3.08133,52.12108],[-3.08364,52.12096]]},"properties":{"name":"A438","category":"trunk","osm_type":"way","osm_id":"1101557184","ref":"A438"}},{"type":"Feature","geometry":{"type":"LineString","coordinates":[[-3.00517,52.13203],[-3.00525,52.13092]]},"properties":{"name":"A4111","category":"primary","osm_type":"way","osm_id":"1188484399","ref":"A4111"}},{"type":"Feature","geometry":{"type":"LineString","coordinates":[[-3.02163,52.19779],[-3.02172,52.196]]},"properties":{"name":"A4111","category":"primary","osm_type":"way","osm_id":"1189350739","ref":"A4111"}},{"type":"Feature","geometry":{"type":"LineString","coordinates":[[-3.02081,52.11687],[-3.01879,52.11693]]},"properties":{"name":"A438","category":"trunk","osm_type":"way","osm_id":"1270584820","ref":"A438"}},{"type":"Feature","geometry":{"type":"LineString","coordinates":[[-3.05002,52.20745],[-3.04414,52.20703]]},"properties":{"name":"Stanner Road","category":"trunk","osm_type":"way","osm_id":"1377383303","ref":"A44"}},{"type":"Feature","geometry":{"type":"LineString","coordinates":[[-3.02238,52.20597],[-3.02259,52.20619]]},"properties":{"name":"Kington Bypass","category":"trunk","osm_type":"way","osm_id":"1377383307","ref":"A44"}},{"type":"Feature","geometry":{"type":"LineString","coordinates":[[-3.02195,52.20589],[-3.02183,52.20566]]},"properties":{"name":"Kington Bypass","category":"trunk","osm_type":"way","osm_id":"1377383308","ref":"A44"}}]}