{"type":"FeatureCollection","features":[{"type":"Feature","geometry":{"type":"LineString","coordinates":[[-5.51286,50.12964],[-5.51205,50.12982]]},"properties":{"name":"A30","category":"trunk","osm_type":"way","osm_id":"1413050548","operator":"National Highways","ref":"A30"}},{"type":"Feature","geometry":{"type":"LineString","coordinates":[[-5.49139,50.13444],[-5.49103,50.13444]]},"properties":{"name":"A30","category":"trunk","osm_type":"way","osm_id":"1413051088","operator":"National Highways","ref":"A30"}},{"type":"Feature","geometry":{"type":"LineString","coordinates":[[-5.49111,50.13426],[-5.49139,50.13433]]},"properties":{"name":"A30","category":"trunk","osm_type":"way","osm_id":"1413051089","operator":"National Highways","ref":"A30"}},{"type":"Feature","geometry":{"type":"LineString","coordinates":[[-5.15856,50.28678],[-5.15405,50.28914]]},"properties":{"name":"A3075","category":"primary","osm_type":"way","osm_id":"1417174521","ref":"A3075"}},{"type":"Feature","geometry":{"type":"LineString","coordinates":[[-5.27624,50.23111],[-5.27526,50.23141]]},"properties":{"name":"Redruth to Pool and Camborne Bypass","category":"trunk","osm_type":"way","osm_id":"1418699089","operator":"National Highways","ref":"A30"}},{"type":"Feature","geometry":{"type":"LineString","coordinates":[[-5.27203,50.22102],[-5.27255,50.22126]]},"properties":{"name":"Dudnance Lane","category":"primary","osm_type":"way","osm_id":"1420446308","ref":"A3047"}},{"type":"Feature","geometry":{"type":"LineString","coordinates":[[-5.52478,50.12662],[-5.5248,50.12665]]},"properties":{"name":"Major roads","category":"trunk","osm_type":"way","osm_id":"1420851926","operator":"National Highways"}},{"type":"Feature","geometry":{"type":"LineString","coordinates":[[-5.5248,50.12665],[-5.52478,50.12678]]},"properties":{"name":"Major roads","category":"trunk","osm_type":"way","osm_id":"1420851927","operator":"National Highways"}},{"type":"Feature","geometry":{"type":"LineString","coordinates":[[-5.52478,50.12678],[-5.52468,50.12685]]},"properties":{"name":"Major roads","category":"trunk","osm_type":"way","osm_id":"1420851928","operator":"National Highways"}},{"type":"Feature","geometry":{"type":"LineString","coordinates":[[-5.52468,50.12685],[-5.52433,50.12683]]},"properties":{"name":"Major roads","category":"trunk","osm_type":"way","osm_id":"1420851929","operator":"National Highways"}},{"type":"Feature","geometry":{"type":"LineString","coordinates":[[-5.52433,50.12683],[-5.52429,50.12679]]},"properties":{"name":"Major roads","category":"trunk","osm_type":"way","osm_id":"1420851930","operator":"National Highways"}},{"type":"Feature","geometry":{"type":"LineString","coordinates":[[-5.52429,50.12679],[-5.52431,50.12659]]},"properties":{"name":"Major roads","category":"trunk","osm_type":"way","osm_id":"1420851931","operator":"National Highways"}},{"type":"Feature","geometry":{"type":"LineString","coordinates":[[-5.52431,50.12659],[-5.52456,50.12652]]},"properties":{"name":"Major roads","category":"trunk","osm_type":"way","osm_id":"1420851932","operator":"National Highways"}},{"type":"Feature","geometry":{"type":"LineString","coordinates":[[-5.52456,50.12652],[-5.52465,50.12654]]},"properties":{"name":"Major roads","category":"trunk","osm_type":"way","osm_id":"1420851933","operator":"National Highways"}},{"type":"Feature","geometry":{"type":"LineString","coordinates":[[-5.44073,50.17479],[-5.43999,50.17472]]},"properties":{"name":"Major roads","category":"trunk","osm_type":"way","osm_id":"1420851934","operator":"National Highways"}},{"type":"Feature","geometry":{"type":"LineString","coordinates":[[-5.31899,50.21598],[-5.31899,50.21602]]},"properties":{"name":"Major roads","category":"primary","osm_type":"way","osm_id":"1420851941"}},{"type":"Feature","geometry":{"type":"LineString","coordinates":[[-5.31899,50.21602],[-5.31887,50.21608]]},"properties":{"name":"Major roads","category":"primary","osm_type":"way","osm_id":"1420851942"}},{"type":"Feature","geometry":{"type":"LineString","coordinates":[[-5.31876,50.21607],[-5.31872,50.21606]]},"properties":{"name":"Major roads","category":"primary","osm_type":"way","osm_id":"1420851943"}},{"type":"Feature","geometry":{"type":"LineString","coordinates":[[-5.31872,50.21606],[-5.31874,50.2159]]},"properties":{"name":"Major roads","category":"primary","osm_type":"way","osm_id":"1420851944"}},{"type":"Feature","geometry":{"type":"LineString","coordinates":[[-5.31874,50.2159],[-5.31879,50.21588]]},"properties":{"name":"Major roads","category":"primary","osm_type":"way","osm_id":"1420851945"}},{"type":"Feature","geometry":{"type":"LineString","coordinates":[[-5.31879,50.21588],[-5.31899,50.21598]]},"properties":{"name":"Major roads","category":"primary","osm_type":"way","osm_id":"1420851946"}},{"type":"Feature","geometry":{"type":"LineString","coordinates":[[-5.2909,50.21634],[-5.29082,50.2164]]},"properties":{"name":"Major roads","category":"primary","osm_type":"way","osm_id":"1420851953"}},{"type":"Feature","geometry":{"type":"LineString","coordinates":[[-5.29082,50.2164],[-5.29079,50.21641]]},"properties":{"name":"Major roads","category":"primary","osm_type":"way","osm_id":"1420851954"}},{"type":"Feature","geometry":{"type":"LineString","coordinates":[[-5.29079,50.21641],[-5.29058,50.21638]]},"properties":{"name":"Major roads","category":"primary","osm_type":"way","osm_id":"1420851955"}},{"type":"Feature","geometry":{"type":"LineString","coordinates":[[-5.29058,50.21638],[-5.29054,50.21624]]},"properties":{"name":"Major roads","category":"primary","osm_type":"way","osm_id":"1420851956"}},{"type":"Feature","geometry":{"type":"LineString","coordinates":[[-5.29054,50.21624],[-5.29073,50.21617]]},"properties":{"name":"Major roads","category":"primary","osm_type":"way","osm_id":"1420851957"}},{"type":"Feature","geometry":{"type":"LineString","coordinates":[[-5.29073,50.21617],[-5.29084,50.21619]]},"properties":{"name":"Major roads","category":"primary","osm_type":"way","osm_id":"1420851958"}},{"type":"Feature","geometry":{"type":"LineString","coordinates":[[-5.29084,50.21619],[-5.29091,50.21631]]},"properties":{"name":"Major roads","category":"primary","osm_type":"way","osm_id":"1420851959"}},{"type":"Feature","geometry":{"type":"LineString","coordinates":[[-5.0855,50.26312],[-5.08545,50.2631]]},"properties":{"name":"Major roads","category":"trunk","osm_type":"way","osm_id":"1420851960"}},{"type":"Feature","geometry":{"type":"LineString","coordinates":[[-5.21049,50.24752],[-5.21054,50.24757]]},"properties":{"name":"A3047","category":"primary","osm_type":"way","osm_id":"1420851965","ref":"A3047"}},{"type":"Feature","geometry":{"type":"LineString","coordinates":[[-5.21054,50.24757],[-5.21039,50.24761]]},"properties":{"name":"A3047","category":"primary","osm_type":"way","osm_id":"1420851966","ref":"A3047"}},{"type":"Feature","geometry":{"type":"LineString","coordinates":[[-5.21039,50.24761],[-5.21037,50.24759]]},"properties":{"name":"A3047","category":"primary","osm_type":"way","osm_id":"1420851967","ref":"A3047"}},{"type":"Feature","geometry":{"type":"LineString","coordinates":[[-5.09433,50.26469],[-5.09433,50.26448]]},"properties":{"name":"Treliske Roundabout","category":"trunk","osm_type":"way","osm_id":"1420851971","ref":"A390"}},{"type":"Feature","geometry":{"type":"LineString","coordinates":[[-5.47824,50.21074],[-5.47813,50.21062]]},"properties":{"name":"The Malakoff","category":"primary","osm_type":"way","osm_id":"1420856260","ref":"A3074"}},{"type":"Feature","geometry":{"type":"LineString","coordinates":[[-5.48619,50.13939],[-5.48579,50.13962]]},"properties":{"name":"A30","category":"trunk","osm_type":"way","osm_id":"1420861566","operator":"National Highways","ref":"A30"}},{"type":"Feature","geometry":{"type":"LineString","coordinates":[[-5.13449,50.26893],[-5.13424,50.26876]]},"properties":{"name":"A390","category":"trunk","osm_type":"way","osm_id":"1420868771","ref":"A390"}},{"type":"Feature","geometry":{"type":"LineString","coordinates":[[-5.09475,50.26472],[-5.09448,50.26476]]},"properties":{"name":"Treliske Roundabout","category":"trunk","osm_type":"way","osm_id":"1421043628","ref":"A390"}},{"type":"Feature","geometry":{"type":"LineString","coordinates":[[-5.09448,50.26476],[-5.09443,50.26475]]},"properties":{"name":"Treliske Roundabout","category":"trunk","osm_type":"way","osm_id":"1421043629","ref":"A390"}},{"type":"Feature","geometry":{"type":"LineString","coordinates":[[-5.11933,50.26422],[-5.11934,50.26423]]},"properties":{"name":"Threemilstone Roundabout","category":"trunk","osm_type":"way","osm_id":"1421043630","ref":"A390"}},{"type":"Feature","geometry":{"type":"LineString","coordinates":[[-5.11934,50.26423],[-5.11948,50.26448]]},"properties":{"name":"Threemilstone Roundabout","category":"trunk","osm_type":"way","osm_id":"1421043631","ref":"A390"}},{"type":"Feature","geometry":{"type":"LineString","coordinates":[[-5.06962,50.39868],[-5.06948,50.39868]]},"properties":{"name":"Major roads","category":"primary","osm_type":"way","osm_id":"1421043632"}},{"type":"Feature","geometry":{"type":"LineString","coordinates":[[-5.06948,50.39868],[-5.06943,50.39864]]},"properties":{"name":"Major roads","category":"primary","osm_type":"way","osm_id":"1421043633"}},{"type":"Feature","geometry":{"type":"LineString","coordinates":[[-5.15798,50.28467],[-5.15803,50.28467]]},"properties":{"name":"Chiverton Cross","category":"trunk","osm_type":"way","osm_id":"1421043641"}},{"type":"Feature","geometry":{"type":"LineString","coordinates":[[-5.0703,50.40066],[-5.07008,50.4006]]},"properties":{"name":"Trevemper Road Roundabout","category":"trunk","osm_type":"way","osm_id":"1421043642"}},{"type":"Feature","geometry":{"type":"LineString","coordinates":[[-5.07008,50.4006],[-5.07001,50.40051]]},"properties":{"name":"Trevemper Road Roundabout","category":"trunk","osm_type":"way","osm_id":"1421043643"}},{"type":"Feature","geometry":{"type":"LineString","coordinates":[[-5.07001,50.40051],[-5.07011,50.40037]]},"properties":{"name":"Trevemper Road Roundabout","category":"trunk","osm_type":"way","osm_id":"1421043644"}},{"type":"Feature","geometry":{"type":"LineString","coordinates":[[-5.06005,50.40077],[-5.06002,50.4008]]},"properties":{"name":"Major roads","category":"trunk","osm_type":"way","osm_id":"1421043645"}},{"type":"Feature","geometry":{"type":"LineString","coordinates":[[-5.05978,50.40062],[-5.05995,50.40061]]},"properties":{"name":"Major roads","category":"trunk","osm_type":"way","osm_id":"1421043646"}},{"type":"Feature","geometry":{"type":"LineString","coordinates":[[-5.05995,50.40061],[-5.06003,50.40065]]},"properties":{"name":"Major roads","category":"trunk","osm_type":"way","osm_id":"1421043647"}},{"type":"Feature","geometry":{"type":"LineString","coordinates":[[-5.06003,50.40065],[-5.06005,50.40077]]},"properties":{"name":"Major roads","category":"trunk","osm_type":"way","osm_id":"1421043648"}},{"type":"Feature","geometry":{"type":"LineString","coordinates":[[-5.13514,50.26919],[-5.13605,50.26934]]},"properties":{"name":"West Langarth Junction","category":"trunk","osm_type":"way","osm_id":"1421043649","ref":"A390"}},{"type":"Feature","geometry":{"type":"LineString","coordinates":[[-5.13605,50.26934],[-5.13611,50.26971]]},"properties":{"name":"West Langarth Junction","category":"trunk","osm_type":"way","osm_id":"1421043650","ref":"A390"}},{"type":"Feature","geometry":{"type":"LineString","coordinates":[[-5.07344,50.39602],[-5.07137,50.39743]]},"properties":{"name":"A3075","category":"primary","osm_type":"way","osm_id":"1421046308","ref":"A3075"}},{"type":"Feature","geometry":{"type":"LineString","coordinates":[[-5.07959,50.39164],[-5.07696,50.39426]]},"properties":{"name":"A3075","category":"primary","osm_type":"way","osm_id":"1421046309","ref":"A3075"}},{"type":"Feature","geometry":{"type":"LineString","coordinates":[[-5.07696,50.39426],[-5.07344,50.39602]]},"properties":{"name":"A3075","category":"primary","osm_type":"way","osm_id":"1421046310","ref":"A3075"}},{"type":"Feature","geometry":{"type":"LineString","coordinates":[[-5.15951,50.28568],[-5.1594,50.28579]]},"properties":{"name":"Chiverton Cross","category":"trunk","osm_type":"way","osm_id":"1421046990"}},{"type":"Feature","geometry":{"type":"LineString","coordinates":[[-5.45087,50.12375],[-5.45079,50.12365]]},"properties":{"name":"A394","category":"trunk","osm_type":"way","osm_id":"1421051628","ref":"A394"}},{"type":"Feature","geometry":{"type":"LineString","coordinates":[[-5.45079,50.12365],[-5.45082,50.12358]]},"properties":{"name":"A394","category":"trunk","osm_type":"way","osm_id":"1421051629","ref":"A394"}},{"type":"Feature","geometry":{"type":"LineString","coordinates":[[-5.45091,50.12354],[-5.45108,50.12355]]},"properties":{"name":"A394","category":"trunk","osm_type":"way","osm_id":"1421051630","ref":"A394"}},{"type":"Feature","geometry":{"type":"LineString","coordinates":[[-5.45108,50.12355],[-5.45115,50.12363]]},"properties":{"name":"A394","category":"trunk","osm_type":"way","osm_id":"1421051631","ref":"A394"}},{"type":"Feature","geometry":{"type":"LineString","coordinates":[[-5.45115,50.12363],[-5.45108,50.12374]]},"properties":{"name":"A394","category":"trunk","osm_type":"way","osm_id":"1421051632","ref":"A394"}},{"type":"Feature","geometry":{"type":"LineString","coordinates":[[-5.45108,50.12374],[-5.45087,50.12375]]},"properties":{"name":"A394","category":"trunk","osm_type":"way","osm_id":"1421051633","ref":"A394"}},{"type":"Feature","geometry":{"type":"LineString","coordinates":[[-5.03383,50.27255],[-5.03334,50.2727]]},"properties":{"name":"Union Hill","category":"trunk","osm_type":"way","osm_id":"1426010026","ref":"A390"}},{"type":"Feature","geometry":{"type":"LineString","coordinates":[[-5.52523,50.12667],[-5.52516,50.12671]]},"properties":{"name":"A30","category":"trunk","osm_type":"way","osm_id":"1427700222","operator":"National Highways","ref":"A30"}},{"type":"Feature","geometry":{"type":"LineString","coordinates":[[-5.52522,50.12665],[-5.52528,50.12665]]},"properties":{"name":"A30","category":"trunk","osm_type":"way","osm_id":"1427700223","operator":"National Highways","ref":"A30"}},{"type":"Feature","geometry":{"type":"LineString","coordinates":[[-5.33833,50.10803],[-5.33524,50.10806]]},"properties":{"name":"A394","category":"trunk","osm_type":"way","osm_id":"1446036114","ref":"A394"}},{"type":"Feature","geometry":{"type":"LineString","coordinates":[[-5.02813,50.34629],[-5.02794,50.34637]]},"properties":{"name":"Carland Cross Interchange","category":"trunk","osm_type":"way","osm_id":"1451306085"}},{"type":"Feature","geometry":{"type":"LineString","coordinates":[[-5.23909,50.23609],[-5.23884,50.2364]]},"properties":{"name":"A3047","category":"primary","osm_type":"way","osm_id":"1453156706","ref":"A3047"}},{"type":"Feature","geometry":{"type":"LineString","coordinates":[[-5.23826,50.23708],[-5.23774,50.23777]]},"properties":{"name":"A3047","category":"primary","osm_type":"way","osm_id":"1453156707","ref":"A3047"}},{"type":"Feature","geometry":{"type":"LineString","coordinates":[[-5.23678,50.23882],[-5.23696,50.23857]]},"properties":{"name":"A3047","category":"primary","osm_type":"way","osm_id":"1453156708","ref":"A3047"}},{"type":"Feature","geometry":{"type":"LineString","coordinates":[[-5.23744,50.2381],[-5.23764,50.23817]]},"properties":{"name":"A3047","category":"primary","osm_type":"way","osm_id":"1453156709","ref":"A3047"}},{"type":"Feature","geometry":{"type":"LineString","coordinates":[[-5.2374,50.23814],[-5.23744,50.2381]]},"properties":{"name":"A3047","category":"primary","osm_type":"way","osm_id":"1453156710","ref":"A3047"}},{"type":"Feature","geometry":{"type":"LineString","coordinates":[[-5.13479,50.26944],[-5.13449,50.26893]]},"properties":{"name":"A390","category":"trunk","osm_type":"way","osm_id":"1462967719","ref":"A390"}},{"type":"Feature","geometry":{"type":"LineString","coordinates":[[-5.13675,50.26957],[-5.13611,50.26971]]},"properties":{"name":"A390","category":"trunk","osm_type":"way","osm_id":"1462967720","ref":"A390"}},{"type":"Feature","geometry":{"type":"LineString","coordinates":[[-5.09358,50.26449],[-5.09433,50.26448]]},"properties":{"name":"Tresawls Road","category":"trunk","osm_type":"way","osm_id":"1464956485","ref":"A390"}},{"type":"Feature","geometry":{"type":"LineString","coordinates":[[-5.09261,50.26447],[-5.0912,50.26422]]},"properties":{"name":"Tresawls Road","category":"trunk","osm_type":"way","osm_id":"1464956486","ref":"A390"}},{"type":"Feature","geometry":{"type":"LineString","coordinates":[[-5.10339,50.26396],[-5.1032,50.26397]]},"properties":{"name":"A390","category":"trunk","osm_type":"way","osm_id":"1469086274","ref":"A390"}},{"type":"Feature","geometry":{"type":"LineString","coordinates":[[-5.10556,50.26362],[-5.10567,50.26362]]},"properties":{"name":"A390","category":"trunk","osm_type":"way","osm_id":"1469086275","ref":"A390"}},{"type":"Feature","geometry":{"type":"LineString","coordinates":[[-5.10681,50.26371],[-5.10556,50.26372]]},"properties":{"name":"A390","category":"trunk","osm_type":"way","osm_id":"1469086276","ref":"A390"}},{"type":"Feature","geometry":{"type":"LineString","coordinates":[[-5.10547,50.26372],[-5.10339,50.26396]]},"properties":{"name":"A390","category":"trunk","osm_type":"way","osm_id":"1469086277","ref":"A390"}},{"type":"Feature","geometry":{"type":"LineString","coordinates":[[-5.1077,50.26378],[-5.10681,50.26371]]},"properties":{"name":"A390","category":"trunk","osm_type":"way","osm_id":"1469086279","ref":"A390"}},{"type":"Feature","geometry":{"type":"LineString","coordinates":[[-5.10556,50.26372],[-5.10547,50.26372]]},"properties":{"name":"A390","category":"trunk","osm_type":"way","osm_id":"1469086282","ref":"A390"}},{"type":"Feature","geometry":{"type":"LineString","coordinates":[[-5.08884,50.26364],[-5.08643,50.26318]]},"properties":{"name":"Tresawls Road","category":"trunk","osm_type":"way","osm_id":"1469818246","ref":"A390"}},{"type":"Feature","geometry":{"type":"LineString","coordinates":[[-5.14301,50.27168],[-5.13675,50.26957]]},"properties":{"name":"A390","category":"trunk","osm_type":"way","osm_id":"1470049097","ref":"A390"}},{"type":"Feature","geometry":{"type":"LineString","coordinates":[[-5.15135,50.27585],[-5.14301,50.27168]]},"properties":{"name":"A390","category":"trunk","osm_type":"way","osm_id":"1470049098","ref":"A390"}},{"type":"Feature","geometry":{"type":"LineString","coordinates":[[-5.15815,50.27755],[-5.15135,50.27585]]},"properties":{"name":"A390","category":"trunk","osm_type":"way","osm_id":"1470049099","ref":"A390"}},{"type":"Feature","geometry":{"type":"LineString","coordinates":[[-5.03517,50.40266],[-5.02893,50.40306]]},"properties":{"name":"West Road","category":"trunk","osm_type":"way","osm_id":"1472953842","ref":"A392"}},{"type":"Feature","geometry":{"type":"LineString","coordinates":[[-5.54439,50.12905],[-5.54277,50.12936]]},"properties":{"name":"A30","category":"trunk","osm_type":"way","osm_id":"1480335874","operator":"National Highways","ref":"A30"}},{"type":"Feature","geometry":{"type":"LineString","coordinates":[[-5.05254,50.25482],[-5.05365,50.25466]]},"properties":{"name":"Morlaix Avenue","category":"trunk","osm_type":"way","osm_id":"1494403380","ref":"A39"}},{"type":"Feature","geometry":{"type":"LineString","coordinates":[[-5.05365,50.25466],[-5.05392,50.25463]]},"properties":{"name":"Morlaix Avenue","category":"trunk","osm_type":"way","osm_id":"1494403381","ref":"A39"}},{"type":"Feature","geometry":{"type":"LineString","coordinates":[[-5.47797,50.20722],[-5.47401,50.20645],[-5.47276,50.20488]]},"properties":{"name":"Trelyon Avenue","category":"primary","osm_type":"way","osm_id":"1497733696","ref":"A3074"}},{"type":"Feature","geometry":{"type":"LineString","coordinates":[[-5.47803,50.20726],[-5.47797,50.20722]]},"properties":{"name":"Trelyon Avenue","category":"primary","osm_type":"way","osm_id":"1497733697","ref":"A3074"}},{"type":"Feature","geometry":{"type":"LineString","coordinates":[[-5.04895,50.4107],[-5.04828,50.411]]},"properties":{"name":"A3059","category":"primary","osm_type":"way","osm_id":"1513660097","ref":"A3059"}},{"type":"Feature","geometry":{"type":"LineString","coordinates":[[-5.44521,50.17091],[-5.44449,50.17138]]},"properties":{"name":"A30","category":"trunk","osm_type":"way","osm_id":"1554722640","operator":"National Highways","ref":"A30"}},{"type":"Feature","geometry":{"type":"LineString","coordinates":[[-5.44583,50.17045],[-5.44521,50.17091]]},"properties":{"name":"A30","category":"trunk","osm_type":"way","osm_id":"1554722641","operator":"National Highways","ref":"A30"}}]}