{"type":"FeatureCollection","features":[{"type":"Feature","geometry":{"type":"LineString","coordinates":[[-5.2041,49.97494],[-5.20854,49.98106],[-5.20932,49.98779]]},"properties":{"name":"A3083","category":"primary","osm_type":"way","osm_id":"65369083","ref":"A3083"}},{"type":"Feature","geometry":{"type":"LineString","coordinates":[[-5.20362,49.96878],[-5.20363,49.96883]]},"properties":{"name":"A3083","category":"primary","osm_type":"way","osm_id":"407903620","ref":"A3083"}},{"type":"Feature","geometry":{"type":"LineString","coordinates":[[-5.20363,49.96883],[-5.20368,49.96962]]},"properties":{"name":"A3083","category":"primary","osm_type":"way","osm_id":"688422765","ref":"A3083"}},{"type":"Feature","geometry":{"type":"LineString","coordinates":[[-5.20358,49.97079],[-5.20366,49.97268]]},"properties":{"name":"A3083","category":"primary","osm_type":"way","osm_id":"880295555","ref":"A3083"}},{"type":"Feature","geometry":{"type":"LineString","coordinates":[[-5.20366,49.97268],[-5.2041,49.97494]]},"properties":{"name":"A3083","category":"primary","osm_type":"way","osm_id":"1217641581","ref":"A3083"}},{"type":"Feature","geometry":{"type":"LineString","coordinates":[[-5.20359,49.97007],[-5.20358,49.97079]]},"properties":{"name":"A3083","category":"primary","osm_type":"way","osm_id":"1217641585","ref":"A3083"}},{"type":"Feature","geometry":{"type":"LineString","coordinates":[[-5.20368,49.96962],[-5.20365,49.96977]]},"properties":{"name":"A3083","category":"primary","osm_type":"way","osm_id":"1217641586","ref":"A3083"}},{"type":"Feature","geometry":{"type":"LineString","coordinates":[[-5.20365,49.96977],[-5.20359,49.97007]]},"properties":{"name":"A3083","category":"primary","osm_type":"way","osm_id":"1217641587","ref":"A3083"}}]}