{"type":"FeatureCollection","features":[{"type":"Feature","geometry":{"type":"LineString","coordinates":[[-6.31772,49.91579],[-6.31736,49.91527]]},"properties":{"name":"The Bank","category":"primary","osm_type":"way","osm_id":"33458846","ref":"A3111"}},{"type":"Feature","geometry":{"type":"LineString","coordinates":[[-6.31116,49.91505],[-6.31439,49.91451]]},"properties":{"name":"Church Street","category":"primary","osm_type":"way","osm_id":"33458857","ref":"A3112"}},{"type":"Feature","geometry":{"type":"LineString","coordinates":[[-6.30039,49.91849],[-6.29822,49.91777],[-6.29247,49.91935]]},"properties":{"name":"Parting Carn Lane","category":"primary","osm_type":"way","osm_id":"33458923","ref":"A3110"}},{"type":"Feature","geometry":{"type":"LineString","coordinates":[[-6.3075,49.91287],[-6.31116,49.91505]]},"properties":{"name":"Church Road","category":"primary","osm_type":"way","osm_id":"33459019","ref":"A3112"}},{"type":"Feature","geometry":{"type":"LineString","coordinates":[[-6.29709,49.91796],[-6.29924,49.91434]]},"properties":{"name":"Old Town Lane","category":"primary","osm_type":"way","osm_id":"33522354","ref":"A3112"}},{"type":"Feature","geometry":{"type":"LineString","coordinates":[[-6.30134,49.9248],[-6.29958,49.9228],[-6.29877,49.9201],[-6.30039,49.91849]]},"properties":{"name":"Telegraph Road","category":"primary","osm_type":"way","osm_id":"33522392","ref":"A3110"}},{"type":"Feature","geometry":{"type":"LineString","coordinates":[[-6.31151,49.91596],[-6.30967,49.91613]]},"properties":{"name":"Carn Thomas","category":"primary","osm_type":"way","osm_id":"33522985","ref":"A3111"}},{"type":"Feature","geometry":{"type":"LineString","coordinates":[[-6.30057,49.91229],[-6.30522,49.9119],[-6.3075,49.91287]]},"properties":{"name":"Old Town Road","category":"primary","osm_type":"way","osm_id":"33522988","ref":"A3112"}},{"type":"Feature","geometry":{"type":"LineString","coordinates":[[-6.29346,49.92643],[-6.29876,49.92649]]},"properties":{"name":"High Lane","category":"primary","osm_type":"way","osm_id":"54882559","ref":"A3110"}},{"type":"Feature","geometry":{"type":"LineString","coordinates":[[-6.29876,49.92649],[-6.30134,49.9248]]},"properties":{"name":"Town Lane","category":"primary","osm_type":"way","osm_id":"54882566","ref":"A3110"}},{"type":"Feature","geometry":{"type":"LineString","coordinates":[[-6.29321,49.92627],[-6.29346,49.92643]]},"properties":{"name":"A3110","category":"primary","osm_type":"way","osm_id":"54882573","ref":"A3110"}},{"type":"Feature","geometry":{"type":"LineString","coordinates":[[-6.31439,49.91451],[-6.31548,49.91458]]},"properties":{"name":"The Parade","category":"primary","osm_type":"way","osm_id":"339433114","ref":"A3112"}},{"type":"Feature","geometry":{"type":"LineString","coordinates":[[-6.31592,49.91461],[-6.3145,49.91477]]},"properties":{"name":"The Parade","category":"primary","osm_type":"way","osm_id":"339433115","ref":"A3111"}},{"type":"Feature","geometry":{"type":"LineString","coordinates":[[-6.31298,49.91524],[-6.31151,49.91596]]},"properties":{"name":"Higher Strand","category":"primary","osm_type":"way","osm_id":"339433116","ref":"A3111"}},{"type":"Feature","geometry":{"type":"LineString","coordinates":[[-6.3145,49.91477],[-6.31298,49.91524]]},"properties":{"name":"Lower Strand","category":"primary","osm_type":"way","osm_id":"339433117","ref":"A3111"}},{"type":"Feature","geometry":{"type":"LineString","coordinates":[[-6.29924,49.91434],[-6.30057,49.91229]]},"properties":{"name":"Old Town Lane","category":"primary","osm_type":"way","osm_id":"351218270","ref":"A3112"}},{"type":"Feature","geometry":{"type":"LineString","coordinates":[[-6.30445,49.91745],[-6.30039,49.91849]]},"properties":{"name":"Pump Road","category":"primary","osm_type":"way","osm_id":"363376702","ref":"A3111"}},{"type":"Feature","geometry":{"type":"LineString","coordinates":[[-6.28513,49.92368],[-6.28697,49.92604],[-6.28921,49.92631],[-6.2907,49.92524],[-6.29321,49.92627]]},"properties":{"name":"A3110","category":"primary","osm_type":"way","osm_id":"363377248","ref":"A3110"}},{"type":"Feature","geometry":{"type":"LineString","coordinates":[[-6.29101,49.92006],[-6.28944,49.92046]]},"properties":{"name":"Carn Friars Lane","category":"primary","osm_type":"way","osm_id":"363377249","ref":"A3110"}},{"type":"Feature","geometry":{"type":"LineString","coordinates":[[-6.28944,49.92046],[-6.28505,49.91982],[-6.28177,49.92089],[-6.28513,49.92368]]},"properties":{"name":"Carn Friars Lane","category":"primary","osm_type":"way","osm_id":"363377250","ref":"A3110"}},{"type":"Feature","geometry":{"type":"LineString","coordinates":[[-6.29247,49.91935],[-6.29101,49.92006]]},"properties":{"name":"Tremelethen Hill","category":"primary","osm_type":"way","osm_id":"363377251","ref":"A3110"}},{"type":"Feature","geometry":{"type":"LineString","coordinates":[[-6.30967,49.91613],[-6.30445,49.91745]]},"properties":{"name":"Telegraph Road","category":"primary","osm_type":"way","osm_id":"364223449","ref":"A3111"}},{"type":"Feature","geometry":{"type":"LineString","coordinates":[[-6.31736,49.91527],[-6.31592,49.91461]]},"properties":{"name":"Hugh Street","category":"primary","osm_type":"way","osm_id":"397451257","ref":"A3111"}}]}