{"type":"FeatureCollection","features":[{"type":"Feature","geometry":{"type":"LineString","coordinates":[[0.07148,51.55572],[0.07162,51.55552]]},"properties":{"name":"Ilford Lane","category":"primary","osm_type":"way","osm_id":"1466148620","ref":"A123"}},{"type":"Feature","geometry":{"type":"LineString","coordinates":[[0.05826,51.55439],[0.05829,51.5544]]},"properties":{"name":"Romford Road","category":"primary","osm_type":"way","osm_id":"1467888434","operator":"London Borough of Newham","ref":"A118"}},{"type":"Feature","geometry":{"type":"LineString","coordinates":[[0.16955,51.52537],[0.16928,51.52542]]},"properties":{"name":"New Road","category":"primary","osm_type":"way","osm_id":"1469754116","ref":"A1306"}},{"type":"Feature","geometry":{"type":"LineString","coordinates":[[0.01581,51.50619],[0.01573,51.50625]]},"properties":{"name":"Silvertown Way","category":"primary","osm_type":"way","osm_id":"1470137124","ref":"A1020"}},{"type":"Feature","geometry":{"type":"LineString","coordinates":[[0.01584,51.50616],[0.01581,51.50619]]},"properties":{"name":"Silvertown Way","category":"primary","osm_type":"way","osm_id":"1470137125","ref":"A1020"}},{"type":"Feature","geometry":{"type":"LineString","coordinates":[[0.02068,51.50371],[0.02108,51.50358]]},"properties":{"name":"Silvertown Way","category":"primary","osm_type":"way","osm_id":"1470139348","ref":"A1020"}},{"type":"Feature","geometry":{"type":"LineString","coordinates":[[0.02108,51.50358],[0.02113,51.50357]]},"properties":{"name":"Silvertown Way","category":"primary","osm_type":"way","osm_id":"1470139349","ref":"A1020"}},{"type":"Feature","geometry":{"type":"LineString","coordinates":[[0.01669,51.50547],[0.01693,51.50535]]},"properties":{"name":"Silvertown Way","category":"primary","osm_type":"way","osm_id":"1470380902","ref":"A1020"}},{"type":"Feature","geometry":{"type":"LineString","coordinates":[[0.01693,51.50535],[0.01698,51.50532]]},"properties":{"name":"Silvertown Way","category":"primary","osm_type":"way","osm_id":"1470380903","ref":"A1020"}},{"type":"Feature","geometry":{"type":"LineString","coordinates":[[0.01698,51.50532],[0.01726,51.50517]]},"properties":{"name":"Silvertown Way","category":"primary","osm_type":"way","osm_id":"1470380904","ref":"A1020"}},{"type":"Feature","geometry":{"type":"LineString","coordinates":[[0.01726,51.50517],[0.01731,51.50515]]},"properties":{"name":"Silvertown Way","category":"primary","osm_type":"way","osm_id":"1470380905","ref":"A1020"}},{"type":"Feature","geometry":{"type":"LineString","coordinates":[[0.01731,51.50515],[0.01756,51.50503]]},"properties":{"name":"Silvertown Way","category":"primary","osm_type":"way","osm_id":"1470380906","ref":"A1020"}},{"type":"Feature","geometry":{"type":"LineString","coordinates":[[0.01756,51.50503],[0.01761,51.505]]},"properties":{"name":"Silvertown Way","category":"primary","osm_type":"way","osm_id":"1470380907","ref":"A1020"}},{"type":"Feature","geometry":{"type":"LineString","coordinates":[[0.01761,51.505],[0.01783,51.50488]]},"properties":{"name":"Silvertown Way","category":"primary","osm_type":"way","osm_id":"1470380908","ref":"A1020"}},{"type":"Feature","geometry":{"type":"LineString","coordinates":[[0.01783,51.50488],[0.01789,51.50485]]},"properties":{"name":"Silvertown Way","category":"primary","osm_type":"way","osm_id":"1470380909","ref":"A1020"}},{"type":"Feature","geometry":{"type":"LineString","coordinates":[[0.01789,51.50485],[0.01847,51.50456]]},"properties":{"name":"Silvertown Way","category":"primary","osm_type":"way","osm_id":"1470380910","ref":"A1020"}},{"type":"Feature","geometry":{"type":"LineString","coordinates":[[0.01847,51.50456],[0.01853,51.50454]]},"properties":{"name":"Silvertown Way","category":"primary","osm_type":"way","osm_id":"1470380911","ref":"A1020"}},{"type":"Feature","geometry":{"type":"LineString","coordinates":[[0.01903,51.50432],[0.01925,51.50422]]},"properties":{"name":"Silvertown Way","category":"primary","osm_type":"way","osm_id":"1470380912","ref":"A1020"}},{"type":"Feature","geometry":{"type":"LineString","coordinates":[[0.01899,51.50433],[0.01903,51.50432]]},"properties":{"name":"Silvertown Way","category":"primary","osm_type":"way","osm_id":"1470380913","ref":"A1020"}},{"type":"Feature","geometry":{"type":"LineString","coordinates":[[0.01878,51.50442],[0.01899,51.50433]]},"properties":{"name":"Silvertown Way","category":"primary","osm_type":"way","osm_id":"1470380914","ref":"A1020"}},{"type":"Feature","geometry":{"type":"LineString","coordinates":[[0.01875,51.50444],[0.01878,51.50442]]},"properties":{"name":"Silvertown Way","category":"primary","osm_type":"way","osm_id":"1470380915","ref":"A1020"}},{"type":"Feature","geometry":{"type":"LineString","coordinates":[[0.01937,51.50417],[0.01947,51.50414]]},"properties":{"name":"Silvertown Way","category":"primary","osm_type":"way","osm_id":"1470380916","ref":"A1020"}},{"type":"Feature","geometry":{"type":"LineString","coordinates":[[0.01933,51.50419],[0.01936,51.50418]]},"properties":{"name":"Silvertown Way","category":"primary","osm_type":"way","osm_id":"1470380917","ref":"A1020"}},{"type":"Feature","geometry":{"type":"LineString","coordinates":[[0.01947,51.50414],[0.01951,51.50412]]},"properties":{"name":"Silvertown Way","category":"primary","osm_type":"way","osm_id":"1470380918","ref":"A1020"}},{"type":"Feature","geometry":{"type":"LineString","coordinates":[[0.01936,51.50418],[0.01937,51.50417]]},"properties":{"name":"Silvertown Way","category":"primary","osm_type":"way","osm_id":"1470380919","ref":"A1020"}},{"type":"Feature","geometry":{"type":"LineString","coordinates":[[0.01932,51.50419],[0.01933,51.50419]]},"properties":{"name":"Silvertown Way","category":"primary","osm_type":"way","osm_id":"1470380920","ref":"A1020"}},{"type":"Feature","geometry":{"type":"LineString","coordinates":[[0.01647,51.50558],[0.0166,51.50551]]},"properties":{"name":"Silvertown Way","category":"primary","osm_type":"way","osm_id":"1470382674","ref":"A1020"}},{"type":"Feature","geometry":{"type":"LineString","coordinates":[[0.01664,51.50549],[0.01669,51.50547]]},"properties":{"name":"Silvertown Way","category":"primary","osm_type":"way","osm_id":"1470382675","ref":"A1020"}},{"type":"Feature","geometry":{"type":"LineString","coordinates":[[0.0166,51.50551],[0.01664,51.50549]]},"properties":{"name":"Silvertown Way","category":"primary","osm_type":"way","osm_id":"1470382676","ref":"A1020"}},{"type":"Feature","geometry":{"type":"LineString","coordinates":[[0.57053,51.9018],[0.56966,51.90034]]},"properties":{"name":"Broad Road","category":"trunk","osm_type":"way","osm_id":"1471085321","ref":"A131"}},{"type":"Feature","geometry":{"type":"LineString","coordinates":[[0.58214,51.91492],[0.58191,51.91485]]},"properties":{"name":"Halstead Road","category":"trunk","osm_type":"way","osm_id":"1471500165","ref":"A131"}},{"type":"Feature","geometry":{"type":"LineString","coordinates":[[0.01102,51.5343],[0.01235,51.53386]]},"properties":{"name":"Plaistow Road","category":"primary","osm_type":"way","osm_id":"1471666041","ref":"A112"}},{"type":"Feature","geometry":{"type":"LineString","coordinates":[[0.00756,51.53565],[0.00738,51.5357]]},"properties":{"name":"New Plaistow Road","category":"primary","osm_type":"way","osm_id":"1471698458","ref":"A112"}},{"type":"Feature","geometry":{"type":"LineString","coordinates":[[0.00726,51.53584],[0.00741,51.5358]]},"properties":{"name":"New Plaistow Road","category":"primary","osm_type":"way","osm_id":"1471698460","ref":"A112"}},{"type":"Feature","geometry":{"type":"LineString","coordinates":[[0.93332,51.88391],[0.93302,51.88414]]},"properties":{"name":"Clingoe Hill","category":"primary","osm_type":"way","osm_id":"1472238430","ref":"A133"}},{"type":"Feature","geometry":{"type":"LineString","coordinates":[[0.66989,51.97838],[0.66981,51.97831]]},"properties":{"name":"Sudbury Road","category":"trunk","osm_type":"way","osm_id":"1474729718","ref":"A131"}},{"type":"Feature","geometry":{"type":"LineString","coordinates":[[0.48248,51.60758],[0.48631,51.60837]]},"properties":{"name":"London Road","category":"primary","osm_type":"way","osm_id":"1475616083","ref":"A129"}},{"type":"Feature","geometry":{"type":"LineString","coordinates":[[0.47133,51.72146],[0.47144,51.72149]]},"properties":{"name":"Princes Road","category":"primary","osm_type":"way","osm_id":"1480778429","ref":"A1114"}},{"type":"Feature","geometry":{"type":"LineString","coordinates":[[0.47117,51.7214],[0.47133,51.72146]]},"properties":{"name":"Princes Road","category":"primary","osm_type":"way","osm_id":"1480778430","ref":"A1114"}},{"type":"Feature","geometry":{"type":"LineString","coordinates":[[0.18106,51.72396],[0.18108,51.72408]]},"properties":{"name":"Talbot Roundabout","category":"trunk","osm_type":"way","osm_id":"1481138760","ref":"A414"}},{"type":"Feature","geometry":{"type":"LineString","coordinates":[[0.1393,51.74341],[0.13946,51.74319]]},"properties":{"name":"Hastingwood Interchange","category":"trunk","osm_type":"way","osm_id":"1481138761"}},{"type":"Feature","geometry":{"type":"LineString","coordinates":[[0.18108,51.72394],[0.18106,51.72396]]},"properties":{"name":"Talbot Roundabout","category":"trunk","osm_type":"way","osm_id":"1481138762","ref":"A414"}},{"type":"Feature","geometry":{"type":"LineString","coordinates":[[0.03753,51.54787],[0.03764,51.54789]]},"properties":{"name":"Romford Road","category":"primary","osm_type":"way","osm_id":"1481541797","operator":"London Borough of Newham","ref":"A118"}},{"type":"Feature","geometry":{"type":"LineString","coordinates":[[0.01442,51.50662],[0.01309,51.50766]]},"properties":{"name":"Silvertown Tunnel Approach","category":"trunk","osm_type":"way","osm_id":"1482285247","operator":"Transport for London","ref":"A1026"}},{"type":"Feature","geometry":{"type":"LineString","coordinates":[[0.01149,51.50922],[0.0118,51.50906]]},"properties":{"name":"Lower Lea Crossing","category":"trunk","osm_type":"way","osm_id":"1482285250","operator":"Transport for London","ref":"A1026"}},{"type":"Feature","geometry":{"type":"LineString","coordinates":[[0.0118,51.50906],[0.01204,51.50892]]},"properties":{"name":"Lower Lea Crossing","category":"trunk","osm_type":"way","osm_id":"1482285251","operator":"Transport for London","ref":"A1026"}},{"type":"Feature","geometry":{"type":"LineString","coordinates":[[0.01204,51.50892],[0.01271,51.50864]]},"properties":{"name":"Lower Lea Crossing","category":"trunk","osm_type":"way","osm_id":"1482285254","operator":"Transport for London","ref":"A1026"}},{"type":"Feature","geometry":{"type":"LineString","coordinates":[[0.01502,51.50721],[0.01504,51.50718]]},"properties":{"name":"Silvertown Way","category":"primary","osm_type":"way","osm_id":"1482305023","ref":"A1011"}},{"type":"Feature","geometry":{"type":"LineString","coordinates":[[0.01499,51.50724],[0.01502,51.50721]]},"properties":{"name":"Silvertown Way","category":"primary","osm_type":"way","osm_id":"1482305024","ref":"A1011"}},{"type":"Feature","geometry":{"type":"LineString","coordinates":[[0.01204,51.50846],[0.01235,51.5086]]},"properties":{"name":"Tidal Basin Roundabout","category":"trunk","osm_type":"way","osm_id":"1482388205","operator":"Transport for London"}},{"type":"Feature","geometry":{"type":"LineString","coordinates":[[0.0144,51.5086],[0.01434,51.50839]]},"properties":{"name":"Tidal Basin Roundabout","category":"trunk","osm_type":"way","osm_id":"1482400046","operator":"Transport for London"}},{"type":"Feature","geometry":{"type":"LineString","coordinates":[[0.03985,51.50468],[0.04023,51.50461]]},"properties":{"name":"Connaught Road","category":"primary","osm_type":"way","osm_id":"1482531268","ref":"A112"}},{"type":"Feature","geometry":{"type":"LineString","coordinates":[[0.04023,51.50461],[0.03989,51.50453]]},"properties":{"name":"Connaught Road","category":"primary","osm_type":"way","osm_id":"1482531270","ref":"A112"}},{"type":"Feature","geometry":{"type":"LineString","coordinates":[[0.89491,51.89733],[0.89515,51.8974]]},"properties":{"name":"Colne Bank Avenue","category":"primary","osm_type":"way","osm_id":"1482532568","ref":"A133"}},{"type":"Feature","geometry":{"type":"LineString","coordinates":[[0.89494,51.89723],[0.89473,51.89728]]},"properties":{"name":"Colne Bank Avenue","category":"primary","osm_type":"way","osm_id":"1482532569","ref":"A133"}},{"type":"Feature","geometry":{"type":"LineString","coordinates":[[0.45201,51.57101],[0.45218,51.57102]]},"properties":{"name":"Upper Mayne","category":"primary","osm_type":"way","osm_id":"1486695456","ref":"A176"}},{"type":"Feature","geometry":{"type":"LineString","coordinates":[[0.46246,51.57264],[0.46252,51.57264]]},"properties":{"name":"Broadmayne","category":"primary","osm_type":"way","osm_id":"1486707182"}},{"type":"Feature","geometry":{"type":"LineString","coordinates":[[0.43969,51.58359],[0.44025,51.58336]]},"properties":{"name":"A127","category":"trunk_link","osm_type":"way","osm_id":"1486723345","ref":"A127"}},{"type":"Feature","geometry":{"type":"LineString","coordinates":[[0.49531,51.58004],[0.4954,51.58007]]},"properties":{"name":"A132","category":"primary","osm_type":"way","osm_id":"1486735991","ref":"A132"}},{"type":"Feature","geometry":{"type":"LineString","coordinates":[[0.48538,51.574],[0.48534,51.57402]]},"properties":{"name":"Broadmayne","category":"primary","osm_type":"way","osm_id":"1486735992","ref":"A1321"}},{"type":"Feature","geometry":{"type":"LineString","coordinates":[[0.64044,51.54828],[0.64677,51.54843]]},"properties":{"name":"London Road","category":"primary","osm_type":"way","osm_id":"1486737853","ref":"A13"}},{"type":"Feature","geometry":{"type":"LineString","coordinates":[[0.65407,51.54823],[0.6553,51.54808]]},"properties":{"name":"London Road","category":"primary","osm_type":"way","osm_id":"1486737854","ref":"A13"}},{"type":"Feature","geometry":{"type":"LineString","coordinates":[[0.46252,51.57264],[0.4627,51.57267]]},"properties":{"name":"Broadmayne","category":"primary","osm_type":"way","osm_id":"1486850861"}},{"type":"Feature","geometry":{"type":"LineString","coordinates":[[0.45843,51.57208],[0.45504,51.5716]]},"properties":{"name":"Broadmayne","category":"primary","osm_type":"way","osm_id":"1486850862","ref":"A1321"}},{"type":"Feature","geometry":{"type":"LineString","coordinates":[[0.45504,51.5716],[0.45479,51.57151]]},"properties":{"name":"Broadmayne","category":"primary","osm_type":"way","osm_id":"1486850864","ref":"A1321"}},{"type":"Feature","geometry":{"type":"LineString","coordinates":[[0.45479,51.57151],[0.45435,51.57132]]},"properties":{"name":"Broadmayne","category":"primary","osm_type":"way","osm_id":"1486850865","ref":"A1321"}},{"type":"Feature","geometry":{"type":"LineString","coordinates":[[0.45512,51.57172],[0.4616,51.57254]]},"properties":{"name":"Broadmayne","category":"primary","osm_type":"way","osm_id":"1486850866","ref":"A1321"}},{"type":"Feature","geometry":{"type":"LineString","coordinates":[[0.45435,51.57132],[0.45249,51.57069]]},"properties":{"name":"Broadmayne","category":"primary","osm_type":"way","osm_id":"1486850871","ref":"A1321"}},{"type":"Feature","geometry":{"type":"LineString","coordinates":[[0.48407,51.58454],[0.48461,51.58459]]},"properties":{"name":"Cranes Farm Road","category":"primary","osm_type":"way","osm_id":"1486853024","ref":"A1235"}},{"type":"Feature","geometry":{"type":"LineString","coordinates":[[0.45618,51.5814],[0.45626,51.58139]]},"properties":{"name":"A1235","category":"primary","osm_type":"way","osm_id":"1486941421","ref":"A1235"}},{"type":"Feature","geometry":{"type":"LineString","coordinates":[[0.46132,51.58174],[0.46058,51.58164]]},"properties":{"name":"Cranes Farm Road","category":"primary","osm_type":"way","osm_id":"1486941422","ref":"A1235"}},{"type":"Feature","geometry":{"type":"LineString","coordinates":[[0.46058,51.58164],[0.46037,51.58161]]},"properties":{"name":"Cranes Farm Road","category":"primary","osm_type":"way","osm_id":"1486941423","ref":"A1235"}},{"type":"Feature","geometry":{"type":"LineString","coordinates":[[0.46048,51.58185],[0.46373,51.58238]]},"properties":{"name":"Cranes Farm Road","category":"primary","osm_type":"way","osm_id":"1486941424","ref":"A1235"}},{"type":"Feature","geometry":{"type":"LineString","coordinates":[[0.46029,51.58182],[0.46048,51.58185]]},"properties":{"name":"Cranes Farm Road","category":"primary","osm_type":"way","osm_id":"1486941425","ref":"A1235"}},{"type":"Feature","geometry":{"type":"LineString","coordinates":[[0.66095,51.71879],[0.66159,51.71905]]},"properties":{"name":"Maldon Road","category":"primary","osm_type":"way","osm_id":"1487033014","ref":"A414"}},{"type":"Feature","geometry":{"type":"LineString","coordinates":[[0.42867,51.51946],[0.42888,51.51938]]},"properties":{"name":"Major roads","category":"primary_link","osm_type":"way","osm_id":"1488039242"}},{"type":"Feature","geometry":{"type":"LineString","coordinates":[[0.42888,51.51938],[0.42843,51.51941]]},"properties":{"name":"Major roads","category":"primary_link","osm_type":"way","osm_id":"1488039243"}},{"type":"Feature","geometry":{"type":"LineString","coordinates":[[0.05943,51.55465],[0.05973,51.55474]]},"properties":{"name":"Romford Road","category":"primary","osm_type":"way","osm_id":"1488710408","operator":"London Borough of Newham","ref":"A118"}},{"type":"Feature","geometry":{"type":"LineString","coordinates":[[0.03117,51.54695],[0.03154,51.54699]]},"properties":{"name":"Romford Road","category":"primary","osm_type":"way","osm_id":"1488716421","operator":"London Borough of Newham","ref":"A118"}},{"type":"Feature","geometry":{"type":"LineString","coordinates":[[0.03154,51.54699],[0.03164,51.547]]},"properties":{"name":"Romford Road","category":"primary","osm_type":"way","osm_id":"1488716422","operator":"London Borough of Newham","ref":"A118"}},{"type":"Feature","geometry":{"type":"LineString","coordinates":[[0.19293,51.52741],[0.19321,51.52709]]},"properties":{"name":"Rainham Road","category":"primary","osm_type":"way","osm_id":"1490021014","ref":"A125"}},{"type":"Feature","geometry":{"type":"LineString","coordinates":[[0.15806,51.84471],[0.15794,51.84478]]},"properties":{"name":"Major roads","category":"primary","osm_type":"way","osm_id":"1491695067"}},{"type":"Feature","geometry":{"type":"LineString","coordinates":[[0.54191,51.56543],[0.54181,51.56576]]},"properties":{"name":"Major roads","category":"trunk_link","osm_type":"way","osm_id":"1492353780"}},{"type":"Feature","geometry":{"type":"LineString","coordinates":[[0.54198,51.56551],[0.54188,51.56593]]},"properties":{"name":"Canvey Way","category":"primary","osm_type":"way","osm_id":"1492353781","ref":"A130"}},{"type":"Feature","geometry":{"type":"LineString","coordinates":[[0.54203,51.56611],[0.54166,51.56614]]},"properties":{"name":"Sadlers Farm Roundabout","category":"primary","osm_type":"way","osm_id":"1492353782","ref":"A13"}},{"type":"Feature","geometry":{"type":"LineString","coordinates":[[0.02906,51.52578],[0.0291,51.5258]]},"properties":{"name":"Barking Road","category":"primary","osm_type":"way","osm_id":"1493451929","ref":"A124"}},{"type":"Feature","geometry":{"type":"LineString","coordinates":[[0.03265,51.5281],[0.03274,51.52816]]},"properties":{"name":"Barking Road","category":"primary","osm_type":"way","osm_id":"1493453409","ref":"A124"}},{"type":"Feature","geometry":{"type":"LineString","coordinates":[[0.02532,51.52357],[0.02556,51.52371]]},"properties":{"name":"Barking Road","category":"primary","osm_type":"way","osm_id":"1493454022","ref":"A124"}},{"type":"Feature","geometry":{"type":"LineString","coordinates":[[0.02556,51.52371],[0.02562,51.52375]]},"properties":{"name":"Barking Road","category":"primary","osm_type":"way","osm_id":"1493454023","ref":"A124"}},{"type":"Feature","geometry":{"type":"LineString","coordinates":[[0.02286,51.52247],[0.02288,51.52248]]},"properties":{"name":"Barking Road","category":"primary","osm_type":"way","osm_id":"1493455340","ref":"A124"}},{"type":"Feature","geometry":{"type":"LineString","coordinates":[[0.89655,51.91395],[0.89645,51.91413]]},"properties":{"name":"Northern Approach Road","category":"primary","osm_type":"way","osm_id":"1495163234","ref":"A134"}},{"type":"Feature","geometry":{"type":"LineString","coordinates":[[0.57715,51.56241],[0.57786,51.56224]]},"properties":{"name":"Kiln Road","category":"primary","osm_type":"way","osm_id":"1496671233","ref":"A13"}},{"type":"Feature","geometry":{"type":"LineString","coordinates":[[0.59521,51.56943],[0.59673,51.5649]]},"properties":{"name":"Rayleigh Road","category":"primary","osm_type":"way","osm_id":"1497497603","ref":"A129"}},{"type":"Feature","geometry":{"type":"LineString","coordinates":[[0.59731,51.56424],[0.59673,51.5649]]},"properties":{"name":"Rayleigh Road","category":"primary","osm_type":"way","osm_id":"1497497604","ref":"A129"}},{"type":"Feature","geometry":{"type":"LineString","coordinates":[[0.59673,51.5649],[0.59731,51.56424]]},"properties":{"name":"Rayleigh Road","category":"primary","osm_type":"way","osm_id":"1497497605","ref":"A129"}},{"type":"Feature","geometry":{"type":"LineString","coordinates":[[0.25681,51.60697],[0.25791,51.60754]]},"properties":{"name":"A12","category":"trunk_link","osm_type":"way","osm_id":"1498513746","operator":"Transport for London","ref":"A12"}},{"type":"Feature","geometry":{"type":"LineString","coordinates":[[0.25754,51.60723],[0.25838,51.60724]]},"properties":{"name":"M25","category":"motorway_link","osm_type":"way","osm_id":"1498513747","operator":"National Highways","ref":"M25"}},{"type":"Feature","geometry":{"type":"LineString","coordinates":[[0.60006,51.55724],[0.60004,51.55724]]},"properties":{"name":"A13","category":"primary","osm_type":"way","osm_id":"1498992660","ref":"A13"}},{"type":"Feature","geometry":{"type":"LineString","coordinates":[[0.59964,51.55748],[0.59963,51.5575]]},"properties":{"name":"A13","category":"primary","osm_type":"way","osm_id":"1498992661","ref":"A13"}},{"type":"Feature","geometry":{"type":"LineString","coordinates":[[0.5996,51.55795],[0.59963,51.55797]]},"properties":{"name":"A13","category":"primary","osm_type":"way","osm_id":"1498992662","ref":"A13"}},{"type":"Feature","geometry":{"type":"LineString","coordinates":[[0.44201,51.58338],[0.44197,51.58333]]},"properties":{"name":"Major roads","category":"primary","osm_type":"way","osm_id":"1498993781"}},{"type":"Feature","geometry":{"type":"LineString","coordinates":[[0.44175,51.58368],[0.44183,51.58366]]},"properties":{"name":"Major roads","category":"primary","osm_type":"way","osm_id":"1498993782"}},{"type":"Feature","geometry":{"type":"LineString","coordinates":[[0.89639,51.91409],[0.89626,51.91427]]},"properties":{"name":"Northern Approach Road","category":"primary","osm_type":"way","osm_id":"1499005358","ref":"A134"}},{"type":"Feature","geometry":{"type":"LineString","coordinates":[[0.39908,51.62594],[0.39984,51.62577]]},"properties":{"name":"London Road","category":"primary","osm_type":"way","osm_id":"1499342826","ref":"A129"}},{"type":"Feature","geometry":{"type":"LineString","coordinates":[[0.40071,51.62557],[0.40158,51.62537]]},"properties":{"name":"London Road","category":"primary","osm_type":"way","osm_id":"1499342827","ref":"A129"}},{"type":"Feature","geometry":{"type":"LineString","coordinates":[[0.39984,51.62577],[0.40071,51.62557]]},"properties":{"name":"London Road","category":"primary","osm_type":"way","osm_id":"1499342828","ref":"A129"}},{"type":"Feature","geometry":{"type":"LineString","coordinates":[[0.09067,51.77912],[0.09042,51.77908]]},"properties":{"name":"Elizabeth Way","category":"primary","osm_type":"way","osm_id":"1500926861","ref":"A1169"}},{"type":"Feature","geometry":{"type":"LineString","coordinates":[[0.19537,51.87314],[0.19525,51.87317]]},"properties":{"name":"Bishop's Stortford Bypass","category":"trunk","osm_type":"way","osm_id":"1501194565","ref":"A120"}},{"type":"Feature","geometry":{"type":"LineString","coordinates":[[0.18468,51.87262],[0.18471,51.87266]]},"properties":{"name":"Dunmow Road","category":"primary","osm_type":"way","osm_id":"1501194569","ref":"A1250"}},{"type":"Feature","geometry":{"type":"LineString","coordinates":[[0.18491,51.87266],[0.18493,51.87265]]},"properties":{"name":"Dunmow Road","category":"primary","osm_type":"way","osm_id":"1501194570","ref":"A1250"}},{"type":"Feature","geometry":{"type":"LineString","coordinates":[[0.08491,51.77808],[0.08338,51.77779]]},"properties":{"name":"Elizabeth Way","category":"primary","osm_type":"way","osm_id":"1501225987","ref":"A1169"}},{"type":"Feature","geometry":{"type":"LineString","coordinates":[[0.08213,51.77756],[0.08132,51.77741]]},"properties":{"name":"Elizabeth Way","category":"primary","osm_type":"way","osm_id":"1501225988","ref":"A1169"}},{"type":"Feature","geometry":{"type":"LineString","coordinates":[[0.08293,51.77771],[0.08213,51.77756]]},"properties":{"name":"Elizabeth Way","category":"primary","osm_type":"way","osm_id":"1501225989","ref":"A1169"}},{"type":"Feature","geometry":{"type":"LineString","coordinates":[[0.08338,51.77779],[0.08293,51.77771]]},"properties":{"name":"Elizabeth Way","category":"primary","osm_type":"way","osm_id":"1501225990","ref":"A1169"}},{"type":"Feature","geometry":{"type":"LineString","coordinates":[[0.08506,51.77811],[0.08491,51.77808]]},"properties":{"name":"Elizabeth Way","category":"primary","osm_type":"way","osm_id":"1501225991","ref":"A1169"}},{"type":"Feature","geometry":{"type":"LineString","coordinates":[[0.08527,51.77815],[0.08506,51.77811]]},"properties":{"name":"Elizabeth Way","category":"primary","osm_type":"way","osm_id":"1501225992","ref":"A1169"}},{"type":"Feature","geometry":{"type":"LineString","coordinates":[[0.08645,51.77837],[0.08527,51.77815]]},"properties":{"name":"Elizabeth Way","category":"primary","osm_type":"way","osm_id":"1501225993","ref":"A1169"}},{"type":"Feature","geometry":{"type":"LineString","coordinates":[[0.08656,51.77839],[0.08645,51.77837]]},"properties":{"name":"Elizabeth Way","category":"primary","osm_type":"way","osm_id":"1501225994","ref":"A1169"}},{"type":"Feature","geometry":{"type":"LineString","coordinates":[[0.08757,51.77857],[0.08656,51.77839]]},"properties":{"name":"Elizabeth Way","category":"primary","osm_type":"way","osm_id":"1501225995","ref":"A1169"}},{"type":"Feature","geometry":{"type":"LineString","coordinates":[[0.09027,51.77905],[0.0892,51.77886]]},"properties":{"name":"Elizabeth Way","category":"primary","osm_type":"way","osm_id":"1501225996","ref":"A1169"}},{"type":"Feature","geometry":{"type":"LineString","coordinates":[[0.09042,51.77908],[0.09027,51.77905]]},"properties":{"name":"Elizabeth Way","category":"primary","osm_type":"way","osm_id":"1501225997","ref":"A1169"}},{"type":"Feature","geometry":{"type":"LineString","coordinates":[[0.09119,51.77922],[0.0908,51.77915]]},"properties":{"name":"Elizabeth Way","category":"primary","osm_type":"way","osm_id":"1501225998","ref":"A1169"}},{"type":"Feature","geometry":{"type":"LineString","coordinates":[[0.09137,51.77926],[0.09119,51.77922]]},"properties":{"name":"Elizabeth Way","category":"primary","osm_type":"way","osm_id":"1501225999","ref":"A1169"}},{"type":"Feature","geometry":{"type":"LineString","coordinates":[[0.0908,51.77915],[0.09067,51.77912]]},"properties":{"name":"Elizabeth Way","category":"primary","osm_type":"way","osm_id":"1501226000","ref":"A1169"}},{"type":"Feature","geometry":{"type":"LineString","coordinates":[[0.19457,51.87318],[0.19351,51.8724]]},"properties":{"name":"Dunmow Road","category":"primary","osm_type":"way","osm_id":"1502660035","ref":"A1250"}},{"type":"Feature","geometry":{"type":"LineString","coordinates":[[0.19465,51.87335],[0.19482,51.87338]]},"properties":{"name":"Dunmow Road","category":"primary","osm_type":"way","osm_id":"1502660036","ref":"A1250"}},{"type":"Feature","geometry":{"type":"LineString","coordinates":[[0.19455,51.8733],[0.19465,51.87335]]},"properties":{"name":"Dunmow Road","category":"primary","osm_type":"way","osm_id":"1502660037","ref":"A1250"}},{"type":"Feature","geometry":{"type":"LineString","coordinates":[[0.19469,51.87327],[0.19455,51.8733]]},"properties":{"name":"Bishop's Stortford Bypass","category":"trunk","osm_type":"way","osm_id":"1502660038","ref":"A120"}},{"type":"Feature","geometry":{"type":"LineString","coordinates":[[0.19502,51.87322],[0.19469,51.87327]]},"properties":{"name":"Bishop's Stortford Bypass","category":"trunk","osm_type":"way","osm_id":"1502660039","ref":"A120"}},{"type":"Feature","geometry":{"type":"LineString","coordinates":[[0.19469,51.87327],[0.19457,51.87318]]},"properties":{"name":"Dunmow Road","category":"primary","osm_type":"way","osm_id":"1502660040","ref":"A1250"}},{"type":"Feature","geometry":{"type":"LineString","coordinates":[[0.19465,51.87335],[0.19469,51.87327]]},"properties":{"name":"Dunmow Road","category":"primary_link","osm_type":"way","osm_id":"1502660041","ref":"A1250"}},{"type":"Feature","geometry":{"type":"LineString","coordinates":[[0.19646,51.87291],[0.19584,51.87305]]},"properties":{"name":"Bishop's Stortford Bypass","category":"trunk","osm_type":"way","osm_id":"1502660042","ref":"A120"}},{"type":"Feature","geometry":{"type":"LineString","coordinates":[[0.19722,51.8727],[0.19646,51.87291]]},"properties":{"name":"Bishop's Stortford Bypass","category":"trunk","osm_type":"way","osm_id":"1502660043","ref":"A120"}},{"type":"Feature","geometry":{"type":"LineString","coordinates":[[0.19229,51.87378],[0.19433,51.87341]]},"properties":{"name":"Bishop's Stortford Bypass","category":"trunk","osm_type":"way","osm_id":"1502660046","ref":"A120"}},{"type":"Feature","geometry":{"type":"LineString","coordinates":[[0.0624,51.55557],[0.06249,51.55559]]},"properties":{"name":"Romford Road","category":"primary","osm_type":"way","osm_id":"1503484360","operator":"London Borough of Newham","ref":"A118"}},{"type":"Feature","geometry":{"type":"LineString","coordinates":[[0.06059,51.55504],[0.06074,51.55509]]},"properties":{"name":"Romford Road","category":"primary","osm_type":"way","osm_id":"1503484363","operator":"London Borough of Newham","ref":"A118"}},{"type":"Feature","geometry":{"type":"LineString","coordinates":[[0.89503,51.89988],[0.89502,51.89997]]},"properties":{"name":"Station Way","category":"primary","osm_type":"way","osm_id":"1508072194","ref":"A134"}},{"type":"Feature","geometry":{"type":"LineString","coordinates":[[0.89503,51.89975],[0.89503,51.89988]]},"properties":{"name":"Station Way","category":"primary","osm_type":"way","osm_id":"1508072195","ref":"A134"}},{"type":"Feature","geometry":{"type":"LineString","coordinates":[[0.89501,51.89965],[0.89503,51.89975]]},"properties":{"name":"Station Way","category":"primary","osm_type":"way","osm_id":"1508072196","ref":"A134"}},{"type":"Feature","geometry":{"type":"LineString","coordinates":[[0.89489,51.89938],[0.89501,51.89965]]},"properties":{"name":"Station Way","category":"primary","osm_type":"way","osm_id":"1508072197","ref":"A134"}},{"type":"Feature","geometry":{"type":"LineString","coordinates":[[0.90584,51.89767],[0.90554,51.89767]]},"properties":{"name":"Cowdray Avenue","category":"primary","osm_type":"way","osm_id":"1508078848","ref":"A133"}},{"type":"Feature","geometry":{"type":"LineString","coordinates":[[0.90387,51.89767],[0.9028,51.89763]]},"properties":{"name":"Cowdray Avenue","category":"primary","osm_type":"way","osm_id":"1508078869","ref":"A133"}},{"type":"Feature","geometry":{"type":"LineString","coordinates":[[0.90966,51.89786],[0.91057,51.89774]]},"properties":{"name":"Cowdray Avenue","category":"primary","osm_type":"way","osm_id":"1509633609","ref":"A133"}},{"type":"Feature","geometry":{"type":"LineString","coordinates":[[0.91057,51.89774],[0.91086,51.89769]]},"properties":{"name":"Cowdray Avenue","category":"primary","osm_type":"way","osm_id":"1509633611","ref":"A133"}},{"type":"Feature","geometry":{"type":"LineString","coordinates":[[0.57285,51.56363],[0.57715,51.56241]]},"properties":{"name":"London Road","category":"primary","osm_type":"way","osm_id":"1517214396","ref":"A13"}},{"type":"Feature","geometry":{"type":"LineString","coordinates":[[0.55052,51.56738],[0.55001,51.56734]]},"properties":{"name":"London Road","category":"primary","osm_type":"way","osm_id":"1517238265","ref":"A13"}},{"type":"Feature","geometry":{"type":"LineString","coordinates":[[0.54978,51.56745],[0.55052,51.56738]]},"properties":{"name":"London Road","category":"primary","osm_type":"way","osm_id":"1517238269","ref":"A13"}},{"type":"Feature","geometry":{"type":"LineString","coordinates":[[0.54938,51.56742],[0.54943,51.56742]]},"properties":{"name":"London Road","category":"primary","osm_type":"way","osm_id":"1517238270","ref":"A13"}},{"type":"Feature","geometry":{"type":"LineString","coordinates":[[0.54929,51.56742],[0.54938,51.56742]]},"properties":{"name":"London Road","category":"primary","osm_type":"way","osm_id":"1517238271","ref":"A13"}},{"type":"Feature","geometry":{"type":"LineString","coordinates":[[0.54904,51.56742],[0.54929,51.56742]]},"properties":{"name":"London Road","category":"primary","osm_type":"way","osm_id":"1517238272","ref":"A13"}},{"type":"Feature","geometry":{"type":"LineString","coordinates":[[0.54877,51.56742],[0.54904,51.56742]]},"properties":{"name":"London Road","category":"primary","osm_type":"way","osm_id":"1517238276","ref":"A13"}},{"type":"Feature","geometry":{"type":"LineString","coordinates":[[0.54564,51.5674],[0.54599,51.5674]]},"properties":{"name":"London Road","category":"primary","osm_type":"way","osm_id":"1517238280","ref":"A13"}},{"type":"Feature","geometry":{"type":"LineString","coordinates":[[0.54508,51.56739],[0.54564,51.5674]]},"properties":{"name":"London Road","category":"primary","osm_type":"way","osm_id":"1517238281","ref":"A13"}},{"type":"Feature","geometry":{"type":"LineString","coordinates":[[0.54381,51.56729],[0.54508,51.56739]]},"properties":{"name":"London Road","category":"primary","osm_type":"way","osm_id":"1517238282","ref":"A13"}},{"type":"Feature","geometry":{"type":"LineString","coordinates":[[0.55122,51.56738],[0.55159,51.56737]]},"properties":{"name":"London Road","category":"primary","osm_type":"way","osm_id":"1517366877","ref":"A13"}},{"type":"Feature","geometry":{"type":"LineString","coordinates":[[0.55115,51.56738],[0.55122,51.56738]]},"properties":{"name":"London Road","category":"primary","osm_type":"way","osm_id":"1517366878","ref":"A13"}},{"type":"Feature","geometry":{"type":"LineString","coordinates":[[0.55222,51.56734],[0.55251,51.56733]]},"properties":{"name":"London Road","category":"primary","osm_type":"way","osm_id":"1517366879","ref":"A13"}},{"type":"Feature","geometry":{"type":"LineString","coordinates":[[0.55159,51.56737],[0.55191,51.56735]]},"properties":{"name":"London Road","category":"primary","osm_type":"way","osm_id":"1517366880","ref":"A13"}},{"type":"Feature","geometry":{"type":"LineString","coordinates":[[0.55251,51.56733],[0.5527,51.56732]]},"properties":{"name":"London Road","category":"primary","osm_type":"way","osm_id":"1517368734","ref":"A13"}},{"type":"Feature","geometry":{"type":"LineString","coordinates":[[0.55052,51.56738],[0.55079,51.56743]]},"properties":{"name":"London Road","category":"primary","osm_type":"way","osm_id":"1517370263","ref":"A13"}},{"type":"Feature","geometry":{"type":"LineString","coordinates":[[0.5496,51.56745],[0.54978,51.56745]]},"properties":{"name":"London Road","category":"primary","osm_type":"way","osm_id":"1517370265","ref":"A13"}},{"type":"Feature","geometry":{"type":"LineString","coordinates":[[0.55191,51.56735],[0.55222,51.56734]]},"properties":{"name":"London Road","category":"primary","osm_type":"way","osm_id":"1517370269","ref":"A13"}},{"type":"Feature","geometry":{"type":"LineString","coordinates":[[0.55999,51.56666],[0.56026,51.56664]]},"properties":{"name":"London Road","category":"primary","osm_type":"way","osm_id":"1517484045","ref":"A13"}},{"type":"Feature","geometry":{"type":"LineString","coordinates":[[0.5593,51.56673],[0.55979,51.56668]]},"properties":{"name":"London Road","category":"primary","osm_type":"way","osm_id":"1517484046","ref":"A13"}},{"type":"Feature","geometry":{"type":"LineString","coordinates":[[0.55903,51.56676],[0.5593,51.56673]]},"properties":{"name":"London Road","category":"primary","osm_type":"way","osm_id":"1517484047","ref":"A13"}},{"type":"Feature","geometry":{"type":"LineString","coordinates":[[0.55867,51.56679],[0.55903,51.56676]]},"properties":{"name":"London Road","category":"primary","osm_type":"way","osm_id":"1517484048","ref":"A13"}},{"type":"Feature","geometry":{"type":"LineString","coordinates":[[0.55848,51.56681],[0.55867,51.56679]]},"properties":{"name":"London Road","category":"primary","osm_type":"way","osm_id":"1517484049","ref":"A13"}},{"type":"Feature","geometry":{"type":"LineString","coordinates":[[0.55794,51.56686],[0.55848,51.56681]]},"properties":{"name":"London Road","category":"primary","osm_type":"way","osm_id":"1517484050","ref":"A13"}},{"type":"Feature","geometry":{"type":"LineString","coordinates":[[0.55757,51.56689],[0.55794,51.56686]]},"properties":{"name":"London Road","category":"primary","osm_type":"way","osm_id":"1517484051","ref":"A13"}},{"type":"Feature","geometry":{"type":"LineString","coordinates":[[0.55405,51.5672],[0.55432,51.56718]]},"properties":{"name":"London Road","category":"primary","osm_type":"way","osm_id":"1517484052","ref":"A13"}},{"type":"Feature","geometry":{"type":"LineString","coordinates":[[0.55432,51.56718],[0.55496,51.56712]]},"properties":{"name":"London Road","category":"primary","osm_type":"way","osm_id":"1517484053","ref":"A13"}},{"type":"Feature","geometry":{"type":"LineString","coordinates":[[0.55357,51.56724],[0.55398,51.56721]]},"properties":{"name":"London Road","category":"primary","osm_type":"way","osm_id":"1517484054","ref":"A13"}},{"type":"Feature","geometry":{"type":"LineString","coordinates":[[0.55697,51.56694],[0.55715,51.56693]]},"properties":{"name":"London Road","category":"primary","osm_type":"way","osm_id":"1517484055","ref":"A13"}},{"type":"Feature","geometry":{"type":"LineString","coordinates":[[0.55724,51.56692],[0.55757,51.56689]]},"properties":{"name":"London Road","category":"primary","osm_type":"way","osm_id":"1517484056","ref":"A13"}},{"type":"Feature","geometry":{"type":"LineString","coordinates":[[0.55715,51.56693],[0.55724,51.56692]]},"properties":{"name":"London Road","category":"primary","osm_type":"way","osm_id":"1517484057","ref":"A13"}},{"type":"Feature","geometry":{"type":"LineString","coordinates":[[0.55596,51.56703],[0.55655,51.56698]]},"properties":{"name":"London Road","category":"primary","osm_type":"way","osm_id":"1517484058","ref":"A13"}},{"type":"Feature","geometry":{"type":"LineString","coordinates":[[0.55655,51.56698],[0.55697,51.56694]]},"properties":{"name":"London Road","category":"primary","osm_type":"way","osm_id":"1517484059","ref":"A13"}},{"type":"Feature","geometry":{"type":"LineString","coordinates":[[0.55588,51.56704],[0.55596,51.56703]]},"properties":{"name":"London Road","category":"primary","osm_type":"way","osm_id":"1517484060","ref":"A13"}},{"type":"Feature","geometry":{"type":"LineString","coordinates":[[0.55579,51.56705],[0.55588,51.56704]]},"properties":{"name":"London Road","category":"primary","osm_type":"way","osm_id":"1517484061","ref":"A13"}},{"type":"Feature","geometry":{"type":"LineString","coordinates":[[0.55496,51.56712],[0.55579,51.56705]]},"properties":{"name":"London Road","category":"primary","osm_type":"way","osm_id":"1517484062","ref":"A13"}},{"type":"Feature","geometry":{"type":"LineString","coordinates":[[0.5527,51.56732],[0.55357,51.56724]]},"properties":{"name":"London Road","category":"primary","osm_type":"way","osm_id":"1517484063","ref":"A13"}},{"type":"Feature","geometry":{"type":"LineString","coordinates":[[0.55398,51.56721],[0.55405,51.5672]]},"properties":{"name":"London Road","category":"primary","osm_type":"way","osm_id":"1517484064","ref":"A13"}},{"type":"Feature","geometry":{"type":"LineString","coordinates":[[0.66573,51.56304],[0.66568,51.56328]]},"properties":{"name":"Rayleigh Road","category":"primary","osm_type":"way","osm_id":"1521338827"}},{"type":"Feature","geometry":{"type":"LineString","coordinates":[[0.19229,51.87378],[0.19314,51.87366]]},"properties":{"name":"Bishop's Stortford Bypass","category":"trunk","osm_type":"way","osm_id":"1523074691","ref":"A120"}},{"type":"Feature","geometry":{"type":"LineString","coordinates":[[0.19367,51.87252],[0.19401,51.8728]]},"properties":{"name":"Dunmow Road","category":"primary","osm_type":"way","osm_id":"1523074692","ref":"A1250"}},{"type":"Feature","geometry":{"type":"LineString","coordinates":[[0.19069,51.8741],[0.19229,51.87378]]},"properties":{"name":"Bishop's Stortford Bypass","category":"trunk","osm_type":"way","osm_id":"1523074693","ref":"A120"}},{"type":"Feature","geometry":{"type":"LineString","coordinates":[[0.56393,51.56605],[0.56416,51.56598]]},"properties":{"name":"London Road","category":"primary","osm_type":"way","osm_id":"1523487481","ref":"A13"}},{"type":"Feature","geometry":{"type":"LineString","coordinates":[[0.46416,51.58254],[0.46425,51.58252]]},"properties":{"name":"Cranes Farm Road","category":"primary","osm_type":"way","osm_id":"1523852455","ref":"A1235"}},{"type":"Feature","geometry":{"type":"LineString","coordinates":[[0.46373,51.58238],[0.46375,51.58242]]},"properties":{"name":"Cranes Farm Road","category":"primary","osm_type":"way","osm_id":"1523852456","ref":"A1235"}},{"type":"Feature","geometry":{"type":"LineString","coordinates":[[0.45562,51.58122],[0.45565,51.58126]]},"properties":{"name":"A1235","category":"primary","osm_type":"way","osm_id":"1524041345","ref":"A1235"}},{"type":"Feature","geometry":{"type":"LineString","coordinates":[[0.45584,51.58083],[0.45562,51.58122]]},"properties":{"name":"A1235","category":"primary","osm_type":"way","osm_id":"1524041346","ref":"A1235"}},{"type":"Feature","geometry":{"type":"LineString","coordinates":[[0.4881,51.7776],[0.48814,51.77758]]},"properties":{"name":"Pratts Farm Roundabout","category":"trunk","osm_type":"way","osm_id":"1526057196"}},{"type":"Feature","geometry":{"type":"LineString","coordinates":[[0.00085,51.51281],[0.00082,51.51279]]},"properties":{"name":"East India Dock Road","category":"trunk","osm_type":"way","osm_id":"1526896979","operator":"Transport for London","ref":"A13"}},{"type":"Feature","geometry":{"type":"LineString","coordinates":[[0.5237,51.61085],[0.52365,51.61082]]},"properties":{"name":"Major roads","category":"primary","osm_type":"way","osm_id":"1530375207"}},{"type":"Feature","geometry":{"type":"LineString","coordinates":[[0.52315,51.61074],[0.52307,51.61075]]},"properties":{"name":"Major roads","category":"primary","osm_type":"way","osm_id":"1530375208"}},{"type":"Feature","geometry":{"type":"LineString","coordinates":[[0.52286,51.61102],[0.52288,51.61104]]},"properties":{"name":"Major roads","category":"primary","osm_type":"way","osm_id":"1530375209"}},{"type":"Feature","geometry":{"type":"LineString","coordinates":[[0.52372,51.6112],[0.52376,51.61118]]},"properties":{"name":"Major roads","category":"primary","osm_type":"way","osm_id":"1530375210"}},{"type":"Feature","geometry":{"type":"LineString","coordinates":[[0.05708,51.57649],[0.05857,51.57654]]},"properties":{"name":"Eastern Avenue","category":"trunk","osm_type":"way","osm_id":"1530572051","operator":"Transport for London","ref":"A12"}},{"type":"Feature","geometry":{"type":"LineString","coordinates":[[0.05972,51.57659],[0.06021,51.57661]]},"properties":{"name":"Eastern Avenue","category":"trunk","osm_type":"way","osm_id":"1530572052","operator":"Transport for London","ref":"A12"}},{"type":"Feature","geometry":{"type":"LineString","coordinates":[[0.05943,51.57647],[0.05891,51.57645]]},"properties":{"name":"Eastern Avenue","category":"trunk","osm_type":"way","osm_id":"1530572067","operator":"Transport for London","ref":"A12"}},{"type":"Feature","geometry":{"type":"LineString","coordinates":[[0.05994,51.57648],[0.05943,51.57647]]},"properties":{"name":"Eastern Avenue","category":"trunk","osm_type":"way","osm_id":"1530572068","operator":"Transport for London","ref":"A12"}},{"type":"Feature","geometry":{"type":"LineString","coordinates":[[0.65926,51.71766],[0.65898,51.71744]]},"properties":{"name":"A414","category":"primary","osm_type":"way","osm_id":"1530586638","ref":"A414"}},{"type":"Feature","geometry":{"type":"LineString","coordinates":[[0.65882,51.71762],[0.65903,51.71773]]},"properties":{"name":"A414","category":"primary","osm_type":"way","osm_id":"1530586641","ref":"A414"}},{"type":"Feature","geometry":{"type":"LineString","coordinates":[[0.65898,51.71744],[0.65882,51.71762]]},"properties":{"name":"A414","category":"primary","osm_type":"way","osm_id":"1530586642","ref":"A414"}},{"type":"Feature","geometry":{"type":"LineString","coordinates":[[0.65903,51.71773],[0.65926,51.71766]]},"properties":{"name":"A414","category":"primary","osm_type":"way","osm_id":"1530586643","ref":"A414"}},{"type":"Feature","geometry":{"type":"LineString","coordinates":[[0.46926,51.73465],[0.46927,51.73479]]},"properties":{"name":"Victoria Road South","category":"primary","osm_type":"way","osm_id":"1530968727","ref":"A1099"}},{"type":"Feature","geometry":{"type":"LineString","coordinates":[[0.46927,51.73479],[0.46938,51.73515]]},"properties":{"name":"Victoria Road South","category":"primary","osm_type":"way","osm_id":"1530968728","ref":"A1099"}},{"type":"Feature","geometry":{"type":"LineString","coordinates":[[0.46921,51.73373],[0.46925,51.73413]]},"properties":{"name":"Victoria Road South","category":"primary","osm_type":"way","osm_id":"1530968819","ref":"A1099"}},{"type":"Feature","geometry":{"type":"LineString","coordinates":[[0.77061,51.87786],[0.77056,51.87786]]},"properties":{"name":"Major roads","category":"trunk","osm_type":"way","osm_id":"1531618733"}},{"type":"Feature","geometry":{"type":"LineString","coordinates":[[0.77063,51.87792],[0.77065,51.87787]]},"properties":{"name":"Major roads","category":"trunk","osm_type":"way","osm_id":"1531618734"}},{"type":"Feature","geometry":{"type":"LineString","coordinates":[[0.77055,51.87792],[0.77063,51.87792]]},"properties":{"name":"Major roads","category":"trunk","osm_type":"way","osm_id":"1531618735"}},{"type":"Feature","geometry":{"type":"LineString","coordinates":[[0.77065,51.87787],[0.77061,51.87786]]},"properties":{"name":"Major roads","category":"trunk","osm_type":"way","osm_id":"1531618736"}},{"type":"Feature","geometry":{"type":"LineString","coordinates":[[0.77063,51.87792],[0.77133,51.87799]]},"properties":{"name":"Coggeshall Road","category":"trunk","osm_type":"way","osm_id":"1531618737","operator":"National Highways","ref":"A120"}},{"type":"Feature","geometry":{"type":"LineString","coordinates":[[0.77133,51.87799],[0.77065,51.87787]]},"properties":{"name":"Coggeshall Road","category":"trunk","osm_type":"way","osm_id":"1531618738","operator":"National Highways","ref":"A120"}},{"type":"Feature","geometry":{"type":"LineString","coordinates":[[0.76989,51.87785],[0.77055,51.87792]]},"properties":{"name":"Coggeshall Road","category":"trunk","osm_type":"way","osm_id":"1531618739","operator":"National Highways","ref":"A120"}},{"type":"Feature","geometry":{"type":"LineString","coordinates":[[0.77056,51.87786],[0.76989,51.87785]]},"properties":{"name":"Coggeshall Road","category":"trunk","osm_type":"way","osm_id":"1531618740","operator":"National Highways","ref":"A120"}},{"type":"Feature","geometry":{"type":"LineString","coordinates":[[0.77056,51.87786],[0.77055,51.87792]]},"properties":{"name":"Major roads","category":"trunk","osm_type":"way","osm_id":"1531618741"}},{"type":"Feature","geometry":{"type":"LineString","coordinates":[[0.97487,51.8816],[0.97155,51.88154]]},"properties":{"name":"Colchester Road","category":"primary","osm_type":"way","osm_id":"1531886256","ref":"A133"}},{"type":"Feature","geometry":{"type":"LineString","coordinates":[[0.03277,51.59525],[0.0345,51.5946]]},"properties":{"name":"M11","category":"motorway_link","osm_type":"way","osm_id":"1532189721","operator":"National Highways","ref":"M11"}},{"type":"Feature","geometry":{"type":"LineString","coordinates":[[0.0304,51.59573],[0.03277,51.59525]]},"properties":{"name":"Major roads","category":"motorway_link","osm_type":"way","osm_id":"1532189722"}},{"type":"Feature","geometry":{"type":"LineString","coordinates":[[0.02722,51.59631],[0.02856,51.5961]]},"properties":{"name":"North Circular Road","category":"trunk","osm_type":"way","osm_id":"1532189723","operator":"Transport for London","ref":"A406"}},{"type":"Feature","geometry":{"type":"LineString","coordinates":[[0.02353,51.5463],[0.02367,51.54631]]},"properties":{"name":"Romford Road","category":"primary","osm_type":"way","osm_id":"1532399378","operator":"London Borough of Newham","ref":"A118"}},{"type":"Feature","geometry":{"type":"LineString","coordinates":[[0.02345,51.54629],[0.02353,51.5463]]},"properties":{"name":"Romford Road","category":"primary","osm_type":"way","osm_id":"1532399381","operator":"London Borough of Newham","ref":"A118"}},{"type":"Feature","geometry":{"type":"LineString","coordinates":[[0.97155,51.88154],[0.96919,51.88145]]},"properties":{"name":"Colchester Road","category":"primary","osm_type":"way","osm_id":"1532726917","ref":"A133"}},{"type":"Feature","geometry":{"type":"LineString","coordinates":[[0.96949,51.88162],[0.97154,51.88164]]},"properties":{"name":"Colchester Road","category":"primary","osm_type":"way","osm_id":"1532726919","ref":"A133"}},{"type":"Feature","geometry":{"type":"LineString","coordinates":[[0.96445,51.88154],[0.96806,51.88162]]},"properties":{"name":"Colchester Road","category":"primary","osm_type":"way","osm_id":"1532726920","ref":"A133"}},{"type":"Feature","geometry":{"type":"LineString","coordinates":[[0.96827,51.88146],[0.96444,51.88141]]},"properties":{"name":"Colchester Road","category":"primary","osm_type":"way","osm_id":"1532726921","ref":"A133"}},{"type":"Feature","geometry":{"type":"LineString","coordinates":[[0.98325,51.88176],[0.98665,51.88174]]},"properties":{"name":"Colchester Road","category":"primary","osm_type":"way","osm_id":"1534012960","ref":"A133"}},{"type":"Feature","geometry":{"type":"LineString","coordinates":[[0.56026,51.56664],[0.56043,51.56662]]},"properties":{"name":"London Road","category":"primary","osm_type":"way","osm_id":"1534478823","ref":"A13"}},{"type":"Feature","geometry":{"type":"LineString","coordinates":[[0.55979,51.56668],[0.55999,51.56666]]},"properties":{"name":"London Road","category":"primary","osm_type":"way","osm_id":"1534478824","ref":"A13"}},{"type":"Feature","geometry":{"type":"LineString","coordinates":[[0.5627,51.56632],[0.5629,51.56628]]},"properties":{"name":"London Road","category":"primary","osm_type":"way","osm_id":"1534804132","ref":"A13"}},{"type":"Feature","geometry":{"type":"LineString","coordinates":[[0.56214,51.56642],[0.5627,51.56632]]},"properties":{"name":"London Road","category":"primary","osm_type":"way","osm_id":"1534804133","ref":"A13"}},{"type":"Feature","geometry":{"type":"LineString","coordinates":[[0.56198,51.56645],[0.56214,51.56642]]},"properties":{"name":"London Road","category":"primary","osm_type":"way","osm_id":"1534804134","ref":"A13"}},{"type":"Feature","geometry":{"type":"LineString","coordinates":[[0.56043,51.56662],[0.56054,51.56661]]},"properties":{"name":"London Road","category":"primary","osm_type":"way","osm_id":"1534804135","ref":"A13"}},{"type":"Feature","geometry":{"type":"LineString","coordinates":[[0.06172,51.55538],[0.06199,51.55546]]},"properties":{"name":"Romford Road","category":"primary","osm_type":"way","osm_id":"1537047493","operator":"London Borough of Newham","ref":"A118"}},{"type":"Feature","geometry":{"type":"LineString","coordinates":[[0.56907,51.5642],[0.56944,51.56411]]},"properties":{"name":"London Road","category":"primary","osm_type":"way","osm_id":"1537193013","ref":"A13"}},{"type":"Feature","geometry":{"type":"LineString","coordinates":[[0.5683,51.5644],[0.56907,51.5642]]},"properties":{"name":"London Road","category":"primary","osm_type":"way","osm_id":"1537193014","ref":"A13"}},{"type":"Feature","geometry":{"type":"LineString","coordinates":[[0.56803,51.56446],[0.5683,51.5644]]},"properties":{"name":"London Road","category":"primary","osm_type":"way","osm_id":"1537193015","ref":"A13"}},{"type":"Feature","geometry":{"type":"LineString","coordinates":[[0.5677,51.56455],[0.56803,51.56446]]},"properties":{"name":"London Road","category":"primary","osm_type":"way","osm_id":"1537193016","ref":"A13"}},{"type":"Feature","geometry":{"type":"LineString","coordinates":[[0.56702,51.56483],[0.5677,51.56455]]},"properties":{"name":"London Road","category":"primary","osm_type":"way","osm_id":"1537193017","ref":"A13"}},{"type":"Feature","geometry":{"type":"LineString","coordinates":[[0.56661,51.56501],[0.56702,51.56483]]},"properties":{"name":"London Road","category":"primary","osm_type":"way","osm_id":"1537193018","ref":"A13"}},{"type":"Feature","geometry":{"type":"LineString","coordinates":[[0.56621,51.56519],[0.56661,51.56501]]},"properties":{"name":"London Road","category":"primary","osm_type":"way","osm_id":"1537193019","ref":"A13"}},{"type":"Feature","geometry":{"type":"LineString","coordinates":[[0.56574,51.56539],[0.56621,51.56519]]},"properties":{"name":"London Road","category":"primary","osm_type":"way","osm_id":"1537193020","ref":"A13"}},{"type":"Feature","geometry":{"type":"LineString","coordinates":[[0.56548,51.5655],[0.56574,51.56539]]},"properties":{"name":"London Road","category":"primary","osm_type":"way","osm_id":"1537193021","ref":"A13"}},{"type":"Feature","geometry":{"type":"LineString","coordinates":[[0.56515,51.56562],[0.56548,51.5655]]},"properties":{"name":"London Road","category":"primary","osm_type":"way","osm_id":"1537193022","ref":"A13"}},{"type":"Feature","geometry":{"type":"LineString","coordinates":[[0.56485,51.56574],[0.56515,51.56562]]},"properties":{"name":"London Road","category":"primary","osm_type":"way","osm_id":"1537193023","ref":"A13"}},{"type":"Feature","geometry":{"type":"LineString","coordinates":[[0.5647,51.56579],[0.56485,51.56574]]},"properties":{"name":"London Road","category":"primary","osm_type":"way","osm_id":"1537193024","ref":"A13"}},{"type":"Feature","geometry":{"type":"LineString","coordinates":[[0.56433,51.56592],[0.5647,51.56579]]},"properties":{"name":"London Road","category":"primary","osm_type":"way","osm_id":"1537193025","ref":"A13"}},{"type":"Feature","geometry":{"type":"LineString","coordinates":[[0.56416,51.56598],[0.56433,51.56592]]},"properties":{"name":"London Road","category":"primary","osm_type":"way","osm_id":"1537193026","ref":"A13"}},{"type":"Feature","geometry":{"type":"LineString","coordinates":[[0.4173,51.61638],[0.4173,51.61528]]},"properties":{"name":"Laindon Road","category":"primary","osm_type":"way","osm_id":"1539364724","ref":"A176"}},{"type":"Feature","geometry":{"type":"LineString","coordinates":[[0.03087,51.54692],[0.03117,51.54695]]},"properties":{"name":"Romford Road","category":"primary","osm_type":"way","osm_id":"1539857118","operator":"London Borough of Newham","ref":"A118"}},{"type":"Feature","geometry":{"type":"LineString","coordinates":[[0.0009,51.59267],[0.00047,51.59261]]},"properties":{"name":"Forest Road","category":"primary","osm_type":"way","osm_id":"1543083865","ref":"A503"}},{"type":"Feature","geometry":{"type":"LineString","coordinates":[[0.03067,51.5469],[0.03087,51.54692]]},"properties":{"name":"Romford Road","category":"primary","osm_type":"way","osm_id":"1544651236","operator":"London Borough of Newham","ref":"A118"}},{"type":"Feature","geometry":{"type":"LineString","coordinates":[[0.52,51.76761],[0.51681,51.77]]},"properties":{"name":"Beaulieu Parkway","category":"trunk","osm_type":"way","osm_id":"1544789761","ref":"A131"}},{"type":"Feature","geometry":{"type":"LineString","coordinates":[[0.692,51.88064],[0.69239,51.88055]]},"properties":{"name":"Coggeshall Bypass","category":"trunk","osm_type":"way","osm_id":"1545638151","operator":"National Highways","ref":"A120"}},{"type":"Feature","geometry":{"type":"LineString","coordinates":[[0.69367,51.88006],[0.69287,51.88026]]},"properties":{"name":"Coggeshall Bypass","category":"trunk","osm_type":"way","osm_id":"1545638152","operator":"National Highways","ref":"A120"}},{"type":"Feature","geometry":{"type":"LineString","coordinates":[[0.45523,51.73147],[0.45484,51.73114]]},"properties":{"name":"Waterhouse Lane","category":"primary","osm_type":"way","osm_id":"1546033904","ref":"A1016"}},{"type":"Feature","geometry":{"type":"LineString","coordinates":[[0.45533,51.73156],[0.45523,51.73147]]},"properties":{"name":"Waterhouse Lane","category":"primary","osm_type":"way","osm_id":"1546033906","ref":"A1016"}},{"type":"Feature","geometry":{"type":"LineString","coordinates":[[0.66246,51.7194],[0.66248,51.71936]]},"properties":{"name":"Wyke Hill Roundabout","category":"primary","osm_type":"way","osm_id":"1546523764","ref":"A414"}},{"type":"Feature","geometry":{"type":"LineString","coordinates":[[0.01495,51.57385],[0.01491,51.57389]]},"properties":{"name":"Whipps Cross Road","category":"primary","osm_type":"way","osm_id":"1546624831","ref":"A114"}},{"type":"Feature","geometry":{"type":"LineString","coordinates":[[0.24701,51.60305],[0.24684,51.603]]},"properties":{"name":"Colchester Road","category":"trunk","osm_type":"way","osm_id":"1546641762","operator":"Transport for London","ref":"A12"}},{"type":"Feature","geometry":{"type":"LineString","coordinates":[[0.54163,51.56614],[0.54093,51.56647]]},"properties":{"name":"Sadlers Farm Roundabout","category":"primary","osm_type":"way","osm_id":"1546997925"}},{"type":"Feature","geometry":{"type":"LineString","coordinates":[[0.17392,51.72599],[0.18018,51.72423]]},"properties":{"name":"Canes Lane","category":"trunk","osm_type":"way","osm_id":"1547012418","ref":"A414"}},{"type":"Feature","geometry":{"type":"LineString","coordinates":[[0.17387,51.726],[0.17392,51.72599]]},"properties":{"name":"Canes Lane","category":"trunk","osm_type":"way","osm_id":"1547012419","ref":"A414"}},{"type":"Feature","geometry":{"type":"LineString","coordinates":[[0.45157,51.56901],[0.4515,51.56906]]},"properties":{"name":"A176","category":"primary","osm_type":"way","osm_id":"1547722149","ref":"A176"}},{"type":"Feature","geometry":{"type":"LineString","coordinates":[[0.45154,51.56943],[0.45163,51.56947]]},"properties":{"name":"A176","category":"primary","osm_type":"way","osm_id":"1547722150","ref":"A176"}},{"type":"Feature","geometry":{"type":"LineString","coordinates":[[0.45217,51.56945],[0.45225,51.56939]]},"properties":{"name":"A176","category":"primary","osm_type":"way","osm_id":"1547722151","ref":"A176"}},{"type":"Feature","geometry":{"type":"LineString","coordinates":[[0.45225,51.56907],[0.45214,51.569]]},"properties":{"name":"A176","category":"primary","osm_type":"way","osm_id":"1547722152","ref":"A176"}},{"type":"Feature","geometry":{"type":"LineString","coordinates":[[0.46524,51.55055],[0.46519,51.55056]]},"properties":{"name":"Five Bells","category":"primary","osm_type":"way","osm_id":"1547723291","ref":"A176"}},{"type":"Feature","geometry":{"type":"LineString","coordinates":[[0.46559,51.55226],[0.46565,51.55226]]},"properties":{"name":"Five Bells","category":"primary","osm_type":"way","osm_id":"1547724736","ref":"A176"}},{"type":"Feature","geometry":{"type":"LineString","coordinates":[[0.49337,51.57349],[0.49344,51.57345]]},"properties":{"name":"A132","category":"primary","osm_type":"way","osm_id":"1547725302","ref":"A132"}},{"type":"Feature","geometry":{"type":"LineString","coordinates":[[0.51779,51.60041],[0.51779,51.60049]]},"properties":{"name":"A132","category":"primary","osm_type":"way","osm_id":"1547730837","ref":"A132"}},{"type":"Feature","geometry":{"type":"LineString","coordinates":[[0.51839,51.60015],[0.51828,51.60014]]},"properties":{"name":"A132","category":"primary","osm_type":"way","osm_id":"1547730838","ref":"A132"}},{"type":"Feature","geometry":{"type":"LineString","coordinates":[[0.51877,51.60045],[0.51875,51.60034]]},"properties":{"name":"A132","category":"primary","osm_type":"way","osm_id":"1547730839","ref":"A132"}},{"type":"Feature","geometry":{"type":"LineString","coordinates":[[0.46522,51.7346],[0.46466,51.7349]]},"properties":{"name":"Parkway","category":"primary","osm_type":"way","osm_id":"1547741802","ref":"A1060"}},{"type":"Feature","geometry":{"type":"LineString","coordinates":[[0.46527,51.73464],[0.46466,51.7349]]},"properties":{"name":"Parkway","category":"primary","osm_type":"way","osm_id":"1547741803","ref":"A1060"}},{"type":"Feature","geometry":{"type":"LineString","coordinates":[[0.46544,51.73464],[0.46609,51.73437]]},"properties":{"name":"Parkway","category":"primary","osm_type":"way","osm_id":"1547741804","ref":"A1060"}},{"type":"Feature","geometry":{"type":"LineString","coordinates":[[0.46549,51.73467],[0.46609,51.73437]]},"properties":{"name":"Parkway","category":"primary","osm_type":"way","osm_id":"1547741805","ref":"A1060"}},{"type":"Feature","geometry":{"type":"LineString","coordinates":[[0.46538,51.73472],[0.46549,51.73467]]},"properties":{"name":"Parkway","category":"primary","osm_type":"way","osm_id":"1547741806","ref":"A1060"}},{"type":"Feature","geometry":{"type":"LineString","coordinates":[[0.46538,51.73459],[0.46527,51.73464]]},"properties":{"name":"Parkway","category":"primary","osm_type":"way","osm_id":"1547741807","ref":"A1060"}},{"type":"Feature","geometry":{"type":"LineString","coordinates":[[0.46533,51.73468],[0.46544,51.73464]]},"properties":{"name":"Parkway","category":"primary","osm_type":"way","osm_id":"1547741808","ref":"A1060"}},{"type":"Feature","geometry":{"type":"LineString","coordinates":[[0.46533,51.73455],[0.46522,51.7346]]},"properties":{"name":"Parkway","category":"primary","osm_type":"way","osm_id":"1547741809","ref":"A1060"}},{"type":"Feature","geometry":{"type":"LineString","coordinates":[[0.71853,51.5352],[0.71856,51.53522]]},"properties":{"name":"Queensway","category":"primary","osm_type":"way","osm_id":"1549447502"}},{"type":"Feature","geometry":{"type":"LineString","coordinates":[[0.78022,51.53831],[0.7802,51.53828]]},"properties":{"name":"North Shoebury Road","category":"primary","osm_type":"way","osm_id":"1549448127","ref":"A13"}},{"type":"Feature","geometry":{"type":"LineString","coordinates":[[0.03819,51.53026],[0.03794,51.53023]]},"properties":{"name":"Barking Road","category":"primary","osm_type":"way","osm_id":"1550313272","ref":"A124"}},{"type":"Feature","geometry":{"type":"LineString","coordinates":[[0.16966,51.57425],[0.17352,51.57482]]},"properties":{"name":"London Road","category":"primary","osm_type":"way","osm_id":"1550608399","ref":"A118"}},{"type":"Feature","geometry":{"type":"LineString","coordinates":[[0.16908,51.57417],[0.16966,51.57425]]},"properties":{"name":"London Road","category":"primary","osm_type":"way","osm_id":"1550608400","ref":"A118"}},{"type":"Feature","geometry":{"type":"LineString","coordinates":[[0.17742,51.58122],[0.17737,51.58126]]},"properties":{"name":"North Street","category":"primary","osm_type":"way","osm_id":"1550608423","ref":"A125"}},{"type":"Feature","geometry":{"type":"LineString","coordinates":[[0.16639,51.58254],[0.16615,51.58239]]},"properties":{"name":"Eastern Avenue West","category":"trunk","osm_type":"way","osm_id":"1550608442","operator":"Transport for London","ref":"A12"}},{"type":"Feature","geometry":{"type":"LineString","coordinates":[[0.16671,51.58274],[0.16639,51.58254]]},"properties":{"name":"Eastern Avenue West","category":"trunk","osm_type":"way","osm_id":"1550608443","operator":"Transport for London","ref":"A12"}},{"type":"Feature","geometry":{"type":"LineString","coordinates":[[0.16615,51.58239],[0.16597,51.58229]]},"properties":{"name":"Eastern Avenue West","category":"trunk","osm_type":"way","osm_id":"1550608449","operator":"Transport for London","ref":"A12"}},{"type":"Feature","geometry":{"type":"LineString","coordinates":[[0.17291,51.58533],[0.17283,51.58558]]},"properties":{"name":"North Street","category":"primary","osm_type":"way","osm_id":"1550608454","ref":"A125"}},{"type":"Feature","geometry":{"type":"LineString","coordinates":[[0.1155,51.58256],[0.1159,51.58254]]},"properties":{"name":"Eastern Avenue","category":"trunk","osm_type":"way","osm_id":"1550789758","operator":"Transport for London","ref":"A12"}},{"type":"Feature","geometry":{"type":"LineString","coordinates":[[0.11499,51.58257],[0.1155,51.58256]]},"properties":{"name":"Eastern Avenue","category":"trunk","osm_type":"way","osm_id":"1550789759","operator":"Transport for London","ref":"A12"}},{"type":"Feature","geometry":{"type":"LineString","coordinates":[[0.1159,51.58254],[0.11689,51.58248]]},"properties":{"name":"Eastern Avenue","category":"trunk","osm_type":"way","osm_id":"1550789761","operator":"Transport for London","ref":"A12"}},{"type":"Feature","geometry":{"type":"LineString","coordinates":[[0.11619,51.58242],[0.11479,51.58247]]},"properties":{"name":"Eastern Avenue","category":"trunk","osm_type":"way","osm_id":"1550789789","operator":"Transport for London","ref":"A12"}},{"type":"Feature","geometry":{"type":"LineString","coordinates":[[0.11692,51.58236],[0.11619,51.58242]]},"properties":{"name":"Eastern Avenue","category":"trunk","osm_type":"way","osm_id":"1550789792","operator":"Transport for London","ref":"A12"}},{"type":"Feature","geometry":{"type":"LineString","coordinates":[[0.18979,51.52903],[0.19016,51.52867]]},"properties":{"name":"Rainham Road","category":"primary","osm_type":"way","osm_id":"1550838936","ref":"A125"}},{"type":"Feature","geometry":{"type":"LineString","coordinates":[[0.19241,51.52759],[0.19293,51.52741]]},"properties":{"name":"Rainham Road","category":"primary","osm_type":"way","osm_id":"1550838943","ref":"A125"}},{"type":"Feature","geometry":{"type":"LineString","coordinates":[[0.19294,51.52667],[0.19252,51.52604]]},"properties":{"name":"Rainham Road","category":"primary","osm_type":"way","osm_id":"1550838945","ref":"A125"}},{"type":"Feature","geometry":{"type":"LineString","coordinates":[[0.19321,51.52709],[0.19294,51.52667]]},"properties":{"name":"Rainham Road","category":"primary","osm_type":"way","osm_id":"1550838946","ref":"A125"}},{"type":"Feature","geometry":{"type":"LineString","coordinates":[[0.19245,51.52591],[0.19241,51.52582]]},"properties":{"name":"Rainham Road","category":"primary","osm_type":"way","osm_id":"1550838949","ref":"A125"}},{"type":"Feature","geometry":{"type":"LineString","coordinates":[[0.18346,51.53305],[0.18439,51.53258]]},"properties":{"name":"Rainham Road","category":"primary","osm_type":"way","osm_id":"1550838950","ref":"A125"}},{"type":"Feature","geometry":{"type":"LineString","coordinates":[[0.18612,51.5315],[0.18631,51.53139]]},"properties":{"name":"Rainham Road","category":"primary","osm_type":"way","osm_id":"1550838957","ref":"A125"}},{"type":"Feature","geometry":{"type":"LineString","coordinates":[[0.18439,51.53258],[0.18612,51.5315]]},"properties":{"name":"Rainham Road","category":"primary","osm_type":"way","osm_id":"1550838958","ref":"A125"}},{"type":"Feature","geometry":{"type":"LineString","coordinates":[[0.18631,51.53139],[0.18682,51.5311]]},"properties":{"name":"Rainham Road","category":"primary","osm_type":"way","osm_id":"1550838959","ref":"A125"}},{"type":"Feature","geometry":{"type":"LineString","coordinates":[[0.18682,51.5311],[0.18724,51.53084]]},"properties":{"name":"Rainham Road","category":"primary","osm_type":"way","osm_id":"1550838960","ref":"A125"}},{"type":"Feature","geometry":{"type":"LineString","coordinates":[[0.18939,51.52943],[0.18979,51.52903]]},"properties":{"name":"Rainham Road","category":"primary","osm_type":"way","osm_id":"1550838979","ref":"A125"}},{"type":"Feature","geometry":{"type":"LineString","coordinates":[[0.18802,51.53021],[0.18808,51.53016]]},"properties":{"name":"Rainham Road","category":"primary","osm_type":"way","osm_id":"1550838992","ref":"A125"}},{"type":"Feature","geometry":{"type":"LineString","coordinates":[[0.18808,51.53016],[0.18827,51.53001]]},"properties":{"name":"Rainham Road","category":"primary","osm_type":"way","osm_id":"1550838995","ref":"A125"}},{"type":"Feature","geometry":{"type":"LineString","coordinates":[[0.06575,51.57346],[0.06517,51.57277]]},"properties":{"name":"Cranbrook Road","category":"primary","osm_type":"way","osm_id":"1551042020","ref":"A123"}},{"type":"Feature","geometry":{"type":"LineString","coordinates":[[0.06368,51.5707],[0.0641,51.57011]]},"properties":{"name":"Cranbrook Road","category":"primary","osm_type":"way","osm_id":"1551042050","ref":"A123"}},{"type":"Feature","geometry":{"type":"LineString","coordinates":[[0.0641,51.57011],[0.06413,51.57006]]},"properties":{"name":"Cranbrook Road","category":"primary","osm_type":"way","osm_id":"1551042051","ref":"A123"}},{"type":"Feature","geometry":{"type":"LineString","coordinates":[[0.06413,51.57006],[0.06416,51.57]]},"properties":{"name":"Cranbrook Road","category":"primary","osm_type":"way","osm_id":"1551042053","ref":"A123"}},{"type":"Feature","geometry":{"type":"LineString","coordinates":[[0.06433,51.56968],[0.06445,51.56946]]},"properties":{"name":"Cranbrook Road","category":"primary","osm_type":"way","osm_id":"1551042054","ref":"A123"}},{"type":"Feature","geometry":{"type":"LineString","coordinates":[[0.06416,51.57],[0.06423,51.56987]]},"properties":{"name":"Cranbrook Road","category":"primary","osm_type":"way","osm_id":"1551042055","ref":"A123"}},{"type":"Feature","geometry":{"type":"LineString","coordinates":[[0.06445,51.56946],[0.06448,51.56941]]},"properties":{"name":"Cranbrook Road","category":"primary","osm_type":"way","osm_id":"1551042059","ref":"A123"}},{"type":"Feature","geometry":{"type":"LineString","coordinates":[[0.06428,51.56977],[0.06433,51.56968]]},"properties":{"name":"Cranbrook Road","category":"primary","osm_type":"way","osm_id":"1551042060","ref":"A123"}},{"type":"Feature","geometry":{"type":"LineString","coordinates":[[0.06448,51.56941],[0.0649,51.56857]]},"properties":{"name":"Cranbrook Road","category":"primary","osm_type":"way","osm_id":"1551042061","ref":"A123"}},{"type":"Feature","geometry":{"type":"LineString","coordinates":[[0.06603,51.57382],[0.06585,51.57359]]},"properties":{"name":"Cranbrook Road","category":"primary","osm_type":"way","osm_id":"1551042071","ref":"A123"}},{"type":"Feature","geometry":{"type":"LineString","coordinates":[[0.06618,51.57411],[0.06615,51.57404]]},"properties":{"name":"Cranbrook Road","category":"primary","osm_type":"way","osm_id":"1551042072","ref":"A123"}},{"type":"Feature","geometry":{"type":"LineString","coordinates":[[0.06585,51.57359],[0.06575,51.57346]]},"properties":{"name":"Cranbrook Road","category":"primary","osm_type":"way","osm_id":"1551042074","ref":"A123"}},{"type":"Feature","geometry":{"type":"LineString","coordinates":[[0.06615,51.57404],[0.06603,51.57382]]},"properties":{"name":"Cranbrook Road","category":"primary","osm_type":"way","osm_id":"1551042075","ref":"A123"}},{"type":"Feature","geometry":{"type":"LineString","coordinates":[[0.06517,51.57277],[0.06485,51.57249]]},"properties":{"name":"Cranbrook Road","category":"primary","osm_type":"way","osm_id":"1551042082","ref":"A123"}},{"type":"Feature","geometry":{"type":"LineString","coordinates":[[0.06474,51.57238],[0.06438,51.57191]]},"properties":{"name":"Cranbrook Road","category":"primary","osm_type":"way","osm_id":"1551120554","ref":"A123"}},{"type":"Feature","geometry":{"type":"LineString","coordinates":[[0.06613,51.56654],[0.06618,51.56646]]},"properties":{"name":"Cranbrook Road","category":"primary","osm_type":"way","osm_id":"1551120570","ref":"A123"}},{"type":"Feature","geometry":{"type":"LineString","coordinates":[[0.06423,51.56987],[0.06428,51.56977]]},"properties":{"name":"Cranbrook Road","category":"primary","osm_type":"way","osm_id":"1551120571","ref":"A123"}},{"type":"Feature","geometry":{"type":"LineString","coordinates":[[0.06618,51.56646],[0.0661,51.56547]]},"properties":{"name":"Cranbrook Road","category":"primary","osm_type":"way","osm_id":"1551120590","ref":"A123"}},{"type":"Feature","geometry":{"type":"LineString","coordinates":[[0.06581,51.56515],[0.06595,51.56525]]},"properties":{"name":"The Drive","category":"primary_link","osm_type":"way","osm_id":"1551120595"}},{"type":"Feature","geometry":{"type":"LineString","coordinates":[[0.0661,51.56547],[0.06602,51.56532]]},"properties":{"name":"Cranbrook Road","category":"primary","osm_type":"way","osm_id":"1551120603","ref":"A123"}},{"type":"Feature","geometry":{"type":"LineString","coordinates":[[0.54079,51.56671],[0.54079,51.56672]]},"properties":{"name":"Sadlers Farm Roundabout","category":"primary","osm_type":"way","osm_id":"1551144809","ref":"A13"}},{"type":"Feature","geometry":{"type":"LineString","coordinates":[[0.54129,51.56731],[0.54131,51.56732]]},"properties":{"name":"Sadlers Farm Roundabout","category":"primary","osm_type":"way","osm_id":"1551144810","ref":"A13"}},{"type":"Feature","geometry":{"type":"LineString","coordinates":[[0.5251,51.61551],[0.52509,51.61552]]},"properties":{"name":"Major roads","category":"primary","osm_type":"way","osm_id":"1551145976"}},{"type":"Feature","geometry":{"type":"LineString","coordinates":[[0.07628,51.54771],[0.07624,51.54779]]},"properties":{"name":"Ilford Lane","category":"primary","osm_type":"way","osm_id":"1551811621","ref":"A123"}},{"type":"Feature","geometry":{"type":"LineString","coordinates":[[0.38599,51.5828],[0.40427,51.58559],[0.41127,51.58596]]},"properties":{"name":"Southend Arterial Road","category":"trunk","osm_type":"way","osm_id":"1552122439","ref":"A127"}},{"type":"Feature","geometry":{"type":"LineString","coordinates":[[0.2587,51.57804],[0.24435,51.57894]]},"properties":{"name":"Southend Arterial Road","category":"trunk","osm_type":"way","osm_id":"1552122441","operator":"Transport for London","ref":"A127"}},{"type":"Feature","geometry":{"type":"LineString","coordinates":[[0.38508,51.58254],[0.33043,51.57655]]},"properties":{"name":"Southend Arterial Road","category":"trunk","osm_type":"way","osm_id":"1552122443","ref":"A127"}},{"type":"Feature","geometry":{"type":"LineString","coordinates":[[0.08118,51.53615],[0.0814,51.53624]]},"properties":{"name":"Axe Street","category":"primary","osm_type":"way","osm_id":"1552495422","ref":"A123"}},{"type":"Feature","geometry":{"type":"LineString","coordinates":[[0.08207,51.53577],[0.08209,51.5357]]},"properties":{"name":"St Paul's Road","category":"primary","osm_type":"way","osm_id":"1552495423","ref":"A123"}},{"type":"Feature","geometry":{"type":"LineString","coordinates":[[0.08187,51.53548],[0.08163,51.53544]]},"properties":{"name":"St Paul's Road","category":"primary","osm_type":"way","osm_id":"1552495424","ref":"A123"}},{"type":"Feature","geometry":{"type":"LineString","coordinates":[[0.08259,51.53538],[0.08263,51.53531]]},"properties":{"name":"Ripple Road","category":"primary","osm_type":"way","osm_id":"1552495425","ref":"A123"}},{"type":"Feature","geometry":{"type":"LineString","coordinates":[[0.08263,51.53531],[0.08253,51.53535]]},"properties":{"name":"St Paul's Road","category":"primary","osm_type":"way","osm_id":"1552495426","ref":"A123"}},{"type":"Feature","geometry":{"type":"LineString","coordinates":[[0.08203,51.53541],[0.08163,51.53544]]},"properties":{"name":"St Paul's Road","category":"primary","osm_type":"way","osm_id":"1552495427","ref":"A123"}},{"type":"Feature","geometry":{"type":"LineString","coordinates":[[0.08223,51.53567],[0.08231,51.5356]]},"properties":{"name":"Ripple Road","category":"primary","osm_type":"way","osm_id":"1552495428","ref":"A123"}},{"type":"Feature","geometry":{"type":"LineString","coordinates":[[0.08205,51.53558],[0.08187,51.53548]]},"properties":{"name":"St Paul's Road","category":"primary","osm_type":"way","osm_id":"1552495431","ref":"A123"}},{"type":"Feature","geometry":{"type":"LineString","coordinates":[[0.08684,51.53447],[0.08696,51.5345]]},"properties":{"name":"Ripple Road","category":"primary","osm_type":"way","osm_id":"1552495435","ref":"A123"}},{"type":"Feature","geometry":{"type":"LineString","coordinates":[[0.08456,51.53416],[0.08488,51.53416]]},"properties":{"name":"Ripple Road","category":"primary","osm_type":"way","osm_id":"1552495437","ref":"A123"}},{"type":"Feature","geometry":{"type":"LineString","coordinates":[[0.0871,51.53456],[0.08737,51.53463]]},"properties":{"name":"Ripple Road","category":"primary","osm_type":"way","osm_id":"1552495441","ref":"A123"}},{"type":"Feature","geometry":{"type":"LineString","coordinates":[[0.08746,51.53458],[0.0874,51.53456]]},"properties":{"name":"Ripple Road","category":"primary","osm_type":"way","osm_id":"1552495443","ref":"A123"}},{"type":"Feature","geometry":{"type":"LineString","coordinates":[[0.08737,51.53463],[0.08751,51.53467]]},"properties":{"name":"Ripple Road","category":"primary","osm_type":"way","osm_id":"1552495444","ref":"A123"}},{"type":"Feature","geometry":{"type":"LineString","coordinates":[[0.08407,51.53419],[0.08456,51.53416]]},"properties":{"name":"Ripple Road","category":"primary","osm_type":"way","osm_id":"1552495457","ref":"A123"}},{"type":"Feature","geometry":{"type":"LineString","coordinates":[[0.08396,51.53426],[0.08407,51.53419]]},"properties":{"name":"Ripple Road","category":"primary","osm_type":"way","osm_id":"1552495474","ref":"A123"}},{"type":"Feature","geometry":{"type":"LineString","coordinates":[[0.08367,51.53448],[0.08374,51.53443]]},"properties":{"name":"Ripple Road","category":"primary","osm_type":"way","osm_id":"1552495475","ref":"A123"}},{"type":"Feature","geometry":{"type":"LineString","coordinates":[[0.04578,51.50219],[0.04662,51.50201]]},"properties":{"name":"Connaught Road","category":"primary","osm_type":"way","osm_id":"1552937587","ref":"A112"}},{"type":"Feature","geometry":{"type":"LineString","coordinates":[[0.04522,51.50235],[0.04578,51.50219]]},"properties":{"name":"Connaught Road","category":"primary","osm_type":"way","osm_id":"1552937588","ref":"A112"}},{"type":"Feature","geometry":{"type":"LineString","coordinates":[[0.04842,51.5018],[0.04898,51.50173]]},"properties":{"name":"Albert Road","category":"primary","osm_type":"way","osm_id":"1552937595","ref":"A112"}},{"type":"Feature","geometry":{"type":"LineString","coordinates":[[0.04773,51.50188],[0.04842,51.5018]]},"properties":{"name":"Albert Road","category":"primary","osm_type":"way","osm_id":"1552937596","ref":"A112"}},{"type":"Feature","geometry":{"type":"LineString","coordinates":[[0.60609,51.57634],[0.59205,51.57767]]},"properties":{"name":"Southend Arterial Road","category":"trunk","osm_type":"way","osm_id":"1552999889","ref":"A127"}},{"type":"Feature","geometry":{"type":"LineString","coordinates":[[0.08806,51.54345],[0.0883,51.54355]]},"properties":{"name":"Longbridge Road","category":"primary","osm_type":"way","osm_id":"1553778890","ref":"A124"}},{"type":"Feature","geometry":{"type":"LineString","coordinates":[[0.08756,51.54324],[0.08806,51.54345]]},"properties":{"name":"Longbridge Road","category":"primary","osm_type":"way","osm_id":"1553778891","ref":"A124"}},{"type":"Feature","geometry":{"type":"LineString","coordinates":[[0.46984,51.74365],[0.46959,51.74326]]},"properties":{"name":"Chelmer Valley Road","category":"primary","osm_type":"way","osm_id":"1554359190","ref":"A1016"}},{"type":"Feature","geometry":{"type":"LineString","coordinates":[[0.95796,51.91234],[0.95307,51.91249]]},"properties":{"name":"John de Bois Hill","category":"primary","osm_type":"way","osm_id":"1554558476","ref":"A137"}},{"type":"Feature","geometry":{"type":"LineString","coordinates":[[0.95825,51.91239],[0.95796,51.91234]]},"properties":{"name":"John de Bois Hill","category":"primary","osm_type":"way","osm_id":"1554558477","ref":"A137"}},{"type":"Feature","geometry":{"type":"LineString","coordinates":[[0.06635,51.57562],[0.06639,51.57492]]},"properties":{"name":"Cranbrook Road","category":"primary","osm_type":"way","osm_id":"1555349143","ref":"A123"}},{"type":"Feature","geometry":{"type":"LineString","coordinates":[[0.06799,51.57629],[0.06823,51.57625]]},"properties":{"name":"Eastern Avenue","category":"trunk","osm_type":"way","osm_id":"1555349151","operator":"Transport for London","ref":"A12"}},{"type":"Feature","geometry":{"type":"LineString","coordinates":[[0.98665,51.88174],[0.9874,51.88174]]},"properties":{"name":"Colchester Road","category":"primary","osm_type":"way","osm_id":"1556778412","ref":"A133"}},{"type":"Feature","geometry":{"type":"LineString","coordinates":[[0.99733,51.88016],[0.99789,51.87993]]},"properties":{"name":"Clacton Road","category":"primary","osm_type":"way","osm_id":"1556778413","ref":"A133"}},{"type":"Feature","geometry":{"type":"LineString","coordinates":[[0.00477,51.53878],[0.00473,51.53881]]},"properties":{"name":"West Ham Lane","category":"primary","osm_type":"way","osm_id":"1557554664","ref":"A112"}},{"type":"Feature","geometry":{"type":"LineString","coordinates":[[0.01929,51.53104],[0.01953,51.53107]]},"properties":{"name":"High Street","category":"primary","osm_type":"way","osm_id":"1557742390","ref":"A112"}},{"type":"Feature","geometry":{"type":"LineString","coordinates":[[0.0059,51.53762],[0.00575,51.53785]]},"properties":{"name":"West Ham Lane","category":"primary","osm_type":"way","osm_id":"1557941467","ref":"A112"}},{"type":"Feature","geometry":{"type":"LineString","coordinates":[[0.0104,51.53454],[0.01102,51.5343]]},"properties":{"name":"New Plaistow Road","category":"primary","osm_type":"way","osm_id":"1557941473","ref":"A112"}},{"type":"Feature","geometry":{"type":"LineString","coordinates":[[0.01235,51.53386],[0.01315,51.53363]]},"properties":{"name":"Plaistow Road","category":"primary","osm_type":"way","osm_id":"1557941475","ref":"A112"}},{"type":"Feature","geometry":{"type":"LineString","coordinates":[[0.01315,51.53363],[0.01436,51.53309]]},"properties":{"name":"Plaistow Road","category":"primary","osm_type":"way","osm_id":"1557941477","ref":"A112"}},{"type":"Feature","geometry":{"type":"LineString","coordinates":[[0.01512,51.5326],[0.01553,51.53237]]},"properties":{"name":"Plaistow Road","category":"primary","osm_type":"way","osm_id":"1557941478","ref":"A112"}},{"type":"Feature","geometry":{"type":"LineString","coordinates":[[0.01697,51.5318],[0.01737,51.53164]]},"properties":{"name":"Plaistow Road","category":"primary","osm_type":"way","osm_id":"1557941480","ref":"A112"}},{"type":"Feature","geometry":{"type":"LineString","coordinates":[[0.01755,51.53156],[0.01773,51.53149]]},"properties":{"name":"Plaistow Road","category":"primary","osm_type":"way","osm_id":"1557941481","ref":"A112"}},{"type":"Feature","geometry":{"type":"LineString","coordinates":[[0.01737,51.53164],[0.01755,51.53156]]},"properties":{"name":"Plaistow Road","category":"primary","osm_type":"way","osm_id":"1557941482","ref":"A112"}},{"type":"Feature","geometry":{"type":"LineString","coordinates":[[0.01812,51.53132],[0.01832,51.53125]]},"properties":{"name":"Plaistow Road","category":"primary","osm_type":"way","osm_id":"1557941485","ref":"A112"}},{"type":"Feature","geometry":{"type":"LineString","coordinates":[[0.01872,51.53115],[0.01882,51.53113]]},"properties":{"name":"Plaistow Road","category":"primary","osm_type":"way","osm_id":"1557941486","ref":"A112"}},{"type":"Feature","geometry":{"type":"LineString","coordinates":[[0.0191,51.53108],[0.01929,51.53104]]},"properties":{"name":"Plaistow Road","category":"primary","osm_type":"way","osm_id":"1557941487","ref":"A112"}},{"type":"Feature","geometry":{"type":"LineString","coordinates":[[0.00465,51.53887],[0.00439,51.53908]]},"properties":{"name":"West Ham Lane","category":"primary","osm_type":"way","osm_id":"1557948188","ref":"A112"}},{"type":"Feature","geometry":{"type":"LineString","coordinates":[[0.00493,51.53863],[0.00484,51.53872]]},"properties":{"name":"West Ham Lane","category":"primary","osm_type":"way","osm_id":"1557948189","ref":"A112"}},{"type":"Feature","geometry":{"type":"LineString","coordinates":[[0.00523,51.53838],[0.00493,51.53863]]},"properties":{"name":"West Ham Lane","category":"primary","osm_type":"way","osm_id":"1557948190","ref":"A112"}},{"type":"Feature","geometry":{"type":"LineString","coordinates":[[0.18167,51.5229],[0.1817,51.52289]]},"properties":{"name":"New Road","category":"primary","osm_type":"way","osm_id":"1558316668","ref":"A1306"}},{"type":"Feature","geometry":{"type":"LineString","coordinates":[[0.18116,51.52303],[0.1812,51.52302]]},"properties":{"name":"New Road","category":"primary","osm_type":"way","osm_id":"1558316669","ref":"A1306"}},{"type":"Feature","geometry":{"type":"LineString","coordinates":[[0.18101,51.52293],[0.18097,51.52294]]},"properties":{"name":"New Road","category":"primary","osm_type":"way","osm_id":"1558316670","ref":"A1306"}},{"type":"Feature","geometry":{"type":"LineString","coordinates":[[0.14809,51.53201],[0.14814,51.53207]]},"properties":{"name":"Heathway","category":"primary","osm_type":"way","osm_id":"1558373748","ref":"A1240"}},{"type":"Feature","geometry":{"type":"LineString","coordinates":[[0.14814,51.54042],[0.14814,51.54043]]},"properties":{"name":"Heathway","category":"primary","osm_type":"way","osm_id":"1558373750","ref":"A1240"}},{"type":"Feature","geometry":{"type":"LineString","coordinates":[[0.14817,51.54023],[0.14814,51.54042]]},"properties":{"name":"Heathway","category":"primary","osm_type":"way","osm_id":"1558373751","ref":"A1240"}},{"type":"Feature","geometry":{"type":"LineString","coordinates":[[0.1479,51.54295],[0.14791,51.54308]]},"properties":{"name":"Heathway","category":"primary","osm_type":"way","osm_id":"1558373752","ref":"A1240"}},{"type":"Feature","geometry":{"type":"LineString","coordinates":[[0.10979,51.53351],[0.10971,51.53345]]},"properties":{"name":"Lodge Avenue","category":"primary","osm_type":"way","osm_id":"1558378222","ref":"A1153"}},{"type":"Feature","geometry":{"type":"LineString","coordinates":[[0.11281,51.54058],[0.11278,51.54021]]},"properties":{"name":"Lodge Avenue","category":"primary","osm_type":"way","osm_id":"1558404416","ref":"A1153"}},{"type":"Feature","geometry":{"type":"LineString","coordinates":[[0.11266,51.53892],[0.11261,51.5385]]},"properties":{"name":"Lodge Avenue","category":"primary","osm_type":"way","osm_id":"1558404417","ref":"A1153"}},{"type":"Feature","geometry":{"type":"LineString","coordinates":[[0.11261,51.5385],[0.11259,51.53832]]},"properties":{"name":"Lodge Avenue","category":"primary","osm_type":"way","osm_id":"1558404418","ref":"A1153"}},{"type":"Feature","geometry":{"type":"LineString","coordinates":[[0.19278,51.56516],[0.1936,51.56518]]},"properties":{"name":"Hornchurch Road","category":"primary","osm_type":"way","osm_id":"1558412220","ref":"A124"}},{"type":"Feature","geometry":{"type":"LineString","coordinates":[[0.1936,51.56518],[0.19443,51.56517]]},"properties":{"name":"Hornchurch Road","category":"primary","osm_type":"way","osm_id":"1558412221","ref":"A124"}},{"type":"Feature","geometry":{"type":"LineString","coordinates":[[0.1946,51.56514],[0.19352,51.56509]]},"properties":{"name":"Hornchurch Road","category":"primary","osm_type":"way","osm_id":"1558412222","ref":"A124"}},{"type":"Feature","geometry":{"type":"LineString","coordinates":[[0.19352,51.56509],[0.19302,51.56507]]},"properties":{"name":"Hornchurch Road","category":"primary","osm_type":"way","osm_id":"1558412223","ref":"A124"}},{"type":"Feature","geometry":{"type":"LineString","coordinates":[[0.18581,51.56561],[0.18555,51.56563]]},"properties":{"name":"Roneo Corner","category":"primary","osm_type":"way","osm_id":"1558415044","ref":"A124"}},{"type":"Feature","geometry":{"type":"LineString","coordinates":[[0.18572,51.56576],[0.18572,51.56598]]},"properties":{"name":"Rom Valley Way","category":"primary","osm_type":"way","osm_id":"1558415045","ref":"A125"}},{"type":"Feature","geometry":{"type":"LineString","coordinates":[[0.18581,51.56571],[0.18572,51.56576]]},"properties":{"name":"Rom Valley Way","category":"primary","osm_type":"way","osm_id":"1558415048","ref":"A125"}},{"type":"Feature","geometry":{"type":"LineString","coordinates":[[0.18587,51.56576],[0.18581,51.56571]]},"properties":{"name":"Rom Valley Way","category":"primary_link","osm_type":"way","osm_id":"1558415049","ref":"A124"}},{"type":"Feature","geometry":{"type":"LineString","coordinates":[[0.18609,51.56563],[0.186,51.56566]]},"properties":{"name":"Rom Valley Way","category":"primary","osm_type":"way","osm_id":"1558415056","ref":"A125"}},{"type":"Feature","geometry":{"type":"LineString","coordinates":[[0.18609,51.56563],[0.18593,51.5656]]},"properties":{"name":"Roneo Corner","category":"primary","osm_type":"way","osm_id":"1558415216","ref":"A124"}},{"type":"Feature","geometry":{"type":"LineString","coordinates":[[0.18593,51.5656],[0.18581,51.56561]]},"properties":{"name":"Roneo Corner","category":"primary","osm_type":"way","osm_id":"1558415217","ref":"A124"}},{"type":"Feature","geometry":{"type":"LineString","coordinates":[[0.18375,51.56895],[0.18159,51.57052]]},"properties":{"name":"Rom Valley Way","category":"primary","osm_type":"way","osm_id":"1558416701","ref":"A125"}}]}