{"type":"FeatureCollection","features":[{"type":"Feature","geometry":{"type":"LineString","coordinates":[[-1.97158,55.74051],[-1.964,55.73268]]},"properties":{"name":"East Coast Main Line","category":"rail","osm_type":"way","osm_id":"3992021","operator":"Network Rail","ref":"ECM7"}},{"type":"Feature","geometry":{"type":"LineString","coordinates":[[-1.9073,55.68169],[-1.90383,55.67801],[-1.90004,55.67536],[-1.89431,55.67278],[-1.88957,55.67142]]},"properties":{"name":"East Coast Main Line","category":"rail","osm_type":"way","osm_id":"3992022","operator":"Network Rail","ref":"ECM7"}},{"type":"Feature","geometry":{"type":"LineString","coordinates":[[-1.81635,55.60695],[-1.79433,55.59044],[-1.76872,55.57784],[-1.76181,55.57404],[-1.75326,55.56837],[-1.74393,55.56063]]},"properties":{"name":"East Coast Main Line","category":"rail","osm_type":"way","osm_id":"3992076","operator":"Network Rail","ref":"ECM7"}},{"type":"Feature","geometry":{"type":"LineString","coordinates":[[-1.74167,55.55866],[-1.73751,55.55501]]},"properties":{"name":"East Coast Main Line","category":"rail","osm_type":"way","osm_id":"3992077","operator":"Network Rail","ref":"ECM7"}},{"type":"Feature","geometry":{"type":"LineString","coordinates":[[-2.00223,55.75909],[-1.9954,55.75646]]},"properties":{"name":"East Coast Main Line","category":"rail","osm_type":"way","osm_id":"32996797","operator":"Network Rail","ref":"ECM7"}},{"type":"Feature","geometry":{"type":"LineString","coordinates":[[-1.6782,55.51592],[-1.67804,55.51576]]},"properties":{"name":"East Coast Main Line","category":"rail","osm_type":"way","osm_id":"107475546","operator":"Network Rail","ref":"ECM7"}},{"type":"Feature","geometry":{"type":"LineString","coordinates":[[-1.67804,55.51576],[-1.67025,55.5081]]},"properties":{"name":"East Coast Main Line","category":"rail","osm_type":"way","osm_id":"107475555","operator":"Network Rail","ref":"ECM7"}},{"type":"Feature","geometry":{"type":"LineString","coordinates":[[-1.91091,55.68589],[-1.9073,55.68169]]},"properties":{"name":"East Coast Main Line","category":"rail","osm_type":"way","osm_id":"114442981","operator":"Network Rail","ref":"ECM7"}},{"type":"Feature","geometry":{"type":"LineString","coordinates":[[-1.91099,55.68599],[-1.91091,55.68589]]},"properties":{"name":"East Coast Main Line","category":"rail","osm_type":"way","osm_id":"114442983","operator":"Network Rail","ref":"ECM7"}},{"type":"Feature","geometry":{"type":"LineString","coordinates":[[-1.80473,55.59807],[-1.80357,55.59692]]},"properties":{"name":"Railways","category":"rail","osm_type":"way","osm_id":"114640274"}},{"type":"Feature","geometry":{"type":"LineString","coordinates":[[-1.80156,55.59578],[-1.80625,55.5995]]},"properties":{"name":"Railways","category":"rail","osm_type":"way","osm_id":"114640275"}},{"type":"Feature","geometry":{"type":"LineString","coordinates":[[-1.91687,55.69284],[-1.91099,55.68599]]},"properties":{"name":"East Coast Main Line","category":"rail","osm_type":"way","osm_id":"123271202","operator":"Network Rail","ref":"ECM7"}},{"type":"Feature","geometry":{"type":"LineString","coordinates":[[-1.98666,55.75172],[-1.98573,55.7512]]},"properties":{"name":"East Coast Main Line","category":"rail","osm_type":"way","osm_id":"123965368","operator":"Network Rail","ref":"ECM7"}},{"type":"Feature","geometry":{"type":"LineString","coordinates":[[-1.6781,55.51574],[-1.67827,55.5159]]},"properties":{"name":"East Coast Main Line","category":"rail","osm_type":"way","osm_id":"308734069","operator":"Network Rail","ref":"ECM7"}},{"type":"Feature","geometry":{"type":"LineString","coordinates":[[-1.70635,55.53659],[-1.69552,55.53124],[-1.69198,55.52903],[-1.6782,55.51592]]},"properties":{"name":"East Coast Main Line","category":"rail","osm_type":"way","osm_id":"308734070","operator":"Network Rail","ref":"ECM7"}},{"type":"Feature","geometry":{"type":"LineString","coordinates":[[-1.67827,55.5159],[-1.69202,55.52901],[-1.69556,55.53122],[-1.70678,55.53676]]},"properties":{"name":"East Coast Main Line","category":"rail","osm_type":"way","osm_id":"308734071","operator":"Network Rail","ref":"ECM7"}},{"type":"Feature","geometry":{"type":"LineString","coordinates":[[-1.66274,55.49778],[-1.66474,55.50222],[-1.66983,55.50759]]},"properties":{"name":"East Coast Main Line","category":"rail","osm_type":"way","osm_id":"308734072","operator":"Network Rail","ref":"ECM7"}},{"type":"Feature","geometry":{"type":"LineString","coordinates":[[-1.97164,55.74049],[-1.9778,55.74613],[-1.98432,55.75037]]},"properties":{"name":"East Coast Main Line","category":"rail","osm_type":"way","osm_id":"308744815","operator":"Network Rail","ref":"ECM7"}},{"type":"Feature","geometry":{"type":"LineString","coordinates":[[-1.98554,55.75109],[-1.98032,55.74804]]},"properties":{"name":"East Coast Main Line","category":"rail","osm_type":"way","osm_id":"308744816","operator":"Network Rail","ref":"ECM7"}},{"type":"Feature","geometry":{"type":"LineString","coordinates":[[-1.98578,55.75118],[-1.98671,55.75169]]},"properties":{"name":"East Coast Main Line","category":"rail","osm_type":"way","osm_id":"308744818","operator":"Network Rail","ref":"ECM7"}},{"type":"Feature","geometry":{"type":"LineString","coordinates":[[-1.91097,55.68588],[-1.91106,55.68599]]},"properties":{"name":"East Coast Main Line","category":"rail","osm_type":"way","osm_id":"308744819","operator":"Network Rail","ref":"ECM7"}},{"type":"Feature","geometry":{"type":"LineString","coordinates":[[-1.98573,55.7512],[-1.98554,55.75109]]},"properties":{"name":"East Coast Main Line","category":"rail","osm_type":"way","osm_id":"308744821","operator":"Network Rail","ref":"ECM7"}},{"type":"Feature","geometry":{"type":"LineString","coordinates":[[-1.98559,55.75107],[-1.98578,55.75118]]},"properties":{"name":"East Coast Main Line","category":"rail","osm_type":"way","osm_id":"308744828","operator":"Network Rail","ref":"ECM7"}},{"type":"Feature","geometry":{"type":"LineString","coordinates":[[-1.73589,55.55348],[-1.74173,55.55864]]},"properties":{"name":"East Coast Main Line","category":"rail","osm_type":"way","osm_id":"308744832","operator":"Network Rail","ref":"ECM7"}},{"type":"Feature","geometry":{"type":"LineString","coordinates":[[-1.90736,55.68167],[-1.91097,55.68588]]},"properties":{"name":"East Coast Main Line","category":"rail","osm_type":"way","osm_id":"308744839","operator":"Network Rail","ref":"ECM7"}},{"type":"Feature","geometry":{"type":"LineString","coordinates":[[-1.91106,55.68599],[-1.91693,55.69282]]},"properties":{"name":"East Coast Main Line","category":"rail","osm_type":"way","osm_id":"308744844","operator":"Network Rail","ref":"ECM7"}},{"type":"Feature","geometry":{"type":"LineString","coordinates":[[-1.91693,55.69282],[-1.93022,55.70782],[-1.96162,55.73051],[-1.97164,55.74049]]},"properties":{"name":"East Coast Main Line","category":"rail","osm_type":"way","osm_id":"308744846","operator":"Network Rail","ref":"ECM7"}},{"type":"Feature","geometry":{"type":"LineString","coordinates":[[-1.74173,55.55864],[-1.74399,55.56061]]},"properties":{"name":"East Coast Main Line","category":"rail","osm_type":"way","osm_id":"308744849","operator":"Network Rail","ref":"ECM7"}},{"type":"Feature","geometry":{"type":"LineString","coordinates":[[-1.8324,55.61783],[-1.84362,55.62447],[-1.84929,55.62928],[-1.87235,55.66119],[-1.87579,55.66507],[-1.8806,55.66825],[-1.88473,55.66997],[-1.88957,55.67137]]},"properties":{"name":"East Coast Main Line","category":"rail","osm_type":"way","osm_id":"308744853","operator":"Network Rail","ref":"ECM7"}},{"type":"Feature","geometry":{"type":"LineString","coordinates":[[-1.99149,55.75434],[-1.98666,55.75172]]},"properties":{"name":"East Coast Main Line","category":"rail","osm_type":"way","osm_id":"308744862","operator":"Network Rail","ref":"ECM7"}},{"type":"Feature","geometry":{"type":"LineString","coordinates":[[-1.98671,55.75169],[-1.99153,55.75431]]},"properties":{"name":"East Coast Main Line","category":"rail","osm_type":"way","osm_id":"308744864","operator":"Network Rail","ref":"ECM7"}},{"type":"Feature","geometry":{"type":"LineString","coordinates":[[-1.99153,55.75431],[-1.99359,55.75543]]},"properties":{"name":"East Coast Main Line","category":"rail","osm_type":"way","osm_id":"308744866","operator":"Network Rail","ref":"ECM7"}},{"type":"Feature","geometry":{"type":"LineString","coordinates":[[-1.91161,55.68662],[-1.91194,55.6871]]},"properties":{"name":"Railways","category":"rail","osm_type":"way","osm_id":"563128388","operator":"Network Rail"}},{"type":"Feature","geometry":{"type":"LineString","coordinates":[[-1.91223,55.68744],[-1.91262,55.6878]]},"properties":{"name":"Railways","category":"rail","osm_type":"way","osm_id":"563128389","operator":"Network Rail"}},{"type":"Feature","geometry":{"type":"LineString","coordinates":[[-1.67025,55.5081],[-1.66467,55.50223],[-1.66267,55.49777]]},"properties":{"name":"East Coast Main Line","category":"rail","osm_type":"way","osm_id":"563128390","operator":"Network Rail","ref":"ECM7"}},{"type":"Feature","geometry":{"type":"LineString","coordinates":[[-1.66983,55.50759],[-1.6781,55.51574]]},"properties":{"name":"East Coast Main Line","category":"rail","osm_type":"way","osm_id":"563128391","operator":"Network Rail","ref":"ECM7"}},{"type":"Feature","geometry":{"type":"LineString","coordinates":[[-1.99454,55.756],[-1.99149,55.75434]]},"properties":{"name":"East Coast Main Line","category":"rail","osm_type":"way","osm_id":"714494931","operator":"Network Rail","ref":"ECM7"}},{"type":"Feature","geometry":{"type":"LineString","coordinates":[[-1.99359,55.75543],[-1.99531,55.75636]]},"properties":{"name":"East Coast Main Line","category":"rail","osm_type":"way","osm_id":"714494932","operator":"Network Rail","ref":"ECM7"}},{"type":"Feature","geometry":{"type":"LineString","coordinates":[[-1.99526,55.75639],[-1.99454,55.756]]},"properties":{"name":"East Coast Main Line","category":"rail","osm_type":"way","osm_id":"714494933","operator":"Network Rail","ref":"ECM7"}},{"type":"Feature","geometry":{"type":"LineString","coordinates":[[-1.9954,55.75646],[-1.99526,55.75639]]},"properties":{"name":"East Coast Main Line","category":"rail","osm_type":"way","osm_id":"714494934","operator":"Network Rail","ref":"ECM7"}},{"type":"Feature","geometry":{"type":"LineString","coordinates":[[-1.99544,55.75643],[-2.00225,55.75906]]},"properties":{"name":"East Coast Main Line","category":"rail","osm_type":"way","osm_id":"714494935","operator":"Network Rail","ref":"ECM7"}},{"type":"Feature","geometry":{"type":"LineString","coordinates":[[-1.99531,55.75636],[-1.99544,55.75643]]},"properties":{"name":"East Coast Main Line","category":"rail","osm_type":"way","osm_id":"714494936","operator":"Network Rail","ref":"ECM7"}},{"type":"Feature","geometry":{"type":"LineString","coordinates":[[-1.98432,55.75037],[-1.98559,55.75107]]},"properties":{"name":"East Coast Main Line","category":"rail","osm_type":"way","osm_id":"714494939","operator":"Network Rail","ref":"ECM7"}},{"type":"Feature","geometry":{"type":"LineString","coordinates":[[-1.964,55.73268],[-1.96073,55.72988],[-1.93016,55.70784],[-1.91687,55.69284]]},"properties":{"name":"East Coast Main Line","category":"rail","osm_type":"way","osm_id":"714494940","operator":"Network Rail","ref":"ECM7"}},{"type":"Feature","geometry":{"type":"LineString","coordinates":[[-1.88957,55.67137],[-1.89435,55.67274],[-1.9001,55.67533],[-1.90389,55.67799],[-1.90736,55.68167]]},"properties":{"name":"East Coast Main Line","category":"rail","osm_type":"way","osm_id":"714497241","operator":"Network Rail","ref":"ECM7"}},{"type":"Feature","geometry":{"type":"LineString","coordinates":[[-1.88957,55.67142],[-1.88469,55.67],[-1.88055,55.66828],[-1.87474,55.66417],[-1.85363,55.63506]]},"properties":{"name":"East Coast Main Line","category":"rail","osm_type":"way","osm_id":"714497242","operator":"Network Rail","ref":"ECM7"}},{"type":"Feature","geometry":{"type":"LineString","coordinates":[[-1.81242,55.60407],[-1.80355,55.5973]]},"properties":{"name":"Railways","category":"rail","osm_type":"way","osm_id":"714579083","operator":"Network Rail"}},{"type":"Feature","geometry":{"type":"LineString","coordinates":[[-1.80361,55.59728],[-1.81257,55.604]]},"properties":{"name":"Railways","category":"rail","osm_type":"way","osm_id":"714579084","operator":"Network Rail"}},{"type":"Feature","geometry":{"type":"LineString","coordinates":[[-1.81598,55.60661],[-1.82525,55.61355],[-1.8324,55.61783]]},"properties":{"name":"East Coast Main Line","category":"rail","osm_type":"way","osm_id":"714579085","operator":"Network Rail","ref":"ECM7"}},{"type":"Feature","geometry":{"type":"LineString","coordinates":[[-1.83234,55.61785],[-1.82519,55.61357],[-1.81635,55.60695]]},"properties":{"name":"East Coast Main Line","category":"rail","osm_type":"way","osm_id":"714579086","operator":"Network Rail","ref":"ECM7"}},{"type":"Feature","geometry":{"type":"LineString","coordinates":[[-1.70773,55.53724],[-1.72684,55.54663],[-1.73054,55.54893],[-1.73402,55.55181]]},"properties":{"name":"East Coast Main Line","category":"rail","osm_type":"way","osm_id":"715516634","operator":"Network Rail","ref":"ECM7"}},{"type":"Feature","geometry":{"type":"LineString","coordinates":[[-1.73308,55.55106],[-1.72679,55.54666],[-1.70769,55.53726]]},"properties":{"name":"East Coast Main Line","category":"rail","osm_type":"way","osm_id":"715516635","operator":"Network Rail","ref":"ECM7"}},{"type":"Feature","geometry":{"type":"LineString","coordinates":[[-1.73563,55.55324],[-1.73589,55.55348]]},"properties":{"name":"East Coast Main Line","category":"rail","osm_type":"way","osm_id":"715516636","operator":"Network Rail","ref":"ECM7"}},{"type":"Feature","geometry":{"type":"LineString","coordinates":[[-1.73402,55.55181],[-1.73563,55.55324]]},"properties":{"name":"East Coast Main Line","category":"rail","osm_type":"way","osm_id":"715516637","operator":"Network Rail","ref":"ECM7"}},{"type":"Feature","geometry":{"type":"LineString","coordinates":[[-1.73751,55.55501],[-1.73308,55.55106]]},"properties":{"name":"East Coast Main Line","category":"rail","osm_type":"way","osm_id":"715516638","operator":"Network Rail","ref":"ECM7"}},{"type":"Feature","geometry":{"type":"LineString","coordinates":[[-1.74399,55.56061],[-1.75331,55.56835],[-1.76187,55.57401],[-1.76877,55.57781],[-1.79439,55.59041],[-1.81598,55.60661]]},"properties":{"name":"East Coast Main Line","category":"rail","osm_type":"way","osm_id":"715516639","operator":"Network Rail","ref":"ECM7"}},{"type":"Feature","geometry":{"type":"LineString","coordinates":[[-1.74393,55.56063],[-1.74167,55.55866]]},"properties":{"name":"East Coast Main Line","category":"rail","osm_type":"way","osm_id":"715516640","operator":"Network Rail","ref":"ECM7"}},{"type":"Feature","geometry":{"type":"LineString","coordinates":[[-1.85363,55.63506],[-1.84923,55.6293],[-1.84524,55.6257],[-1.83234,55.61785]]},"properties":{"name":"East Coast Main Line","category":"rail","osm_type":"way","osm_id":"724553104","operator":"Network Rail","ref":"ECM7"}},{"type":"Feature","geometry":{"type":"LineString","coordinates":[[-1.98032,55.74804],[-1.97158,55.74051]]},"properties":{"name":"East Coast Main Line","category":"rail","osm_type":"way","osm_id":"724553105","operator":"Network Rail","ref":"ECM7"}},{"type":"Feature","geometry":{"type":"LineString","coordinates":[[-1.70769,55.53726],[-1.70635,55.53659]]},"properties":{"name":"East Coast Main Line","category":"rail","osm_type":"way","osm_id":"865699770","operator":"Network Rail","ref":"ECM7"}},{"type":"Feature","geometry":{"type":"LineString","coordinates":[[-1.70678,55.53676],[-1.70773,55.53724]]},"properties":{"name":"East Coast Main Line","category":"rail","osm_type":"way","osm_id":"865699771","operator":"Network Rail","ref":"ECM7"}},{"type":"Feature","geometry":{"type":"LineString","coordinates":[[-1.80039,55.59491],[-1.80119,55.59544]]},"properties":{"name":"Railways","category":"rail","osm_type":"way","osm_id":"1007303857","operator":"Network Rail"}},{"type":"Feature","geometry":{"type":"LineString","coordinates":[[-1.80009,55.59468],[-1.79938,55.59408]]},"properties":{"name":"Railways","category":"rail","osm_type":"way","osm_id":"1007303861","operator":"Network Rail"}},{"type":"Feature","geometry":{"type":"LineString","coordinates":[[-1.7021,55.53452],[-1.7033,55.53507]]},"properties":{"name":"Railways","category":"rail","osm_type":"way","osm_id":"1076617113","operator":"Network Rail"}},{"type":"Feature","geometry":{"type":"LineString","coordinates":[[-1.70364,55.53524],[-1.70478,55.53584]]},"properties":{"name":"Railways","category":"rail","osm_type":"way","osm_id":"1076617114","operator":"Network Rail"}},{"type":"Feature","geometry":{"type":"LineString","coordinates":[[-1.81261,55.60403],[-1.81598,55.60661]]},"properties":{"name":"Railways","category":"rail","osm_type":"way","osm_id":"1184428677","operator":"Network Rail"}},{"type":"Feature","geometry":{"type":"LineString","coordinates":[[-1.81257,55.604],[-1.81261,55.60403]]},"properties":{"name":"Railways","category":"rail","osm_type":"way","osm_id":"1184428678","operator":"Network Rail"}},{"type":"Feature","geometry":{"type":"LineString","coordinates":[[-1.81635,55.60695],[-1.81245,55.60409]]},"properties":{"name":"Railways","category":"rail","osm_type":"way","osm_id":"1184428679","operator":"Network Rail"}},{"type":"Feature","geometry":{"type":"LineString","coordinates":[[-1.81245,55.60409],[-1.81242,55.60407]]},"properties":{"name":"Railways","category":"rail","osm_type":"way","osm_id":"1184428680","operator":"Network Rail"}},{"type":"Feature","geometry":{"type":"LineString","coordinates":[[-1.8028,55.59698],[-1.80252,55.59671]]},"properties":{"name":"Railways","category":"rail","osm_type":"way","osm_id":"1184428689"}}]}