{"type":"FeatureCollection","features":[{"type":"Feature","geometry":{"type":"LineString","coordinates":[[-1.31909,51.0701],[-1.32012,51.06689]]},"properties":{"name":"South West Main Line","category":"rail","osm_type":"way","osm_id":"1357063104","operator":"Network Rail","ref":"BML1"}},{"type":"Feature","geometry":{"type":"LineString","coordinates":[[-1.31992,51.0676],[-1.31913,51.0701]]},"properties":{"name":"South West Main Line","category":"rail","osm_type":"way","osm_id":"1357063105","operator":"Network Rail","ref":"BML1"}},{"type":"Feature","geometry":{"type":"LineString","coordinates":[[-1.31913,51.0701],[-1.31697,51.07712]]},"properties":{"name":"South West Main Line","category":"rail","osm_type":"way","osm_id":"1357063106","operator":"Network Rail","ref":"BML1"}},{"type":"Feature","geometry":{"type":"LineString","coordinates":[[-1.31693,51.07711],[-1.31909,51.0701]]},"properties":{"name":"South West Main Line","category":"rail","osm_type":"way","osm_id":"1357063107","operator":"Network Rail","ref":"BML1"}},{"type":"Feature","geometry":{"type":"LineString","coordinates":[[-1.3164,51.07896],[-1.31693,51.07711]]},"properties":{"name":"South West Main Line","category":"rail","osm_type":"way","osm_id":"1357063108","operator":"Network Rail","ref":"BML1"}},{"type":"Feature","geometry":{"type":"LineString","coordinates":[[-1.31637,51.07904],[-1.3164,51.07896]]},"properties":{"name":"South West Main Line","category":"rail","osm_type":"way","osm_id":"1357063109","operator":"Network Rail","ref":"BML1"}},{"type":"Feature","geometry":{"type":"LineString","coordinates":[[-1.31697,51.07712],[-1.31644,51.07896]]},"properties":{"name":"South West Main Line","category":"rail","osm_type":"way","osm_id":"1357063110","operator":"Network Rail","ref":"BML1"}},{"type":"Feature","geometry":{"type":"LineString","coordinates":[[-1.31644,51.07896],[-1.31642,51.07905]]},"properties":{"name":"South West Main Line","category":"rail","osm_type":"way","osm_id":"1357063111","operator":"Network Rail","ref":"BML1"}},{"type":"Feature","geometry":{"type":"LineString","coordinates":[[-1.31642,51.07905],[-1.3151,51.08347]]},"properties":{"name":"South West Main Line","category":"rail","osm_type":"way","osm_id":"1357063112","operator":"Network Rail","ref":"BML1"}},{"type":"Feature","geometry":{"type":"LineString","coordinates":[[-1.31503,51.08346],[-1.31637,51.07904]]},"properties":{"name":"South West Main Line","category":"rail","osm_type":"way","osm_id":"1357063113","operator":"Network Rail","ref":"BML1"}},{"type":"Feature","geometry":{"type":"LineString","coordinates":[[-1.3151,51.08347],[-1.31455,51.08541]]},"properties":{"name":"South West Main Line","category":"rail","osm_type":"way","osm_id":"1357063114","operator":"Network Rail","ref":"BML1"}},{"type":"Feature","geometry":{"type":"LineString","coordinates":[[-1.3145,51.08541],[-1.31503,51.08346]]},"properties":{"name":"South West Main Line","category":"rail","osm_type":"way","osm_id":"1357063115","operator":"Network Rail","ref":"BML1"}},{"type":"Feature","geometry":{"type":"LineString","coordinates":[[-1.31455,51.08541],[-1.31445,51.0858]]},"properties":{"name":"South West Main Line","category":"rail","osm_type":"way","osm_id":"1357063116","operator":"Network Rail","ref":"BML1"}},{"type":"Feature","geometry":{"type":"LineString","coordinates":[[-1.31445,51.0858],[-1.31442,51.0859]]},"properties":{"name":"South West Main Line","category":"rail","osm_type":"way","osm_id":"1357063117","operator":"Network Rail","ref":"BML1"}},{"type":"Feature","geometry":{"type":"LineString","coordinates":[[-1.3144,51.0858],[-1.3145,51.08541]]},"properties":{"name":"South West Main Line","category":"rail","osm_type":"way","osm_id":"1357063118","operator":"Network Rail","ref":"BML1"}},{"type":"Feature","geometry":{"type":"LineString","coordinates":[[-1.31437,51.0859],[-1.3144,51.0858]]},"properties":{"name":"South West Main Line","category":"rail","osm_type":"way","osm_id":"1357063119","operator":"Network Rail","ref":"BML1"}},{"type":"Feature","geometry":{"type":"LineString","coordinates":[[-1.17337,51.25337],[-1.17502,51.25355]]},"properties":{"name":"West of England Line","category":"rail","osm_type":"way","osm_id":"1357895619","operator":"Network Rail","ref":"BAE1"}},{"type":"Feature","geometry":{"type":"LineString","coordinates":[[-1.17501,51.25358],[-1.17337,51.2534]]},"properties":{"name":"West of England Line","category":"rail","osm_type":"way","osm_id":"1357895620","operator":"Network Rail","ref":"BAE1"}},{"type":"Feature","geometry":{"type":"LineString","coordinates":[[-1.18745,51.25492],[-1.19023,51.25523]]},"properties":{"name":"West of England Line","category":"rail","osm_type":"way","osm_id":"1357895621","operator":"Network Rail","ref":"BAE1"}},{"type":"Feature","geometry":{"type":"LineString","coordinates":[[-1.1902,51.25525],[-1.18745,51.25494]]},"properties":{"name":"West of England Line","category":"rail","osm_type":"way","osm_id":"1357895622","operator":"Network Rail","ref":"BAE1"}},{"type":"Feature","geometry":{"type":"LineString","coordinates":[[-1.17209,51.25323],[-1.17312,51.25335]]},"properties":{"name":"West of England Line","category":"rail","osm_type":"way","osm_id":"1359006142","operator":"Network Rail","ref":"BAE1"}},{"type":"Feature","geometry":{"type":"LineString","coordinates":[[-1.17311,51.25337],[-1.17208,51.25326]]},"properties":{"name":"West of England Line","category":"rail","osm_type":"way","osm_id":"1359006143","operator":"Network Rail","ref":"BAE1"}},{"type":"Feature","geometry":{"type":"LineString","coordinates":[[-1.16296,51.25223],[-1.16538,51.25248]]},"properties":{"name":"West of England Line","category":"rail","osm_type":"way","osm_id":"1359006144","operator":"Network Rail","ref":"BAE1"}},{"type":"Feature","geometry":{"type":"LineString","coordinates":[[-1.16536,51.25251],[-1.16296,51.25226]]},"properties":{"name":"West of England Line","category":"rail","osm_type":"way","osm_id":"1359006145","operator":"Network Rail","ref":"BAE1"}},{"type":"Feature","geometry":{"type":"LineString","coordinates":[[-1.18629,51.24083],[-1.18411,51.24146]]},"properties":{"name":"South West Main Line","category":"rail","osm_type":"way","osm_id":"1359009931","operator":"Network Rail","ref":"BML1"}},{"type":"Feature","geometry":{"type":"LineString","coordinates":[[-1.18409,51.24143],[-1.18627,51.2408]]},"properties":{"name":"South West Main Line","category":"rail","osm_type":"way","osm_id":"1359009932","operator":"Network Rail","ref":"BML1"}},{"type":"Feature","geometry":{"type":"LineString","coordinates":[[-1.1635,51.24975],[-1.15725,51.25261]]},"properties":{"name":"South West Main Line","category":"rail","osm_type":"way","osm_id":"1359009933","operator":"Network Rail","ref":"BML1"}},{"type":"Feature","geometry":{"type":"LineString","coordinates":[[-1.15438,51.25362],[-1.15747,51.2523]]},"properties":{"name":"South West Main Line","category":"rail","osm_type":"way","osm_id":"1359009934","operator":"Network Rail","ref":"BML1"}},{"type":"Feature","geometry":{"type":"LineString","coordinates":[[-1.14869,51.25636],[-1.14814,51.25659]]},"properties":{"name":"South West Main Line","category":"rail","osm_type":"way","osm_id":"1359009935","operator":"Network Rail","ref":"BML1"}},{"type":"Feature","geometry":{"type":"LineString","coordinates":[[-1.20147,51.23648],[-1.1995,51.23706]]},"properties":{"name":"South West Main Line","category":"rail","osm_type":"way","osm_id":"1359009936","operator":"Network Rail","ref":"BML1"}},{"type":"Feature","geometry":{"type":"LineString","coordinates":[[-1.19947,51.23702],[-1.20144,51.23645]]},"properties":{"name":"South West Main Line","category":"rail","osm_type":"way","osm_id":"1359009937","operator":"Network Rail","ref":"BML1"}},{"type":"Feature","geometry":{"type":"LineString","coordinates":[[-1.1915,51.23934],[-1.18652,51.24077]]},"properties":{"name":"South West Main Line","category":"rail","osm_type":"way","osm_id":"1359009938","operator":"Network Rail","ref":"BML1"}},{"type":"Feature","geometry":{"type":"LineString","coordinates":[[-1.18648,51.24074],[-1.19148,51.23931]]},"properties":{"name":"South West Main Line","category":"rail","osm_type":"way","osm_id":"1359009939","operator":"Network Rail","ref":"BML1"}},{"type":"Feature","geometry":{"type":"LineString","coordinates":[[-1.2063,51.23504],[-1.21564,51.23235]]},"properties":{"name":"South West Main Line","category":"rail","osm_type":"way","osm_id":"1359009940","operator":"Network Rail","ref":"BML1"}},{"type":"Feature","geometry":{"type":"LineString","coordinates":[[-1.21784,51.23173],[-1.21805,51.23167]]},"properties":{"name":"South West Main Line","category":"rail","osm_type":"way","osm_id":"1359009941","operator":"Network Rail","ref":"BML1"}},{"type":"Feature","geometry":{"type":"LineString","coordinates":[[-1.21567,51.23239],[-1.20632,51.23507]]},"properties":{"name":"South West Main Line","category":"rail","osm_type":"way","osm_id":"1359009942","operator":"Network Rail","ref":"BML1"}},{"type":"Feature","geometry":{"type":"LineString","coordinates":[[-1.21807,51.23171],[-1.21785,51.23178]]},"properties":{"name":"South West Main Line","category":"rail","osm_type":"way","osm_id":"1359009943","operator":"Network Rail","ref":"BML1"}},{"type":"Feature","geometry":{"type":"LineString","coordinates":[[-1.21805,51.23167],[-1.22602,51.22881]]},"properties":{"name":"South West Main Line","category":"rail","osm_type":"way","osm_id":"1359009944","operator":"Network Rail","ref":"BML1"}},{"type":"Feature","geometry":{"type":"LineString","coordinates":[[-1.22602,51.22881],[-1.2261,51.22877]]},"properties":{"name":"South West Main Line","category":"rail","osm_type":"way","osm_id":"1359009945","operator":"Network Rail","ref":"BML1"}},{"type":"Feature","geometry":{"type":"LineString","coordinates":[[-1.22604,51.22883],[-1.21807,51.23171]]},"properties":{"name":"South West Main Line","category":"rail","osm_type":"way","osm_id":"1359009946","operator":"Network Rail","ref":"BML1"}},{"type":"Feature","geometry":{"type":"LineString","coordinates":[[-1.22613,51.22879],[-1.22604,51.22883]]},"properties":{"name":"South West Main Line","category":"rail","osm_type":"way","osm_id":"1359009947","operator":"Network Rail","ref":"BML1"}},{"type":"Feature","geometry":{"type":"LineString","coordinates":[[-1.21785,51.23178],[-1.21567,51.23239]]},"properties":{"name":"South West Main Line","category":"rail","osm_type":"way","osm_id":"1359009948","operator":"Network Rail","ref":"BML1"}},{"type":"Feature","geometry":{"type":"LineString","coordinates":[[-1.21564,51.23235],[-1.21784,51.23173]]},"properties":{"name":"South West Main Line","category":"rail","osm_type":"way","osm_id":"1359009949","operator":"Network Rail","ref":"BML1"}},{"type":"Feature","geometry":{"type":"LineString","coordinates":[[-1.20632,51.23507],[-1.20169,51.23642]]},"properties":{"name":"South West Main Line","category":"rail","osm_type":"way","osm_id":"1359009950","operator":"Network Rail","ref":"BML1"}},{"type":"Feature","geometry":{"type":"LineString","coordinates":[[-1.20166,51.23638],[-1.2063,51.23504]]},"properties":{"name":"South West Main Line","category":"rail","osm_type":"way","osm_id":"1359009951","operator":"Network Rail","ref":"BML1"}},{"type":"Feature","geometry":{"type":"LineString","coordinates":[[-1.23874,51.21983],[-1.23341,51.22448]]},"properties":{"name":"South West Main Line","category":"rail","osm_type":"way","osm_id":"1359009952","operator":"Network Rail","ref":"BML1"}},{"type":"Feature","geometry":{"type":"LineString","coordinates":[[-1.23336,51.22446],[-1.23869,51.2198]]},"properties":{"name":"South West Main Line","category":"rail","osm_type":"way","osm_id":"1359009953","operator":"Network Rail","ref":"BML1"}},{"type":"Feature","geometry":{"type":"LineString","coordinates":[[-1.25078,51.20888],[-1.24627,51.213]]},"properties":{"name":"South West Main Line","category":"rail","osm_type":"way","osm_id":"1359009954","operator":"Network Rail","ref":"BML1"}},{"type":"Feature","geometry":{"type":"LineString","coordinates":[[-1.24623,51.21298],[-1.25074,51.20886]]},"properties":{"name":"South West Main Line","category":"rail","osm_type":"way","osm_id":"1359009955","operator":"Network Rail","ref":"BML1"}},{"type":"Feature","geometry":{"type":"LineString","coordinates":[[-1.25074,51.20886],[-1.25348,51.20611]]},"properties":{"name":"South West Main Line","category":"rail","osm_type":"way","osm_id":"1359009956","operator":"Network Rail","ref":"BML1"}},{"type":"Feature","geometry":{"type":"LineString","coordinates":[[-1.25352,51.20612],[-1.25078,51.20888]]},"properties":{"name":"South West Main Line","category":"rail","osm_type":"way","osm_id":"1359009957","operator":"Network Rail","ref":"BML1"}},{"type":"Feature","geometry":{"type":"LineString","coordinates":[[-1.13569,51.26211],[-1.13484,51.26247]]},"properties":{"name":"South West Main Line","category":"rail","osm_type":"way","osm_id":"1359035642","operator":"Network Rail","ref":"BML1"}},{"type":"Feature","geometry":{"type":"LineString","coordinates":[[-1.13484,51.26247],[-1.1347,51.26252]]},"properties":{"name":"South West Main Line","category":"rail","osm_type":"way","osm_id":"1359035643","operator":"Network Rail","ref":"BML1"}},{"type":"Feature","geometry":{"type":"LineString","coordinates":[[-1.13558,51.26212],[-1.13486,51.26242]]},"properties":{"name":"South West Main Line","category":"rail","osm_type":"way","osm_id":"1359035644","operator":"Network Rail","ref":"BML1"}},{"type":"Feature","geometry":{"type":"LineString","coordinates":[[-1.13486,51.26242],[-1.13471,51.26249]]},"properties":{"name":"South West Main Line","category":"rail","osm_type":"way","osm_id":"1359035645","operator":"Network Rail","ref":"BML1"}},{"type":"Feature","geometry":{"type":"LineString","coordinates":[[-1.13488,51.26238],[-1.13545,51.26213]]},"properties":{"name":"South West Main Line","category":"rail","osm_type":"way","osm_id":"1359035646","operator":"Network Rail","ref":"BML1"}},{"type":"Feature","geometry":{"type":"LineString","coordinates":[[-1.13472,51.26245],[-1.13488,51.26238]]},"properties":{"name":"South West Main Line","category":"rail","osm_type":"way","osm_id":"1359035647","operator":"Network Rail","ref":"BML1"}},{"type":"Feature","geometry":{"type":"LineString","coordinates":[[-1.1349,51.26235],[-1.13535,51.26214]]},"properties":{"name":"South West Main Line","category":"rail","osm_type":"way","osm_id":"1359035648","operator":"Network Rail","ref":"BML1"}},{"type":"Feature","geometry":{"type":"LineString","coordinates":[[-1.13475,51.2624],[-1.1349,51.26235]]},"properties":{"name":"South West Main Line","category":"rail","osm_type":"way","osm_id":"1359035649","operator":"Network Rail","ref":"BML1"}},{"type":"Feature","geometry":{"type":"LineString","coordinates":[[-1.12318,51.26573],[-1.12899,51.26437],[-1.13475,51.2624]]},"properties":{"name":"South West Main Line","category":"rail","osm_type":"way","osm_id":"1359035650","operator":"Network Rail","ref":"BML1"}},{"type":"Feature","geometry":{"type":"LineString","coordinates":[[-1.12306,51.26576],[-1.12318,51.26573]]},"properties":{"name":"South West Main Line","category":"rail","osm_type":"way","osm_id":"1359035651","operator":"Network Rail","ref":"BML1"}},{"type":"Feature","geometry":{"type":"LineString","coordinates":[[-1.12319,51.26576],[-1.12902,51.26441],[-1.13472,51.26245]]},"properties":{"name":"South West Main Line","category":"rail","osm_type":"way","osm_id":"1359035652","operator":"Network Rail","ref":"BML1"}},{"type":"Feature","geometry":{"type":"LineString","coordinates":[[-1.12307,51.26578],[-1.12319,51.26576]]},"properties":{"name":"South West Main Line","category":"rail","osm_type":"way","osm_id":"1359035653","operator":"Network Rail","ref":"BML1"}},{"type":"Feature","geometry":{"type":"LineString","coordinates":[[-1.13471,51.26249],[-1.12907,51.26443],[-1.12321,51.2658]]},"properties":{"name":"South West Main Line","category":"rail","osm_type":"way","osm_id":"1359035654","operator":"Network Rail","ref":"BML1"}},{"type":"Feature","geometry":{"type":"LineString","coordinates":[[-1.12321,51.2658],[-1.12308,51.26582]]},"properties":{"name":"South West Main Line","category":"rail","osm_type":"way","osm_id":"1359035655","operator":"Network Rail","ref":"BML1"}},{"type":"Feature","geometry":{"type":"LineString","coordinates":[[-1.1347,51.26252],[-1.12911,51.26445],[-1.12322,51.26583]]},"properties":{"name":"South West Main Line","category":"rail","osm_type":"way","osm_id":"1359035656","operator":"Network Rail","ref":"BML1"}},{"type":"Feature","geometry":{"type":"LineString","coordinates":[[-1.12322,51.26583],[-1.12309,51.26585]]},"properties":{"name":"South West Main Line","category":"rail","osm_type":"way","osm_id":"1359035657","operator":"Network Rail","ref":"BML1"}},{"type":"Feature","geometry":{"type":"LineString","coordinates":[[-1.10967,51.26712],[-1.11282,51.26694]]},"properties":{"name":"South West Main Line","category":"rail","osm_type":"way","osm_id":"1359035658","operator":"Network Rail","ref":"BML1"}},{"type":"Feature","geometry":{"type":"LineString","coordinates":[[-1.11282,51.26694],[-1.11295,51.26694]]},"properties":{"name":"South West Main Line","category":"rail","osm_type":"way","osm_id":"1359035659","operator":"Network Rail","ref":"BML1"}},{"type":"Feature","geometry":{"type":"LineString","coordinates":[[-1.1097,51.26715],[-1.11283,51.26697]]},"properties":{"name":"South West Main Line","category":"rail","osm_type":"way","osm_id":"1359035660","operator":"Network Rail","ref":"BML1"}},{"type":"Feature","geometry":{"type":"LineString","coordinates":[[-1.11283,51.26697],[-1.11296,51.26697]]},"properties":{"name":"South West Main Line","category":"rail","osm_type":"way","osm_id":"1359035661","operator":"Network Rail","ref":"BML1"}},{"type":"Feature","geometry":{"type":"LineString","coordinates":[[-1.11284,51.26701],[-1.10974,51.26719]]},"properties":{"name":"South West Main Line","category":"rail","osm_type":"way","osm_id":"1359035662","operator":"Network Rail","ref":"BML1"}},{"type":"Feature","geometry":{"type":"LineString","coordinates":[[-1.11297,51.26701],[-1.11284,51.26701]]},"properties":{"name":"South West Main Line","category":"rail","osm_type":"way","osm_id":"1359035663","operator":"Network Rail","ref":"BML1"}},{"type":"Feature","geometry":{"type":"LineString","coordinates":[[-1.11285,51.26704],[-1.10975,51.26722]]},"properties":{"name":"South West Main Line","category":"rail","osm_type":"way","osm_id":"1359035664","operator":"Network Rail","ref":"BML1"}},{"type":"Feature","geometry":{"type":"LineString","coordinates":[[-1.11297,51.26703],[-1.11285,51.26704]]},"properties":{"name":"South West Main Line","category":"rail","osm_type":"way","osm_id":"1359035665","operator":"Network Rail","ref":"BML1"}},{"type":"Feature","geometry":{"type":"LineString","coordinates":[[-1.25585,51.25507],[-1.25476,51.2553]]},"properties":{"name":"West of England Line","category":"rail","osm_type":"way","osm_id":"1359092607","operator":"Network Rail","ref":"BAE1"}},{"type":"Feature","geometry":{"type":"LineString","coordinates":[[-1.25474,51.25527],[-1.25584,51.25504]]},"properties":{"name":"West of England Line","category":"rail","osm_type":"way","osm_id":"1359092608","operator":"Network Rail","ref":"BAE1"}},{"type":"Feature","geometry":{"type":"LineString","coordinates":[[-1.24723,51.25612],[-1.24842,51.25606]]},"properties":{"name":"West of England Line","category":"rail","osm_type":"way","osm_id":"1359092609","operator":"Network Rail","ref":"BAE1"}},{"type":"Feature","geometry":{"type":"LineString","coordinates":[[-1.24842,51.2561],[-1.24725,51.25615]]},"properties":{"name":"West of England Line","category":"rail","osm_type":"way","osm_id":"1359092610","operator":"Network Rail","ref":"BAE1"}},{"type":"Feature","geometry":{"type":"LineString","coordinates":[[-1.24511,51.25612],[-1.24708,51.25612]]},"properties":{"name":"West of England Line","category":"rail","osm_type":"way","osm_id":"1359092611","operator":"Network Rail","ref":"BAE1"}},{"type":"Feature","geometry":{"type":"LineString","coordinates":[[-1.24711,51.25616],[-1.24511,51.25616]]},"properties":{"name":"West of England Line","category":"rail","osm_type":"way","osm_id":"1359092612","operator":"Network Rail","ref":"BAE1"}},{"type":"Feature","geometry":{"type":"LineString","coordinates":[[-1.24511,51.25616],[-1.23453,51.25504]]},"properties":{"name":"West of England Line","category":"rail","osm_type":"way","osm_id":"1359092613","operator":"Network Rail","ref":"BAE1"}},{"type":"Feature","geometry":{"type":"LineString","coordinates":[[-1.23454,51.25501],[-1.24511,51.25612]]},"properties":{"name":"West of England Line","category":"rail","osm_type":"way","osm_id":"1359092614","operator":"Network Rail","ref":"BAE1"}},{"type":"Feature","geometry":{"type":"LineString","coordinates":[[-1.2305,51.25448],[-1.23454,51.25501]]},"properties":{"name":"West of England Line","category":"rail","osm_type":"way","osm_id":"1359092615","operator":"Network Rail","ref":"BAE1"}},{"type":"Feature","geometry":{"type":"LineString","coordinates":[[-1.23039,51.25446],[-1.2305,51.25448]]},"properties":{"name":"West of England Line","category":"rail","osm_type":"way","osm_id":"1359092616","operator":"Network Rail","ref":"BAE1"}},{"type":"Feature","geometry":{"type":"LineString","coordinates":[[-1.23453,51.25504],[-1.23049,51.25451]]},"properties":{"name":"West of England Line","category":"rail","osm_type":"way","osm_id":"1359092617","operator":"Network Rail","ref":"BAE1"}},{"type":"Feature","geometry":{"type":"LineString","coordinates":[[-1.23049,51.25451],[-1.23038,51.25449]]},"properties":{"name":"West of England Line","category":"rail","osm_type":"way","osm_id":"1359092618","operator":"Network Rail","ref":"BAE1"}},{"type":"Feature","geometry":{"type":"LineString","coordinates":[[-1.22611,51.2539],[-1.23039,51.25446]]},"properties":{"name":"West of England Line","category":"rail","osm_type":"way","osm_id":"1359092619","operator":"Network Rail","ref":"BAE1"}},{"type":"Feature","geometry":{"type":"LineString","coordinates":[[-1.23038,51.25449],[-1.2261,51.25393]]},"properties":{"name":"West of England Line","category":"rail","osm_type":"way","osm_id":"1359092620","operator":"Network Rail","ref":"BAE1"}},{"type":"Feature","geometry":{"type":"LineString","coordinates":[[-1.20352,51.25593],[-1.19566,51.25585]]},"properties":{"name":"West of England Line","category":"rail","osm_type":"way","osm_id":"1359092621","operator":"Network Rail","ref":"BAE1"}},{"type":"Feature","geometry":{"type":"LineString","coordinates":[[-1.19567,51.25582],[-1.20351,51.2559]]},"properties":{"name":"West of England Line","category":"rail","osm_type":"way","osm_id":"1359092622","operator":"Network Rail","ref":"BAE1"}},{"type":"Feature","geometry":{"type":"LineString","coordinates":[[-1.19566,51.25585],[-1.19324,51.25559]]},"properties":{"name":"West of England Line","category":"rail","osm_type":"way","osm_id":"1359092623","operator":"Network Rail","ref":"BAE1"}},{"type":"Feature","geometry":{"type":"LineString","coordinates":[[-1.19324,51.25556],[-1.19567,51.25582]]},"properties":{"name":"West of England Line","category":"rail","osm_type":"way","osm_id":"1359092624","operator":"Network Rail","ref":"BAE1"}},{"type":"Feature","geometry":{"type":"LineString","coordinates":[[-1.10594,51.26736],[-1.10676,51.2673]]},"properties":{"name":"South West Main Line","category":"rail","osm_type":"way","osm_id":"1362812753","operator":"Network Rail","ref":"BML1"}},{"type":"Feature","geometry":{"type":"LineString","coordinates":[[-1.10595,51.26739],[-1.10677,51.26734]]},"properties":{"name":"South West Main Line","category":"rail","osm_type":"way","osm_id":"1362812754","operator":"Network Rail","ref":"BML1"}},{"type":"Feature","geometry":{"type":"LineString","coordinates":[[-1.10679,51.26737],[-1.10596,51.26743]]},"properties":{"name":"South West Main Line","category":"rail","osm_type":"way","osm_id":"1362812755","operator":"Network Rail","ref":"BML1"}},{"type":"Feature","geometry":{"type":"LineString","coordinates":[[-1.10678,51.26741],[-1.10597,51.26746]]},"properties":{"name":"South West Main Line","category":"rail","osm_type":"way","osm_id":"1362812756","operator":"Network Rail","ref":"BML1"}},{"type":"Feature","geometry":{"type":"LineString","coordinates":[[-1.13564,51.26202],[-1.13891,51.26056]]},"properties":{"name":"South West Main Line","category":"rail","osm_type":"way","osm_id":"1362814645","operator":"Network Rail","ref":"BML1"}},{"type":"Feature","geometry":{"type":"LineString","coordinates":[[-1.13573,51.26201],[-1.13894,51.26058]]},"properties":{"name":"South West Main Line","category":"rail","osm_type":"way","osm_id":"1362814646","operator":"Network Rail","ref":"BML1"}},{"type":"Feature","geometry":{"type":"LineString","coordinates":[[-1.13899,51.26062],[-1.13588,51.26199]]},"properties":{"name":"South West Main Line","category":"rail","osm_type":"way","osm_id":"1362814647","operator":"Network Rail","ref":"BML1"}},{"type":"Feature","geometry":{"type":"LineString","coordinates":[[-1.13902,51.26064],[-1.1361,51.26194]]},"properties":{"name":"South West Main Line","category":"rail","osm_type":"way","osm_id":"1362814648","operator":"Network Rail","ref":"BML1"}},{"type":"Feature","geometry":{"type":"LineString","coordinates":[[-1.08193,51.26979],[-1.08279,51.26958]]},"properties":{"name":"Reading to Basingstoke Line","category":"rail","osm_type":"way","osm_id":"1362816781","operator":"Network Rail","ref":"BKE"}},{"type":"Feature","geometry":{"type":"LineString","coordinates":[[-1.097,51.26795],[-1.09611,51.26805]]},"properties":{"name":"South West Main Line","category":"rail","osm_type":"way","osm_id":"1364124703","operator":"Network Rail","ref":"BML1"}},{"type":"Feature","geometry":{"type":"LineString","coordinates":[[-1.08117,51.2695],[-1.08058,51.26955]]},"properties":{"name":"South West Main Line","category":"rail","osm_type":"way","osm_id":"1364124704","operator":"Network Rail","ref":"BML1"}},{"type":"Feature","geometry":{"type":"LineString","coordinates":[[-1.07927,51.26975],[-1.07856,51.26982]]},"properties":{"name":"South West Main Line","category":"rail","osm_type":"way","osm_id":"1364124705","operator":"Network Rail","ref":"BML1"}},{"type":"Feature","geometry":{"type":"LineString","coordinates":[[-1.08643,51.26871],[-1.07993,51.26965]]},"properties":{"name":"South West Main Line","category":"rail","osm_type":"way","osm_id":"1364124706","operator":"Network Rail","ref":"BML1"}},{"type":"Feature","geometry":{"type":"LineString","coordinates":[[-1.08247,51.26931],[-1.08117,51.2695]]},"properties":{"name":"South West Main Line","category":"rail","osm_type":"way","osm_id":"1364124707","operator":"Network Rail","ref":"BML1"}},{"type":"Feature","geometry":{"type":"LineString","coordinates":[[-1.01904,51.27496],[-0.99546,51.27687]]},"properties":{"name":"South West Main Line","category":"rail","osm_type":"way","osm_id":"1364124708","operator":"Network Rail","ref":"BML1"}},{"type":"Feature","geometry":{"type":"LineString","coordinates":[[-1.01904,51.27493],[-0.99547,51.27684]]},"properties":{"name":"South West Main Line","category":"rail","osm_type":"way","osm_id":"1364124710","operator":"Network Rail","ref":"BML1"}},{"type":"Feature","geometry":{"type":"LineString","coordinates":[[-0.99547,51.27683],[-1.01903,51.27489]]},"properties":{"name":"South West Main Line","category":"rail","osm_type":"way","osm_id":"1364124712","operator":"Network Rail","ref":"BML1"}},{"type":"Feature","geometry":{"type":"LineString","coordinates":[[-0.99548,51.2768],[-1.01905,51.27486]]},"properties":{"name":"South West Main Line","category":"rail","osm_type":"way","osm_id":"1364124714","operator":"Network Rail","ref":"BML1"}},{"type":"Feature","geometry":{"type":"LineString","coordinates":[[-1.26031,51.18611],[-1.26033,51.18674]]},"properties":{"name":"South West Main Line","category":"rail","osm_type":"way","osm_id":"1364130505","operator":"Network Rail","ref":"BML1"}},{"type":"Feature","geometry":{"type":"LineString","coordinates":[[-1.26039,51.18534],[-1.25983,51.18996]]},"properties":{"name":"South West Main Line","category":"rail","osm_type":"way","osm_id":"1364130506","operator":"Network Rail","ref":"BML1"}},{"type":"Feature","geometry":{"type":"LineString","coordinates":[[-1.25977,51.18995],[-1.26031,51.18611]]},"properties":{"name":"South West Main Line","category":"rail","osm_type":"way","osm_id":"1364130507","operator":"Network Rail","ref":"BML1"}},{"type":"Feature","geometry":{"type":"LineString","coordinates":[[-1.27857,51.15377],[-1.27818,51.15428]]},"properties":{"name":"Wallers Ash Loops","category":"rail","osm_type":"way","osm_id":"1364130508","operator":"Network Rail","ref":"BML1"}},{"type":"Feature","geometry":{"type":"LineString","coordinates":[[-1.2861,51.14088],[-1.28566,51.14149]]},"properties":{"name":"Wallers Ash Loops","category":"rail","osm_type":"way","osm_id":"1364130509","operator":"Network Rail","ref":"BML1"}},{"type":"Feature","geometry":{"type":"LineString","coordinates":[[-1.31863,51.07169],[-1.31881,51.07095]]},"properties":{"name":"South West Main Line","category":"rail","osm_type":"way","osm_id":"1364130510","operator":"Network Rail"}},{"type":"Feature","geometry":{"type":"LineString","coordinates":[[-1.31906,51.0701],[-1.31893,51.07041]]},"properties":{"name":"Baltic Sidings","category":"rail","osm_type":"way","osm_id":"1365276994"}},{"type":"Feature","geometry":{"type":"LineString","coordinates":[[-1.09097,51.26833],[-1.09057,51.26835]]},"properties":{"name":"South West Main Line","category":"rail","osm_type":"way","osm_id":"1365279604","operator":"Network Rail","ref":"BML1"}},{"type":"Feature","geometry":{"type":"LineString","coordinates":[[-1.09611,51.26805],[-1.09095,51.2683]]},"properties":{"name":"South West Main Line","category":"rail","osm_type":"way","osm_id":"1365279605","operator":"Network Rail","ref":"BML1"}},{"type":"Feature","geometry":{"type":"LineString","coordinates":[[-1.09777,51.2679],[-1.10012,51.26775]]},"properties":{"name":"South West Main Line","category":"rail","osm_type":"way","osm_id":"1365279606","operator":"Network Rail","ref":"BML1"}},{"type":"Feature","geometry":{"type":"LineString","coordinates":[[-1.09216,51.26817],[-1.09381,51.26811]]},"properties":{"name":"South West Main Line","category":"rail","osm_type":"way","osm_id":"1365279607","operator":"Network Rail","ref":"BML1"}},{"type":"Feature","geometry":{"type":"LineString","coordinates":[[-1.08437,51.26895],[-1.08544,51.26876]]},"properties":{"name":"South West Main Line","category":"rail","osm_type":"way","osm_id":"1365279608","operator":"Network Rail","ref":"BML1"}},{"type":"Feature","geometry":{"type":"LineString","coordinates":[[-1.07993,51.26965],[-1.07927,51.26975]]},"properties":{"name":"South West Main Line","category":"rail","osm_type":"way","osm_id":"1365279609","operator":"Network Rail","ref":"BML1"}},{"type":"Feature","geometry":{"type":"LineString","coordinates":[[-1.08117,51.2695],[-1.07993,51.26968]]},"properties":{"name":"South West Main Line","category":"rail","osm_type":"way","osm_id":"1365279610","operator":"Network Rail","ref":"BML1"}},{"type":"Feature","geometry":{"type":"LineString","coordinates":[[-1.50146,51.20852],[-1.50184,51.20835]]},"properties":{"name":"Railways","category":"rail","osm_type":"way","osm_id":"1372028012"}},{"type":"Feature","geometry":{"type":"LineString","coordinates":[[-1.49603,51.21038],[-1.49633,51.21025]]},"properties":{"name":"Andover Yard Siding #2","category":"rail","osm_type":"way","osm_id":"1372028013"}},{"type":"Feature","geometry":{"type":"LineString","coordinates":[[-1.26028,51.1849],[-1.26034,51.18546]]},"properties":{"name":"Railways","category":"rail","osm_type":"way","osm_id":"1373755019"}},{"type":"Feature","geometry":{"type":"LineString","coordinates":[[-1.25973,51.18475],[-1.25998,51.18268]]},"properties":{"name":"Railways","category":"rail","osm_type":"way","osm_id":"1380108279"}},{"type":"Feature","geometry":{"type":"LineString","coordinates":[[-1.08375,51.43031],[-1.08331,51.43057]]},"properties":{"name":"Railways","category":"rail","osm_type":"way","osm_id":"1417950802"}},{"type":"Feature","geometry":{"type":"LineString","coordinates":[[-1.08582,51.42973],[-1.08519,51.42981]]},"properties":{"name":"Railways","category":"rail","osm_type":"way","osm_id":"1417950803"}},{"type":"Feature","geometry":{"type":"LineString","coordinates":[[-1.08406,51.43041],[-1.08374,51.43049]]},"properties":{"name":"Railways","category":"rail","osm_type":"way","osm_id":"1417950804"}},{"type":"Feature","geometry":{"type":"LineString","coordinates":[[-1.08473,51.42984],[-1.08407,51.4301]]},"properties":{"name":"Railways","category":"rail","osm_type":"way","osm_id":"1417950805"}},{"type":"Feature","geometry":{"type":"LineString","coordinates":[[-1.07024,51.27444],[-1.07077,51.27392]]},"properties":{"name":"Reading to Basingstoke Line","category":"rail","osm_type":"way","osm_id":"1436492984","operator":"Network Rail","ref":"BKE"}},{"type":"Feature","geometry":{"type":"LineString","coordinates":[[-1.09383,51.26821],[-1.09486,51.26812]]},"properties":{"name":"South West Main Line","category":"rail","osm_type":"way","osm_id":"1436492985","operator":"Network Rail","ref":"BML1"}},{"type":"Feature","geometry":{"type":"LineString","coordinates":[[-1.80849,51.07066],[-1.81101,51.0711]]},"properties":{"name":"West of England Line","category":"rail","osm_type":"way","osm_id":"1446987705","operator":"Network Rail","ref":"BAE1"}},{"type":"Feature","geometry":{"type":"LineString","coordinates":[[-1.80533,51.07061],[-1.80378,51.07072]]},"properties":{"name":"West of England Line","category":"rail","osm_type":"way","osm_id":"1446987706","operator":"Network Rail","ref":"BAE1"}},{"type":"Feature","geometry":{"type":"LineString","coordinates":[[-1.77862,51.08115],[-1.77992,51.07966]]},"properties":{"name":"West of England Line","category":"rail","osm_type":"way","osm_id":"1456243267","operator":"Network Rail","ref":"BAE1"}},{"type":"Feature","geometry":{"type":"LineString","coordinates":[[-1.78189,51.0752],[-1.78193,51.07433]]},"properties":{"name":"Wessex Main Line","category":"rail","osm_type":"way","osm_id":"1456245572","operator":"Network Rail","ref":"RTJ2"}},{"type":"Feature","geometry":{"type":"LineString","coordinates":[[-1.78198,51.07433],[-1.78197,51.07456]]},"properties":{"name":"Wessex Main Line","category":"rail","osm_type":"way","osm_id":"1456245573","operator":"Network Rail","ref":"RTJ2"}},{"type":"Feature","geometry":{"type":"LineString","coordinates":[[-1.98759,51.07795],[-1.99824,51.07657]]},"properties":{"name":"West of England Line","category":"rail","osm_type":"way","osm_id":"1456251484","operator":"Network Rail","ref":"BAE2"}},{"type":"Feature","geometry":{"type":"LineString","coordinates":[[-1.62507,51.25545],[-1.6252,51.25549]]},"properties":{"name":"Tidworth Branch","category":"rail","osm_type":"way","osm_id":"1456917479"}},{"type":"Feature","geometry":{"type":"LineString","coordinates":[[-1.62518,51.2555],[-1.62507,51.25545]]},"properties":{"name":"Railways","category":"rail","osm_type":"way","osm_id":"1456917480"}},{"type":"Feature","geometry":{"type":"LineString","coordinates":[[-1.06767,51.43429],[-1.06692,51.43434]]},"properties":{"name":"Reading to Taunton Line","category":"rail","osm_type":"way","osm_id":"1473575576","operator":"Network Rail","ref":"BHL"}},{"type":"Feature","geometry":{"type":"LineString","coordinates":[[-1.09044,51.42647],[-1.08994,51.42682]]},"properties":{"name":"Reading to Plymouth Line","category":"rail","osm_type":"way","osm_id":"1482325124","operator":"Network Rail","ref":"BHL"}},{"type":"Feature","geometry":{"type":"LineString","coordinates":[[-1.47813,51.40966],[-1.47974,51.40987]]},"properties":{"name":"Reading to Taunton Line","category":"rail","osm_type":"way","osm_id":"1482522749","operator":"Network Rail","ref":"BHL"}},{"type":"Feature","geometry":{"type":"LineString","coordinates":[[-1.47802,51.40964],[-1.47813,51.40966]]},"properties":{"name":"Reading to Taunton Line","category":"rail","osm_type":"way","osm_id":"1482522750","operator":"Network Rail","ref":"BHL"}},{"type":"Feature","geometry":{"type":"LineString","coordinates":[[-1.47973,51.4099],[-1.47812,51.40969]]},"properties":{"name":"Reading to Taunton Line","category":"rail","osm_type":"way","osm_id":"1482522751","operator":"Network Rail","ref":"BHL"}},{"type":"Feature","geometry":{"type":"LineString","coordinates":[[-1.47812,51.40969],[-1.47802,51.40967]]},"properties":{"name":"Reading to Taunton Line","category":"rail","osm_type":"way","osm_id":"1482522752","operator":"Network Rail","ref":"BHL"}},{"type":"Feature","geometry":{"type":"LineString","coordinates":[[-1.62567,51.3587],[-1.62296,51.3603]]},"properties":{"name":"Reading to Taunton Line","category":"rail","osm_type":"way","osm_id":"1482548806","operator":"Network Rail","ref":"BHL"}},{"type":"Feature","geometry":{"type":"LineString","coordinates":[[-1.62587,51.35862],[-1.62567,51.3587]]},"properties":{"name":"Reading to Taunton Line","category":"rail","osm_type":"way","osm_id":"1482548807","operator":"Network Rail","ref":"BHL"}},{"type":"Feature","geometry":{"type":"LineString","coordinates":[[-1.62293,51.36028],[-1.62564,51.35868]]},"properties":{"name":"Reading to Taunton Line","category":"rail","osm_type":"way","osm_id":"1482548808","operator":"Network Rail","ref":"BHL"}},{"type":"Feature","geometry":{"type":"LineString","coordinates":[[-1.62564,51.35868],[-1.62584,51.3586]]},"properties":{"name":"Reading to Taunton Line","category":"rail","osm_type":"way","osm_id":"1482548809","operator":"Network Rail","ref":"BHL"}},{"type":"Feature","geometry":{"type":"LineString","coordinates":[[-1.84472,51.33487],[-1.85912,51.33537],[-1.86683,51.33523],[-1.89776,51.33109]]},"properties":{"name":"Reading to Taunton Line","category":"rail","osm_type":"way","osm_id":"1482566219","operator":"Network Rail","ref":"BHL"}},{"type":"Feature","geometry":{"type":"LineString","coordinates":[[-1.8445,51.33486],[-1.84472,51.33487]]},"properties":{"name":"Reading to Taunton Line","category":"rail","osm_type":"way","osm_id":"1482566220","operator":"Network Rail","ref":"BHL"}},{"type":"Feature","geometry":{"type":"LineString","coordinates":[[-1.89777,51.33112],[-1.86684,51.33526],[-1.85882,51.3354],[-1.84471,51.3349]]},"properties":{"name":"Reading to Taunton Line","category":"rail","osm_type":"way","osm_id":"1482566221","operator":"Network Rail","ref":"BHL"}},{"type":"Feature","geometry":{"type":"LineString","coordinates":[[-1.84471,51.3349],[-1.8445,51.33489]]},"properties":{"name":"Reading to Taunton Line","category":"rail","osm_type":"way","osm_id":"1482566222","operator":"Network Rail","ref":"BHL"}},{"type":"Feature","geometry":{"type":"LineString","coordinates":[[-1.79802,51.07479],[-1.79796,51.07483]]},"properties":{"name":"Railways","category":"rail","osm_type":"way","osm_id":"1485072060"}},{"type":"Feature","geometry":{"type":"LineString","coordinates":[[-1.78221,51.06857],[-1.78227,51.06753]]},"properties":{"name":"Wessex Main Line","category":"rail","osm_type":"way","osm_id":"1485305027","operator":"Network Rail","ref":"RTJ2"}},{"type":"Feature","geometry":{"type":"LineString","coordinates":[[-1.76311,51.06099],[-1.76884,51.06293]]},"properties":{"name":"Wessex Main Line","category":"rail","osm_type":"way","osm_id":"1485305035","operator":"Network Rail","ref":"RTJ2"}},{"type":"Feature","geometry":{"type":"LineString","coordinates":[[-1.763,51.06095],[-1.76311,51.06099]]},"properties":{"name":"Wessex Main Line","category":"rail","osm_type":"way","osm_id":"1485305036","operator":"Network Rail","ref":"RTJ2"}},{"type":"Feature","geometry":{"type":"LineString","coordinates":[[-1.76886,51.06297],[-1.76309,51.06102]]},"properties":{"name":"Wessex Main Line","category":"rail","osm_type":"way","osm_id":"1485305037","operator":"Network Rail","ref":"RTJ2"}},{"type":"Feature","geometry":{"type":"LineString","coordinates":[[-1.76309,51.06102],[-1.76297,51.06097]]},"properties":{"name":"Wessex Main Line","category":"rail","osm_type":"way","osm_id":"1485305038","operator":"Network Rail","ref":"RTJ2"}},{"type":"Feature","geometry":{"type":"LineString","coordinates":[[-1.67977,51.04308],[-1.67909,51.04314]]},"properties":{"name":"Railways","category":"rail","osm_type":"way","osm_id":"1485305043"}},{"type":"Feature","geometry":{"type":"LineString","coordinates":[[-1.56741,51.0361],[-1.56724,51.03609]]},"properties":{"name":"Wessex Main Line","category":"rail","osm_type":"way","osm_id":"1485361522","operator":"Network Rail","ref":"RTJ2"}},{"type":"Feature","geometry":{"type":"LineString","coordinates":[[-1.56725,51.03606],[-1.56741,51.03607]]},"properties":{"name":"Wessex Main Line","category":"rail","osm_type":"way","osm_id":"1485361523","operator":"Network Rail","ref":"RTJ2"}},{"type":"Feature","geometry":{"type":"LineString","coordinates":[[-1.15899,51.08812],[-1.15868,51.08808]]},"properties":{"name":"The Watercress Line","category":"rail","osm_type":"way","osm_id":"1489891603","operator":"Mid Hants Railway","ref":"AIW"}},{"type":"Feature","geometry":{"type":"LineString","coordinates":[[-1.15868,51.08808],[-1.15852,51.08806]]},"properties":{"name":"The Watercress Line","category":"rail","osm_type":"way","osm_id":"1489891604","operator":"Mid Hants Railway","ref":"AIW"}},{"type":"Feature","geometry":{"type":"LineString","coordinates":[[-1.92667,51.08502],[-1.931,51.08507]]},"properties":{"name":"West of England Line","category":"rail","osm_type":"way","osm_id":"1489986869","operator":"Network Rail","ref":"BAE2"}},{"type":"Feature","geometry":{"type":"LineString","coordinates":[[-1.30433,51.39882],[-1.3013,51.39875]]},"properties":{"name":"Reading to Taunton Line","category":"rail","osm_type":"way","osm_id":"1507721030","operator":"Network Rail","ref":"BHL"}},{"type":"Feature","geometry":{"type":"LineString","coordinates":[[-1.30113,51.39871],[-1.30433,51.39879]]},"properties":{"name":"Reading to Taunton Line","category":"rail","osm_type":"way","osm_id":"1507721031","operator":"Network Rail","ref":"BHL"}},{"type":"Feature","geometry":{"type":"LineString","coordinates":[[-1.32836,51.39721],[-1.33044,51.39714]]},"properties":{"name":"Reading to Taunton Line","category":"rail","osm_type":"way","osm_id":"1512303256","operator":"Network Rail","ref":"BHL"}},{"type":"Feature","geometry":{"type":"LineString","coordinates":[[-1.3271,51.39729],[-1.3262,51.39733]]},"properties":{"name":"Reading to Taunton Line","category":"rail","osm_type":"way","osm_id":"1512303257","operator":"Network Rail","ref":"BHL"}},{"type":"Feature","geometry":{"type":"LineString","coordinates":[[-1.32271,51.39759],[-1.32562,51.39738]]},"properties":{"name":"Railways","category":"rail","osm_type":"way","osm_id":"1512303258","operator":"Network Rail"}},{"type":"Feature","geometry":{"type":"LineString","coordinates":[[-1.31586,51.39818],[-1.31676,51.3981]]},"properties":{"name":"Reading to Taunton Line","category":"rail","osm_type":"way","osm_id":"1512303261","operator":"Network Rail","ref":"BHL"}},{"type":"Feature","geometry":{"type":"LineString","coordinates":[[-1.3176,51.39804],[-1.31696,51.39811]]},"properties":{"name":"Reading to Taunton Line","category":"rail","osm_type":"way","osm_id":"1512303262","operator":"Network Rail","ref":"BHL"}},{"type":"Feature","geometry":{"type":"LineString","coordinates":[[-1.32231,51.39771],[-1.32195,51.39774]]},"properties":{"name":"Railways","category":"rail","osm_type":"way","osm_id":"1512303263","operator":"Network Rail"}},{"type":"Feature","geometry":{"type":"LineString","coordinates":[[-1.0816,51.26995],[-1.08004,51.27028]]},"properties":{"name":"Up Branch Sidings (North Yard)","category":"rail","osm_type":"way","osm_id":"1524120020","operator":"Network Rail"}},{"type":"Feature","geometry":{"type":"LineString","coordinates":[[-1.78189,51.07538],[-1.78189,51.0752]]},"properties":{"name":"Wessex Main Line","category":"rail","osm_type":"way","osm_id":"1531099027","operator":"Network Rail","ref":"RTJ2"}},{"type":"Feature","geometry":{"type":"LineString","coordinates":[[-1.7782,51.08172],[-1.77862,51.08115]]},"properties":{"name":"West of England Line","category":"rail","osm_type":"way","osm_id":"1531099028","operator":"Network Rail","ref":"BAE1"}},{"type":"Feature","geometry":{"type":"LineString","coordinates":[[-1.08703,51.26853],[-1.08886,51.26834]]},"properties":{"name":"South West Main Line","category":"rail","osm_type":"way","osm_id":"1539127440","operator":"Network Rail","ref":"BML1"}},{"type":"Feature","geometry":{"type":"LineString","coordinates":[[-1.08695,51.26853],[-1.08703,51.26853]]},"properties":{"name":"South West Main Line","category":"rail","osm_type":"way","osm_id":"1539127441","operator":"Network Rail","ref":"BML1"}}]}