{"type":"FeatureCollection","features":[{"type":"Feature","geometry":{"type":"LineString","coordinates":[[-1.5658,54.95195],[-1.56273,54.95161]]},"properties":{"name":"Metro","category":"light_rail","osm_type":"way","osm_id":"1117867976","operator":"Nexus"}},{"type":"Feature","geometry":{"type":"LineString","coordinates":[[-1.56994,54.95277],[-1.5658,54.95195]]},"properties":{"name":"Metro","category":"light_rail","osm_type":"way","osm_id":"1117867977","operator":"Nexus"}},{"type":"Feature","geometry":{"type":"LineString","coordinates":[[-1.57354,54.95363],[-1.56994,54.95277]]},"properties":{"name":"Metro","category":"light_rail","osm_type":"way","osm_id":"1117867978","operator":"Nexus"}},{"type":"Feature","geometry":{"type":"LineString","coordinates":[[-1.57672,54.95446],[-1.57354,54.95363]]},"properties":{"name":"Metro","category":"light_rail","osm_type":"way","osm_id":"1117867979","operator":"Nexus"}},{"type":"Feature","geometry":{"type":"LineString","coordinates":[[-1.58959,54.95837],[-1.58785,54.95761]]},"properties":{"name":"Metro","category":"light_rail","osm_type":"way","osm_id":"1117867980","operator":"Nexus"}},{"type":"Feature","geometry":{"type":"LineString","coordinates":[[-1.59351,54.95923],[-1.58959,54.95837]]},"properties":{"name":"Metro","category":"light_rail","osm_type":"way","osm_id":"1117867981","operator":"Nexus"}},{"type":"Feature","geometry":{"type":"LineString","coordinates":[[-1.59574,54.95988],[-1.59351,54.95923]]},"properties":{"name":"Metro","category":"light_rail","osm_type":"way","osm_id":"1117867982","operator":"Nexus"}},{"type":"Feature","geometry":{"type":"LineString","coordinates":[[-1.60465,54.96182],[-1.6014,54.96157]]},"properties":{"name":"Metro","category":"light_rail","osm_type":"way","osm_id":"1117867983","operator":"Nexus"}},{"type":"Feature","geometry":{"type":"LineString","coordinates":[[-1.60698,54.96195],[-1.60465,54.96182]]},"properties":{"name":"Metro","category":"light_rail","osm_type":"way","osm_id":"1117867984","operator":"Nexus"}},{"type":"Feature","geometry":{"type":"LineString","coordinates":[[-1.61173,54.96303],[-1.60698,54.96195]]},"properties":{"name":"Metro","category":"light_rail","osm_type":"way","osm_id":"1117867985","operator":"Nexus"}},{"type":"Feature","geometry":{"type":"LineString","coordinates":[[-1.61285,54.96379],[-1.61228,54.96338]]},"properties":{"name":"Metro","category":"light_rail","osm_type":"way","osm_id":"1117867986","operator":"Nexus"}},{"type":"Feature","geometry":{"type":"LineString","coordinates":[[-1.61304,54.96393],[-1.61285,54.96379]]},"properties":{"name":"Metro","category":"light_rail","osm_type":"way","osm_id":"1117867987","operator":"Nexus"}},{"type":"Feature","geometry":{"type":"LineString","coordinates":[[-1.61697,54.96862],[-1.61696,54.96813]]},"properties":{"name":"Metro","category":"light_rail","osm_type":"way","osm_id":"1117867988","operator":"Nexus"}},{"type":"Feature","geometry":{"type":"LineString","coordinates":[[-1.61659,54.96947],[-1.61697,54.96862]]},"properties":{"name":"Metro","category":"light_rail","osm_type":"way","osm_id":"1117867989","operator":"Nexus"}},{"type":"Feature","geometry":{"type":"LineString","coordinates":[[-1.61591,54.97066],[-1.61613,54.97033]]},"properties":{"name":"Metro","category":"light_rail","osm_type":"way","osm_id":"1117867990","operator":"Nexus"}},{"type":"Feature","geometry":{"type":"LineString","coordinates":[[-1.61513,54.97144],[-1.61591,54.97066]]},"properties":{"name":"Metro","category":"light_rail","osm_type":"way","osm_id":"1117867991","operator":"Nexus"}},{"type":"Feature","geometry":{"type":"LineString","coordinates":[[-1.61362,54.97279],[-1.61513,54.97144]]},"properties":{"name":"Metro","category":"light_rail","osm_type":"way","osm_id":"1117867992","operator":"Nexus"}},{"type":"Feature","geometry":{"type":"LineString","coordinates":[[-1.61353,54.973],[-1.61362,54.97279]]},"properties":{"name":"Metro","category":"light_rail","osm_type":"way","osm_id":"1117867993","operator":"Nexus"}},{"type":"Feature","geometry":{"type":"LineString","coordinates":[[-1.61319,54.97384],[-1.61329,54.97358]]},"properties":{"name":"Metro","category":"light_rail","osm_type":"way","osm_id":"1117867994","operator":"Nexus"}},{"type":"Feature","geometry":{"type":"LineString","coordinates":[[-1.61329,54.97358],[-1.61353,54.973]]},"properties":{"name":"Metro","category":"light_rail","osm_type":"way","osm_id":"1117867995","operator":"Nexus"}},{"type":"Feature","geometry":{"type":"LineString","coordinates":[[-1.61326,54.97481],[-1.61314,54.97447]]},"properties":{"name":"Metro","category":"light_rail","osm_type":"way","osm_id":"1117867996","operator":"Nexus"}},{"type":"Feature","geometry":{"type":"LineString","coordinates":[[-1.61377,54.97585],[-1.61326,54.97481]]},"properties":{"name":"Metro","category":"light_rail","osm_type":"way","osm_id":"1117867997","operator":"Nexus"}},{"type":"Feature","geometry":{"type":"LineString","coordinates":[[-1.61396,54.97709],[-1.61377,54.97585]]},"properties":{"name":"Metro","category":"light_rail","osm_type":"way","osm_id":"1117867998","operator":"Nexus"}},{"type":"Feature","geometry":{"type":"LineString","coordinates":[[-1.61314,54.97834],[-1.61396,54.97709]]},"properties":{"name":"Metro","category":"light_rail","osm_type":"way","osm_id":"1117867999","operator":"Nexus"}},{"type":"Feature","geometry":{"type":"LineString","coordinates":[[-1.6129,54.97863],[-1.61314,54.97834]]},"properties":{"name":"Metro","category":"light_rail","osm_type":"way","osm_id":"1117868000","operator":"Nexus"}},{"type":"Feature","geometry":{"type":"LineString","coordinates":[[-1.61122,54.97995],[-1.61189,54.97958]]},"properties":{"name":"Metro","category":"light_rail","osm_type":"way","osm_id":"1117868001","operator":"Nexus"}},{"type":"Feature","geometry":{"type":"LineString","coordinates":[[-1.60909,54.98051],[-1.61122,54.97995]]},"properties":{"name":"Metro","category":"light_rail","osm_type":"way","osm_id":"1117868002","operator":"Nexus"}},{"type":"Feature","geometry":{"type":"LineString","coordinates":[[-1.61189,54.97958],[-1.6129,54.97863]]},"properties":{"name":"Metro","category":"light_rail","osm_type":"way","osm_id":"1117868003","operator":"Nexus"}},{"type":"Feature","geometry":{"type":"LineString","coordinates":[[-1.61126,54.98031],[-1.61028,54.98052]]},"properties":{"name":"Metro","category":"light_rail","osm_type":"way","osm_id":"1117868004","operator":"Nexus"}},{"type":"Feature","geometry":{"type":"LineString","coordinates":[[-1.61316,54.97878],[-1.61219,54.97971]]},"properties":{"name":"Metro","category":"light_rail","osm_type":"way","osm_id":"1117868005","operator":"Nexus"}},{"type":"Feature","geometry":{"type":"LineString","coordinates":[[-1.60627,54.98196],[-1.60668,54.98159]]},"properties":{"name":"Metro","category":"light_rail","osm_type":"way","osm_id":"1117868006","operator":"Nexus"}},{"type":"Feature","geometry":{"type":"LineString","coordinates":[[-1.60741,54.98111],[-1.60909,54.98051]]},"properties":{"name":"Metro","category":"light_rail","osm_type":"way","osm_id":"1117868007","operator":"Nexus"}},{"type":"Feature","geometry":{"type":"LineString","coordinates":[[-1.61211,54.97979],[-1.61126,54.98031]]},"properties":{"name":"Metro","category":"light_rail","osm_type":"way","osm_id":"1117868008","operator":"Nexus"}},{"type":"Feature","geometry":{"type":"LineString","coordinates":[[-1.60665,54.98168],[-1.60582,54.98263]]},"properties":{"name":"Metro","category":"light_rail","osm_type":"way","osm_id":"1117868009","operator":"Nexus"}},{"type":"Feature","geometry":{"type":"LineString","coordinates":[[-1.61028,54.98052],[-1.60831,54.98086],[-1.60665,54.98168]]},"properties":{"name":"Metro","category":"light_rail","osm_type":"way","osm_id":"1117868010","operator":"Nexus"}},{"type":"Feature","geometry":{"type":"LineString","coordinates":[[-1.60668,54.98159],[-1.60741,54.98111]]},"properties":{"name":"Metro","category":"light_rail","osm_type":"way","osm_id":"1117868012","operator":"Nexus"}},{"type":"Feature","geometry":{"type":"LineString","coordinates":[[-1.60578,54.98262],[-1.60627,54.98196]]},"properties":{"name":"Metro","category":"light_rail","osm_type":"way","osm_id":"1117868013","operator":"Nexus"}},{"type":"Feature","geometry":{"type":"LineString","coordinates":[[-1.61395,54.97789],[-1.61358,54.97831]]},"properties":{"name":"Metro","category":"light_rail","osm_type":"way","osm_id":"1117868014","operator":"Nexus"}},{"type":"Feature","geometry":{"type":"LineString","coordinates":[[-1.60542,54.98333],[-1.60578,54.98262]]},"properties":{"name":"Metro","category":"light_rail","osm_type":"way","osm_id":"1117868015","operator":"Nexus"}},{"type":"Feature","geometry":{"type":"LineString","coordinates":[[-1.60548,54.98333],[-1.60539,54.98358]]},"properties":{"name":"Railways","category":"light_rail","osm_type":"way","osm_id":"1117868016","operator":"Nexus"}},{"type":"Feature","geometry":{"type":"LineString","coordinates":[[-1.60533,54.98358],[-1.60542,54.98333]]},"properties":{"name":"Metro","category":"light_rail","osm_type":"way","osm_id":"1117868017","operator":"Nexus"}},{"type":"Feature","geometry":{"type":"LineString","coordinates":[[-1.60534,54.98427],[-1.60532,54.98413]]},"properties":{"name":"Metro","category":"light_rail","osm_type":"way","osm_id":"1117868018","operator":"Nexus"}},{"type":"Feature","geometry":{"type":"LineString","coordinates":[[-1.60538,54.98412],[-1.6058,54.98559]]},"properties":{"name":"Metro","category":"light_rail","osm_type":"way","osm_id":"1117868019","operator":"Nexus"}},{"type":"Feature","geometry":{"type":"LineString","coordinates":[[-1.60723,54.99004],[-1.60594,54.98629]]},"properties":{"name":"Metro","category":"light_rail","osm_type":"way","osm_id":"1117868020","operator":"Nexus"}},{"type":"Feature","geometry":{"type":"LineString","coordinates":[[-1.60727,54.99003],[-1.60841,54.99181]]},"properties":{"name":"Metro","category":"light_rail","osm_type":"way","osm_id":"1117868021","operator":"Nexus"}},{"type":"Feature","geometry":{"type":"LineString","coordinates":[[-1.60883,54.99238],[-1.60836,54.99183]]},"properties":{"name":"Metro","category":"light_rail","osm_type":"way","osm_id":"1117868022","operator":"Nexus"}},{"type":"Feature","geometry":{"type":"LineString","coordinates":[[-1.60841,54.99181],[-1.60903,54.99254]]},"properties":{"name":"Railways","category":"light_rail","osm_type":"way","osm_id":"1117868023","operator":"Nexus"}},{"type":"Feature","geometry":{"type":"LineString","coordinates":[[-1.60898,54.99255],[-1.60883,54.99238]]},"properties":{"name":"Metro","category":"light_rail","osm_type":"way","osm_id":"1117868024","operator":"Nexus"}},{"type":"Feature","geometry":{"type":"LineString","coordinates":[[-1.60903,54.99254],[-1.61015,54.9938]]},"properties":{"name":"Metro","category":"light_rail","osm_type":"way","osm_id":"1117868025","operator":"Nexus"}},{"type":"Feature","geometry":{"type":"LineString","coordinates":[[-1.61148,54.99658],[-1.61129,54.99587]]},"properties":{"name":"Metro","category":"light_rail","osm_type":"way","osm_id":"1117868026","operator":"Nexus"}},{"type":"Feature","geometry":{"type":"LineString","coordinates":[[-1.61135,54.99587],[-1.61154,54.99658]]},"properties":{"name":"Metro","category":"light_rail","osm_type":"way","osm_id":"1117868027","operator":"Nexus"}},{"type":"Feature","geometry":{"type":"LineString","coordinates":[[-1.61155,54.9973],[-1.61148,54.99658]]},"properties":{"name":"Metro","category":"light_rail","osm_type":"way","osm_id":"1117868028","operator":"Nexus"}},{"type":"Feature","geometry":{"type":"LineString","coordinates":[[-1.61154,54.99658],[-1.6116,54.9973]]},"properties":{"name":"Metro","category":"light_rail","osm_type":"way","osm_id":"1117868029","operator":"Nexus"}},{"type":"Feature","geometry":{"type":"LineString","coordinates":[[-1.61151,54.99801],[-1.61155,54.9973]]},"properties":{"name":"Metro","category":"light_rail","osm_type":"way","osm_id":"1117868030","operator":"Nexus"}},{"type":"Feature","geometry":{"type":"LineString","coordinates":[[-1.6116,54.9973],[-1.61155,54.99801]]},"properties":{"name":"Metro","category":"light_rail","osm_type":"way","osm_id":"1117868031","operator":"Nexus"}},{"type":"Feature","geometry":{"type":"LineString","coordinates":[[-1.61123,54.9991],[-1.61151,54.99801]]},"properties":{"name":"Metro","category":"light_rail","osm_type":"way","osm_id":"1117868032","operator":"Nexus"}},{"type":"Feature","geometry":{"type":"LineString","coordinates":[[-1.61155,54.99801],[-1.61129,54.99911]]},"properties":{"name":"Metro","category":"light_rail","osm_type":"way","osm_id":"1117868033","operator":"Nexus"}},{"type":"Feature","geometry":{"type":"LineString","coordinates":[[-1.61129,54.99911],[-1.6109,55.0]]},"properties":{"name":"Metro","category":"light_rail","osm_type":"way","osm_id":"1117868034","operator":"Nexus"}},{"type":"Feature","geometry":{"type":"LineString","coordinates":[[-1.61085,54.99999],[-1.61123,54.9991]]},"properties":{"name":"Metro","category":"light_rail","osm_type":"way","osm_id":"1117868035","operator":"Nexus"}},{"type":"Feature","geometry":{"type":"LineString","coordinates":[[-1.28018,54.56356],[-1.28014,54.56357]]},"properties":{"name":"Railways","category":"rail","osm_type":"way","osm_id":"1118081684"}},{"type":"Feature","geometry":{"type":"LineString","coordinates":[[-1.28018,54.56356],[-1.28014,54.56357]]},"properties":{"name":"Tees Yard","category":"rail","osm_type":"way","osm_id":"1118081685","ref":"TSY"}},{"type":"Feature","geometry":{"type":"LineString","coordinates":[[-1.7788,54.67485],[-1.77373,54.67459]]},"properties":{"name":"Weardale Railway","category":"rail","osm_type":"way","osm_id":"1120412278","operator":"Weardale Railway","ref":"DAE3"}},{"type":"Feature","geometry":{"type":"LineString","coordinates":[[-1.66028,54.88395],[-1.66029,54.88398]]},"properties":{"name":"Railways","category":"rail","osm_type":"way","osm_id":"1133303401","operator":"Beamish Museum"}},{"type":"Feature","geometry":{"type":"LineString","coordinates":[[-1.65664,54.88354],[-1.65699,54.88356]]},"properties":{"name":"Railways","category":"rail","osm_type":"way","osm_id":"1133303402","operator":"Beamish Museum"}},{"type":"Feature","geometry":{"type":"LineString","coordinates":[[-1.65663,54.88359],[-1.65698,54.88361]]},"properties":{"name":"Railways","category":"rail","osm_type":"way","osm_id":"1133303403","operator":"Beamish Museum"}},{"type":"Feature","geometry":{"type":"LineString","coordinates":[[-1.65664,54.8835],[-1.65699,54.88352]]},"properties":{"name":"Railways","category":"rail","osm_type":"way","osm_id":"1133303404","operator":"Beamish Museum"}},{"type":"Feature","geometry":{"type":"LineString","coordinates":[[-1.65665,54.88345],[-1.657,54.88347]]},"properties":{"name":"Railways","category":"rail","osm_type":"way","osm_id":"1133303405","operator":"Beamish Museum"}},{"type":"Feature","geometry":{"type":"LineString","coordinates":[[-1.66554,54.88532],[-1.66517,54.88505]]},"properties":{"name":"Road 2","category":"tram","osm_type":"way","osm_id":"1133303406","operator":"Beamish Museum"}},{"type":"Feature","geometry":{"type":"LineString","coordinates":[[-1.66491,54.88832],[-1.66468,54.8884]]},"properties":{"name":"Railways","category":"rail","osm_type":"way","osm_id":"1133304410","operator":"Beamish Museum"}},{"type":"Feature","geometry":{"type":"LineString","coordinates":[[-1.66503,54.88827],[-1.66491,54.88832]]},"properties":{"name":"Railways","category":"rail","osm_type":"way","osm_id":"1133304411","operator":"Beamish Museum"}},{"type":"Feature","geometry":{"type":"LineString","coordinates":[[-1.66469,54.888],[-1.66463,54.88809]]},"properties":{"name":"Railways","category":"rail","osm_type":"way","osm_id":"1133304412","operator":"Beamish Museum"}},{"type":"Feature","geometry":{"type":"LineString","coordinates":[[-1.66026,54.88384],[-1.66028,54.88395]]},"properties":{"name":"Railways","category":"rail","osm_type":"way","osm_id":"1133304413","operator":"Beamish Museum"}},{"type":"Feature","geometry":{"type":"LineString","coordinates":[[-1.66062,54.88378],[-1.66044,54.88366]]},"properties":{"name":"Railways","category":"rail","osm_type":"way","osm_id":"1133540807","operator":"Beamish Museum"}},{"type":"Feature","geometry":{"type":"LineString","coordinates":[[-1.65957,54.88295],[-1.65962,54.883]]},"properties":{"name":"Railways","category":"rail","osm_type":"way","osm_id":"1133540808","operator":"Beamish Museum"}},{"type":"Feature","geometry":{"type":"LineString","coordinates":[[-1.65951,54.88289],[-1.65957,54.88295]]},"properties":{"name":"Railways","category":"rail","osm_type":"way","osm_id":"1133540809","operator":"Beamish Museum"}},{"type":"Feature","geometry":{"type":"LineString","coordinates":[[-1.65957,54.88302],[-1.66001,54.88345]]},"properties":{"name":"Railways","category":"rail","osm_type":"way","osm_id":"1133540810","operator":"Beamish Museum"}},{"type":"Feature","geometry":{"type":"LineString","coordinates":[[-1.65951,54.88297],[-1.65957,54.88302]]},"properties":{"name":"Railways","category":"rail","osm_type":"way","osm_id":"1133540811","operator":"Beamish Museum"}},{"type":"Feature","geometry":{"type":"LineString","coordinates":[[-1.36383,54.59372],[-1.35932,54.59337],[-1.35301,54.5944],[-1.34176,54.59445]]},"properties":{"name":"Stillington Line","category":"rail","osm_type":"way","osm_id":"1133770641","operator":"Network Rail","ref":"STF"}},{"type":"Feature","geometry":{"type":"LineString","coordinates":[[-1.34175,54.59441],[-1.35358,54.59434],[-1.35931,54.59332],[-1.36383,54.59368]]},"properties":{"name":"Stillington Line","category":"rail","osm_type":"way","osm_id":"1133770642","operator":"Network Rail","ref":"STF"}},{"type":"Feature","geometry":{"type":"LineString","coordinates":[[-1.41656,54.60419],[-1.42134,54.60488]]},"properties":{"name":"Stillington Line","category":"rail","osm_type":"way","osm_id":"1133770643","operator":"Network Rail","ref":"STF"}},{"type":"Feature","geometry":{"type":"LineString","coordinates":[[-1.42901,54.60599],[-1.43379,54.60668]]},"properties":{"name":"Stillington Line","category":"rail","osm_type":"way","osm_id":"1133770644","operator":"Network Rail","ref":"STF"}},{"type":"Feature","geometry":{"type":"LineString","coordinates":[[-1.56108,54.54352],[-1.55993,54.53953]]},"properties":{"name":"Tees Valley Line (Bishop Auckland Branch)","category":"rail","osm_type":"way","osm_id":"1136778613","operator":"Network Rail","ref":"DAE1"}},{"type":"Feature","geometry":{"type":"LineString","coordinates":[[-1.67579,54.65717],[-1.67773,54.6572]]},"properties":{"name":"Bishop Line","category":"rail","osm_type":"way","osm_id":"1136795657","operator":"Network Rail","ref":"DAE2"}},{"type":"Feature","geometry":{"type":"LineString","coordinates":[[-1.22747,54.57754],[-1.22513,54.57624]]},"properties":{"name":"Esk Valley Line","category":"rail","osm_type":"way","osm_id":"1136842079","operator":"Network Rail","ref":"MBW1"}},{"type":"Feature","geometry":{"type":"LineString","coordinates":[[-1.48279,54.9771],[-1.48167,54.97696]]},"properties":{"name":"Metro","category":"light_rail","osm_type":"way","osm_id":"1137587614","operator":"Nexus"}},{"type":"Feature","geometry":{"type":"LineString","coordinates":[[-1.4842,54.97739],[-1.48252,54.97716]]},"properties":{"name":"Metro Shared Network","category":"rail","osm_type":"way","osm_id":"1137587615","operator":"Nexus","ref":"JAW1"}},{"type":"Feature","geometry":{"type":"LineString","coordinates":[[-1.48742,54.97778],[-1.48659,54.97769]]},"properties":{"name":"Metro Shared Network","category":"rail","osm_type":"way","osm_id":"1137587616","operator":"Nexus"}},{"type":"Feature","geometry":{"type":"LineString","coordinates":[[-1.48441,54.97737],[-1.48341,54.97727]]},"properties":{"name":"Metro Shared Network","category":"rail","osm_type":"way","osm_id":"1137587617","operator":"Nexus","ref":"JAW1"}},{"type":"Feature","geometry":{"type":"LineString","coordinates":[[-1.4931,54.9794],[-1.49243,54.97906]]},"properties":{"name":"Metro Shared Network","category":"rail","osm_type":"way","osm_id":"1137587618","operator":"Nexus"}},{"type":"Feature","geometry":{"type":"LineString","coordinates":[[-1.48659,54.97769],[-1.48441,54.97737]]},"properties":{"name":"Metro Shared Network","category":"rail","osm_type":"way","osm_id":"1137587619","operator":"Nexus"}},{"type":"Feature","geometry":{"type":"LineString","coordinates":[[-1.53182,54.95495],[-1.53291,54.95393],[-1.53469,54.95347]]},"properties":{"name":"Jarrow Branch","category":"rail","osm_type":"way","osm_id":"1137587623","operator":"Network Rail","ref":"JAW1"}},{"type":"Feature","geometry":{"type":"LineString","coordinates":[[-1.53011,54.96056],[-1.53031,54.96007]]},"properties":{"name":"Metro Shared Network","category":"rail","osm_type":"way","osm_id":"1137587624","operator":"Nexus"}},{"type":"Feature","geometry":{"type":"LineString","coordinates":[[-1.53011,54.96056],[-1.53076,54.95827]]},"properties":{"name":"Metro","category":"light_rail","osm_type":"way","osm_id":"1137587625","operator":"Nexus"}},{"type":"Feature","geometry":{"type":"LineString","coordinates":[[-1.48773,54.97783],[-1.4881,54.97789]]},"properties":{"name":"Metro Shared Network","category":"rail","osm_type":"way","osm_id":"1137634054","operator":"Nexus"}},{"type":"Feature","geometry":{"type":"LineString","coordinates":[[-1.48742,54.97778],[-1.48773,54.97783]]},"properties":{"name":"Metro Shared Network","category":"rail","osm_type":"way","osm_id":"1137634055","operator":"Nexus"}},{"type":"Feature","geometry":{"type":"LineString","coordinates":[[-1.48809,54.97792],[-1.48772,54.97786]]},"properties":{"name":"Metro Shared Network","category":"rail","osm_type":"way","osm_id":"1137634057","operator":"Nexus"}},{"type":"Feature","geometry":{"type":"LineString","coordinates":[[-1.42591,54.60554],[-1.42901,54.60599]]},"properties":{"name":"Stillington Line","category":"rail","osm_type":"way","osm_id":"1153978326","operator":"Network Rail","ref":"STF"}},{"type":"Feature","geometry":{"type":"LineString","coordinates":[[-1.42573,54.60552],[-1.42591,54.60554]]},"properties":{"name":"Stillington Line","category":"rail","osm_type":"way","osm_id":"1153978327","operator":"Network Rail","ref":"STF"}},{"type":"Feature","geometry":{"type":"LineString","coordinates":[[-1.42572,54.60555],[-1.42157,54.60496]]},"properties":{"name":"Stillington Line","category":"rail","osm_type":"way","osm_id":"1153978328","operator":"Network Rail","ref":"STF"}},{"type":"Feature","geometry":{"type":"LineString","coordinates":[[-1.4259,54.60558],[-1.42572,54.60555]]},"properties":{"name":"Stillington Line","category":"rail","osm_type":"way","osm_id":"1153978329","operator":"Network Rail","ref":"STF"}},{"type":"Feature","geometry":{"type":"LineString","coordinates":[[-1.11544,54.62092],[-1.111,54.61819],[-1.11038,54.6125],[-1.11099,54.61036]]},"properties":{"name":"Railways","category":"rail","osm_type":"way","osm_id":"1177857805"}},{"type":"Feature","geometry":{"type":"LineString","coordinates":[[-1.65958,54.88358],[-1.65953,54.88343]]},"properties":{"name":"Railways","category":"rail","osm_type":"way","osm_id":"1183502085","operator":"Beamish Museum"}},{"type":"Feature","geometry":{"type":"LineString","coordinates":[[-1.66437,54.88469],[-1.66431,54.88408]]},"properties":{"name":"Railways","category":"tram","osm_type":"way","osm_id":"1198475386","operator":"Beamish Museum"}},{"type":"Feature","geometry":{"type":"LineString","coordinates":[[-1.28294,54.56169],[-1.27991,54.56201]]},"properties":{"name":"Railways","category":"rail","osm_type":"way","osm_id":"1202067678"}},{"type":"Feature","geometry":{"type":"LineString","coordinates":[[-1.28499,54.56147],[-1.28308,54.56182]]},"properties":{"name":"Railways","category":"rail","osm_type":"way","osm_id":"1202067679"}},{"type":"Feature","geometry":{"type":"LineString","coordinates":[[-1.28421,54.56148],[-1.28395,54.56158]]},"properties":{"name":"Railways","category":"rail","osm_type":"way","osm_id":"1202067681"}},{"type":"Feature","geometry":{"type":"LineString","coordinates":[[-1.27352,54.56497],[-1.27925,54.56377]]},"properties":{"name":"Tees Marshalling Yard","category":"rail","osm_type":"way","osm_id":"1202067682"}},{"type":"Feature","geometry":{"type":"MultiLineString","coordinates":[[[-1.28483,54.56185],[-1.27991,54.56288]],[[-1.27981,54.5629],[-1.2715,54.56477]]]},"properties":{"name":"Tees Marshalling Yard","category":"rail","osm_type":"way","osm_id":"1202067683"}},{"type":"Feature","geometry":{"type":"LineString","coordinates":[[-1.28454,54.5616],[-1.28343,54.56175]]},"properties":{"name":"Railways","category":"rail","osm_type":"way","osm_id":"1202067684"}},{"type":"Feature","geometry":{"type":"LineString","coordinates":[[-1.27349,54.56494],[-1.27865,54.56359]]},"properties":{"name":"Tees Marshalling Yard","category":"rail","osm_type":"way","osm_id":"1202067685"}},{"type":"Feature","geometry":{"type":"LineString","coordinates":[[-1.67559,54.96295],[-1.67611,54.96302]]},"properties":{"name":"Swalwell Jn","category":"rail","osm_type":"way","osm_id":"1220512917","operator":"Network Rail","ref":"NEC1"}},{"type":"Feature","geometry":{"type":"LineString","coordinates":[[-1.54722,54.58025],[-1.54729,54.58033]]},"properties":{"name":"East Coast Main Line","category":"rail","osm_type":"way","osm_id":"1221836177","operator":"Network Rail","ref":"ECM5"}},{"type":"Feature","geometry":{"type":"LineString","coordinates":[[-1.5464,54.57911],[-1.54722,54.58025]]},"properties":{"name":"East Coast Main Line","category":"rail","osm_type":"way","osm_id":"1221836178","operator":"Network Rail","ref":"ECM5"}},{"type":"Feature","geometry":{"type":"LineString","coordinates":[[-1.54715,54.58027],[-1.54632,54.57912]]},"properties":{"name":"East Coast Main Line","category":"rail","osm_type":"way","osm_id":"1221836179","operator":"Network Rail","ref":"ECM5"}},{"type":"Feature","geometry":{"type":"LineString","coordinates":[[-1.54722,54.58035],[-1.54715,54.58027]]},"properties":{"name":"East Coast Main Line","category":"rail","osm_type":"way","osm_id":"1221836180","operator":"Network Rail","ref":"ECM5"}},{"type":"Feature","geometry":{"type":"LineString","coordinates":[[-1.64774,54.62549],[-1.64755,54.62551]]},"properties":{"name":"Stockton & Darlington Railway","category":"rail","osm_type":"way","osm_id":"1227684207"}},{"type":"Feature","geometry":{"type":"LineString","coordinates":[[-1.5459,54.51952],[-1.54705,54.51551],[-1.54684,54.51358]]},"properties":{"name":"Tees Valley Line","category":"rail","osm_type":"way","osm_id":"1232712570","operator":"Network Rail"}},{"type":"Feature","geometry":{"type":"LineString","coordinates":[[-1.56525,54.80755],[-1.56511,54.80744]]},"properties":{"name":"East Coast Main Line","category":"rail","osm_type":"way","osm_id":"1243815873","operator":"Network Rail","ref":"ECM5"}},{"type":"Feature","geometry":{"type":"LineString","coordinates":[[-1.56531,54.80752],[-1.56629,54.80831]]},"properties":{"name":"East Coast Main Line","category":"rail","osm_type":"way","osm_id":"1243815874","operator":"Network Rail","ref":"ECM5"}},{"type":"Feature","geometry":{"type":"LineString","coordinates":[[-1.56624,54.80833],[-1.56525,54.80755]]},"properties":{"name":"East Coast Main Line","category":"rail","osm_type":"way","osm_id":"1243815875","operator":"Network Rail","ref":"ECM5"}},{"type":"Feature","geometry":{"type":"LineString","coordinates":[[-1.56518,54.80742],[-1.56531,54.80752]]},"properties":{"name":"East Coast Main Line","category":"rail","osm_type":"way","osm_id":"1243815876","operator":"Network Rail","ref":"ECM5"}},{"type":"Feature","geometry":{"type":"LineString","coordinates":[[-1.48167,54.97696],[-1.48014,54.97674]]},"properties":{"name":"Metro","category":"light_rail","osm_type":"way","osm_id":"1263576944","operator":"Nexus"}},{"type":"Feature","geometry":{"type":"LineString","coordinates":[[-1.54718,54.51499],[-1.5468,54.51655]]},"properties":{"name":"Tees Valley Line","category":"rail","osm_type":"way","osm_id":"1273060651","operator":"Network Rail"}},{"type":"Feature","geometry":{"type":"LineString","coordinates":[[-1.55822,54.59742],[-1.55865,54.59644]]},"properties":{"name":"East Coast Main Line","category":"rail","osm_type":"way","osm_id":"1273115727","operator":"Network Rail","ref":"ECM5"}},{"type":"Feature","geometry":{"type":"LineString","coordinates":[[-1.55817,54.59751],[-1.55822,54.59742]]},"properties":{"name":"East Coast Main Line","category":"rail","osm_type":"way","osm_id":"1273115728","operator":"Network Rail","ref":"ECM5"}},{"type":"Feature","geometry":{"type":"LineString","coordinates":[[-1.55873,54.59645],[-1.55829,54.59743]]},"properties":{"name":"East Coast Main Line","category":"rail","osm_type":"way","osm_id":"1273115729","operator":"Network Rail","ref":"ECM5"}},{"type":"Feature","geometry":{"type":"LineString","coordinates":[[-1.55829,54.59743],[-1.55824,54.59753]]},"properties":{"name":"East Coast Main Line","category":"rail","osm_type":"way","osm_id":"1273115730","operator":"Network Rail","ref":"ECM5"}},{"type":"Feature","geometry":{"type":"LineString","coordinates":[[-1.63394,54.62469],[-1.63341,54.62432]]},"properties":{"name":"Railways","category":"rail","osm_type":"way","osm_id":"1323557981","operator":"Locomotion"}},{"type":"Feature","geometry":{"type":"LineString","coordinates":[[-1.63364,54.62484],[-1.63311,54.62446]]},"properties":{"name":"Railways","category":"rail","osm_type":"way","osm_id":"1323557982","operator":"Locomotion"}},{"type":"Feature","geometry":{"type":"LineString","coordinates":[[-1.63387,54.62473],[-1.63334,54.62435]]},"properties":{"name":"Railways","category":"rail","osm_type":"way","osm_id":"1323557984","operator":"Locomotion"}},{"type":"Feature","geometry":{"type":"LineString","coordinates":[[-1.63381,54.62476],[-1.63328,54.62438]]},"properties":{"name":"Railways","category":"rail","osm_type":"way","osm_id":"1323557985","operator":"Locomotion"}},{"type":"Feature","geometry":{"type":"LineString","coordinates":[[-1.63376,54.62478],[-1.63322,54.62441]]},"properties":{"name":"Railways","category":"rail","osm_type":"way","osm_id":"1323557986","operator":"Locomotion"}},{"type":"Feature","geometry":{"type":"LineString","coordinates":[[-1.6337,54.62481],[-1.63317,54.62444]]},"properties":{"name":"Railways","category":"rail","osm_type":"way","osm_id":"1323557987","operator":"Locomotion"}},{"type":"Feature","geometry":{"type":"LineString","coordinates":[[-1.44114,54.97663],[-1.43847,54.97953]]},"properties":{"name":"Metro","category":"light_rail","osm_type":"way","osm_id":"1346031117","operator":"Nexus"}},{"type":"Feature","geometry":{"type":"LineString","coordinates":[[-1.44117,54.9766],[-1.44114,54.97663]]},"properties":{"name":"Metro","category":"light_rail","osm_type":"way","osm_id":"1346031118","operator":"Nexus"}},{"type":"Feature","geometry":{"type":"LineString","coordinates":[[-1.44109,54.97662],[-1.44112,54.97659]]},"properties":{"name":"Metro","category":"light_rail","osm_type":"way","osm_id":"1346031119","operator":"Nexus"}},{"type":"Feature","geometry":{"type":"LineString","coordinates":[[-1.44112,54.97659],[-1.4422,54.97554]]},"properties":{"name":"Metro","category":"light_rail","osm_type":"way","osm_id":"1346031120","operator":"Nexus"}},{"type":"Feature","geometry":{"type":"LineString","coordinates":[[-1.63311,54.62446],[-1.63304,54.62441]]},"properties":{"name":"Railways","category":"rail","osm_type":"way","osm_id":"1347083912","operator":"Locomotion"}},{"type":"Feature","geometry":{"type":"LineString","coordinates":[[-1.63317,54.62444],[-1.63309,54.62439]]},"properties":{"name":"Railways","category":"rail","osm_type":"way","osm_id":"1347083913","operator":"Locomotion"}},{"type":"Feature","geometry":{"type":"LineString","coordinates":[[-1.63322,54.62441],[-1.63315,54.62436]]},"properties":{"name":"Railways","category":"rail","osm_type":"way","osm_id":"1347083914","operator":"Locomotion"}},{"type":"Feature","geometry":{"type":"LineString","coordinates":[[-1.63328,54.62438],[-1.63321,54.62433]]},"properties":{"name":"Railways","category":"rail","osm_type":"way","osm_id":"1347083915","operator":"Locomotion"}},{"type":"Feature","geometry":{"type":"LineString","coordinates":[[-1.63334,54.62435],[-1.63327,54.6243]]},"properties":{"name":"Railways","category":"rail","osm_type":"way","osm_id":"1347083916","operator":"Locomotion"}},{"type":"Feature","geometry":{"type":"LineString","coordinates":[[-1.63341,54.62432],[-1.63334,54.62427]]},"properties":{"name":"Railways","category":"rail","osm_type":"way","osm_id":"1347083917","operator":"Locomotion"}},{"type":"Feature","geometry":{"type":"LineString","coordinates":[[-1.62891,54.62367],[-1.62861,54.62359]]},"properties":{"name":"Railways","category":"rail","osm_type":"way","osm_id":"1347083918","operator":"Locomotion"}},{"type":"Feature","geometry":{"type":"LineString","coordinates":[[-1.63102,54.62447],[-1.62881,54.62386]]},"properties":{"name":"Railways","category":"rail","osm_type":"way","osm_id":"1347083919","operator":"Locomotion"}},{"type":"Feature","geometry":{"type":"LineString","coordinates":[[-1.63104,54.62444],[-1.62883,54.62383]]},"properties":{"name":"Railways","category":"rail","osm_type":"way","osm_id":"1347083920","operator":"Locomotion"}},{"type":"Feature","geometry":{"type":"LineString","coordinates":[[-1.62887,54.62377],[-1.63108,54.62439]]},"properties":{"name":"Railways","category":"rail","osm_type":"way","osm_id":"1347083921","operator":"Locomotion"}},{"type":"Feature","geometry":{"type":"LineString","coordinates":[[-1.6311,54.62436],[-1.62889,54.62375]]},"properties":{"name":"Railways","category":"rail","osm_type":"way","osm_id":"1347083922","operator":"Locomotion"}},{"type":"Feature","geometry":{"type":"LineString","coordinates":[[-1.63112,54.62434],[-1.62892,54.62371]]},"properties":{"name":"Railways","category":"rail","osm_type":"way","osm_id":"1347083923","operator":"Locomotion"}},{"type":"Feature","geometry":{"type":"LineString","coordinates":[[-1.63116,54.62429],[-1.62891,54.62367]]},"properties":{"name":"Railways","category":"rail","osm_type":"way","osm_id":"1347083924","operator":"Locomotion"}},{"type":"Feature","geometry":{"type":"LineString","coordinates":[[-1.62898,54.62364],[-1.63119,54.62426]]},"properties":{"name":"Railways","category":"rail","osm_type":"way","osm_id":"1347086039","operator":"Locomotion"}},{"type":"Feature","geometry":{"type":"LineString","coordinates":[[-1.61268,54.96863],[-1.6131,54.96863]]},"properties":{"name":"East Coast Main Line","category":"rail","osm_type":"way","osm_id":"1359860310","operator":"Network Rail","ref":"ECM7"}},{"type":"Feature","geometry":{"type":"LineString","coordinates":[[-1.61268,54.96863],[-1.6134,54.96856]]},"properties":{"name":"East Coast Main Line","category":"rail","osm_type":"way","osm_id":"1359860311","operator":"Network Rail","ref":"ECM7"}},{"type":"Feature","geometry":{"type":"LineString","coordinates":[[-1.6131,54.96863],[-1.61115,54.96888]]},"properties":{"name":"East Coast Main Line","category":"rail","osm_type":"way","osm_id":"1361861384","operator":"Network Rail","ref":"ECM7"}},{"type":"Feature","geometry":{"type":"LineString","coordinates":[[-1.61807,54.95747],[-1.61784,54.95788]]},"properties":{"name":"East Coast Main Line","category":"rail","osm_type":"way","osm_id":"1371913088","operator":"Network Rail","ref":"ECM5"}},{"type":"Feature","geometry":{"type":"LineString","coordinates":[[-1.61885,54.95613],[-1.61807,54.95747]]},"properties":{"name":"East Coast Main Line","category":"rail","osm_type":"way","osm_id":"1371913089","operator":"Network Rail","ref":"ECM5"}},{"type":"Feature","geometry":{"type":"LineString","coordinates":[[-1.61799,54.9575],[-1.61879,54.95612]]},"properties":{"name":"East Coast Main Line","category":"rail","osm_type":"way","osm_id":"1371913090","operator":"Network Rail","ref":"ECM5"}},{"type":"Feature","geometry":{"type":"LineString","coordinates":[[-1.61779,54.95787],[-1.61799,54.9575]]},"properties":{"name":"East Coast Main Line","category":"rail","osm_type":"way","osm_id":"1371913091","operator":"Network Rail","ref":"ECM5"}},{"type":"Feature","geometry":{"type":"LineString","coordinates":[[-1.61769,54.95788],[-1.61683,54.95903]]},"properties":{"name":"Newcastle and Carlisle Line","category":"rail","osm_type":"way","osm_id":"1371913092","operator":"Network Rail","ref":"NEC1"}},{"type":"Feature","geometry":{"type":"LineString","coordinates":[[-1.6179,54.95749],[-1.61769,54.95788]]},"properties":{"name":"Newcastle and Carlisle Line","category":"rail","osm_type":"way","osm_id":"1371913093","operator":"Network Rail","ref":"NEC1"}},{"type":"Feature","geometry":{"type":"LineString","coordinates":[[-1.61784,54.95748],[-1.61939,54.95459]]},"properties":{"name":"Newcastle and Carlisle Line","category":"rail","osm_type":"way","osm_id":"1371913094","operator":"Network Rail","ref":"NEC1"}},{"type":"Feature","geometry":{"type":"LineString","coordinates":[[-1.61762,54.95791],[-1.61784,54.95748]]},"properties":{"name":"Newcastle and Carlisle Line","category":"rail","osm_type":"way","osm_id":"1371913095","operator":"Network Rail","ref":"NEC1"}},{"type":"Feature","geometry":{"type":"LineString","coordinates":[[-1.6221,54.96488],[-1.62242,54.96476]]},"properties":{"name":"Forth Banks Line","category":"rail","osm_type":"way","osm_id":"1375370547","ref":"NEN1"}},{"type":"Feature","geometry":{"type":"LineString","coordinates":[[-1.62187,54.96497],[-1.6221,54.96488]]},"properties":{"name":"Forth Banks Line","category":"rail","osm_type":"way","osm_id":"1375370548","ref":"NEN1"}},{"type":"Feature","geometry":{"type":"LineString","coordinates":[[-1.55715,54.53734],[-1.55592,54.53677]]},"properties":{"name":"Railways","category":"rail","osm_type":"way","osm_id":"1385468097"}},{"type":"Feature","geometry":{"type":"LineString","coordinates":[[-1.55592,54.53677],[-1.55539,54.53656]]},"properties":{"name":"Railways","category":"rail","osm_type":"way","osm_id":"1385468098"}},{"type":"Feature","geometry":{"type":"LineString","coordinates":[[-1.55715,54.53734],[-1.55587,54.53681]]},"properties":{"name":"Railways","category":"rail","osm_type":"way","osm_id":"1385468099"}},{"type":"Feature","geometry":{"type":"LineString","coordinates":[[-1.55587,54.53681],[-1.55534,54.53661]]},"properties":{"name":"Railways","category":"rail","osm_type":"way","osm_id":"1385468100"}},{"type":"Feature","geometry":{"type":"LineString","coordinates":[[-1.55715,54.53734],[-1.55904,54.53892],[-1.56056,54.54123]]},"properties":{"name":"Railways","category":"rail","osm_type":"way","osm_id":"1385468101"}},{"type":"Feature","geometry":{"type":"LineString","coordinates":[[-1.55847,54.53841],[-1.55819,54.53806]]},"properties":{"name":"Railways","category":"rail","osm_type":"way","osm_id":"1385468102"}},{"type":"Feature","geometry":{"type":"LineString","coordinates":[[-1.56056,54.54123],[-1.56089,54.54352]]},"properties":{"name":"Railways","category":"rail","osm_type":"way","osm_id":"1385468105"}},{"type":"Feature","geometry":{"type":"LineString","coordinates":[[-1.5594,54.5395],[-1.56017,54.54044]]},"properties":{"name":"Railways","category":"rail","osm_type":"way","osm_id":"1385468106"}},{"type":"Feature","geometry":{"type":"LineString","coordinates":[[-1.55933,54.53951],[-1.55993,54.54015]]},"properties":{"name":"Railways","category":"rail","osm_type":"way","osm_id":"1385468107"}},{"type":"Feature","geometry":{"type":"LineString","coordinates":[[-1.55951,54.53978],[-1.55993,54.54015]]},"properties":{"name":"Railways","category":"rail","osm_type":"way","osm_id":"1385468108"}},{"type":"Feature","geometry":{"type":"LineString","coordinates":[[-1.55903,54.53917],[-1.55933,54.53951]]},"properties":{"name":"Railways","category":"rail","osm_type":"way","osm_id":"1385468110"}},{"type":"Feature","geometry":{"type":"LineString","coordinates":[[-1.55909,54.53915],[-1.5594,54.5395]]},"properties":{"name":"Railways","category":"rail","osm_type":"way","osm_id":"1385468111"}},{"type":"Feature","geometry":{"type":"LineString","coordinates":[[-1.52336,54.97385],[-1.52381,54.97344]]},"properties":{"name":"Metro Shared Network","category":"rail","osm_type":"way","osm_id":"1415507038","operator":"Nexus"}},{"type":"Feature","geometry":{"type":"LineString","coordinates":[[-1.68135,54.65706],[-1.68012,54.65709]]},"properties":{"name":"Weardale Railway","category":"rail","osm_type":"way","osm_id":"1417619374","operator":"Weardale Railway","ref":"DAE2"}},{"type":"Feature","geometry":{"type":"LineString","coordinates":[[-1.36276,54.91059],[-1.363,54.91127]]},"properties":{"name":"Sunderland South Dock Branch","category":"rail","osm_type":"way","osm_id":"1417619375","ref":"RWS"}},{"type":"Feature","geometry":{"type":"LineString","coordinates":[[-1.59544,54.96331],[-1.59512,54.96306]]},"properties":{"name":"Railways","category":"rail","osm_type":"way","osm_id":"1454150638","operator":"Network Rail"}},{"type":"Feature","geometry":{"type":"LineString","coordinates":[[-1.66528,54.88504],[-1.66495,54.88489]]},"properties":{"name":"Road 1","category":"tram","osm_type":"way","osm_id":"1464591123","operator":"Beamish Museum"}},{"type":"Feature","geometry":{"type":"LineString","coordinates":[[-1.66528,54.88504],[-1.66562,54.8853]]},"properties":{"name":"Road 1","category":"tram","osm_type":"way","osm_id":"1464591124"}},{"type":"Feature","geometry":{"type":"LineString","coordinates":[[-1.66512,54.88506],[-1.6655,54.88534]]},"properties":{"name":"Road 3","category":"tram","osm_type":"way","osm_id":"1464595255"}},{"type":"Feature","geometry":{"type":"LineString","coordinates":[[-1.66512,54.88506],[-1.66435,54.88443]]},"properties":{"name":"Railways","category":"tram","osm_type":"way","osm_id":"1464595256"}},{"type":"Feature","geometry":{"type":"LineString","coordinates":[[-1.66507,54.88509],[-1.66464,54.88472]]},"properties":{"name":"Railways","category":"tram","osm_type":"way","osm_id":"1464595670"}},{"type":"Feature","geometry":{"type":"LineString","coordinates":[[-1.66507,54.88509],[-1.66551,54.88541]]},"properties":{"name":"Road 4","category":"tram","osm_type":"way","osm_id":"1464595671"}},{"type":"Feature","geometry":{"type":"LineString","coordinates":[[-1.70347,54.96512],[-1.71052,54.96568]]},"properties":{"name":"Newcastle and Carlisle Railway","category":"rail","osm_type":"way","osm_id":"1466251717","operator":"Network Rail","ref":"NEC1"}},{"type":"Feature","geometry":{"type":"LineString","coordinates":[[-1.71051,54.96571],[-1.70347,54.96516]]},"properties":{"name":"Newcastle and Carlisle Railway","category":"rail","osm_type":"way","osm_id":"1466251718","operator":"Network Rail","ref":"NEC1"}},{"type":"Feature","geometry":{"type":"LineString","coordinates":[[-1.617,54.96834],[-1.61742,54.96824]]},"properties":{"name":"East Coast Main Line","category":"rail","osm_type":"way","osm_id":"1472407613","operator":"Network Rail","ref":"ECM6"}},{"type":"Feature","geometry":{"type":"LineString","coordinates":[[-1.56044,54.54089],[-1.55794,54.53783]]},"properties":{"name":"Railways","category":"rail","osm_type":"way","osm_id":"1474770224"}},{"type":"Feature","geometry":{"type":"LineString","coordinates":[[-1.66214,54.88902],[-1.66177,54.8891]]},"properties":{"name":"Railways","category":"tram","osm_type":"way","osm_id":"1489680368"}},{"type":"Feature","geometry":{"type":"LineString","coordinates":[[-1.54555,54.52098],[-1.5459,54.51952]]},"properties":{"name":"Tees Valley Line","category":"rail","osm_type":"way","osm_id":"1527097476","operator":"Network Rail"}},{"type":"Feature","geometry":{"type":"LineString","coordinates":[[-1.36291,54.91127],[-1.36349,54.91253],[-1.36576,54.91334]]},"properties":{"name":"Railways","category":"rail","osm_type":"way","osm_id":"1531186427"}},{"type":"Feature","geometry":{"type":"LineString","coordinates":[[-1.86249,54.96682],[-1.86192,54.96711]]},"properties":{"name":"Railways","category":"rail","osm_type":"way","osm_id":"1534068535","operator":"Network Rail"}},{"type":"Feature","geometry":{"type":"LineString","coordinates":[[-1.65994,54.88896],[-1.66007,54.8891]]},"properties":{"name":"Railways","category":"service","osm_type":"way","osm_id":"1538316949","operator":"Beamish Museum"}},{"type":"Feature","geometry":{"type":"LineString","coordinates":[[-1.66001,54.88896],[-1.66012,54.88908]]},"properties":{"name":"Railways","category":"service","osm_type":"way","osm_id":"1538316953","operator":"Beamish Museum"}},{"type":"Feature","geometry":{"type":"LineString","coordinates":[[-1.61927,54.96702],[-1.61914,54.9672]]},"properties":{"name":"East Coast Main Line","category":"rail","osm_type":"way","osm_id":"1539771664","operator":"Network Rail","ref":"ECM6"}},{"type":"Feature","geometry":{"type":"LineString","coordinates":[[-1.61792,54.96835],[-1.61775,54.9684]]},"properties":{"name":"East Coast Main Line","category":"rail","osm_type":"way","osm_id":"1540291303","operator":"Network Rail","ref":"ECM6"}},{"type":"Feature","geometry":{"type":"LineString","coordinates":[[-1.48138,54.99761],[-1.48045,54.9978]]},"properties":{"name":"Railways","category":"light_rail","osm_type":"way","osm_id":"1545273791","operator":"Nexus"}},{"type":"Feature","geometry":{"type":"LineString","coordinates":[[-1.48287,54.99786],[-1.48212,54.99776]]},"properties":{"name":"Railways","category":"light_rail","osm_type":"way","osm_id":"1545273792","operator":"Nexus"}},{"type":"Feature","geometry":{"type":"LineString","coordinates":[[-1.48177,54.99776],[-1.48212,54.99776]]},"properties":{"name":"Railways","category":"light_rail","osm_type":"way","osm_id":"1545273793","operator":"Nexus"}},{"type":"Feature","geometry":{"type":"LineString","coordinates":[[-1.48237,54.9979],[-1.48287,54.99786]]},"properties":{"name":"Railways","category":"light_rail","osm_type":"way","osm_id":"1545273794","operator":"Nexus"}},{"type":"Feature","geometry":{"type":"LineString","coordinates":[[-1.48212,54.99788],[-1.4826,54.99787]]},"properties":{"name":"Railways","category":"light_rail","osm_type":"way","osm_id":"1545273795","operator":"Nexus"}},{"type":"Feature","geometry":{"type":"LineString","coordinates":[[-1.48037,54.99811],[-1.48202,54.99779]]},"properties":{"name":"Railways","category":"light_rail","osm_type":"way","osm_id":"1545273796","operator":"Nexus"}},{"type":"Feature","geometry":{"type":"LineString","coordinates":[[-1.48292,54.99786],[-1.48287,54.99786]]},"properties":{"name":"Railways","category":"light_rail","osm_type":"way","osm_id":"1545273797","operator":"Nexus"}},{"type":"Feature","geometry":{"type":"LineString","coordinates":[[-1.48429,54.99761],[-1.48292,54.99786]]},"properties":{"name":"Railways","category":"light_rail","osm_type":"way","osm_id":"1545273798","operator":"Nexus"}},{"type":"Feature","geometry":{"type":"LineString","coordinates":[[-1.48259,54.99784],[-1.48219,54.9977]]},"properties":{"name":"Railways","category":"light_rail","osm_type":"way","osm_id":"1547610539","operator":"Nexus"}},{"type":"Feature","geometry":{"type":"LineString","coordinates":[[-1.55749,54.53753],[-1.55662,54.53723]]},"properties":{"name":"Railways","category":"rail","osm_type":"way","osm_id":"1549193922"}},{"type":"Feature","geometry":{"type":"LineString","coordinates":[[-1.25975,54.5714],[-1.26165,54.56862]]},"properties":{"name":"Tees Valley Line","category":"rail","osm_type":"way","osm_id":"1549447284","operator":"Network Rail","ref":"DSN2"}},{"type":"Feature","geometry":{"type":"LineString","coordinates":[[-1.29916,54.55986],[-1.30146,54.55946],[-1.30397,54.55832]]},"properties":{"name":"Tees Valley Line","category":"rail","osm_type":"way","osm_id":"1549447285","operator":"Network Rail","ref":"DSN2"}},{"type":"Feature","geometry":{"type":"LineString","coordinates":[[-1.36295,54.91011],[-1.36276,54.91059]]},"properties":{"name":"Sunderland South Dock Branch","category":"rail","osm_type":"way","osm_id":"1552573200","ref":"RWS"}},{"type":"Feature","geometry":{"type":"LineString","coordinates":[[-1.53116,54.95698],[-1.53162,54.95549]]},"properties":{"name":"Metro Shared Network","category":"rail","osm_type":"way","osm_id":"1558943562","operator":"Nexus"}},{"type":"Feature","geometry":{"type":"LineString","coordinates":[[-1.51895,54.97661],[-1.52157,54.97504]]},"properties":{"name":"Metro Shared Network","category":"rail","osm_type":"way","osm_id":"1558943563","operator":"Nexus"}},{"type":"Feature","geometry":{"type":"LineString","coordinates":[[-1.52157,54.97504],[-1.52226,54.97458]]},"properties":{"name":"Metro Shared Network","category":"rail","osm_type":"way","osm_id":"1558943564","operator":"Nexus"}},{"type":"Feature","geometry":{"type":"LineString","coordinates":[[-1.52586,54.97148],[-1.52683,54.97023]]},"properties":{"name":"Metro Shared Network","category":"rail","osm_type":"way","osm_id":"1558943565","operator":"Nexus"}},{"type":"Feature","geometry":{"type":"LineString","coordinates":[[-1.52824,54.96715],[-1.52865,54.96564]]},"properties":{"name":"Metro Shared Network","category":"rail","osm_type":"way","osm_id":"1558943566","operator":"Nexus"}},{"type":"Feature","geometry":{"type":"LineString","coordinates":[[-1.53162,54.95549],[-1.53182,54.95495]]},"properties":{"name":"Metro Shared Network","category":"rail","osm_type":"way","osm_id":"1558943567","operator":"Nexus"}},{"type":"Feature","geometry":{"type":"LineString","coordinates":[[-1.53086,54.95813],[-1.53116,54.95698]]},"properties":{"name":"Metro Shared Network","category":"rail","osm_type":"way","osm_id":"1558943568","operator":"Nexus"}},{"type":"Feature","geometry":{"type":"LineString","coordinates":[[-1.529,54.96465],[-1.52871,54.96564]]},"properties":{"name":"Metro Shared Network","category":"rail","osm_type":"way","osm_id":"1558943569","operator":"Nexus"}},{"type":"Feature","geometry":{"type":"LineString","coordinates":[[-1.52871,54.96564],[-1.52801,54.96808]]},"properties":{"name":"Metro Shared Network","category":"rail","osm_type":"way","osm_id":"1558943570","operator":"Nexus"}},{"type":"Feature","geometry":{"type":"LineString","coordinates":[[-1.52584,54.97157],[-1.52278,54.97427]]},"properties":{"name":"Metro Shared Network","category":"rail","osm_type":"way","osm_id":"1558943571","operator":"Nexus"}},{"type":"Feature","geometry":{"type":"LineString","coordinates":[[-1.52068,54.97566],[-1.51897,54.97664]]},"properties":{"name":"Metro Shared Network","category":"rail","osm_type":"way","osm_id":"1558943572","operator":"Nexus"}},{"type":"Feature","geometry":{"type":"LineString","coordinates":[[-1.50653,54.98082],[-1.5055,54.98103]]},"properties":{"name":"Metro Shared Network","category":"rail","osm_type":"way","osm_id":"1558943573","operator":"Nexus"}},{"type":"Feature","geometry":{"type":"LineString","coordinates":[[-1.48772,54.97786],[-1.48659,54.97769]]},"properties":{"name":"Metro Shared Network","category":"rail","osm_type":"way","osm_id":"1558943575","operator":"Nexus"}},{"type":"Feature","geometry":{"type":"LineString","coordinates":[[-1.47138,54.97543],[-1.47077,54.97534]]},"properties":{"name":"Metro","category":"light_rail","osm_type":"way","osm_id":"1558943576","operator":"Nexus"}},{"type":"Feature","geometry":{"type":"LineString","coordinates":[[-1.45174,54.97078],[-1.44948,54.9703],[-1.44734,54.97045]]},"properties":{"name":"Metro","category":"light_rail","osm_type":"way","osm_id":"1558943577","operator":"Nexus"}},{"type":"Feature","geometry":{"type":"LineString","coordinates":[[-1.44553,54.97153],[-1.44489,54.97237]]},"properties":{"name":"Metro","category":"light_rail","osm_type":"way","osm_id":"1558943578","operator":"Nexus"}}]}