{"type":"FeatureCollection","features":[{"type":"Feature","geometry":{"type":"LineString","coordinates":[[-2.34495,54.40652],[-2.34494,54.40647]]},"properties":{"name":"Settle-Carlisle Railway","category":"rail","osm_type":"way","osm_id":"1066416648","operator":"Network Rail","ref":"SAC"}},{"type":"Feature","geometry":{"type":"LineString","coordinates":[[-2.3446,54.40436],[-2.34461,54.40444]]},"properties":{"name":"Settle-Carlisle Railway","category":"rail","osm_type":"way","osm_id":"1066416649","operator":"Network Rail","ref":"SAC"}},{"type":"Feature","geometry":{"type":"LineString","coordinates":[[-2.34453,54.40445],[-2.34451,54.40437]]},"properties":{"name":"Settle-Carlisle Railway","category":"rail","osm_type":"way","osm_id":"1066416650","operator":"Network Rail","ref":"SAC"}},{"type":"Feature","geometry":{"type":"LineString","coordinates":[[-2.34451,54.40437],[-2.34237,54.39353]]},"properties":{"name":"Settle-Carlisle Railway","category":"rail","osm_type":"way","osm_id":"1066416651","operator":"Network Rail","ref":"SAC"}},{"type":"Feature","geometry":{"type":"LineString","coordinates":[[-2.34461,54.40444],[-2.34499,54.40646]]},"properties":{"name":"Settle-Carlisle Railway","category":"rail","osm_type":"way","osm_id":"1066416652","operator":"Network Rail","ref":"SAC"}},{"type":"Feature","geometry":{"type":"LineString","coordinates":[[-2.32546,54.33892],[-2.32614,54.34006]]},"properties":{"name":"Settle-Carlisle Railway","category":"rail","osm_type":"way","osm_id":"1070542238","operator":"Network Rail","ref":"SAC"}},{"type":"Feature","geometry":{"type":"LineString","coordinates":[[-2.3254,54.33884],[-2.32546,54.33892]]},"properties":{"name":"Settle-Carlisle Railway","category":"rail","osm_type":"way","osm_id":"1070542239","operator":"Network Rail","ref":"SAC"}},{"type":"Feature","geometry":{"type":"LineString","coordinates":[[-2.32535,54.33885],[-2.32135,54.33473]]},"properties":{"name":"Settle-Carlisle Railway","category":"rail","osm_type":"way","osm_id":"1070542240","operator":"Network Rail","ref":"SAC"}},{"type":"Feature","geometry":{"type":"LineString","coordinates":[[-2.32541,54.33893],[-2.32535,54.33885]]},"properties":{"name":"Settle-Carlisle Railway","category":"rail","osm_type":"way","osm_id":"1070542241","operator":"Network Rail","ref":"SAC"}},{"type":"Feature","geometry":{"type":"LineString","coordinates":[[-2.19321,54.30482],[-2.19243,54.30473]]},"properties":{"name":"Hawes and Garsdale Line","category":"rail","osm_type":"way","osm_id":"1088746624","operator":"LM&SR","ref":"HGE"}},{"type":"Feature","geometry":{"type":"LineString","coordinates":[[-2.19188,54.30467],[-2.19243,54.30473]]},"properties":{"name":"Redmire Branch","category":"rail","osm_type":"way","osm_id":"1088746625","operator":"LNER","ref":"REB3"}},{"type":"Feature","geometry":{"type":"LineString","coordinates":[[-2.1932,54.30485],[-2.19187,54.30469]]},"properties":{"name":"Railways","category":"rail","osm_type":"way","osm_id":"1088746626"}},{"type":"Feature","geometry":{"type":"LineString","coordinates":[[-2.2761,54.09964],[-2.27459,54.09805]]},"properties":{"name":"Settle-Carlisle Railway","category":"rail","osm_type":"way","osm_id":"1111571295","operator":"Network Rail","ref":"SAC"}},{"type":"Feature","geometry":{"type":"LineString","coordinates":[[-2.27616,54.09971],[-2.2761,54.09964]]},"properties":{"name":"Settle-Carlisle Railway","category":"rail","osm_type":"way","osm_id":"1111571296","operator":"Network Rail","ref":"SAC"}},{"type":"Feature","geometry":{"type":"LineString","coordinates":[[-2.27463,54.09804],[-2.27614,54.09962]]},"properties":{"name":"Settle-Carlisle Railway","category":"rail","osm_type":"way","osm_id":"1111571297","operator":"Network Rail","ref":"SAC"}},{"type":"Feature","geometry":{"type":"LineString","coordinates":[[-2.27614,54.09962],[-2.2762,54.09968]]},"properties":{"name":"Settle-Carlisle Railway","category":"rail","osm_type":"way","osm_id":"1111571298","operator":"Network Rail","ref":"SAC"}},{"type":"Feature","geometry":{"type":"LineString","coordinates":[[-2.2762,54.09968],[-2.27673,54.10025]]},"properties":{"name":"Settle-Carlisle Railway","category":"rail","osm_type":"way","osm_id":"1111571299","operator":"Network Rail","ref":"SAC"}},{"type":"Feature","geometry":{"type":"LineString","coordinates":[[-2.27673,54.10025],[-2.2768,54.10032]]},"properties":{"name":"Settle-Carlisle Railway","category":"rail","osm_type":"way","osm_id":"1111571300","operator":"Network Rail","ref":"SAC"}},{"type":"Feature","geometry":{"type":"LineString","coordinates":[[-2.27668,54.10027],[-2.27616,54.09971]]},"properties":{"name":"Settle-Carlisle Railway","category":"rail","osm_type":"way","osm_id":"1111571301","operator":"Network Rail","ref":"SAC"}},{"type":"Feature","geometry":{"type":"LineString","coordinates":[[-2.27675,54.10034],[-2.27668,54.10027]]},"properties":{"name":"Settle-Carlisle Railway","category":"rail","osm_type":"way","osm_id":"1111571302","operator":"Network Rail","ref":"SAC"}},{"type":"Feature","geometry":{"type":"LineString","coordinates":[[-2.34554,54.25046],[-2.34646,54.24969]]},"properties":{"name":"Settle-Carlisle Railway","category":"rail","osm_type":"way","osm_id":"1111577553","operator":"Network Rail","ref":"SAC"}},{"type":"Feature","geometry":{"type":"LineString","coordinates":[[-2.34549,54.25052],[-2.34554,54.25046]]},"properties":{"name":"Settle-Carlisle Railway","category":"rail","osm_type":"way","osm_id":"1111577554","operator":"Network Rail","ref":"SAC"}},{"type":"Feature","geometry":{"type":"LineString","coordinates":[[-2.3465,54.2497],[-2.34558,54.25048]]},"properties":{"name":"Settle-Carlisle Railway","category":"rail","osm_type":"way","osm_id":"1111577555","operator":"Network Rail","ref":"SAC"}},{"type":"Feature","geometry":{"type":"LineString","coordinates":[[-2.34558,54.25048],[-2.34553,54.25053]]},"properties":{"name":"Settle-Carlisle Railway","category":"rail","osm_type":"way","osm_id":"1111577556","operator":"Network Rail","ref":"SAC"}},{"type":"Feature","geometry":{"type":"LineString","coordinates":[[-2.34553,54.25053],[-2.34504,54.25099]]},"properties":{"name":"Settle-Carlisle Railway","category":"rail","osm_type":"way","osm_id":"1111577557","operator":"Network Rail","ref":"SAC"}},{"type":"Feature","geometry":{"type":"LineString","coordinates":[[-2.34504,54.25099],[-2.345,54.25104]]},"properties":{"name":"Settle-Carlisle Railway","category":"rail","osm_type":"way","osm_id":"1111577558","operator":"Network Rail","ref":"SAC"}},{"type":"Feature","geometry":{"type":"LineString","coordinates":[[-2.345,54.25098],[-2.34549,54.25052]]},"properties":{"name":"Settle-Carlisle Railway","category":"rail","osm_type":"way","osm_id":"1111577560","operator":"Network Rail","ref":"SAC"}},{"type":"Feature","geometry":{"type":"LineString","coordinates":[[-2.34495,54.25103],[-2.345,54.25098]]},"properties":{"name":"Settle-Carlisle Railway","category":"rail","osm_type":"way","osm_id":"1111577561","operator":"Network Rail","ref":"SAC"}},{"type":"Feature","geometry":{"type":"LineString","coordinates":[[-2.33227,54.35061],[-2.33283,54.35147]]},"properties":{"name":"Settle-Carlisle Railway","category":"rail","osm_type":"way","osm_id":"1111578679","operator":"Network Rail","ref":"SAC"}},{"type":"Feature","geometry":{"type":"LineString","coordinates":[[-2.33222,54.35053],[-2.33227,54.35061]]},"properties":{"name":"Settle-Carlisle Railway","category":"rail","osm_type":"way","osm_id":"1111578680","operator":"Network Rail","ref":"SAC"}},{"type":"Feature","geometry":{"type":"LineString","coordinates":[[-2.33276,54.35149],[-2.3322,54.35062]]},"properties":{"name":"Settle-Carlisle Railway","category":"rail","osm_type":"way","osm_id":"1111578681","operator":"Network Rail","ref":"SAC"}},{"type":"Feature","geometry":{"type":"LineString","coordinates":[[-2.3322,54.35062],[-2.33215,54.35054]]},"properties":{"name":"Settle-Carlisle Railway","category":"rail","osm_type":"way","osm_id":"1111578682","operator":"Network Rail","ref":"SAC"}},{"type":"Feature","geometry":{"type":"LineString","coordinates":[[-2.3201,54.3336],[-2.32043,54.33394]]},"properties":{"name":"Settle-Carlisle Railway","category":"rail","osm_type":"way","osm_id":"1111765430","operator":"Network Rail","ref":"SAC"}},{"type":"Feature","geometry":{"type":"LineString","coordinates":[[-2.32002,54.33352],[-2.3201,54.3336]]},"properties":{"name":"Settle-Carlisle Railway","category":"rail","osm_type":"way","osm_id":"1111765431","operator":"Network Rail","ref":"SAC"}},{"type":"Feature","geometry":{"type":"LineString","coordinates":[[-2.32039,54.33395],[-2.32005,54.33362]]},"properties":{"name":"Settle-Carlisle Railway","category":"rail","osm_type":"way","osm_id":"1111765432","operator":"Network Rail","ref":"SAC"}},{"type":"Feature","geometry":{"type":"LineString","coordinates":[[-2.32005,54.33362],[-2.31997,54.33354]]},"properties":{"name":"Settle-Carlisle Railway","category":"rail","osm_type":"way","osm_id":"1111765433","operator":"Network Rail","ref":"SAC"}},{"type":"Feature","geometry":{"type":"LineString","coordinates":[[-2.22492,54.00914],[-2.22476,54.00895]]},"properties":{"name":"Ribble Valley Line","category":"rail","osm_type":"way","osm_id":"1119199476","operator":"Network Rail","ref":"DJH"}},{"type":"Feature","geometry":{"type":"LineString","coordinates":[[-2.99917,54.24999],[-2.99896,54.25007]]},"properties":{"name":"Railways","category":"rail","osm_type":"way","osm_id":"1120418866","operator":"Lakeside and Haverthwaite Railway"}},{"type":"Feature","geometry":{"type":"LineString","coordinates":[[-2.9996,54.24956],[-2.9981,54.25023]]},"properties":{"name":"Railways","category":"rail","osm_type":"way","osm_id":"1120418869","operator":"Lakeside and Haverthwaite Railway"}},{"type":"Feature","geometry":{"type":"LineString","coordinates":[[-2.7938,54.00054],[-2.79398,54.00148]]},"properties":{"name":"West Coast Main Line","category":"rail","osm_type":"way","osm_id":"1135302896","operator":"Network Rail","ref":"CGJ6"}},{"type":"Feature","geometry":{"type":"LineString","coordinates":[[-2.79391,54.00148],[-2.79373,54.00054]]},"properties":{"name":"West Coast Main Line","category":"rail","osm_type":"way","osm_id":"1135302897","operator":"Network Rail","ref":"CGJ6"}},{"type":"Feature","geometry":{"type":"LineString","coordinates":[[-2.74919,54.23811],[-2.74982,54.23527]]},"properties":{"name":"West Coast Main Line","category":"rail","osm_type":"way","osm_id":"1136767666","operator":"Network Rail","ref":"CGJ7"}},{"type":"Feature","geometry":{"type":"LineString","coordinates":[[-2.74987,54.23527],[-2.74924,54.23812]]},"properties":{"name":"West Coast Main Line","category":"rail","osm_type":"way","osm_id":"1136767667","operator":"Network Rail","ref":"CGJ7"}},{"type":"Feature","geometry":{"type":"LineString","coordinates":[[-2.74881,54.23912],[-2.74919,54.23811]]},"properties":{"name":"West Coast Main Line","category":"rail","osm_type":"way","osm_id":"1136767668","operator":"Network Rail","ref":"CGJ7"}},{"type":"Feature","geometry":{"type":"LineString","coordinates":[[-2.74924,54.23812],[-2.74888,54.23914]]},"properties":{"name":"West Coast Main Line","category":"rail","osm_type":"way","osm_id":"1136767669","operator":"Network Rail","ref":"CGJ7"}},{"type":"Feature","geometry":{"type":"LineString","coordinates":[[-2.7988,54.03388],[-2.79739,54.01941]]},"properties":{"name":"West Coast Main Line","category":"rail","osm_type":"way","osm_id":"1147448878","operator":"Network Rail","ref":"CGJ6"}},{"type":"Feature","geometry":{"type":"LineString","coordinates":[[-2.79739,54.01941],[-2.79738,54.01931]]},"properties":{"name":"West Coast Main Line","category":"rail","osm_type":"way","osm_id":"1147448879","operator":"Network Rail","ref":"CGJ6"}},{"type":"Feature","geometry":{"type":"LineString","coordinates":[[-2.79745,54.01941],[-2.79886,54.03388]]},"properties":{"name":"West Coast Main Line","category":"rail","osm_type":"way","osm_id":"1147448880","operator":"Network Rail","ref":"CGJ6"}},{"type":"Feature","geometry":{"type":"LineString","coordinates":[[-2.79743,54.01931],[-2.79745,54.01941]]},"properties":{"name":"West Coast Main Line","category":"rail","osm_type":"way","osm_id":"1147448881","operator":"Network Rail","ref":"CGJ6"}},{"type":"Feature","geometry":{"type":"LineString","coordinates":[[-2.6848,54.15846],[-2.67647,54.16152]]},"properties":{"name":"Wennington to Carnforth Furness and Midland Junction","category":"rail","osm_type":"way","osm_id":"1182490057","operator":"Network Rail","ref":"SJC"}},{"type":"Feature","geometry":{"type":"LineString","coordinates":[[-2.67644,54.16148],[-2.68477,54.15843]]},"properties":{"name":"Wennington to Carnforth Furness and Midland Junction","category":"rail","osm_type":"way","osm_id":"1182490058","operator":"Network Rail","ref":"SJC"}},{"type":"Feature","geometry":{"type":"LineString","coordinates":[[-2.68879,54.15585],[-2.68873,54.1559]]},"properties":{"name":"Wennington to Carnforth Furness and Midland Junction","category":"rail","osm_type":"way","osm_id":"1182490059","operator":"Network Rail","ref":"SJC"}},{"type":"Feature","geometry":{"type":"LineString","coordinates":[[-2.68869,54.15589],[-2.68874,54.15583]]},"properties":{"name":"Wennington to Carnforth Furness and Midland Junction","category":"rail","osm_type":"way","osm_id":"1182490060","operator":"Network Rail","ref":"SJC"}},{"type":"Feature","geometry":{"type":"LineString","coordinates":[[-2.6877,54.15672],[-2.68869,54.15589]]},"properties":{"name":"Wennington to Carnforth Furness and Midland Junction","category":"rail","osm_type":"way","osm_id":"1182490066","operator":"Network Rail","ref":"SJC"}},{"type":"Feature","geometry":{"type":"LineString","coordinates":[[-2.68873,54.1559],[-2.68775,54.15674]]},"properties":{"name":"Wennington to Carnforth Furness and Midland Junction","category":"rail","osm_type":"way","osm_id":"1182490067","operator":"Network Rail","ref":"SJC"}},{"type":"Feature","geometry":{"type":"LineString","coordinates":[[-2.68775,54.15674],[-2.6848,54.15846]]},"properties":{"name":"Wennington to Carnforth Furness and Midland Junction","category":"rail","osm_type":"way","osm_id":"1182490068","operator":"Network Rail","ref":"SJC"}},{"type":"Feature","geometry":{"type":"LineString","coordinates":[[-2.68477,54.15843],[-2.6877,54.15672]]},"properties":{"name":"Wennington to Carnforth Furness and Midland Junction","category":"rail","osm_type":"way","osm_id":"1182490069","operator":"Network Rail","ref":"SJC"}},{"type":"Feature","geometry":{"type":"LineString","coordinates":[[-2.68874,54.15583],[-2.69039,54.15438]]},"properties":{"name":"Wennington to Carnforth Furness and Midland Junction","category":"rail","osm_type":"way","osm_id":"1182490070","operator":"Network Rail","ref":"SJC"}},{"type":"Feature","geometry":{"type":"LineString","coordinates":[[-2.69044,54.1544],[-2.68879,54.15585]]},"properties":{"name":"Wennington to Carnforth Furness and Midland Junction","category":"rail","osm_type":"way","osm_id":"1182490071","operator":"Network Rail","ref":"SJC"}},{"type":"Feature","geometry":{"type":"LineString","coordinates":[[-2.36156,54.20583],[-2.36172,54.20587]]},"properties":{"name":"Settle-Carlisle Railway","category":"rail","osm_type":"way","osm_id":"1204403134","operator":"Network Rail","ref":"SAC"}},{"type":"Feature","geometry":{"type":"LineString","coordinates":[[-2.3548,54.2035],[-2.35891,54.20497]]},"properties":{"name":"Railways","category":"rail","osm_type":"way","osm_id":"1204403135"}},{"type":"Feature","geometry":{"type":"LineString","coordinates":[[-2.77597,54.12786],[-2.77569,54.12818]]},"properties":{"name":"Railways","category":"rail","osm_type":"way","osm_id":"1227351210"}},{"type":"Feature","geometry":{"type":"LineString","coordinates":[[-2.77612,54.1277],[-2.77597,54.12786]]},"properties":{"name":"Railways","category":"rail","osm_type":"way","osm_id":"1227351211"}},{"type":"Feature","geometry":{"type":"LineString","coordinates":[[-2.7756,54.12745],[-2.7754,54.1276]]},"properties":{"name":"Railways","category":"rail","osm_type":"way","osm_id":"1227351212"}},{"type":"Feature","geometry":{"type":"LineString","coordinates":[[-2.77576,54.12717],[-2.77552,54.12743]]},"properties":{"name":"Railways","category":"rail","osm_type":"way","osm_id":"1227351213"}},{"type":"Feature","geometry":{"type":"LineString","coordinates":[[-2.77545,54.1274],[-2.7761,54.12692]]},"properties":{"name":"Railways","category":"rail","osm_type":"way","osm_id":"1227351214"}},{"type":"Feature","geometry":{"type":"LineString","coordinates":[[-2.77476,54.1281],[-2.77412,54.12852]]},"properties":{"name":"Railways","category":"rail","osm_type":"way","osm_id":"1227351215"}},{"type":"Feature","geometry":{"type":"LineString","coordinates":[[-2.77467,54.12806],[-2.77388,54.12866]]},"properties":{"name":"Railways","category":"rail","osm_type":"way","osm_id":"1227351216"}},{"type":"Feature","geometry":{"type":"LineString","coordinates":[[-2.77433,54.12824],[-2.77454,54.12808]]},"properties":{"name":"Railways","category":"rail","osm_type":"way","osm_id":"1227351217"}},{"type":"Feature","geometry":{"type":"LineString","coordinates":[[-2.77441,54.12854],[-2.77384,54.12892]]},"properties":{"name":"Railways","category":"rail","osm_type":"way","osm_id":"1227351218"}},{"type":"Feature","geometry":{"type":"LineString","coordinates":[[-2.77515,54.12797],[-2.77436,54.12852]]},"properties":{"name":"Railways","category":"rail","osm_type":"way","osm_id":"1227351219"}},{"type":"Feature","geometry":{"type":"LineString","coordinates":[[-2.77436,54.12852],[-2.7738,54.1289]]},"properties":{"name":"Railways","category":"rail","osm_type":"way","osm_id":"1227351220"}},{"type":"Feature","geometry":{"type":"LineString","coordinates":[[-2.77555,54.12775],[-2.77595,54.12726]]},"properties":{"name":"Railways","category":"rail","osm_type":"way","osm_id":"1227351221"}},{"type":"Feature","geometry":{"type":"LineString","coordinates":[[-2.77601,54.12728],[-2.7756,54.12777]]},"properties":{"name":"Railways","category":"rail","osm_type":"way","osm_id":"1227351222"}},{"type":"Feature","geometry":{"type":"LineString","coordinates":[[-2.77607,54.12729],[-2.77566,54.12778]]},"properties":{"name":"Railways","category":"rail","osm_type":"way","osm_id":"1227351223"}},{"type":"Feature","geometry":{"type":"LineString","coordinates":[[-2.77354,54.12928],[-2.77257,54.13072]]},"properties":{"name":"Railways","category":"rail","osm_type":"way","osm_id":"1227351224"}},{"type":"Feature","geometry":{"type":"LineString","coordinates":[[-2.77318,54.12986],[-2.77256,54.13086]]},"properties":{"name":"Railways","category":"rail","osm_type":"way","osm_id":"1227351225"}},{"type":"Feature","geometry":{"type":"LineString","coordinates":[[-2.77281,54.1308],[-2.77287,54.13172]]},"properties":{"name":"Railways","category":"rail","osm_type":"way","osm_id":"1227351226"}},{"type":"Feature","geometry":{"type":"LineString","coordinates":[[-2.77288,54.1308],[-2.77294,54.13171]]},"properties":{"name":"Railways","category":"rail","osm_type":"way","osm_id":"1227351227"}},{"type":"Feature","geometry":{"type":"LineString","coordinates":[[-2.77327,54.13079],[-2.77317,54.13041]]},"properties":{"name":"Railways","category":"rail","osm_type":"way","osm_id":"1227351228"}},{"type":"Feature","geometry":{"type":"LineString","coordinates":[[-2.77283,54.13044],[-2.77281,54.1308]]},"properties":{"name":"Railways","category":"rail","osm_type":"way","osm_id":"1227351229"}},{"type":"Feature","geometry":{"type":"LineString","coordinates":[[-2.77293,54.13029],[-2.77288,54.1308]]},"properties":{"name":"Railways","category":"rail","osm_type":"way","osm_id":"1227351230"}},{"type":"Feature","geometry":{"type":"LineString","coordinates":[[-2.77297,54.13079],[-2.77304,54.13171]]},"properties":{"name":"Railways","category":"rail","osm_type":"way","osm_id":"1227351231"}},{"type":"Feature","geometry":{"type":"LineString","coordinates":[[-2.77305,54.13019],[-2.77308,54.13079]]},"properties":{"name":"Railways","category":"rail","osm_type":"way","osm_id":"1227351232"}},{"type":"Feature","geometry":{"type":"LineString","coordinates":[[-2.77313,54.12997],[-2.77319,54.13079]]},"properties":{"name":"Railways","category":"rail","osm_type":"way","osm_id":"1227351233"}},{"type":"Feature","geometry":{"type":"LineString","coordinates":[[-2.77298,54.12979],[-2.77363,54.12914]]},"properties":{"name":"Railways","category":"rail","osm_type":"way","osm_id":"1227352584"}},{"type":"Feature","geometry":{"type":"LineString","coordinates":[[-2.77292,54.1299],[-2.77298,54.12979]]},"properties":{"name":"Railways","category":"rail","osm_type":"way","osm_id":"1227352585"}},{"type":"Feature","geometry":{"type":"LineString","coordinates":[[-2.77291,54.12979],[-2.77314,54.12947]]},"properties":{"name":"Railways","category":"rail","osm_type":"way","osm_id":"1227352586"}},{"type":"Feature","geometry":{"type":"LineString","coordinates":[[-2.77286,54.12988],[-2.77291,54.12979]]},"properties":{"name":"Railways","category":"rail","osm_type":"way","osm_id":"1227352587"}},{"type":"Feature","geometry":{"type":"LineString","coordinates":[[-2.62855,54.14391],[-2.62673,54.1433]]},"properties":{"name":"Wennington to Carnforth Furness and Midland Junction","category":"rail","osm_type":"way","osm_id":"1268136777","operator":"Network Rail","ref":"SJC"}},{"type":"Feature","geometry":{"type":"LineString","coordinates":[[-2.62676,54.14327],[-2.62858,54.14387]]},"properties":{"name":"Wennington to Carnforth Furness and Midland Junction","category":"rail","osm_type":"way","osm_id":"1268136778","operator":"Network Rail","ref":"SJC"}},{"type":"Feature","geometry":{"type":"LineString","coordinates":[[-2.03148,54.04309],[-2.04189,54.03657]]},"properties":{"name":"Grassington Branch","category":"rail","osm_type":"way","osm_id":"1298886344","ref":"SKS2"}},{"type":"Feature","geometry":{"type":"LineString","coordinates":[[-2.03138,54.04315],[-2.03148,54.04309]]},"properties":{"name":"Grassington Branch","category":"rail","osm_type":"way","osm_id":"1298886345","ref":"SKS2"}},{"type":"Feature","geometry":{"type":"LineString","coordinates":[[-2.30099,54.06045],[-2.30215,54.06126]]},"properties":{"name":"Skipton and Wennington Line","category":"rail","osm_type":"way","osm_id":"1301606412","operator":"Network Rail","ref":"SKW1"}},{"type":"Feature","geometry":{"type":"LineString","coordinates":[[-2.30212,54.06129],[-2.30097,54.06048]]},"properties":{"name":"Skipton and Wennington Line","category":"rail","osm_type":"way","osm_id":"1301606413","operator":"Network Rail","ref":"SKW1"}},{"type":"Feature","geometry":{"type":"LineString","coordinates":[[-2.30235,54.0614],[-2.30419,54.0627]]},"properties":{"name":"Skipton and Wennington Line","category":"rail","osm_type":"way","osm_id":"1301606414","operator":"Network Rail","ref":"SKW1"}},{"type":"Feature","geometry":{"type":"LineString","coordinates":[[-2.30417,54.06273],[-2.30231,54.06142]]},"properties":{"name":"Skipton and Wennington Line","category":"rail","osm_type":"way","osm_id":"1301606415","operator":"Network Rail","ref":"SKW1"}},{"type":"Feature","geometry":{"type":"LineString","coordinates":[[-2.41477,54.10653],[-2.41226,54.10628]]},"properties":{"name":"Skipton and Wennington Line","category":"rail","osm_type":"way","osm_id":"1301606416","operator":"Network Rail","ref":"SKW1"}},{"type":"Feature","geometry":{"type":"LineString","coordinates":[[-2.58468,54.12394],[-2.58912,54.12337]]},"properties":{"name":"Skipton and Wennington Line","category":"rail","osm_type":"way","osm_id":"1301606417","operator":"Network Rail","ref":"SKW1"}},{"type":"Feature","geometry":{"type":"LineString","coordinates":[[-2.60871,54.13503],[-2.60933,54.13563]]},"properties":{"name":"Wennington to Carnforth Furness and Midland Junction","category":"rail","osm_type":"way","osm_id":"1301606418","operator":"Network Rail","ref":"SJC"}},{"type":"Feature","geometry":{"type":"LineString","coordinates":[[-2.76749,54.13301],[-2.76857,54.13315]]},"properties":{"name":"Carnforth East Curve","category":"rail","osm_type":"way","osm_id":"1301606419","operator":"Network Rail","ref":"CEC"}},{"type":"Feature","geometry":{"type":"LineString","coordinates":[[-2.77257,54.12878],[-2.77278,54.12864]]},"properties":{"name":"Furness Line","category":"rail","osm_type":"way","osm_id":"1301606420","operator":"Network Rail","ref":"CBC1"}},{"type":"Feature","geometry":{"type":"LineString","coordinates":[[-2.77261,54.1288],[-2.7732,54.12841]]},"properties":{"name":"Furness Line","category":"rail","osm_type":"way","osm_id":"1301606421","operator":"Network Rail","ref":"CBC1"}},{"type":"Feature","geometry":{"type":"LineString","coordinates":[[-2.7686,54.13318],[-2.76747,54.13304]]},"properties":{"name":"Carnforth East Curve","category":"rail","osm_type":"way","osm_id":"1301606422","operator":"Network Rail","ref":"CEC"}},{"type":"Feature","geometry":{"type":"LineString","coordinates":[[-2.77145,54.13092],[-2.77189,54.13177]]},"properties":{"name":"Furness Line","category":"rail","osm_type":"way","osm_id":"1301606423","operator":"Network Rail","ref":"CBC1"}},{"type":"Feature","geometry":{"type":"LineString","coordinates":[[-2.55205,54.1207],[-2.55786,54.12184]]},"properties":{"name":"Skipton and Wennington Line","category":"rail","osm_type":"way","osm_id":"1301606440","operator":"Network Rail","ref":"SKW1"}},{"type":"Feature","geometry":{"type":"LineString","coordinates":[[-2.55187,54.12067],[-2.55205,54.1207]]},"properties":{"name":"Skipton and Wennington Line","category":"rail","osm_type":"way","osm_id":"1301606441","operator":"Network Rail","ref":"SKW1"}},{"type":"Feature","geometry":{"type":"LineString","coordinates":[[-2.55784,54.12187],[-2.55203,54.12074]]},"properties":{"name":"Skipton and Wennington Line","category":"rail","osm_type":"way","osm_id":"1301606442","operator":"Network Rail","ref":"SKW1"}},{"type":"Feature","geometry":{"type":"LineString","coordinates":[[-2.55203,54.12074],[-2.55185,54.1207]]},"properties":{"name":"Skipton and Wennington Line","category":"rail","osm_type":"way","osm_id":"1301606443","operator":"Network Rail","ref":"SKW1"}},{"type":"Feature","geometry":{"type":"MultiLineString","coordinates":[[[-2.69803,54.06766],[-2.69802,54.06776],[-2.69814,54.0679],[-2.6986,54.06811],[-2.69796,54.06814],[-2.69871,54.06823],[-2.69872,54.06807],[-2.69803,54.06766]],[[-2.69803,54.06766],[-2.69807,54.06761]]]},"properties":{"name":"Littledale Light Railway","category":"light_rail","osm_type":"way","osm_id":"1306177918"}},{"type":"Feature","geometry":{"type":"LineString","coordinates":[[-2.6093,54.13568],[-2.60865,54.13505]]},"properties":{"name":"Wennington to Carnforth Furness and Midland Junction","category":"rail","osm_type":"way","osm_id":"1315546664","operator":"Network Rail","ref":"SJC"}},{"type":"Feature","geometry":{"type":"LineString","coordinates":[[-2.58913,54.1234],[-2.5847,54.12397]]},"properties":{"name":"Skipton and Wennington Line","category":"rail","osm_type":"way","osm_id":"1315546665","operator":"Network Rail","ref":"SKW1"}},{"type":"Feature","geometry":{"type":"LineString","coordinates":[[-2.41228,54.10625],[-2.41477,54.10649]]},"properties":{"name":"Skipton and Wennington Line","category":"rail","osm_type":"way","osm_id":"1315546668","operator":"Network Rail","ref":"SKW1"}},{"type":"Feature","geometry":{"type":"LineString","coordinates":[[-2.61806,54.45776],[-2.62021,54.46043],[-2.62374,54.46312]]},"properties":{"name":"West Coast Main Line","category":"rail","osm_type":"way","osm_id":"1319728950","operator":"Network Rail","ref":"CGJ7"}},{"type":"Feature","geometry":{"type":"LineString","coordinates":[[-2.61671,54.45501],[-2.61674,54.45508]]},"properties":{"name":"West Coast Main Line","category":"rail","osm_type":"way","osm_id":"1319728951","operator":"Network Rail","ref":"CGJ7"}},{"type":"Feature","geometry":{"type":"LineString","coordinates":[[-2.62369,54.46315],[-2.62015,54.46045],[-2.61799,54.45777]]},"properties":{"name":"West Coast Main Line","category":"rail","osm_type":"way","osm_id":"1319728952","operator":"Network Rail","ref":"CGJ7"}},{"type":"Feature","geometry":{"type":"LineString","coordinates":[[-2.61667,54.45509],[-2.61664,54.45502]]},"properties":{"name":"West Coast Main Line","category":"rail","osm_type":"way","osm_id":"1319728953","operator":"Network Rail","ref":"CGJ7"}},{"type":"Feature","geometry":{"type":"LineString","coordinates":[[-2.61788,54.45758],[-2.61667,54.45509]]},"properties":{"name":"West Coast Main Line","category":"rail","osm_type":"way","osm_id":"1319728954","operator":"Network Rail","ref":"CGJ7"}},{"type":"Feature","geometry":{"type":"LineString","coordinates":[[-2.61799,54.45777],[-2.61788,54.45758]]},"properties":{"name":"West Coast Main Line","category":"rail","osm_type":"way","osm_id":"1319728955","operator":"Network Rail","ref":"CGJ7"}},{"type":"Feature","geometry":{"type":"LineString","coordinates":[[-2.61674,54.45508],[-2.61795,54.45757]]},"properties":{"name":"West Coast Main Line","category":"rail","osm_type":"way","osm_id":"1319728956","operator":"Network Rail","ref":"CGJ7"}},{"type":"Feature","geometry":{"type":"LineString","coordinates":[[-2.61795,54.45757],[-2.61806,54.45776]]},"properties":{"name":"West Coast Main Line","category":"rail","osm_type":"way","osm_id":"1319728957","operator":"Network Rail","ref":"CGJ7"}},{"type":"Feature","geometry":{"type":"LineString","coordinates":[[-2.79147,54.11266],[-2.78939,54.11455]]},"properties":{"name":"West Coast Main Line","category":"rail","osm_type":"way","osm_id":"1320374530","operator":"Network Rail","ref":"CGJ7"}},{"type":"Feature","geometry":{"type":"LineString","coordinates":[[-2.78935,54.11453],[-2.79142,54.11265]]},"properties":{"name":"West Coast Main Line","category":"rail","osm_type":"way","osm_id":"1320374531","operator":"Network Rail","ref":"CGJ7"}},{"type":"Feature","geometry":{"type":"LineString","coordinates":[[-2.78713,54.11656],[-2.78935,54.11453]]},"properties":{"name":"West Coast Main Line","category":"rail","osm_type":"way","osm_id":"1320374532","operator":"Network Rail","ref":"CGJ7"}},{"type":"Feature","geometry":{"type":"LineString","coordinates":[[-2.78939,54.11455],[-2.78717,54.11658]]},"properties":{"name":"West Coast Main Line","category":"rail","osm_type":"way","osm_id":"1320374533","operator":"Network Rail","ref":"CGJ7"}},{"type":"Feature","geometry":{"type":"LineString","coordinates":[[-2.22465,54.00874],[-2.22495,54.00911]]},"properties":{"name":"Ribble Valley Line","category":"rail","osm_type":"way","osm_id":"1352399270","operator":"Network Rail","ref":"DJH"}},{"type":"Feature","geometry":{"type":"LineString","coordinates":[[-2.05204,54.02405],[-2.05676,54.02042],[-2.05786,54.01786],[-2.05658,54.01559],[-2.05117,54.01248]]},"properties":{"name":"Grassington Branch","category":"rail","osm_type":"way","osm_id":"1368179690","ref":"SKS2"}},{"type":"Feature","geometry":{"type":"LineString","coordinates":[[-2.05117,54.01248],[-2.05108,54.01242]]},"properties":{"name":"Grassington Branch","category":"rail","osm_type":"way","osm_id":"1368179691","ref":"SKS2"}},{"type":"Feature","geometry":{"type":"LineString","coordinates":[[-2.30366,54.14515],[-2.30516,54.14429]]},"properties":{"name":"Railways","category":"rail","osm_type":"way","osm_id":"1373488013"}},{"type":"Feature","geometry":{"type":"LineString","coordinates":[[-2.3036,54.14511],[-2.30511,54.14427]]},"properties":{"name":"Railways","category":"rail","osm_type":"way","osm_id":"1373488014"}},{"type":"Feature","geometry":{"type":"LineString","coordinates":[[-2.30161,54.14814],[-2.30161,54.1462]]},"properties":{"name":"Railways","category":"rail","osm_type":"way","osm_id":"1375363736"}},{"type":"Feature","geometry":{"type":"LineString","coordinates":[[-2.30295,54.1455],[-2.30161,54.1462]]},"properties":{"name":"Railways","category":"rail","osm_type":"way","osm_id":"1375363738"}},{"type":"Feature","geometry":{"type":"LineString","coordinates":[[-2.30295,54.1455],[-2.30322,54.14539]]},"properties":{"name":"Railways","category":"rail","osm_type":"way","osm_id":"1375363739"}},{"type":"Feature","geometry":{"type":"LineString","coordinates":[[-2.30295,54.1455],[-2.30316,54.14536]]},"properties":{"name":"Railways","category":"rail","osm_type":"way","osm_id":"1375363740"}},{"type":"Feature","geometry":{"type":"LineString","coordinates":[[-2.30241,54.14574],[-2.30305,54.14552]]},"properties":{"name":"Railways","category":"rail","osm_type":"way","osm_id":"1375363741"}},{"type":"Feature","geometry":{"type":"LineString","coordinates":[[-2.74752,54.25221],[-2.74797,54.25273]]},"properties":{"name":"West Coast Main Line","category":"rail","osm_type":"way","osm_id":"1382151288","operator":"Network Rail","ref":"CGJ7"}},{"type":"Feature","geometry":{"type":"LineString","coordinates":[[-2.7479,54.25274],[-2.74701,54.25164]]},"properties":{"name":"West Coast Main Line","category":"rail","osm_type":"way","osm_id":"1382151289","operator":"Network Rail","ref":"CGJ7"}},{"type":"Feature","geometry":{"type":"LineString","coordinates":[[-2.74577,54.24885],[-2.74602,54.24974]]},"properties":{"name":"West Coast Main Line","category":"rail","osm_type":"way","osm_id":"1382151290","operator":"Network Rail","ref":"CGJ7"}},{"type":"Feature","geometry":{"type":"LineString","coordinates":[[-2.74596,54.24975],[-2.7457,54.24885]]},"properties":{"name":"West Coast Main Line","category":"rail","osm_type":"way","osm_id":"1382151291","operator":"Network Rail","ref":"CGJ7"}},{"type":"Feature","geometry":{"type":"LineString","coordinates":[[-2.74566,54.24819],[-2.74577,54.24885]]},"properties":{"name":"West Coast Main Line","category":"rail","osm_type":"way","osm_id":"1382151292","operator":"Network Rail","ref":"CGJ7"}},{"type":"Feature","geometry":{"type":"LineString","coordinates":[[-2.7457,54.24885],[-2.74559,54.2482]]},"properties":{"name":"West Coast Main Line","category":"rail","osm_type":"way","osm_id":"1382151293","operator":"Network Rail","ref":"CGJ7"}},{"type":"Feature","geometry":{"type":"LineString","coordinates":[[-2.74579,54.24522],[-2.74598,54.24454]]},"properties":{"name":"West Coast Main Line","category":"rail","osm_type":"way","osm_id":"1382151294","operator":"Network Rail","ref":"CGJ7"}},{"type":"Feature","geometry":{"type":"LineString","coordinates":[[-2.74605,54.24455],[-2.74586,54.24523]]},"properties":{"name":"West Coast Main Line","category":"rail","osm_type":"way","osm_id":"1382151295","operator":"Network Rail","ref":"CGJ7"}},{"type":"Feature","geometry":{"type":"LineString","coordinates":[[-2.74598,54.24454],[-2.74607,54.24431]]},"properties":{"name":"West Coast Main Line","category":"rail","osm_type":"way","osm_id":"1382151296","operator":"Network Rail","ref":"CGJ7"}},{"type":"Feature","geometry":{"type":"LineString","coordinates":[[-2.74614,54.24432],[-2.74605,54.24455]]},"properties":{"name":"West Coast Main Line","category":"rail","osm_type":"way","osm_id":"1382151297","operator":"Network Rail","ref":"CGJ7"}},{"type":"Feature","geometry":{"type":"LineString","coordinates":[[-2.28583,54.11145],[-2.28586,54.11149]]},"properties":{"name":"Settle-Carlisle Railway","category":"rail","osm_type":"way","osm_id":"1382818390","operator":"Network Rail","ref":"SAC"}},{"type":"Feature","geometry":{"type":"LineString","coordinates":[[-2.30322,54.14539],[-2.30366,54.14515]]},"properties":{"name":"Railways","category":"rail","osm_type":"way","osm_id":"1389284899"}},{"type":"Feature","geometry":{"type":"LineString","coordinates":[[-2.30316,54.14536],[-2.3036,54.14511]]},"properties":{"name":"Railways","category":"rail","osm_type":"way","osm_id":"1389284900"}},{"type":"Feature","geometry":{"type":"LineString","coordinates":[[-2.7284,54.29802],[-2.72811,54.29832]]},"properties":{"name":"Railways","category":"rail","osm_type":"way","osm_id":"1391806765","operator":"Network Rail"}},{"type":"Feature","geometry":{"type":"LineString","coordinates":[[-2.32147,54.32396],[-2.32032,54.3249]]},"properties":{"name":"Settle-Carlisle Railway","category":"rail","osm_type":"way","osm_id":"1411840183","operator":"Network Rail","ref":"SAC"}},{"type":"Feature","geometry":{"type":"LineString","coordinates":[[-2.32027,54.32488],[-2.32142,54.32394]]},"properties":{"name":"Settle-Carlisle Railway","category":"rail","osm_type":"way","osm_id":"1411840184","operator":"Network Rail","ref":"SAC"}},{"type":"Feature","geometry":{"type":"LineString","coordinates":[[-2.3214,54.32389],[-2.32068,54.32446]]},"properties":{"name":"Railways","category":"rail","osm_type":"way","osm_id":"1411840185"}},{"type":"Feature","geometry":{"type":"LineString","coordinates":[[-2.32138,54.32386],[-2.32063,54.32444]]},"properties":{"name":"Railways","category":"rail","osm_type":"way","osm_id":"1411840186"}},{"type":"Feature","geometry":{"type":"LineString","coordinates":[[-2.3213,54.32387],[-2.32059,54.32443]]},"properties":{"name":"Railways","category":"rail","osm_type":"way","osm_id":"1411840187"}},{"type":"Feature","geometry":{"type":"LineString","coordinates":[[-2.66492,54.49352],[-2.6656,54.49439]]},"properties":{"name":"Shunt Neck","category":"rail","osm_type":"way","osm_id":"1432592141"}},{"type":"Feature","geometry":{"type":"LineString","coordinates":[[-2.02362,54.05073],[-2.02746,54.04783]]},"properties":{"name":"Grassington Branch","category":"rail","osm_type":"way","osm_id":"1442690749","ref":"SKS2"}},{"type":"Feature","geometry":{"type":"LineString","coordinates":[[-2.02746,54.04783],[-2.02758,54.04768]]},"properties":{"name":"Grassington Branch","category":"rail","osm_type":"way","osm_id":"1442690750","ref":"SKS2"}},{"type":"Feature","geometry":{"type":"LineString","coordinates":[[-2.0284,54.04639],[-2.02759,54.04756]]},"properties":{"name":"Grassington Branch","category":"rail","osm_type":"way","osm_id":"1442690751","ref":"SKS2"}},{"type":"Feature","geometry":{"type":"LineString","coordinates":[[-2.02759,54.04756],[-2.02735,54.04786]]},"properties":{"name":"Grassington Branch","category":"rail","osm_type":"way","osm_id":"1442690752","ref":"SKS2"}},{"type":"Feature","geometry":{"type":"LineString","coordinates":[[-2.36847,54.45468],[-2.36806,54.45437]]},"properties":{"name":"SAC","category":"rail","osm_type":"way","osm_id":"1448048780","operator":"Network Rail","ref":"SAC"}},{"type":"Feature","geometry":{"type":"LineString","coordinates":[[-2.77185,54.13165],[-2.77173,54.13131]]},"properties":{"name":"Railways","category":"rail","osm_type":"way","osm_id":"1450147685","operator":"Network Rail"}},{"type":"Feature","geometry":{"type":"LineString","coordinates":[[-2.77197,54.13197],[-2.77222,54.13239]]},"properties":{"name":"Railways","category":"rail","osm_type":"way","osm_id":"1450147686","operator":"Network Rail"}},{"type":"Feature","geometry":{"type":"LineString","coordinates":[[-2.77201,54.1318],[-2.77261,54.13286]]},"properties":{"name":"Railways","category":"rail","osm_type":"way","osm_id":"1450147687","operator":"Network Rail"}},{"type":"Feature","geometry":{"type":"LineString","coordinates":[[-2.77436,54.12771],[-2.77286,54.12875]]},"properties":{"name":"Railways","category":"rail","osm_type":"way","osm_id":"1450147688","operator":"Network Rail"}},{"type":"Feature","geometry":{"type":"LineString","coordinates":[[-2.77284,54.13295],[-2.77304,54.13327]]},"properties":{"name":"Railways","category":"rail","osm_type":"way","osm_id":"1450147689"}},{"type":"Feature","geometry":{"type":"LineString","coordinates":[[-2.77331,54.13362],[-2.77616,54.13533]]},"properties":{"name":"Furness Line","category":"rail","osm_type":"way","osm_id":"1450147690","operator":"Network Rail","ref":"CBC1"}},{"type":"Feature","geometry":{"type":"LineString","coordinates":[[-2.77616,54.13537],[-2.77325,54.13364]]},"properties":{"name":"Furness Line","category":"rail","osm_type":"way","osm_id":"1450147691","operator":"Network Rail","ref":"CBC1"}},{"type":"Feature","geometry":{"type":"LineString","coordinates":[[-2.80444,54.16577],[-2.80498,54.16143],[-2.80422,54.15733]]},"properties":{"name":"Furness Line","category":"rail","osm_type":"way","osm_id":"1450147692","operator":"Network Rail","ref":"CBC1"}},{"type":"Feature","geometry":{"type":"LineString","coordinates":[[-2.80427,54.15733],[-2.80503,54.16143],[-2.8045,54.16578]]},"properties":{"name":"Furness Line","category":"rail","osm_type":"way","osm_id":"1450147693","operator":"Network Rail","ref":"CBC1"}},{"type":"Feature","geometry":{"type":"LineString","coordinates":[[-2.80592,54.17633],[-2.8047,54.17499]]},"properties":{"name":"Furness Line","category":"rail","osm_type":"way","osm_id":"1450147694","operator":"Network Rail","ref":"CBC1"}},{"type":"Feature","geometry":{"type":"LineString","coordinates":[[-2.8045,54.16578],[-2.80378,54.17193],[-2.80458,54.17468],[-2.80597,54.17632]]},"properties":{"name":"Furness Line","category":"rail","osm_type":"way","osm_id":"1450147695","operator":"Network Rail","ref":"CBC1"}},{"type":"Feature","geometry":{"type":"LineString","coordinates":[[-2.82628,54.201],[-2.82689,54.20162]]},"properties":{"name":"Furness Line","category":"rail","osm_type":"way","osm_id":"1450147696","operator":"Network Rail","ref":"CBC1"}},{"type":"Feature","geometry":{"type":"LineString","coordinates":[[-2.82684,54.20163],[-2.82623,54.20101]]},"properties":{"name":"Furness Line","category":"rail","osm_type":"way","osm_id":"1450147697","operator":"Network Rail","ref":"CBC1"}},{"type":"Feature","geometry":{"type":"LineString","coordinates":[[-2.8353,54.20512],[-2.83462,54.20505]]},"properties":{"name":"Furness Line","category":"rail","osm_type":"way","osm_id":"1450147698","operator":"Network Rail","ref":"CBC1"}},{"type":"Feature","geometry":{"type":"LineString","coordinates":[[-2.9012,54.19609],[-2.90196,54.19591]]},"properties":{"name":"Furness Line","category":"rail","osm_type":"way","osm_id":"1450147699","operator":"Network Rail","ref":"CBC1"}},{"type":"Feature","geometry":{"type":"LineString","coordinates":[[-2.90204,54.19589],[-2.90697,54.19382],[-2.91091,54.19035]]},"properties":{"name":"Furness Line","category":"rail","osm_type":"way","osm_id":"1450147700","operator":"Network Rail","ref":"CBC1"}},{"type":"Feature","geometry":{"type":"LineString","coordinates":[[-2.94629,54.16948],[-2.94856,54.17003]]},"properties":{"name":"Furness Line","category":"rail","osm_type":"way","osm_id":"1458371622","operator":"Network Rail","ref":"CBC1"}},{"type":"Feature","geometry":{"type":"LineString","coordinates":[[-2.94086,54.1682],[-2.94608,54.16946]]},"properties":{"name":"Furness Line","category":"rail","osm_type":"way","osm_id":"1458371623","operator":"Network Rail","ref":"CBC1"}},{"type":"Feature","geometry":{"type":"LineString","coordinates":[[-2.93574,54.16741],[-2.93734,54.16747]]},"properties":{"name":"Furness Line","category":"rail","osm_type":"way","osm_id":"1458371624","operator":"Network Rail","ref":"CBC1"}},{"type":"Feature","geometry":{"type":"LineString","coordinates":[[-2.92733,54.17058],[-2.93046,54.16832],[-2.93563,54.16741]]},"properties":{"name":"Furness Line","category":"rail","osm_type":"way","osm_id":"1458371625","operator":"Network Rail","ref":"CBC1"}},{"type":"Feature","geometry":{"type":"LineString","coordinates":[[-2.40432,54.10138],[-2.40799,54.10379]]},"properties":{"name":"Skipton and Wennington Line","category":"rail","osm_type":"way","osm_id":"1459803398","operator":"Network Rail","ref":"SKW1"}},{"type":"Feature","geometry":{"type":"LineString","coordinates":[[-2.40795,54.10381],[-2.40428,54.10141]]},"properties":{"name":"Skipton and Wennington Line","category":"rail","osm_type":"way","osm_id":"1459803399","operator":"Network Rail","ref":"SKW1"}},{"type":"Feature","geometry":{"type":"LineString","coordinates":[[-2.40335,54.10075],[-2.40432,54.10138]]},"properties":{"name":"Skipton and Wennington Line","category":"rail","osm_type":"way","osm_id":"1459803400","operator":"Network Rail","ref":"SKW1"}},{"type":"Feature","geometry":{"type":"LineString","coordinates":[[-2.40428,54.10141],[-2.40331,54.10077]]},"properties":{"name":"Skipton and Wennington Line","category":"rail","osm_type":"way","osm_id":"1459803401","operator":"Network Rail","ref":"SKW1"}},{"type":"Feature","geometry":{"type":"LineString","coordinates":[[-2.40331,54.10077],[-2.40163,54.09966]]},"properties":{"name":"Skipton and Wennington Line","category":"rail","osm_type":"way","osm_id":"1459803402","operator":"Network Rail","ref":"SKW1"}},{"type":"Feature","geometry":{"type":"LineString","coordinates":[[-2.40168,54.09965],[-2.40335,54.10075]]},"properties":{"name":"Skipton and Wennington Line","category":"rail","osm_type":"way","osm_id":"1459803403","operator":"Network Rail","ref":"SKW1"}},{"type":"Feature","geometry":{"type":"LineString","coordinates":[[-2.28091,54.10468],[-2.28188,54.10581]]},"properties":{"name":"Settle-Carlisle Railway","category":"rail","osm_type":"way","osm_id":"1460303866","operator":"Network Rail","ref":"SAC"}},{"type":"Feature","geometry":{"type":"LineString","coordinates":[[-2.28183,54.10583],[-2.28085,54.1047]]},"properties":{"name":"Settle-Carlisle Railway","category":"rail","osm_type":"way","osm_id":"1460303867","operator":"Network Rail","ref":"SAC"}},{"type":"Feature","geometry":{"type":"LineString","coordinates":[[-2.38482,54.08633],[-2.3861,54.0869]]},"properties":{"name":"Skipton and Wennington Line","category":"rail","osm_type":"way","osm_id":"1461950480","operator":"Network Rail","ref":"SKW1"}},{"type":"Feature","geometry":{"type":"LineString","coordinates":[[-2.38607,54.08692],[-2.38479,54.08635]]},"properties":{"name":"Skipton and Wennington Line","category":"rail","osm_type":"way","osm_id":"1461950481","operator":"Network Rail","ref":"SKW1"}},{"type":"Feature","geometry":{"type":"LineString","coordinates":[[-2.38639,54.08705],[-2.38796,54.08806]]},"properties":{"name":"Skipton and Wennington Line","category":"rail","osm_type":"way","osm_id":"1461950495","operator":"Network Rail","ref":"SKW1"}},{"type":"Feature","geometry":{"type":"LineString","coordinates":[[-2.38792,54.08808],[-2.38636,54.08707]]},"properties":{"name":"Skipton and Wennington Line","category":"rail","osm_type":"way","osm_id":"1461950496","operator":"Network Rail","ref":"SKW1"}},{"type":"Feature","geometry":{"type":"LineString","coordinates":[[-2.61184,54.35951],[-2.61071,54.35955]]},"properties":{"name":"West Coast Main Line","category":"rail","osm_type":"way","osm_id":"1463601001","operator":"Network Rail","ref":"CGJ7"}},{"type":"Feature","geometry":{"type":"LineString","coordinates":[[-2.61959,54.35829],[-2.61831,54.35867]]},"properties":{"name":"West Coast Main Line","category":"rail","osm_type":"way","osm_id":"1463601002","operator":"Network Rail","ref":"CGJ7"}},{"type":"Feature","geometry":{"type":"LineString","coordinates":[[-2.74799,54.22632],[-2.74792,54.22587]]},"properties":{"name":"West Coast Main Line","category":"rail","osm_type":"way","osm_id":"1463601003","operator":"Network Rail","ref":"CGJ7"}},{"type":"Feature","geometry":{"type":"LineString","coordinates":[[-2.74831,54.22721],[-2.74814,54.22681]]},"properties":{"name":"West Coast Main Line","category":"rail","osm_type":"way","osm_id":"1463601004","operator":"Network Rail","ref":"CGJ7"}},{"type":"Feature","geometry":{"type":"LineString","coordinates":[[-2.79445,54.00951],[-2.79429,54.00906]]},"properties":{"name":"Railways","category":"rail","osm_type":"way","osm_id":"1466045035","operator":"Network Rail"}},{"type":"Feature","geometry":{"type":"LineString","coordinates":[[-2.02931,54.0451],[-2.03138,54.04315]]},"properties":{"name":"Grassington Branch","category":"rail","osm_type":"way","osm_id":"1491060194","ref":"SKS2"}},{"type":"Feature","geometry":{"type":"LineString","coordinates":[[-2.2232,54.00079],[-2.22324,54.00126]]},"properties":{"name":"Ribble Valley Line","category":"rail","osm_type":"way","osm_id":"1518011195","operator":"Network Rail","ref":"DJH"}},{"type":"Feature","geometry":{"type":"LineString","coordinates":[[-2.22318,54.00126],[-2.22314,54.00082]]},"properties":{"name":"Ribble Valley Line","category":"rail","osm_type":"way","osm_id":"1518011196","operator":"Network Rail","ref":"DJH"}},{"type":"Feature","geometry":{"type":"LineString","coordinates":[[-2.22324,54.00126],[-2.22325,54.00137]]},"properties":{"name":"Ribble Valley Line","category":"rail","osm_type":"way","osm_id":"1518011197","operator":"Network Rail","ref":"DJH"}},{"type":"Feature","geometry":{"type":"LineString","coordinates":[[-2.2232,54.00137],[-2.22318,54.00126]]},"properties":{"name":"Ribble Valley Line","category":"rail","osm_type":"way","osm_id":"1518011198","operator":"Network Rail","ref":"DJH"}},{"type":"Feature","geometry":{"type":"LineString","coordinates":[[-2.8056,54.04185],[-2.80641,54.04341]]},"properties":{"name":"West Coast Main Line","category":"rail","osm_type":"way","osm_id":"1525808577","operator":"Network Rail","ref":"CGJ6"}},{"type":"Feature","geometry":{"type":"LineString","coordinates":[[-2.80641,54.04341],[-2.80644,54.04349]]},"properties":{"name":"West Coast Main Line","category":"rail","osm_type":"way","osm_id":"1525808578","operator":"Network Rail","ref":"CGJ6"}},{"type":"Feature","geometry":{"type":"LineString","coordinates":[[-2.80636,54.04342],[-2.80555,54.04186]]},"properties":{"name":"West Coast Main Line","category":"rail","osm_type":"way","osm_id":"1525808579","operator":"Network Rail","ref":"CGJ6"}},{"type":"Feature","geometry":{"type":"LineString","coordinates":[[-2.80639,54.0435],[-2.80636,54.04342]]},"properties":{"name":"West Coast Main Line","category":"rail","osm_type":"way","osm_id":"1525808580","operator":"Network Rail","ref":"CGJ6"}},{"type":"Feature","geometry":{"type":"LineString","coordinates":[[-2.80629,54.04342],[-2.80557,54.04189]]},"properties":{"name":"Railways","category":"rail","osm_type":"way","osm_id":"1525808581","operator":"Network Rail"}},{"type":"Feature","geometry":{"type":"LineString","coordinates":[[-2.80632,54.0435],[-2.80629,54.04342]]},"properties":{"name":"Railways","category":"rail","osm_type":"way","osm_id":"1525808582","operator":"Network Rail"}},{"type":"Feature","geometry":{"type":"LineString","coordinates":[[-2.36315,54.08213],[-2.36649,54.08265]]},"properties":{"name":"Skipton and Wennington Line","category":"rail","osm_type":"way","osm_id":"1543058051","operator":"Network Rail","ref":"SKW1"}},{"type":"Feature","geometry":{"type":"LineString","coordinates":[[-2.36649,54.08265],[-2.36655,54.08266]]},"properties":{"name":"Skipton and Wennington Line","category":"rail","osm_type":"way","osm_id":"1543058052","operator":"Network Rail","ref":"SKW1"}},{"type":"Feature","geometry":{"type":"LineString","coordinates":[[-2.36646,54.08268],[-2.36314,54.08216]]},"properties":{"name":"Skipton and Wennington Line","category":"rail","osm_type":"way","osm_id":"1543058053","operator":"Network Rail","ref":"SKW1"}},{"type":"Feature","geometry":{"type":"LineString","coordinates":[[-2.36654,54.0827],[-2.36646,54.08268]]},"properties":{"name":"Skipton and Wennington Line","category":"rail","osm_type":"way","osm_id":"1543058054","operator":"Network Rail","ref":"SKW1"}},{"type":"Feature","geometry":{"type":"LineString","coordinates":[[-2.90366,54.37973],[-2.90335,54.37948]]},"properties":{"name":"Lakes Line","category":"rail","osm_type":"way","osm_id":"1552419784","operator":"Network Rail","ref":"OXW"}},{"type":"Feature","geometry":{"type":"LineString","coordinates":[[-2.72177,54.30548],[-2.72239,54.30459]]},"properties":{"name":"Lakes Line","category":"rail","osm_type":"way","osm_id":"1552419785","operator":"Network Rail","ref":"OXW"}}]}