{"type":"FeatureCollection","features":[{"type":"Feature","geometry":{"type":"LineString","coordinates":[[-3.06316,52.80888],[-3.06747,52.80302],[-3.06983,52.79835]]},"properties":{"name":"Cambrian Railways Trust","category":"rail","osm_type":"way","osm_id":"24348239","ref":"GNQ4"}},{"type":"Feature","geometry":{"type":"LineString","coordinates":[[-3.04829,52.86304],[-3.04868,52.86277]]},"properties":{"name":"Cambrian Heritage Railway","category":"rail","osm_type":"way","osm_id":"64233260","operator":"Cambrian Heritage Railway","ref":"GNQ4"}},{"type":"Feature","geometry":{"type":"LineString","coordinates":[[-3.04591,52.8492],[-3.04337,52.84343]]},"properties":{"name":"Cambrian Railway","category":"rail","osm_type":"way","osm_id":"64233265","ref":"GNQ4"}},{"type":"Feature","geometry":{"type":"LineString","coordinates":[[-3.10742,52.80141],[-3.10426,52.80296],[-3.10317,52.8041],[-3.10281,52.80801]]},"properties":{"name":"Tanat Valley Light Railway","category":"rail","osm_type":"way","osm_id":"92673420","ref":"GNQ3"}},{"type":"Feature","geometry":{"type":"LineString","coordinates":[[-3.06236,52.92789],[-3.06194,52.92709]]},"properties":{"name":"Shrewsbury to Chester Line","category":"rail","osm_type":"way","osm_id":"180496822","operator":"Network Rail","ref":"WSJ2"}},{"type":"Feature","geometry":{"type":"LineString","coordinates":[[-3.03468,52.88786],[-3.03409,52.8896],[-3.03486,52.89131]]},"properties":{"name":"Gobowen and Nantmawr Quarry Branch","category":"rail","osm_type":"way","osm_id":"191080123","ref":"GNQ1"}},{"type":"Feature","geometry":{"type":"LineString","coordinates":[[-3.03525,52.88693],[-3.03415,52.88959],[-3.03527,52.89171]]},"properties":{"name":"Gobowen and Nantmawr Quarry Branch","category":"rail","osm_type":"way","osm_id":"191080124","ref":"GNQ1"}},{"type":"Feature","geometry":{"type":"LineString","coordinates":[[-3.03527,52.89171],[-3.03554,52.89208]]},"properties":{"name":"Railways","category":"rail","osm_type":"way","osm_id":"191080125","operator":"Network Rail"}},{"type":"Feature","geometry":{"type":"LineString","coordinates":[[-3.03475,52.89111],[-3.03564,52.89205]]},"properties":{"name":"Railways","category":"rail","osm_type":"way","osm_id":"191080126"}},{"type":"Feature","geometry":{"type":"LineString","coordinates":[[-3.05348,52.91696],[-3.05384,52.91766]]},"properties":{"name":"Shrewsbury to Chester Line","category":"rail","osm_type":"way","osm_id":"272473292","operator":"Network Rail","ref":"WSJ2"}},{"type":"Feature","geometry":{"type":"LineString","coordinates":[[-3.05294,52.91143],[-3.05294,52.91122]]},"properties":{"name":"Shrewsbury to Chester Line","category":"rail","osm_type":"way","osm_id":"272473330","operator":"Network Rail","ref":"WSJ2"}},{"type":"Feature","geometry":{"type":"LineString","coordinates":[[-3.05343,52.91697],[-3.05268,52.91434],[-3.05294,52.91143]]},"properties":{"name":"Shrewsbury to Chester Line","category":"rail","osm_type":"way","osm_id":"272473349","operator":"Network Rail","ref":"WSJ2"}},{"type":"Feature","geometry":{"type":"LineString","coordinates":[[-3.00629,52.87046],[-3.00618,52.87038]]},"properties":{"name":"Shrewsbury to Chester Line","category":"rail","osm_type":"way","osm_id":"272484105","operator":"Network Rail","ref":"WSJ2"}},{"type":"Feature","geometry":{"type":"LineString","coordinates":[[-3.00632,52.87042],[-3.02867,52.88553],[-3.05102,52.90666],[-3.0525,52.90885],[-3.05301,52.91122]]},"properties":{"name":"Shrewsbury to Chester Line","category":"rail","osm_type":"way","osm_id":"272484107","operator":"Network Rail","ref":"WSJ2"}},{"type":"Feature","geometry":{"type":"LineString","coordinates":[[-3.0062,52.87033],[-3.00632,52.87042]]},"properties":{"name":"Shrewsbury to Chester Line","category":"rail","osm_type":"way","osm_id":"272484108","operator":"Network Rail","ref":"WSJ2"}},{"type":"Feature","geometry":{"type":"LineString","coordinates":[[-3.04316,52.83938],[-3.04625,52.82828],[-3.04868,52.8244]]},"properties":{"name":"Whitchurch & Aberystwyth","category":"rail","osm_type":"way","osm_id":"288366496","ref":"GNQ4"}},{"type":"Feature","geometry":{"type":"LineString","coordinates":[[-3.04286,52.84069],[-3.04288,52.84055]]},"properties":{"name":"Cambrian","category":"rail","osm_type":"way","osm_id":"288366500","ref":"GNQ4"}},{"type":"Feature","geometry":{"type":"LineString","coordinates":[[-3.03832,52.89465],[-3.038,52.89441]]},"properties":{"name":"Shrewsbury to Chester Line","category":"rail","osm_type":"way","osm_id":"366812992","operator":"Network Rail","ref":"WSJ2"}},{"type":"Feature","geometry":{"type":"LineString","coordinates":[[-3.05294,52.91122],[-3.05244,52.90886],[-3.05096,52.90668],[-3.02862,52.88556],[-3.00629,52.87046]]},"properties":{"name":"Shrewsbury to Chester Line","category":"rail","osm_type":"way","osm_id":"366813000","operator":"Network Rail","ref":"WSJ2"}},{"type":"Feature","geometry":{"type":"LineString","coordinates":[[-3.062,52.92708],[-3.0624,52.92784]]},"properties":{"name":"Shrewsbury to Chester Line","category":"rail","osm_type":"way","osm_id":"368730562","operator":"Network Rail","ref":"WSJ2"}},{"type":"Feature","geometry":{"type":"LineString","coordinates":[[-3.06194,52.92709],[-3.06106,52.92576],[-3.05751,52.92275],[-3.0538,52.91768]]},"properties":{"name":"Shrewsbury to Chester Line","category":"rail","osm_type":"way","osm_id":"368730578","operator":"Network Rail","ref":"WSJ2"}},{"type":"Feature","geometry":{"type":"LineString","coordinates":[[-3.05384,52.91766],[-3.05756,52.92274],[-3.06112,52.92574],[-3.062,52.92708]]},"properties":{"name":"Shrewsbury to Chester Line","category":"rail","osm_type":"way","osm_id":"368730579","operator":"Network Rail","ref":"WSJ2"}},{"type":"Feature","geometry":{"type":"LineString","coordinates":[[-3.05301,52.91143],[-3.05275,52.91434],[-3.05348,52.91696]]},"properties":{"name":"Shrewsbury to Chester Line","category":"rail","osm_type":"way","osm_id":"368731397","operator":"Network Rail","ref":"WSJ2"}},{"type":"Feature","geometry":{"type":"LineString","coordinates":[[-3.05301,52.91122],[-3.05301,52.91143]]},"properties":{"name":"Shrewsbury to Chester Line","category":"rail","osm_type":"way","osm_id":"368731398","operator":"Network Rail","ref":"WSJ2"}},{"type":"Feature","geometry":{"type":"LineString","coordinates":[[-3.0538,52.91768],[-3.05343,52.91697]]},"properties":{"name":"Shrewsbury to Chester Line","category":"rail","osm_type":"way","osm_id":"368731399","operator":"Network Rail","ref":"WSJ2"}},{"type":"Feature","geometry":{"type":"LineString","coordinates":[[-3.05023,52.86083],[-3.05038,52.86041]]},"properties":{"name":"Railways","category":"rail","osm_type":"way","osm_id":"542075520"}},{"type":"Feature","geometry":{"type":"LineString","coordinates":[[-3.0505,52.85892],[-3.05021,52.86058]]},"properties":{"name":"Railways","category":"rail","osm_type":"way","osm_id":"542075521"}},{"type":"Feature","geometry":{"type":"LineString","coordinates":[[-3.0478,52.86333],[-3.0494,52.86209],[-3.05054,52.8594],[-3.0482,52.85559],[-3.04593,52.84924]]},"properties":{"name":"Cambrian Heritage Railway","category":"rail","osm_type":"way","osm_id":"757746295","operator":"Cambrian Heritage Railway","ref":"GNQ4"}},{"type":"Feature","geometry":{"type":"MultiLineString","coordinates":[[[-2.99309,52.69643],[-2.99918,52.69865],[-3.00502,52.70238],[-3.01012,52.70401],[-3.01623,52.70456],[-3.0263,52.70334]],[[-3.029,52.70273],[-3.02952,52.70257]]]},"properties":{"name":"Cambrian Line","category":"rail","osm_type":"way","osm_id":"776866764","operator":"Network Rail","ref":"SBA1"}},{"type":"Feature","geometry":{"type":"LineString","coordinates":[[-3.0428,52.84166],[-3.04282,52.8409]]},"properties":{"name":"Loop","category":"rail","osm_type":"way","osm_id":"887572670","operator":"CHR"}},{"type":"Feature","geometry":{"type":"LineString","coordinates":[[-3.0428,52.84166],[-3.04311,52.8428]]},"properties":{"name":"Return Loop","category":"rail","osm_type":"way","osm_id":"887572672","operator":"CHR"}},{"type":"Feature","geometry":{"type":"LineString","coordinates":[[-3.04337,52.84343],[-3.04295,52.84148]]},"properties":{"name":"Railways","category":"rail","osm_type":"way","osm_id":"888596595"}},{"type":"Feature","geometry":{"type":"LineString","coordinates":[[-3.04301,52.84165],[-3.04302,52.84234]]},"properties":{"name":"Railways","category":"rail","osm_type":"way","osm_id":"888606129"}},{"type":"Feature","geometry":{"type":"LineString","coordinates":[[-3.04337,52.84343],[-3.04282,52.8409]]},"properties":{"name":"Cambrian Railway","category":"rail","osm_type":"way","osm_id":"896170243","ref":"GNQ4"}},{"type":"Feature","geometry":{"type":"LineString","coordinates":[[-3.04282,52.8409],[-3.04286,52.84069]]},"properties":{"name":"Cambrian Railway","category":"rail","osm_type":"way","osm_id":"896170244","ref":"GNQ4"}},{"type":"Feature","geometry":{"type":"LineString","coordinates":[[-3.03527,52.89171],[-3.03723,52.89338]]},"properties":{"name":"Gobowen and Nantmawr Quarry Branch","category":"rail","osm_type":"way","osm_id":"905906299"}},{"type":"Feature","geometry":{"type":"LineString","coordinates":[[-3.04593,52.84924],[-3.04591,52.8492]]},"properties":{"name":"Cambrian Railway","category":"rail","osm_type":"way","osm_id":"905906312","ref":"GNQ4"}},{"type":"Feature","geometry":{"type":"LineString","coordinates":[[-3.05027,52.86083],[-3.05043,52.86028]]},"properties":{"name":"Railways","category":"rail","osm_type":"way","osm_id":"907797360"}},{"type":"Feature","geometry":{"type":"LineString","coordinates":[[-3.05047,52.85998],[-3.05019,52.86054]]},"properties":{"name":"Cambrian Heritage Railway","category":"rail","osm_type":"way","osm_id":"907797362","operator":"Cambrian Heritage Railway","ref":"GNQ4"}},{"type":"Feature","geometry":{"type":"LineString","coordinates":[[-3.05019,52.86054],[-3.04868,52.86277]]},"properties":{"name":"Cambrian Heritage Railway","category":"rail","osm_type":"way","osm_id":"907797363","operator":"Cambrian Heritage Railway","ref":"GNQ4"}},{"type":"Feature","geometry":{"type":"LineString","coordinates":[[-3.10281,52.80808],[-3.1031,52.80913],[-3.10437,52.80998],[-3.11245,52.81148],[-3.11439,52.81142]]},"properties":{"name":"Tanat Valley Light Railway","category":"rail","osm_type":"way","osm_id":"935853093","operator":"Tanat Valley Light Railway Co.","ref":"GNQ3"}},{"type":"Feature","geometry":{"type":"LineString","coordinates":[[-3.10281,52.80801],[-3.10281,52.80808]]},"properties":{"name":"Tanat Valley Light Railway","category":"rail","osm_type":"way","osm_id":"935853094","ref":"GNQ3"}},{"type":"Feature","geometry":{"type":"LineString","coordinates":[[-3.10793,52.81094],[-3.10928,52.81078]]},"properties":{"name":"Railways","category":"rail","osm_type":"way","osm_id":"935853097"}},{"type":"Feature","geometry":{"type":"LineString","coordinates":[[-3.11366,52.81148],[-3.11014,52.81098]]},"properties":{"name":"Tanat Valley Light Railway","category":"rail","osm_type":"way","osm_id":"935856642","ref":"GNQ3"}},{"type":"Feature","geometry":{"type":"LineString","coordinates":[[-3.04288,52.84055],[-3.04316,52.83938]]},"properties":{"name":"Whitchurch & Aberystwyth","category":"rail","osm_type":"way","osm_id":"1081139271","ref":"GNQ4"}},{"type":"Feature","geometry":{"type":"LineString","coordinates":[[-3.06401,52.80749],[-3.06478,52.80671]]},"properties":{"name":"Railways","category":"rail","osm_type":"way","osm_id":"1081633289"}},{"type":"Feature","geometry":{"type":"LineString","coordinates":[[-3.00618,52.87038],[-3.00513,52.86969]]},"properties":{"name":"Shrewsbury to Chester Line","category":"rail","osm_type":"way","osm_id":"1188973065","operator":"Network Rail","ref":"WSJ2"}}]}