{"type":"FeatureCollection","features":[{"type":"Feature","geometry":{"type":"LineString","coordinates":[[-3.09329,51.02344],[-3.10052,51.02311]]},"properties":{"name":"Bristol to Exeter Line","category":"rail","osm_type":"way","osm_id":"4015969","operator":"Network Rail","ref":"MLN1"}},{"type":"Feature","geometry":{"type":"LineString","coordinates":[[-3.88547,51.20162],[-3.8866,51.20175]]},"properties":{"name":"Lynton and Barnstaple Railway","category":"narrow_gauge","osm_type":"way","osm_id":"24405917","ref":"BEZ"}},{"type":"Feature","geometry":{"type":"LineString","coordinates":[[-3.09303,51.02348],[-3.09329,51.02344]]},"properties":{"name":"Bristol to Exeter Line","category":"rail","osm_type":"way","osm_id":"27297477","operator":"Network Rail","ref":"MLN1"}},{"type":"Feature","geometry":{"type":"LineString","coordinates":[[-3.09142,51.02374],[-3.09161,51.0237]]},"properties":{"name":"Bristol to Exeter Line","category":"rail","osm_type":"way","osm_id":"27297479","operator":"Network Rail","ref":"MLN1"}},{"type":"Feature","geometry":{"type":"LineString","coordinates":[[-3.09161,51.0237],[-3.09303,51.02348]]},"properties":{"name":"Bristol to Exeter Line","category":"rail","osm_type":"way","osm_id":"27297480","operator":"Network Rail","ref":"MLN1"}},{"type":"Feature","geometry":{"type":"LineString","coordinates":[[-3.20719,51.07444],[-3.20728,51.07451]]},"properties":{"name":"West Somerset Railway","category":"rail","osm_type":"way","osm_id":"28321147","operator":"West Somerset Railway plc"}},{"type":"Feature","geometry":{"type":"LineString","coordinates":[[-3.20728,51.07451],[-3.21097,51.07811]]},"properties":{"name":"West Somerset Railway","category":"rail","osm_type":"way","osm_id":"28321149","operator":"West Somerset Railway plc"}},{"type":"Feature","geometry":{"type":"LineString","coordinates":[[-3.21097,51.07811],[-3.21116,51.07825]]},"properties":{"name":"West Somerset Railway","category":"rail","osm_type":"way","osm_id":"28321152","operator":"West Somerset Railway plc"}},{"type":"Feature","geometry":{"type":"LineString","coordinates":[[-3.21116,51.07825],[-3.21235,51.07895]]},"properties":{"name":"West Somerset Railway","category":"rail","osm_type":"way","osm_id":"28321155","operator":"West Somerset Railway plc"}},{"type":"Feature","geometry":{"type":"LineString","coordinates":[[-3.19902,51.06639],[-3.19904,51.06647]]},"properties":{"name":"West Somerset Railway","category":"rail","osm_type":"way","osm_id":"28321297","operator":"West Somerset Railway plc"}},{"type":"Feature","geometry":{"type":"LineString","coordinates":[[-3.27687,51.1314],[-3.27812,51.13511]]},"properties":{"name":"West Somerset Railway","category":"rail","osm_type":"way","osm_id":"28614148","operator":"West Somerset Railway plc"}},{"type":"Feature","geometry":{"type":"LineString","coordinates":[[-3.27206,51.12696],[-3.27218,51.12703]]},"properties":{"name":"West Somerset Railway","category":"rail","osm_type":"way","osm_id":"28614149","operator":"West Somerset Railway plc"}},{"type":"Feature","geometry":{"type":"LineString","coordinates":[[-3.30057,51.15533],[-3.30246,51.15929],[-3.30827,51.1647]]},"properties":{"name":"West Somerset Railway","category":"rail","osm_type":"way","osm_id":"28614214","operator":"West Somerset Railway plc"}},{"type":"Feature","geometry":{"type":"LineString","coordinates":[[-3.30049,51.15522],[-3.30057,51.15533]]},"properties":{"name":"West Somerset Railway","category":"rail","osm_type":"way","osm_id":"28614215","operator":"West Somerset Railway plc"}},{"type":"Feature","geometry":{"type":"LineString","coordinates":[[-3.31013,51.17505],[-3.31009,51.17517]]},"properties":{"name":"West Somerset Railway","category":"rail","osm_type":"way","osm_id":"28614272","operator":"West Somerset Railway plc"}},{"type":"Feature","geometry":{"type":"LineString","coordinates":[[-3.31009,51.17517],[-3.31039,51.17716],[-3.31232,51.17875],[-3.31442,51.17937],[-3.31922,51.17998],[-3.32349,51.18183],[-3.32676,51.18189],[-3.3302,51.18033]]},"properties":{"name":"West Somerset Railway","category":"rail","osm_type":"way","osm_id":"28614273","operator":"West Somerset Railway plc"}},{"type":"Feature","geometry":{"type":"LineString","coordinates":[[-3.3646,51.16297],[-3.3645,51.163]]},"properties":{"name":"West Somerset Railway","category":"rail","osm_type":"way","osm_id":"28614475","operator":"West Somerset Railway plc"}},{"type":"Feature","geometry":{"type":"LineString","coordinates":[[-3.3646,51.16297],[-3.37332,51.16006],[-3.37564,51.15971],[-3.37939,51.16045],[-3.38213,51.16249]]},"properties":{"name":"West Somerset Railway","category":"rail","osm_type":"way","osm_id":"28614476","operator":"West Somerset Railway plc"}},{"type":"Feature","geometry":{"type":"LineString","coordinates":[[-3.38213,51.16249],[-3.38223,51.16264]]},"properties":{"name":"West Somerset Railway","category":"rail","osm_type":"way","osm_id":"28614480","operator":"West Somerset Railway plc"}},{"type":"Feature","geometry":{"type":"LineString","coordinates":[[-3.38223,51.16264],[-3.3854,51.16743]]},"properties":{"name":"West Somerset Railway","category":"rail","osm_type":"way","osm_id":"28614481","operator":"West Somerset Railway plc"}},{"type":"Feature","geometry":{"type":"LineString","coordinates":[[-3.13547,51.02507],[-3.13984,51.02456]]},"properties":{"name":"Bristol to Exeter Line","category":"rail","osm_type":"way","osm_id":"28827253","operator":"Network Rail","ref":"MLN1"}},{"type":"Feature","geometry":{"type":"LineString","coordinates":[[-3.26372,51.12204],[-3.26381,51.12208]]},"properties":{"name":"West Somerset Railway","category":"rail","osm_type":"way","osm_id":"28971247","operator":"West Somerset Railway plc"}},{"type":"Feature","geometry":{"type":"LineString","coordinates":[[-3.26886,51.12411],[-3.27206,51.12696]]},"properties":{"name":"West Somerset Railway","category":"rail","osm_type":"way","osm_id":"28971248","operator":"West Somerset Railway plc"}},{"type":"Feature","geometry":{"type":"LineString","coordinates":[[-3.1094,51.02389],[-3.12967,51.02515],[-3.13547,51.02507]]},"properties":{"name":"Bristol to Exeter Line","category":"rail","osm_type":"way","osm_id":"29687808","operator":"Network Rail","ref":"MLN1"}},{"type":"Feature","geometry":{"type":"LineString","coordinates":[[-3.33226,51.1796],[-3.33497,51.17982]]},"properties":{"name":"West Somerset Railway","category":"rail","osm_type":"way","osm_id":"29696044","operator":"West Somerset Railway plc"}},{"type":"Feature","geometry":{"type":"LineString","coordinates":[[-2.99929,51.04172],[-3.00467,51.0379]]},"properties":{"name":"Reading to Taunton Line","category":"rail","osm_type":"way","osm_id":"34037029","operator":"Network Rail","ref":"CCL"}},{"type":"Feature","geometry":{"type":"LineString","coordinates":[[-3.4691,51.20657],[-3.46906,51.20656]]},"properties":{"name":"Railways","category":"rail","osm_type":"way","osm_id":"35919073","operator":"West Somerset Railway plc"}},{"type":"Feature","geometry":{"type":"LineString","coordinates":[[-3.46443,51.20482],[-3.46975,51.20721]]},"properties":{"name":"West Somerset Railway","category":"rail","osm_type":"way","osm_id":"36960621","operator":"West Somerset Railway plc"}},{"type":"Feature","geometry":{"type":"LineString","coordinates":[[-2.99907,51.04177],[-3.00382,51.03837]]},"properties":{"name":"Bristol to Exeter Line","category":"rail","osm_type":"way","osm_id":"41852944","operator":"Network Rail","ref":"MLN1"}},{"type":"Feature","geometry":{"type":"LineString","coordinates":[[-3.10052,51.02322],[-3.09622,51.02319],[-3.0916,51.02375]]},"properties":{"name":"Bristol to Exeter Line","category":"rail","osm_type":"way","osm_id":"120649392","operator":"Network Rail","ref":"MLN1"}},{"type":"Feature","geometry":{"type":"LineString","coordinates":[[-3.10013,51.02323],[-3.09621,51.02322],[-3.0916,51.02378]]},"properties":{"name":"Railways","category":"rail","osm_type":"way","osm_id":"120649393","operator":"Network Rail"}},{"type":"Feature","geometry":{"type":"LineString","coordinates":[[-3.10983,51.02397],[-3.10848,51.02383]]},"properties":{"name":"Railways","category":"rail","osm_type":"way","osm_id":"120649397","operator":"Network Rail"}},{"type":"Feature","geometry":{"type":"LineString","coordinates":[[-3.10014,51.0233],[-3.1022,51.02344]]},"properties":{"name":"Railways","category":"rail","osm_type":"way","osm_id":"120649398","operator":"Network Rail"}},{"type":"Feature","geometry":{"type":"LineString","coordinates":[[-3.10983,51.02397],[-3.10558,51.02351]]},"properties":{"name":"Bristol to Exeter Line","category":"rail","osm_type":"way","osm_id":"120649399","operator":"Network Rail","ref":"MLN1"}},{"type":"Feature","geometry":{"type":"LineString","coordinates":[[-3.08833,51.02437],[-3.09142,51.0237]]},"properties":{"name":"Railways","category":"rail","osm_type":"way","osm_id":"120649923","operator":"Network Rail"}},{"type":"Feature","geometry":{"type":"LineString","coordinates":[[-3.1056,51.02338],[-3.1074,51.02359]]},"properties":{"name":"Railways","category":"rail","osm_type":"way","osm_id":"120649924","operator":"Network Rail"}},{"type":"Feature","geometry":{"type":"LineString","coordinates":[[-3.10562,51.02331],[-3.10834,51.02368]]},"properties":{"name":"Railways","category":"rail","osm_type":"way","osm_id":"120650457"}},{"type":"Feature","geometry":{"type":"LineString","coordinates":[[-3.1074,51.02359],[-3.10834,51.02368]]},"properties":{"name":"Bristol to Exeter Line","category":"rail","osm_type":"way","osm_id":"120650458","operator":"Network Rail","ref":"MLN1"}},{"type":"Feature","geometry":{"type":"LineString","coordinates":[[-3.1411,51.02442],[-3.13171,51.02525],[-3.10983,51.02397]]},"properties":{"name":"Bristol to Exeter Line","category":"rail","osm_type":"way","osm_id":"120650459","operator":"Network Rail","ref":"MLN1"}},{"type":"Feature","geometry":{"type":"LineString","coordinates":[[-3.11546,51.02439],[-3.12045,51.02432],[-3.13237,51.02512]]},"properties":{"name":"Railways","category":"rail","osm_type":"way","osm_id":"120650500"}},{"type":"Feature","geometry":{"type":"LineString","coordinates":[[-3.1191,51.02437],[-3.12705,51.02475]]},"properties":{"name":"Railways","category":"rail","osm_type":"way","osm_id":"120651550"}},{"type":"Feature","geometry":{"type":"LineString","coordinates":[[-3.11829,51.02444],[-3.12776,51.02489]]},"properties":{"name":"Railways","category":"rail","osm_type":"way","osm_id":"120651553"}},{"type":"Feature","geometry":{"type":"LineString","coordinates":[[-3.11762,51.02445],[-3.12836,51.02496]]},"properties":{"name":"Railways","category":"rail","osm_type":"way","osm_id":"120651554"}},{"type":"Feature","geometry":{"type":"LineString","coordinates":[[-3.11823,51.02448],[-3.12784,51.02494]]},"properties":{"name":"Railways","category":"rail","osm_type":"way","osm_id":"120651556"}},{"type":"Feature","geometry":{"type":"LineString","coordinates":[[-3.11877,51.02443],[-3.12738,51.02484]]},"properties":{"name":"Railways","category":"rail","osm_type":"way","osm_id":"120651557"}},{"type":"Feature","geometry":{"type":"LineString","coordinates":[[-3.12665,51.02468],[-3.12458,51.02442]]},"properties":{"name":"Railways","category":"rail","osm_type":"way","osm_id":"120651685"}},{"type":"Feature","geometry":{"type":"LineString","coordinates":[[-3.1616,51.02063],[-3.17334,51.01514],[-3.18905,51.00536],[-3.19432,51.0016],[-3.19768,50.99763]]},"properties":{"name":"Bristol to Exeter Line","category":"rail","osm_type":"way","osm_id":"120950194","operator":"Network Rail","ref":"MLN1"}},{"type":"Feature","geometry":{"type":"LineString","coordinates":[[-3.19774,50.99765],[-3.19376,51.00217],[-3.18492,51.00803],[-3.17164,51.01612],[-3.16086,51.02093]]},"properties":{"name":"Bristol to Exeter Line","category":"rail","osm_type":"way","osm_id":"120950195","operator":"Network Rail","ref":"MLN1"}},{"type":"Feature","geometry":{"type":"LineString","coordinates":[[-3.00702,51.03615],[-3.01406,51.03129],[-3.01946,51.0284],[-3.02671,51.02577],[-3.03399,51.02422],[-3.04115,51.02353],[-3.04774,51.02361],[-3.06506,51.02587],[-3.07269,51.02625],[-3.08127,51.02568],[-3.08833,51.02437]]},"properties":{"name":"Bristol to Exeter Line","category":"rail","osm_type":"way","osm_id":"135934165","operator":"Network Rail","ref":"MLN1"}},{"type":"Feature","geometry":{"type":"LineString","coordinates":[[-3.0872,51.02466],[-3.07972,51.02591],[-3.07269,51.02629],[-3.06506,51.02592],[-3.04707,51.02362],[-3.0402,51.02362],[-3.03279,51.02445],[-3.02518,51.02627],[-3.01744,51.02943],[-3.01234,51.0325],[-3.00201,51.03997]]},"properties":{"name":"Bristol to Exeter Line","category":"rail","osm_type":"way","osm_id":"135934175","operator":"Network Rail","ref":"MLN1"}},{"type":"Feature","geometry":{"type":"LineString","coordinates":[[-3.16048,51.02193],[-3.15424,51.02276]]},"properties":{"name":"The Barnstaple (Norton Fitzwarren Triangle)","category":"rail","osm_type":"way","osm_id":"145396645","operator":"West Somerset Railway plc","ref":"BLE"}},{"type":"Feature","geometry":{"type":"LineString","coordinates":[[-3.1579,51.02449],[-3.15823,51.02278],[-3.16048,51.02193]]},"properties":{"name":"West Chord (Norton Fitzwarren Triangle)","category":"rail","osm_type":"way","osm_id":"145396646","operator":"West Somerset Railway plc"}},{"type":"Feature","geometry":{"type":"LineString","coordinates":[[-3.15424,51.02276],[-3.15679,51.02306],[-3.1579,51.02449]]},"properties":{"name":"Inner Chord (Norton Fitzwarren Triangle)","category":"rail","osm_type":"way","osm_id":"149368248","operator":"West Somerset Railway plc"}},{"type":"Feature","geometry":{"type":"LineString","coordinates":[[-3.14295,51.02415],[-3.15358,51.0227],[-3.1616,51.02063]]},"properties":{"name":"Bristol to Exeter Line","category":"rail","osm_type":"way","osm_id":"149585425","operator":"Network Rail","ref":"MLN1"}},{"type":"Feature","geometry":{"type":"LineString","coordinates":[[-3.19033,51.04927],[-3.18759,51.04795],[-3.18005,51.04554],[-3.17607,51.04465],[-3.17377,51.04355],[-3.16777,51.03863],[-3.15874,51.02589],[-3.1556,51.02399],[-3.15084,51.0233]]},"properties":{"name":"West Somerset Railway","category":"rail","osm_type":"way","osm_id":"149756967","operator":"West Somerset Railway plc","ref":"MIN"}},{"type":"Feature","geometry":{"type":"LineString","coordinates":[[-3.19609,51.05939],[-3.19767,51.06349]]},"properties":{"name":"West Somerset Railway","category":"rail","osm_type":"way","osm_id":"149756968","operator":"West Somerset Railway plc"}},{"type":"Feature","geometry":{"type":"LineString","coordinates":[[-3.19033,51.04927],[-3.19251,51.05129],[-3.19481,51.05531]]},"properties":{"name":"West Somerset Railway","category":"rail","osm_type":"way","osm_id":"149756969","operator":"West Somerset Railway plc"}},{"type":"Feature","geometry":{"type":"LineString","coordinates":[[-3.19904,51.06647],[-3.19938,51.06808]]},"properties":{"name":"West Somerset Railway","category":"rail","osm_type":"way","osm_id":"149756970","operator":"West Somerset Railway plc"}},{"type":"Feature","geometry":{"type":"LineString","coordinates":[[-3.19309,51.05235],[-3.19481,51.05531]]},"properties":{"name":"Railways","category":"rail","osm_type":"way","osm_id":"149756983","operator":"West Somerset Railway plc"}},{"type":"Feature","geometry":{"type":"LineString","coordinates":[[-3.19286,51.05194],[-3.19042,51.04939]]},"properties":{"name":"Railways","category":"rail","osm_type":"way","osm_id":"149756984","operator":"West Somerset Railway plc"}},{"type":"Feature","geometry":{"type":"LineString","coordinates":[[-3.19079,51.04966],[-3.19275,51.05197]]},"properties":{"name":"Railways","category":"rail","osm_type":"way","osm_id":"149756985","operator":"West Somerset Railway plc"}},{"type":"Feature","geometry":{"type":"LineString","coordinates":[[-3.19223,51.0511],[-3.19256,51.05147]]},"properties":{"name":"Railways","category":"rail","osm_type":"way","osm_id":"149756987","operator":"West Somerset Railway plc"}},{"type":"Feature","geometry":{"type":"LineString","coordinates":[[-3.19269,51.05167],[-3.19281,51.05196]]},"properties":{"name":"Railways","category":"rail","osm_type":"way","osm_id":"149756989","operator":"West Somerset Railway plc"}},{"type":"Feature","geometry":{"type":"LineString","coordinates":[[-3.46814,51.20629],[-3.46843,51.20645]]},"properties":{"name":"Railways","category":"rail","osm_type":"way","osm_id":"150037730","operator":"West Somerset Railway plc"}},{"type":"Feature","geometry":{"type":"LineString","coordinates":[[-3.46845,51.20641],[-3.46873,51.20652]]},"properties":{"name":"Railways","category":"rail","osm_type":"way","osm_id":"150037731","operator":"West Somerset Railway plc"}},{"type":"Feature","geometry":{"type":"LineString","coordinates":[[-3.46576,51.20529],[-3.46622,51.20545]]},"properties":{"name":"Railways","category":"rail","osm_type":"way","osm_id":"150037732","operator":"West Somerset Railway plc"}},{"type":"Feature","geometry":{"type":"LineString","coordinates":[[-3.46561,51.20536],[-3.46596,51.20555]]},"properties":{"name":"Railways","category":"rail","osm_type":"way","osm_id":"150037735","operator":"West Somerset Railway plc"}},{"type":"Feature","geometry":{"type":"LineString","coordinates":[[-3.46518,51.20501],[-3.46823,51.20628]]},"properties":{"name":"Railways","category":"rail","osm_type":"way","osm_id":"150037737","operator":"West Somerset Railway plc"}},{"type":"Feature","geometry":{"type":"LineString","coordinates":[[-3.46385,51.20464],[-3.4663,51.2057]]},"properties":{"name":"Railways","category":"rail","osm_type":"way","osm_id":"150037738","operator":"West Somerset Railway plc"}},{"type":"Feature","geometry":{"type":"LineString","coordinates":[[-3.46443,51.20482],[-3.46899,51.20669]]},"properties":{"name":"Railways","category":"rail","osm_type":"way","osm_id":"150037741","operator":"West Somerset Railway plc"}},{"type":"Feature","geometry":{"type":"LineString","coordinates":[[-3.46356,51.20447],[-3.46972,51.20723]]},"properties":{"name":"West Somerset Railway","category":"rail","osm_type":"way","osm_id":"150037742","operator":"West Somerset Railway plc"}},{"type":"Feature","geometry":{"type":"LineString","coordinates":[[-3.39876,51.18132],[-3.40289,51.18193]]},"properties":{"name":"Railways","category":"rail","osm_type":"way","osm_id":"150509345","operator":"West Somerset Railway plc"}},{"type":"Feature","geometry":{"type":"LineString","coordinates":[[-3.3854,51.16743],[-3.38556,51.16766]]},"properties":{"name":"West Somerset Railway","category":"rail","osm_type":"way","osm_id":"150513281","operator":"West Somerset Railway plc"}},{"type":"Feature","geometry":{"type":"LineString","coordinates":[[-3.40296,51.18194],[-3.41687,51.18405],[-3.42049,51.18513],[-3.4275,51.18823]]},"properties":{"name":"West Somerset Railway","category":"rail","osm_type":"way","osm_id":"150513284","operator":"West Somerset Railway plc"}},{"type":"Feature","geometry":{"type":"LineString","coordinates":[[-3.3367,51.18004],[-3.337,51.18006]]},"properties":{"name":"West Somerset Railway","category":"rail","osm_type":"way","osm_id":"150513295","operator":"West Somerset Railway plc"}},{"type":"Feature","geometry":{"type":"LineString","coordinates":[[-3.36995,51.16121],[-3.36924,51.16144]]},"properties":{"name":"Railways","category":"rail","osm_type":"way","osm_id":"150513300","operator":"West Somerset Railway Heritage Trust"}},{"type":"Feature","geometry":{"type":"LineString","coordinates":[[-3.36825,51.16181],[-3.36963,51.16133]]},"properties":{"name":"Railways","category":"rail","osm_type":"way","osm_id":"150513301","operator":"West Somerset Railway Heritage Trust"}},{"type":"Feature","geometry":{"type":"LineString","coordinates":[[-3.36861,51.16165],[-3.36707,51.1622]]},"properties":{"name":"Railways","category":"rail","osm_type":"way","osm_id":"150513302","operator":"West Somerset Railway Heritage Trust"}},{"type":"Feature","geometry":{"type":"LineString","coordinates":[[-3.36809,51.16186],[-3.36834,51.16181]]},"properties":{"name":"Railways","category":"rail","osm_type":"way","osm_id":"150513305","operator":"West Somerset Railway Heritage Trust"}},{"type":"Feature","geometry":{"type":"LineString","coordinates":[[-3.337,51.18006],[-3.33903,51.17974],[-3.34852,51.17609],[-3.35003,51.17492],[-3.35441,51.16968]]},"properties":{"name":"West Somerset Railway","category":"rail","osm_type":"way","osm_id":"150513307","operator":"West Somerset Railway plc"}},{"type":"Feature","geometry":{"type":"LineString","coordinates":[[-3.36973,51.16125],[-3.3669,51.16222]]},"properties":{"name":"Railways","category":"rail","osm_type":"way","osm_id":"150513314","operator":"West Somerset Railway Heritage Trust"}},{"type":"Feature","geometry":{"type":"LineString","coordinates":[[-3.3108,51.16834],[-3.30827,51.1647]]},"properties":{"name":"West Somerset Railway","category":"rail","osm_type":"way","osm_id":"150630885","operator":"West Somerset Railway plc"}},{"type":"Feature","geometry":{"type":"LineString","coordinates":[[-3.30951,51.16625],[-3.31012,51.1673]]},"properties":{"name":"Railways","category":"rail","osm_type":"way","osm_id":"150630889","operator":"DEPG"}},{"type":"Feature","geometry":{"type":"LineString","coordinates":[[-3.31055,51.16792],[-3.31132,51.16932]]},"properties":{"name":"Railways","category":"rail","osm_type":"way","osm_id":"150630893","operator":"West Somerset Railway plc"}},{"type":"Feature","geometry":{"type":"LineString","coordinates":[[-3.27815,51.1352],[-3.28014,51.13874]]},"properties":{"name":"West Somerset Railway","category":"rail","osm_type":"way","osm_id":"150634156","operator":"West Somerset Railway plc"}},{"type":"Feature","geometry":{"type":"LineString","coordinates":[[-3.28017,51.13884],[-3.28036,51.14131],[-3.28111,51.14281]]},"properties":{"name":"West Somerset Railway","category":"rail","osm_type":"way","osm_id":"150634157","operator":"West Somerset Railway plc"}},{"type":"Feature","geometry":{"type":"LineString","coordinates":[[-3.28111,51.14281],[-3.28121,51.14293]]},"properties":{"name":"West Somerset Railway","category":"rail","osm_type":"way","osm_id":"150634158","operator":"West Somerset Railway plc"}},{"type":"Feature","geometry":{"type":"LineString","coordinates":[[-3.27812,51.13511],[-3.27815,51.1352]]},"properties":{"name":"West Somerset Railway","category":"rail","osm_type":"way","osm_id":"150634160","operator":"West Somerset Railway plc"}},{"type":"Feature","geometry":{"type":"LineString","coordinates":[[-3.28014,51.13874],[-3.28017,51.13884]]},"properties":{"name":"West Somerset Railway","category":"rail","osm_type":"way","osm_id":"150634162","operator":"West Somerset Railway plc"}},{"type":"Feature","geometry":{"type":"LineString","coordinates":[[-3.28121,51.14293],[-3.28314,51.14486],[-3.28448,51.14738],[-3.28604,51.14869],[-3.29007,51.15086],[-3.29729,51.15268],[-3.29945,51.15403],[-3.30049,51.15522]]},"properties":{"name":"West Somerset Railway","category":"rail","osm_type":"way","osm_id":"150634166","operator":"West Somerset Railway plc"}},{"type":"Feature","geometry":{"type":"LineString","coordinates":[[-3.3302,51.18033],[-3.33226,51.1796]]},"properties":{"name":"West Somerset Railway","category":"rail","osm_type":"way","osm_id":"157321375","operator":"West Somerset Railway plc"}},{"type":"Feature","geometry":{"type":"LineString","coordinates":[[-3.8866,51.20175],[-3.88594,51.20164]]},"properties":{"name":"Lynton and Barnstaple Railway","category":"narrow_gauge","osm_type":"way","osm_id":"162582474"}},{"type":"Feature","geometry":{"type":"LineString","coordinates":[[-3.88694,51.20174],[-3.88847,51.20175]]},"properties":{"name":"Lynton and Barnstaple Railway","category":"narrow_gauge","osm_type":"way","osm_id":"162582475"}},{"type":"Feature","geometry":{"type":"LineString","coordinates":[[-3.88772,51.20166],[-3.88835,51.20173]]},"properties":{"name":"Lynton and Barnstaple Railway","category":"narrow_gauge","osm_type":"way","osm_id":"162582477"}},{"type":"Feature","geometry":{"type":"LineString","coordinates":[[-3.88999,51.20159],[-3.88811,51.20173]]},"properties":{"name":"Lynton and Barnstaple Railway","category":"narrow_gauge","osm_type":"way","osm_id":"162582478"}},{"type":"Feature","geometry":{"type":"LineString","coordinates":[[-3.88936,51.20173],[-3.88843,51.20173]]},"properties":{"name":"Lynton and Barnstaple Railway","category":"narrow_gauge","osm_type":"way","osm_id":"162582479"}},{"type":"Feature","geometry":{"type":"LineString","coordinates":[[-3.90428,51.19621],[-3.90384,51.19661]]},"properties":{"name":"Lynton and Barnstaple Railway","category":"narrow_gauge","osm_type":"way","osm_id":"162584552"}},{"type":"Feature","geometry":{"type":"LineString","coordinates":[[-3.8866,51.20175],[-3.89376,51.20149],[-3.89629,51.20084]]},"properties":{"name":"Lynton and Barnstaple Railway","category":"narrow_gauge","osm_type":"way","osm_id":"162584553","ref":"BEZ"}},{"type":"Feature","geometry":{"type":"LineString","coordinates":[[-3.89629,51.20084],[-3.89638,51.2008]]},"properties":{"name":"Lynton and Barnstaple Railway","category":"narrow_gauge","osm_type":"way","osm_id":"162584559","ref":"BEZ"}},{"type":"Feature","geometry":{"type":"LineString","coordinates":[[-3.90411,51.19624],[-3.90384,51.19661]]},"properties":{"name":"Lynton and Barnstaple Railway","category":"narrow_gauge","osm_type":"way","osm_id":"162584564","ref":"BEZ"}},{"type":"Feature","geometry":{"type":"LineString","coordinates":[[-3.89638,51.2008],[-3.90331,51.19707]]},"properties":{"name":"Lynton and Barnstaple Railway","category":"narrow_gauge","osm_type":"way","osm_id":"162584568","ref":"BEZ"}},{"type":"Feature","geometry":{"type":"LineString","coordinates":[[-3.90389,51.19657],[-3.90409,51.19644]]},"properties":{"name":"Lynton and Barnstaple Railway","category":"narrow_gauge","osm_type":"way","osm_id":"162584574"}},{"type":"Feature","geometry":{"type":"LineString","coordinates":[[-3.24492,51.11599],[-3.24506,51.11604]]},"properties":{"name":"West Somerset Railway","category":"rail","osm_type":"way","osm_id":"166477821","operator":"West Somerset Railway plc"}},{"type":"Feature","geometry":{"type":"LineString","coordinates":[[-3.26104,51.1203],[-3.26372,51.12204]]},"properties":{"name":"West Somerset Railway","category":"rail","osm_type":"way","osm_id":"166477822","operator":"West Somerset Railway plc"}},{"type":"Feature","geometry":{"type":"LineString","coordinates":[[-3.12845,51.02497],[-3.12915,51.02505]]},"properties":{"name":"Railways","category":"rail","osm_type":"way","osm_id":"183279043"}},{"type":"Feature","geometry":{"type":"LineString","coordinates":[[-3.10834,51.02368],[-3.11382,51.02433],[-3.13111,51.02517],[-3.13894,51.02464]]},"properties":{"name":"Bristol to Exeter Line","category":"rail","osm_type":"way","osm_id":"183279044","operator":"Network Rail","ref":"MLN1"}},{"type":"Feature","geometry":{"type":"LineString","coordinates":[[-3.10724,51.02351],[-3.10407,51.023]]},"properties":{"name":"Railways","category":"rail","osm_type":"way","osm_id":"183279051"}},{"type":"Feature","geometry":{"type":"LineString","coordinates":[[-3.2187,51.08548],[-3.21869,51.08555]]},"properties":{"name":"West Somerset Railway","category":"rail","osm_type":"way","osm_id":"197408410","operator":"West Somerset Railway plc"}},{"type":"Feature","geometry":{"type":"LineString","coordinates":[[-3.21859,51.08617],[-3.21901,51.08807],[-3.2206,51.08985]]},"properties":{"name":"West Somerset Railway","category":"rail","osm_type":"way","osm_id":"197408412","operator":"West Somerset Railway plc"}},{"type":"Feature","geometry":{"type":"LineString","coordinates":[[-3.4275,51.18823],[-3.42766,51.18831]]},"properties":{"name":"West Somerset Railway","category":"rail","osm_type":"way","osm_id":"198571905","operator":"West Somerset Railway plc"}},{"type":"Feature","geometry":{"type":"LineString","coordinates":[[-3.42766,51.18831],[-3.4418,51.19463]]},"properties":{"name":"West Somerset Railway","category":"rail","osm_type":"way","osm_id":"198571906","operator":"West Somerset Railway plc"}},{"type":"Feature","geometry":{"type":"LineString","coordinates":[[-3.44227,51.19484],[-3.44259,51.19503]]},"properties":{"name":"Railways","category":"rail","osm_type":"way","osm_id":"198571914","operator":"West Somerset Railway plc"}},{"type":"Feature","geometry":{"type":"LineString","coordinates":[[-3.438,51.19297],[-3.43784,51.19291]]},"properties":{"name":"Railways","category":"rail","osm_type":"way","osm_id":"198571915","operator":"West Somerset Railway plc"}},{"type":"Feature","geometry":{"type":"LineString","coordinates":[[-3.43836,51.19314],[-3.43878,51.19333]]},"properties":{"name":"Railways","category":"rail","osm_type":"way","osm_id":"198571916","operator":"West Somerset Railway plc"}},{"type":"Feature","geometry":{"type":"LineString","coordinates":[[-3.43784,51.19291],[-3.43591,51.19204]]},"properties":{"name":"Railways","category":"rail","osm_type":"way","osm_id":"198571917","operator":"West Somerset Railway plc"}},{"type":"Feature","geometry":{"type":"LineString","coordinates":[[-3.43868,51.19323],[-3.438,51.19297]]},"properties":{"name":"Railways","category":"rail","osm_type":"way","osm_id":"198571918","operator":"West Somerset Railway plc"}},{"type":"Feature","geometry":{"type":"LineString","coordinates":[[-3.44037,51.19404],[-3.44178,51.19466]]},"properties":{"name":"Railways","category":"rail","osm_type":"way","osm_id":"198571919","operator":"West Somerset Railway plc"}},{"type":"Feature","geometry":{"type":"LineString","coordinates":[[-3.4372,51.19263],[-3.43877,51.19345]]},"properties":{"name":"Railways","category":"rail","osm_type":"way","osm_id":"198571920","operator":"West Somerset Railway plc"}},{"type":"Feature","geometry":{"type":"LineString","coordinates":[[-3.151,51.02325],[-3.15178,51.02322]]},"properties":{"name":"Railways","category":"rail","osm_type":"way","osm_id":"212760863","operator":"West Somerset Railway plc"}},{"type":"Feature","geometry":{"type":"LineString","coordinates":[[-3.00201,51.03997],[-2.99934,51.04174]]},"properties":{"name":"Reading to Taunton Line","category":"rail","osm_type":"way","osm_id":"278064111","operator":"Network Rail","ref":"CCL"}},{"type":"Feature","geometry":{"type":"LineString","coordinates":[[-3.19362,51.05323],[-3.19408,51.05392]]},"properties":{"name":"Railways","category":"rail","osm_type":"way","osm_id":"302121056","operator":"West Somerset Railway Heritage Trust"}},{"type":"Feature","geometry":{"type":"LineString","coordinates":[[-3.11061,51.02407],[-3.10974,51.02393]]},"properties":{"name":"Railways","category":"rail","osm_type":"way","osm_id":"307909373","operator":"Network Rail"}},{"type":"Feature","geometry":{"type":"LineString","coordinates":[[-3.00467,51.0379],[-3.00395,51.03852]]},"properties":{"name":"Railways","category":"rail","osm_type":"way","osm_id":"307909375","operator":"Network Rail"}},{"type":"Feature","geometry":{"type":"LineString","coordinates":[[-3.14004,51.02453],[-3.1409,51.02445]]},"properties":{"name":"Bristol to Exeter Line","category":"rail","osm_type":"way","osm_id":"307909376","operator":"Network Rail","ref":"MLN1"}},{"type":"Feature","geometry":{"type":"LineString","coordinates":[[-3.08762,51.02453],[-3.08624,51.02486]]},"properties":{"name":"Railways","category":"rail","osm_type":"way","osm_id":"307909377","operator":"Network Rail"}},{"type":"Feature","geometry":{"type":"LineString","coordinates":[[-3.13894,51.02464],[-3.13984,51.02456]]},"properties":{"name":"Bristol to Exeter Line","category":"rail","osm_type":"way","osm_id":"310610804","operator":"Network Rail","ref":"MLN1"}},{"type":"Feature","geometry":{"type":"LineString","coordinates":[[-3.1074,51.02359],[-3.1094,51.02389]]},"properties":{"name":"Railways","category":"rail","osm_type":"way","osm_id":"310610805","operator":"Network Rail"}},{"type":"Feature","geometry":{"type":"LineString","coordinates":[[-3.10619,51.02359],[-3.10387,51.02344]]},"properties":{"name":"Railways","category":"rail","osm_type":"way","osm_id":"310610806","operator":"Network Rail"}},{"type":"Feature","geometry":{"type":"LineString","coordinates":[[-3.20249,51.0719],[-3.20719,51.07444]]},"properties":{"name":"West Somerset Railway","category":"rail","osm_type":"way","osm_id":"340115602","operator":"West Somerset Railway plc"}},{"type":"Feature","geometry":{"type":"LineString","coordinates":[[-3.19938,51.06808],[-3.20044,51.07037],[-3.20249,51.0719]]},"properties":{"name":"West Somerset Railway","category":"rail","osm_type":"way","osm_id":"340115603","operator":"West Somerset Railway plc"}},{"type":"Feature","geometry":{"type":"LineString","coordinates":[[-3.21335,51.07938],[-3.21674,51.08045],[-3.2183,51.08142]]},"properties":{"name":"West Somerset Railway","category":"rail","osm_type":"way","osm_id":"340115604","operator":"West Somerset Railway plc"}},{"type":"Feature","geometry":{"type":"LineString","coordinates":[[-3.19767,51.06349],[-3.19902,51.06639]]},"properties":{"name":"West Somerset Railway","category":"rail","osm_type":"way","osm_id":"340115605","operator":"West Somerset Railway plc"}},{"type":"Feature","geometry":{"type":"LineString","coordinates":[[-3.0916,51.02375],[-3.09142,51.02378]]},"properties":{"name":"Bristol to Exeter Line","category":"rail","osm_type":"way","osm_id":"343670512","operator":"Network Rail","ref":"MLN1"}},{"type":"Feature","geometry":{"type":"LineString","coordinates":[[-3.09162,51.02367],[-3.09558,51.02316],[-3.10044,51.02307]]},"properties":{"name":"Railways","category":"rail","osm_type":"way","osm_id":"343670520","operator":"Network Rail"}},{"type":"Feature","geometry":{"type":"LineString","coordinates":[[-3.09142,51.0237],[-3.09162,51.02367]]},"properties":{"name":"Railways","category":"rail","osm_type":"way","osm_id":"343670521","operator":"Network Rail"}},{"type":"Feature","geometry":{"type":"LineString","coordinates":[[-3.0916,51.02378],[-3.0914,51.02382]]},"properties":{"name":"Railways","category":"rail","osm_type":"way","osm_id":"343670522","operator":"Network Rail"}},{"type":"Feature","geometry":{"type":"LineString","coordinates":[[-3.0914,51.02382],[-3.0872,51.02466]]},"properties":{"name":"Railways","category":"rail","osm_type":"way","osm_id":"343670523","operator":"Network Rail"}},{"type":"Feature","geometry":{"type":"LineString","coordinates":[[-3.00382,51.03837],[-3.00702,51.03615]]},"properties":{"name":"Bristol to Exeter Line","category":"rail","osm_type":"way","osm_id":"372837551","operator":"Network Rail","ref":"MLN1"}},{"type":"Feature","geometry":{"type":"LineString","coordinates":[[-3.19408,51.05392],[-3.19419,51.0541]]},"properties":{"name":"Railways","category":"rail","osm_type":"way","osm_id":"408869233","operator":"West Somerset Railway Heritage Trust"}},{"type":"Feature","geometry":{"type":"LineString","coordinates":[[-3.46902,51.2071],[-3.46838,51.2068]]},"properties":{"name":"Railways","category":"rail","osm_type":"way","osm_id":"410906620","operator":"West Somerset Railway plc"}},{"type":"Feature","geometry":{"type":"LineString","coordinates":[[-3.46875,51.20685],[-3.46728,51.20613]]},"properties":{"name":"Railways","category":"rail","osm_type":"way","osm_id":"410906624","operator":"West Somerset Railway plc"}},{"type":"Feature","geometry":{"type":"LineString","coordinates":[[-3.46892,51.20699],[-3.46841,51.20677]]},"properties":{"name":"Railways","category":"rail","osm_type":"way","osm_id":"410906626","operator":"West Somerset Railway plc"}},{"type":"Feature","geometry":{"type":"LineString","coordinates":[[-3.46932,51.20702],[-3.46891,51.20687]]},"properties":{"name":"Railways","category":"rail","osm_type":"way","osm_id":"410906628","operator":"West Somerset Railway plc"}},{"type":"Feature","geometry":{"type":"LineString","coordinates":[[-3.46906,51.20656],[-3.4688,51.2065]]},"properties":{"name":"Railways","category":"rail","osm_type":"way","osm_id":"410906634","operator":"West Somerset Railway plc"}},{"type":"Feature","geometry":{"type":"LineString","coordinates":[[-3.4688,51.2065],[-3.46496,51.20502]]},"properties":{"name":"Railways","category":"rail","osm_type":"way","osm_id":"410906637","operator":"West Somerset Railway plc"}},{"type":"Feature","geometry":{"type":"LineString","coordinates":[[-3.46631,51.20575],[-3.46688,51.20602]]},"properties":{"name":"Railways","category":"rail","osm_type":"way","osm_id":"410906641","operator":"West Somerset Railway plc"}},{"type":"Feature","geometry":{"type":"LineString","coordinates":[[-3.46817,51.20658],[-3.46839,51.20676]]},"properties":{"name":"Railways","category":"rail","osm_type":"way","osm_id":"410906655","operator":"West Somerset Railway plc"}},{"type":"Feature","geometry":{"type":"LineString","coordinates":[[-3.43872,51.19341],[-3.43788,51.19312]]},"properties":{"name":"Railways","category":"rail","osm_type":"way","osm_id":"410906677","operator":"West Somerset Railway plc"}},{"type":"Feature","geometry":{"type":"LineString","coordinates":[[-3.46964,51.20724],[-3.46899,51.20696]]},"properties":{"name":"Railways","category":"rail","osm_type":"way","osm_id":"410906683","operator":"West Somerset Railway plc"}},{"type":"Feature","geometry":{"type":"LineString","coordinates":[[-3.46899,51.20696],[-3.46875,51.20685]]},"properties":{"name":"Railways","category":"rail","osm_type":"way","osm_id":"410906686","operator":"West Somerset Railway plc"}},{"type":"Feature","geometry":{"type":"LineString","coordinates":[[-3.2345,51.1019],[-3.23266,51.10016]]},"properties":{"name":"West Somerset Railway","category":"rail","osm_type":"way","osm_id":"413367890","operator":"West Somerset Railway plc"}},{"type":"Feature","geometry":{"type":"LineString","coordinates":[[-3.31091,51.16824],[-3.31077,51.1679]]},"properties":{"name":"Railways","category":"rail","osm_type":"way","osm_id":"413367898","operator":"West Somerset Railway Association"}},{"type":"Feature","geometry":{"type":"LineString","coordinates":[[-3.31077,51.1679],[-3.31043,51.16738]]},"properties":{"name":"Railways","category":"rail","osm_type":"way","osm_id":"413367899","operator":"West Somerset Railway Association"}},{"type":"Feature","geometry":{"type":"LineString","coordinates":[[-3.31069,51.16792],[-3.31034,51.16741]]},"properties":{"name":"Railways","category":"rail","osm_type":"way","osm_id":"413367900","operator":"West Somerset Railway Association"}},{"type":"Feature","geometry":{"type":"LineString","coordinates":[[-3.31083,51.16826],[-3.31069,51.16792]]},"properties":{"name":"Railways","category":"rail","osm_type":"way","osm_id":"413367901","operator":"West Somerset Railway Association"}},{"type":"Feature","geometry":{"type":"LineString","coordinates":[[-3.31032,51.16702],[-3.311,51.16859]]},"properties":{"name":"Railways","category":"rail","osm_type":"way","osm_id":"413367903","operator":"West Somerset Railway Association"}},{"type":"Feature","geometry":{"type":"LineString","coordinates":[[-3.44192,51.19468],[-3.46443,51.20482]]},"properties":{"name":"West Somerset Railway","category":"rail","osm_type":"way","osm_id":"413367905","operator":"West Somerset Railway plc"}},{"type":"Feature","geometry":{"type":"LineString","coordinates":[[-3.44189,51.19471],[-3.4448,51.19602]]},"properties":{"name":"Railways","category":"rail","osm_type":"way","osm_id":"413367906","operator":"West Somerset Railway plc"}},{"type":"Feature","geometry":{"type":"LineString","coordinates":[[-3.44178,51.19466],[-3.44189,51.19471]]},"properties":{"name":"West Somerset Railway","category":"rail","osm_type":"way","osm_id":"413367908","operator":"West Somerset Railway plc","ref":"SS993449"}},{"type":"Feature","geometry":{"type":"LineString","coordinates":[[-3.4418,51.19463],[-3.44192,51.19468]]},"properties":{"name":"West Somerset Railway","category":"rail","osm_type":"way","osm_id":"413367909","operator":"West Somerset Railway plc","ref":"SS993449"}},{"type":"Feature","geometry":{"type":"LineString","coordinates":[[-3.46688,51.20602],[-3.46734,51.20622]]},"properties":{"name":"Railways","category":"rail","osm_type":"way","osm_id":"413367912","operator":"West Somerset Railway plc"}},{"type":"Feature","geometry":{"type":"LineString","coordinates":[[-3.46841,51.20677],[-3.46768,51.20641]]},"properties":{"name":"Railways","category":"rail","osm_type":"way","osm_id":"413367914","operator":"West Somerset Railway plc"}},{"type":"Feature","geometry":{"type":"LineString","coordinates":[[-3.46838,51.2068],[-3.4669,51.20596]]},"properties":{"name":"Railways","category":"rail","osm_type":"way","osm_id":"413367915","operator":"West Somerset Railway plc"}},{"type":"Feature","geometry":{"type":"LineString","coordinates":[[-3.36834,51.16181],[-3.36902,51.16167]]},"properties":{"name":"Railways","category":"rail","osm_type":"way","osm_id":"413367917","operator":"West Somerset Railway Heritage Trust"}},{"type":"Feature","geometry":{"type":"LineString","coordinates":[[-3.36899,51.16163],[-3.36929,51.16154]]},"properties":{"name":"Railways","category":"rail","osm_type":"way","osm_id":"413367919","operator":"West Somerset Railway Heritage Trust"}},{"type":"Feature","geometry":{"type":"LineString","coordinates":[[-3.36902,51.16167],[-3.36931,51.16158]]},"properties":{"name":"Railways","category":"rail","osm_type":"way","osm_id":"413367920","operator":"West Somerset Railway Heritage Trust"}},{"type":"Feature","geometry":{"type":"LineString","coordinates":[[-3.23561,51.10322],[-3.23864,51.10886],[-3.24136,51.1116],[-3.24356,51.11523]]},"properties":{"name":"West Somerset Railway","category":"rail","osm_type":"way","osm_id":"413367929","operator":"West Somerset Railway plc"}},{"type":"Feature","geometry":{"type":"LineString","coordinates":[[-3.22446,51.09412],[-3.22459,51.0942]]},"properties":{"name":"West Somerset Railway","category":"rail","osm_type":"way","osm_id":"413367930","operator":"West Somerset Railway plc"}},{"type":"Feature","geometry":{"type":"LineString","coordinates":[[-3.19309,51.05235],[-3.19294,51.05199]]},"properties":{"name":"Railways","category":"rail","osm_type":"way","osm_id":"413369768","operator":"West Somerset Railway plc"}},{"type":"Feature","geometry":{"type":"LineString","coordinates":[[-3.09142,51.02378],[-3.0872,51.02466]]},"properties":{"name":"Bristol to Exeter Line","category":"rail","osm_type":"way","osm_id":"429569849","operator":"Network Rail","ref":"MLN1"}},{"type":"Feature","geometry":{"type":"LineString","coordinates":[[-3.1047,51.02253],[-3.10699,51.02337],[-3.11382,51.0243]]},"properties":{"name":"Railways","category":"rail","osm_type":"way","osm_id":"444429932"}},{"type":"Feature","geometry":{"type":"LineString","coordinates":[[-3.10644,51.02332],[-3.10395,51.0231]]},"properties":{"name":"Railways","category":"rail","osm_type":"way","osm_id":"445686021"}},{"type":"Feature","geometry":{"type":"LineString","coordinates":[[-3.1061,51.02321],[-3.10406,51.02305]]},"properties":{"name":"Railways","category":"rail","osm_type":"way","osm_id":"445686022"}},{"type":"Feature","geometry":{"type":"LineString","coordinates":[[-3.26663,51.12298],[-3.26675,51.12302]]},"properties":{"name":"West Somerset Railway","category":"rail","osm_type":"way","osm_id":"464942435","operator":"West Somerset Railway plc"}},{"type":"Feature","geometry":{"type":"LineString","coordinates":[[-3.26381,51.12208],[-3.26663,51.12298]]},"properties":{"name":"West Somerset Railway","category":"rail","osm_type":"way","osm_id":"464942436","operator":"West Somerset Railway plc"}},{"type":"Feature","geometry":{"type":"LineString","coordinates":[[-3.22211,51.09149],[-3.22446,51.09412]]},"properties":{"name":"West Somerset Railway","category":"rail","osm_type":"way","osm_id":"464942437","operator":"West Somerset Railway plc"}},{"type":"Feature","geometry":{"type":"LineString","coordinates":[[-3.2206,51.08985],[-3.22204,51.09138]]},"properties":{"name":"West Somerset Railway","category":"rail","osm_type":"way","osm_id":"464942438","operator":"West Somerset Railway plc"}},{"type":"Feature","geometry":{"type":"LineString","coordinates":[[-3.12395,51.02437],[-3.12241,51.02428]]},"properties":{"name":"Railways","category":"rail","osm_type":"way","osm_id":"476036534"}},{"type":"Feature","geometry":{"type":"LineString","coordinates":[[-3.12458,51.02442],[-3.12395,51.02437]]},"properties":{"name":"Railways","category":"rail","osm_type":"way","osm_id":"476036538"}},{"type":"Feature","geometry":{"type":"LineString","coordinates":[[-3.11382,51.0243],[-3.12985,51.02513]]},"properties":{"name":"Railways","category":"rail","osm_type":"way","osm_id":"476036541"}},{"type":"Feature","geometry":{"type":"LineString","coordinates":[[-3.3545,51.16959],[-3.35821,51.16739],[-3.36202,51.16408],[-3.3645,51.163]]},"properties":{"name":"West Somerset Railway","category":"rail","osm_type":"way","osm_id":"583834234","operator":"West Somerset Railway plc"}},{"type":"Feature","geometry":{"type":"LineString","coordinates":[[-3.35441,51.16968],[-3.3545,51.16959]]},"properties":{"name":"West Somerset Railway","category":"rail","osm_type":"way","osm_id":"583834238","operator":"West Somerset Railway plc"}},{"type":"Feature","geometry":{"type":"LineString","coordinates":[[-3.33518,51.17985],[-3.3367,51.18004]]},"properties":{"name":"West Somerset Railway","category":"rail","osm_type":"way","osm_id":"583834255","operator":"West Somerset Railway plc"}},{"type":"Feature","geometry":{"type":"LineString","coordinates":[[-3.33497,51.17982],[-3.33518,51.17985]]},"properties":{"name":"West Somerset Railway","category":"rail","osm_type":"way","osm_id":"583834257","operator":"West Somerset Railway plc"}},{"type":"Feature","geometry":{"type":"LineString","coordinates":[[-3.27681,51.13129],[-3.27687,51.1314]]},"properties":{"name":"West Somerset Railway","category":"rail","osm_type":"way","osm_id":"583834263","operator":"West Somerset Railway plc"}},{"type":"Feature","geometry":{"type":"LineString","coordinates":[[-3.27479,51.12871],[-3.27681,51.13129]]},"properties":{"name":"West Somerset Railway","category":"rail","osm_type":"way","osm_id":"583834268","operator":"West Somerset Railway plc"}},{"type":"Feature","geometry":{"type":"LineString","coordinates":[[-3.27473,51.12865],[-3.27479,51.12871]]},"properties":{"name":"West Somerset Railway","category":"rail","osm_type":"way","osm_id":"583834271","operator":"West Somerset Railway plc"}},{"type":"Feature","geometry":{"type":"LineString","coordinates":[[-3.27218,51.12703],[-3.27473,51.12865]]},"properties":{"name":"West Somerset Railway","category":"rail","osm_type":"way","osm_id":"583834274","operator":"West Somerset Railway plc"}},{"type":"Feature","geometry":{"type":"LineString","coordinates":[[-3.26675,51.12302],[-3.26886,51.12411]]},"properties":{"name":"West Somerset Railway","category":"rail","osm_type":"way","osm_id":"583834278","operator":"West Somerset Railway plc"}},{"type":"Feature","geometry":{"type":"LineString","coordinates":[[-3.25965,51.11914],[-3.26104,51.1203]]},"properties":{"name":"West Somerset Railway","category":"rail","osm_type":"way","osm_id":"583834281","operator":"West Somerset Railway plc"}},{"type":"Feature","geometry":{"type":"LineString","coordinates":[[-3.2576,51.11816],[-3.25965,51.11914]]},"properties":{"name":"West Somerset Railway","category":"rail","osm_type":"way","osm_id":"583834285","operator":"West Somerset Railway plc"}},{"type":"Feature","geometry":{"type":"LineString","coordinates":[[-3.25561,51.11767],[-3.2576,51.11816]]},"properties":{"name":"West Somerset Railway","category":"rail","osm_type":"way","osm_id":"583834289","operator":"West Somerset Railway plc"}},{"type":"Feature","geometry":{"type":"LineString","coordinates":[[-3.25556,51.11766],[-3.25561,51.11767]]},"properties":{"name":"West Somerset Railway","category":"rail","osm_type":"way","osm_id":"583834292","operator":"West Somerset Railway plc"}},{"type":"Feature","geometry":{"type":"LineString","coordinates":[[-3.24573,51.11626],[-3.25556,51.11766]]},"properties":{"name":"West Somerset Railway","category":"rail","osm_type":"way","osm_id":"583834296","operator":"West Somerset Railway plc"}},{"type":"Feature","geometry":{"type":"LineString","coordinates":[[-3.22807,51.0962],[-3.23097,51.09854]]},"properties":{"name":"West Somerset Railway","category":"rail","osm_type":"way","osm_id":"583834300","operator":"West Somerset Railway plc"}},{"type":"Feature","geometry":{"type":"LineString","coordinates":[[-3.23266,51.10016],[-3.23175,51.09927]]},"properties":{"name":"West Somerset Railway","category":"rail","osm_type":"way","osm_id":"583834303","operator":"West Somerset Railway plc"}},{"type":"Feature","geometry":{"type":"LineString","coordinates":[[-3.22459,51.0942],[-3.22807,51.0962]]},"properties":{"name":"West Somerset Railway","category":"rail","osm_type":"way","osm_id":"583834307","operator":"West Somerset Railway plc"}},{"type":"Feature","geometry":{"type":"LineString","coordinates":[[-3.21935,51.08346],[-3.2187,51.08548]]},"properties":{"name":"West Somerset Railway","category":"rail","osm_type":"way","osm_id":"588833146","operator":"West Somerset Railway plc"}},{"type":"Feature","geometry":{"type":"LineString","coordinates":[[-3.21325,51.07934],[-3.21335,51.07938]]},"properties":{"name":"West Somerset Railway","category":"rail","osm_type":"way","osm_id":"588833151","operator":"West Somerset Railway plc"}},{"type":"Feature","geometry":{"type":"LineString","coordinates":[[-3.21235,51.07895],[-3.21325,51.07934]]},"properties":{"name":"West Somerset Railway","category":"rail","osm_type":"way","osm_id":"588833152","operator":"West Somerset Railway plc"}},{"type":"Feature","geometry":{"type":"LineString","coordinates":[[-3.21889,51.08209],[-3.21935,51.08346]]},"properties":{"name":"West Somerset Railway","category":"rail","osm_type":"way","osm_id":"590919816","operator":"West Somerset Railway plc"}},{"type":"Feature","geometry":{"type":"LineString","coordinates":[[-3.2183,51.08142],[-3.21889,51.08209]]},"properties":{"name":"West Somerset Railway","category":"rail","osm_type":"way","osm_id":"590919817","operator":"West Somerset Railway plc"}},{"type":"Feature","geometry":{"type":"LineString","coordinates":[[-3.21869,51.08555],[-3.21859,51.08617]]},"properties":{"name":"West Somerset Railway","category":"rail","osm_type":"way","osm_id":"590919818","operator":"West Somerset Railway plc"}},{"type":"Feature","geometry":{"type":"LineString","coordinates":[[-3.22204,51.09138],[-3.22211,51.09149]]},"properties":{"name":"West Somerset Railway","category":"rail","osm_type":"way","osm_id":"590919819","operator":"West Somerset Railway plc"}},{"type":"Feature","geometry":{"type":"LineString","coordinates":[[-3.23104,51.0986],[-3.23269,51.10015]]},"properties":{"name":"West Somerset Railway","category":"rail","osm_type":"way","osm_id":"594079890","operator":"West Somerset Railway plc"}},{"type":"Feature","geometry":{"type":"LineString","coordinates":[[-3.23097,51.09854],[-3.23104,51.0986]]},"properties":{"name":"West Somerset Railway","category":"rail","osm_type":"way","osm_id":"594079894","operator":"West Somerset Railway plc"}},{"type":"Feature","geometry":{"type":"LineString","coordinates":[[-3.24507,51.11605],[-3.24573,51.11626]]},"properties":{"name":"West Somerset Railway","category":"rail","osm_type":"way","osm_id":"627867422","operator":"West Somerset Railway plc"}},{"type":"Feature","geometry":{"type":"LineString","coordinates":[[-3.24356,51.11523],[-3.24492,51.11599]]},"properties":{"name":"West Somerset Railway","category":"rail","osm_type":"way","osm_id":"627867423","operator":"West Somerset Railway plc"}},{"type":"Feature","geometry":{"type":"LineString","coordinates":[[-3.23557,51.10316],[-3.23561,51.10322]]},"properties":{"name":"West Somerset Railway","category":"rail","osm_type":"way","osm_id":"627867527","operator":"West Somerset Railway plc"}},{"type":"Feature","geometry":{"type":"LineString","coordinates":[[-3.23269,51.10015],[-3.23557,51.10316]]},"properties":{"name":"West Somerset Railway","category":"rail","osm_type":"way","osm_id":"627867528","operator":"West Somerset Railway plc"}},{"type":"Feature","geometry":{"type":"LineString","coordinates":[[-3.30827,51.1647],[-3.31096,51.16862],[-3.31153,51.17042],[-3.3114,51.17206],[-3.31013,51.17505]]},"properties":{"name":"West Somerset Railway","category":"rail","osm_type":"way","osm_id":"662517071","operator":"West Somerset Railway plc"}},{"type":"Feature","geometry":{"type":"LineString","coordinates":[[-3.10559,51.02342],[-3.1094,51.02389]]},"properties":{"name":"Bristol to Exeter Line","category":"rail","osm_type":"way","osm_id":"703411201","operator":"Network Rail","ref":"MLN1"}},{"type":"Feature","geometry":{"type":"LineString","coordinates":[[-3.08833,51.02437],[-3.09142,51.02374]]},"properties":{"name":"Bristol to Exeter Line","category":"rail","osm_type":"way","osm_id":"703411202","operator":"Network Rail","ref":"MLN1"}},{"type":"Feature","geometry":{"type":"LineString","coordinates":[[-3.39694,51.18082],[-3.40296,51.18194]]},"properties":{"name":"West Somerset Railway","category":"rail","osm_type":"way","osm_id":"722580554","operator":"West Somerset Railway plc"}},{"type":"Feature","geometry":{"type":"LineString","coordinates":[[-3.38556,51.16766],[-3.3923,51.17784],[-3.39442,51.17963],[-3.39694,51.18082]]},"properties":{"name":"West Somerset Railway","category":"rail","osm_type":"way","osm_id":"722580555","operator":"West Somerset Railway plc"}},{"type":"Feature","geometry":{"type":"LineString","coordinates":[[-3.16048,51.02193],[-3.16617,51.02226]]},"properties":{"name":"Barnstaple Branch (WSR)","category":"rail","osm_type":"way","osm_id":"1000820504","operator":"West Somerset Railway plc","ref":"BLE"}},{"type":"Feature","geometry":{"type":"LineString","coordinates":[[-3.10044,51.02307],[-3.10385,51.02326]]},"properties":{"name":"Railways","category":"rail","osm_type":"way","osm_id":"1020091489","operator":"Network Rail"}},{"type":"Feature","geometry":{"type":"LineString","coordinates":[[-3.10052,51.02311],[-3.10385,51.02329]]},"properties":{"name":"Bristol to Exeter Line","category":"rail","osm_type":"way","osm_id":"1020091490","operator":"Network Rail","ref":"MLN1"}},{"type":"Feature","geometry":{"type":"LineString","coordinates":[[-3.10387,51.0234],[-3.10052,51.02322]]},"properties":{"name":"Bristol to Exeter Line","category":"rail","osm_type":"way","osm_id":"1020091491","operator":"Network Rail","ref":"MLN1"}},{"type":"Feature","geometry":{"type":"LineString","coordinates":[[-3.10387,51.02344],[-3.10013,51.02323]]},"properties":{"name":"Railways","category":"rail","osm_type":"way","osm_id":"1020091492","operator":"Network Rail"}},{"type":"Feature","geometry":{"type":"LineString","coordinates":[[-3.099,51.02318],[-3.10014,51.0233]]},"properties":{"name":"Railways","category":"rail","osm_type":"way","osm_id":"1020091493","operator":"Network Rail"}},{"type":"Feature","geometry":{"type":"LineString","coordinates":[[-3.10385,51.02326],[-3.1056,51.02338]]},"properties":{"name":"Railways","category":"rail","osm_type":"way","osm_id":"1020091494","operator":"Network Rail"}},{"type":"Feature","geometry":{"type":"LineString","coordinates":[[-3.10385,51.02329],[-3.10559,51.02342]]},"properties":{"name":"Bristol to Exeter Line","category":"rail","osm_type":"way","osm_id":"1020091495","operator":"Network Rail","ref":"MLN1"}},{"type":"Feature","geometry":{"type":"LineString","coordinates":[[-3.10848,51.02383],[-3.10619,51.02359]]},"properties":{"name":"Railways","category":"rail","osm_type":"way","osm_id":"1020091496","operator":"Network Rail"}},{"type":"Feature","geometry":{"type":"LineString","coordinates":[[-3.10558,51.02351],[-3.10387,51.0234]]},"properties":{"name":"Bristol to Exeter Line","category":"rail","osm_type":"way","osm_id":"1020091497","operator":"Network Rail","ref":"MLN1"}},{"type":"Feature","geometry":{"type":"LineString","coordinates":[[-3.10394,51.02317],[-3.10562,51.02331]]},"properties":{"name":"Railways","category":"rail","osm_type":"way","osm_id":"1020091498"}},{"type":"Feature","geometry":{"type":"LineString","coordinates":[[-3.15647,51.02426],[-3.1583,51.02544]]},"properties":{"name":"Railways","category":"rail","osm_type":"way","osm_id":"1200685753","operator":"West Somerset Railway plc"}},{"type":"Feature","geometry":{"type":"LineString","coordinates":[[-3.30993,51.16691],[-3.31018,51.1672]]},"properties":{"name":"Railways","category":"rail","osm_type":"way","osm_id":"1201095299","operator":"DEPG"}},{"type":"Feature","geometry":{"type":"LineString","coordinates":[[-3.30982,51.16653],[-3.30989,51.16685]]},"properties":{"name":"Railways","category":"rail","osm_type":"way","osm_id":"1201095301","operator":"DEPG"}},{"type":"Feature","geometry":{"type":"LineString","coordinates":[[-3.30982,51.1663],[-3.3099,51.16652]]},"properties":{"name":"Railways","category":"rail","osm_type":"way","osm_id":"1201095302","operator":"DEPG"}},{"type":"Feature","geometry":{"type":"LineString","coordinates":[[-3.30944,51.16614],[-3.30951,51.16625]]},"properties":{"name":"Railways","category":"rail","osm_type":"way","osm_id":"1201095303","operator":"DEPG"}},{"type":"Feature","geometry":{"type":"LineString","coordinates":[[-3.19293,51.05263],[-3.19311,51.05308]]},"properties":{"name":"Railways","category":"rail","osm_type":"way","osm_id":"1202001189","operator":"West Somerset Railway plc"}},{"type":"Feature","geometry":{"type":"LineString","coordinates":[[-3.24506,51.11604],[-3.24507,51.11605]]},"properties":{"name":"West Somerset Railway","category":"rail","osm_type":"way","osm_id":"1202321953","operator":"West Somerset Railway plc"}},{"type":"Feature","geometry":{"type":"LineString","coordinates":[[-3.19291,51.0523],[-3.19298,51.05254]]},"properties":{"name":"Railways","category":"rail","osm_type":"way","osm_id":"1202321957","operator":"West Somerset Railway plc"}},{"type":"Feature","geometry":{"type":"LineString","coordinates":[[-3.19281,51.05196],[-3.19291,51.0523]]},"properties":{"name":"Railways","category":"rail","osm_type":"way","osm_id":"1202321958","operator":"West Somerset Railway plc"}},{"type":"Feature","geometry":{"type":"LineString","coordinates":[[-3.19285,51.05231],[-3.19293,51.05263]]},"properties":{"name":"Railways","category":"rail","osm_type":"way","osm_id":"1202321959","operator":"West Somerset Railway plc"}},{"type":"Feature","geometry":{"type":"LineString","coordinates":[[-3.19275,51.05197],[-3.19285,51.05231]]},"properties":{"name":"Railways","category":"rail","osm_type":"way","osm_id":"1202321960","operator":"West Somerset Railway plc"}},{"type":"Feature","geometry":{"type":"LineString","coordinates":[[-3.19348,51.05324],[-3.19286,51.05194]]},"properties":{"name":"Railways","category":"rail","osm_type":"way","osm_id":"1202321961","operator":"West Somerset Railway plc"}},{"type":"Feature","geometry":{"type":"LineString","coordinates":[[-3.15962,51.02703],[-3.1583,51.02544]]},"properties":{"name":"Allerford Spur (WSR)","category":"rail","osm_type":"way","osm_id":"1202324521","operator":"West Somerset Railway plc"}},{"type":"Feature","geometry":{"type":"LineString","coordinates":[[-3.19286,51.05194],[-3.19309,51.05235]]},"properties":{"name":"Railways","category":"rail","osm_type":"way","osm_id":"1202484311","operator":"West Somerset Railway plc"}},{"type":"Feature","geometry":{"type":"LineString","coordinates":[[-3.1583,51.02544],[-3.1579,51.02449]]},"properties":{"name":"Norton Fitzwarren Triangle (WSR)","category":"rail","osm_type":"way","osm_id":"1202505008","operator":"West Somerset Railway plc"}},{"type":"Feature","geometry":{"type":"LineString","coordinates":[[-3.15424,51.02276],[-3.15106,51.0233]]},"properties":{"name":"Barnstaple Branch (WSR)","category":"rail","osm_type":"way","osm_id":"1202505009","operator":"West Somerset Railway plc","ref":"BLE"}},{"type":"Feature","geometry":{"type":"LineString","coordinates":[[-3.15084,51.0233],[-3.1411,51.02442]]},"properties":{"name":"West Somerset Railway","category":"rail","osm_type":"way","osm_id":"1202513555","operator":"Network Rail","ref":"MIN"}},{"type":"Feature","geometry":{"type":"LineString","coordinates":[[-3.3099,51.16652],[-3.31013,51.16713]]},"properties":{"name":"Railways","category":"rail","osm_type":"way","osm_id":"1202534573","operator":"DEPG"}},{"type":"Feature","geometry":{"type":"LineString","coordinates":[[-3.30974,51.16631],[-3.30982,51.16653]]},"properties":{"name":"Railways","category":"rail","osm_type":"way","osm_id":"1202727687","operator":"DEPG"}},{"type":"Feature","geometry":{"type":"LineString","coordinates":[[-3.19481,51.05531],[-3.19609,51.05939]]},"properties":{"name":"West Somerset Railway","category":"rail","osm_type":"way","osm_id":"1202730528","operator":"West Somerset Railway plc"}},{"type":"Feature","geometry":{"type":"LineString","coordinates":[[-3.31088,51.16784],[-3.31088,51.16749]]},"properties":{"name":"Railways","category":"rail","osm_type":"way","osm_id":"1211618158","operator":"West Somerset Railway Association"}},{"type":"Feature","geometry":{"type":"LineString","coordinates":[[-3.31034,51.16741],[-3.31018,51.1672]]},"properties":{"name":"Railways","category":"rail","osm_type":"way","osm_id":"1211929563","operator":"West Somerset Railway Association"}},{"type":"Feature","geometry":{"type":"LineString","coordinates":[[-3.31043,51.16738],[-3.31014,51.16699]]},"properties":{"name":"Railways","category":"rail","osm_type":"way","osm_id":"1211929564","operator":"West Somerset Railway Association"}},{"type":"Feature","geometry":{"type":"LineString","coordinates":[[-3.36847,51.16174],[-3.36899,51.16163]]},"properties":{"name":"Railways","category":"rail","osm_type":"way","osm_id":"1255060813","operator":"West Somerset Railway Heritage Trust"}},{"type":"Feature","geometry":{"type":"LineString","coordinates":[[-3.36905,51.16171],[-3.36834,51.16181]]},"properties":{"name":"Railways","category":"rail","osm_type":"way","osm_id":"1255060814","operator":"West Somerset Railway Heritage Trust"}},{"type":"Feature","geometry":{"type":"LineString","coordinates":[[-3.36934,51.16162],[-3.36905,51.16171]]},"properties":{"name":"Railways","category":"rail","osm_type":"way","osm_id":"1255060815","operator":"West Somerset Railway Heritage Trust"}},{"type":"Feature","geometry":{"type":"LineString","coordinates":[[-3.36865,51.16184],[-3.36887,51.16177]]},"properties":{"name":"Railways","category":"rail","osm_type":"way","osm_id":"1263935608","operator":"West Somerset Railway Heritage Trust"}},{"type":"Feature","geometry":{"type":"LineString","coordinates":[[-3.37002,51.16114],[-3.36973,51.16125]]},"properties":{"name":"Railways","category":"rail","osm_type":"way","osm_id":"1263935609","operator":"West Somerset Railway plc"}},{"type":"Feature","geometry":{"type":"LineString","coordinates":[[-3.90331,51.19707],[-3.90428,51.19626]]},"properties":{"name":"Lynton and Barnstaple Railway","category":"narrow_gauge","osm_type":"way","osm_id":"1429929022"}},{"type":"Feature","geometry":{"type":"LineString","coordinates":[[-3.90384,51.19661],[-3.90331,51.19707]]},"properties":{"name":"Lynton and Barnstaple Railway","category":"narrow_gauge","osm_type":"way","osm_id":"1429929023","ref":"BEZ"}},{"type":"Feature","geometry":{"type":"LineString","coordinates":[[-3.13907,51.20495],[-3.13927,51.20524],[-3.1388,51.20537],[-3.1386,51.20508],[-3.13907,51.20495]]},"properties":{"name":"Railways","category":"rail","osm_type":"way","osm_id":"1453539954"}},{"type":"Feature","geometry":{"type":"LineString","coordinates":[[-3.14226,51.20491],[-3.14242,51.20521],[-3.14191,51.20531],[-3.14178,51.20501],[-3.14226,51.20491]]},"properties":{"name":"Railways","category":"rail","osm_type":"way","osm_id":"1453539955"}},{"type":"Feature","geometry":{"type":"LineString","coordinates":[[-3.14552,51.20492],[-3.14567,51.20518],[-3.14525,51.20528],[-3.1451,51.20502],[-3.14552,51.20492]]},"properties":{"name":"Railways","category":"rail","osm_type":"way","osm_id":"1453539956"}},{"type":"Feature","geometry":{"type":"LineString","coordinates":[[-3.13853,51.20517],[-3.14582,51.20509]]},"properties":{"name":"Railways","category":"rail","osm_type":"way","osm_id":"1453539957"}},{"type":"Feature","geometry":{"type":"LineString","coordinates":[[-3.1411,51.02439],[-3.14295,51.02415]]},"properties":{"name":"Bristol to Exeter Line","category":"rail","osm_type":"way","osm_id":"1533914253","operator":"Network Rail","ref":"MLN1"}},{"type":"Feature","geometry":{"type":"LineString","coordinates":[[-3.00467,51.0379],[-3.00702,51.03615]]},"properties":{"name":"Reading to Taunton Line","category":"rail","osm_type":"way","osm_id":"1556544532","operator":"Network Rail","ref":"CCL"}},{"type":"Feature","geometry":{"type":"LineString","coordinates":[[-3.16086,51.02093],[-3.15361,51.02273],[-3.1411,51.02442]]},"properties":{"name":"Bristol to Exeter Line","category":"rail","osm_type":"way","osm_id":"1556544533","operator":"Network Rail","ref":"MLN1"}},{"type":"Feature","geometry":{"type":"LineString","coordinates":[[-3.13984,51.02456],[-3.1411,51.02439]]},"properties":{"name":"Bristol to Exeter Line","category":"rail","osm_type":"way","osm_id":"1556544534","operator":"Network Rail","ref":"MLN1"}}]}