{"type":"FeatureCollection","features":[{"type":"Feature","geometry":{"type":"LineString","coordinates":[[-3.00303,53.64673],[-3.00109,53.6455]]},"properties":{"name":"Northern Line","category":"rail","osm_type":"way","osm_id":"4708631","operator":"Network Rail","ref":"HXS3"}},{"type":"Feature","geometry":{"type":"LineString","coordinates":[[-3.06598,53.54225],[-3.06992,53.54924],[-3.07082,53.5534]]},"properties":{"name":"Northern Line","category":"rail","osm_type":"way","osm_id":"4785254","operator":"Network Rail","ref":"HXS3"}},{"type":"Feature","geometry":{"type":"LineString","coordinates":[[-3.04015,53.82927],[-3.03981,53.82947]]},"properties":{"name":"Preston and Blackpool North Branch","category":"rail","osm_type":"way","osm_id":"8074093","operator":"Network Rail","ref":"PBN"}},{"type":"Feature","geometry":{"type":"LineString","coordinates":[[-3.03981,53.82947],[-3.01994,53.84115],[-3.00401,53.84692]]},"properties":{"name":"Preston and Blackpool North Branch","category":"rail","osm_type":"way","osm_id":"8100465","operator":"Network Rail","ref":"PBN"}},{"type":"Feature","geometry":{"type":"LineString","coordinates":[[-3.03971,53.88444],[-3.03974,53.88406]]},"properties":{"name":"Railways","category":"tram","osm_type":"way","osm_id":"39675955","operator":"Blackpool Transport"}},{"type":"Feature","geometry":{"type":"LineString","coordinates":[[-3.05589,53.81933],[-3.05516,53.82112],[-3.05539,53.82214]]},"properties":{"name":"Railways","category":"tram","osm_type":"way","osm_id":"42406814","operator":"Blackpool Transport"}},{"type":"Feature","geometry":{"type":"LineString","coordinates":[[-3.00044,53.64502],[-3.00055,53.64355]]},"properties":{"name":"Railways","category":"rail","osm_type":"way","osm_id":"42462261"}},{"type":"Feature","geometry":{"type":"LineString","coordinates":[[-3.03987,53.885],[-3.03966,53.88426]]},"properties":{"name":"Railways","category":"tram","osm_type":"way","osm_id":"43158897","operator":"Blackpool Transport"}},{"type":"Feature","geometry":{"type":"LineString","coordinates":[[-3.05767,53.79147],[-3.05683,53.79307],[-3.05557,53.80325],[-3.05616,53.81879]]},"properties":{"name":"Railways","category":"tram","osm_type":"way","osm_id":"61186992","operator":"Blackpool Transport"}},{"type":"Feature","geometry":{"type":"LineString","coordinates":[[-3.05757,53.77863],[-3.05838,53.786],[-3.05767,53.79147]]},"properties":{"name":"Railways","category":"tram","osm_type":"way","osm_id":"66861560","operator":"Blackpool Transport"}},{"type":"Feature","geometry":{"type":"LineString","coordinates":[[-3.06588,53.54207],[-3.06598,53.54225]]},"properties":{"name":"Northern Line","category":"rail","osm_type":"way","osm_id":"82811060","operator":"Network Rail","ref":"HXS3"}},{"type":"Feature","geometry":{"type":"LineString","coordinates":[[-3.05539,53.82214],[-3.05586,53.83202],[-3.05511,53.83328]]},"properties":{"name":"Railways","category":"tram","osm_type":"way","osm_id":"87192652","operator":"Blackpool Transport"}},{"type":"Feature","geometry":{"type":"LineString","coordinates":[[-3.05185,53.80643],[-3.05223,53.80652]]},"properties":{"name":"Railways","category":"tram","osm_type":"way","osm_id":"97244866","operator":"Blackpool Transport"}},{"type":"Feature","geometry":{"type":"LineString","coordinates":[[-3.05214,53.80639],[-3.05229,53.80645]]},"properties":{"name":"Railways","category":"tram","osm_type":"way","osm_id":"97244867","operator":"Blackpool Transport"}},{"type":"Feature","geometry":{"type":"LineString","coordinates":[[-3.05206,53.8064],[-3.05222,53.80649]]},"properties":{"name":"Railways","category":"tram","osm_type":"way","osm_id":"97244868","operator":"Blackpool Transport"}},{"type":"Feature","geometry":{"type":"LineString","coordinates":[[-3.05234,53.80636],[-3.05265,53.80647]]},"properties":{"name":"Railways","category":"tram","osm_type":"way","osm_id":"97244870","operator":"Blackpool Transport"}},{"type":"Feature","geometry":{"type":"LineString","coordinates":[[-3.05218,53.80638],[-3.05251,53.80648]]},"properties":{"name":"Railways","category":"tram","osm_type":"way","osm_id":"97244871","operator":"Blackpool Transport"}},{"type":"Feature","geometry":{"type":"LineString","coordinates":[[-3.05242,53.80635],[-3.05283,53.80644]]},"properties":{"name":"Railways","category":"tram","osm_type":"way","osm_id":"97244873","operator":"Blackpool Transport"}},{"type":"Feature","geometry":{"type":"LineString","coordinates":[[-3.05309,53.80642],[-3.05252,53.80665]]},"properties":{"name":"Railways","category":"tram","osm_type":"way","osm_id":"97244874","operator":"Blackpool Transport"}},{"type":"Feature","geometry":{"type":"LineString","coordinates":[[-3.05229,53.80636],[-3.05248,53.80644]]},"properties":{"name":"Railways","category":"tram","osm_type":"way","osm_id":"97244877","operator":"Blackpool Transport"}},{"type":"Feature","geometry":{"type":"LineString","coordinates":[[-3.05231,53.80651],[-3.05294,53.80736]]},"properties":{"name":"Railways","category":"tram","osm_type":"way","osm_id":"97244878","operator":"Blackpool Transport"}},{"type":"Feature","geometry":{"type":"LineString","coordinates":[[-3.05175,53.80644],[-3.05235,53.8065]]},"properties":{"name":"Railways","category":"tram","osm_type":"way","osm_id":"97244880","operator":"Blackpool Transport"}},{"type":"Feature","geometry":{"type":"LineString","coordinates":[[-3.04714,53.86721],[-3.04793,53.86724],[-3.04735,53.86672]]},"properties":{"name":"Little Bispham Loop","category":"tram","osm_type":"way","osm_id":"97246467","operator":"Blackpool Transport"}},{"type":"Feature","geometry":{"type":"LineString","coordinates":[[-3.05535,53.82225],[-3.0551,53.82111],[-3.05585,53.81932]]},"properties":{"name":"Railways","category":"tram","osm_type":"way","osm_id":"97370875","operator":"Blackpool Transport"}},{"type":"Feature","geometry":{"type":"LineString","coordinates":[[-3.05511,53.83328],[-3.05335,53.84998],[-3.05045,53.85683],[-3.04711,53.86745],[-3.04286,53.87037],[-3.04316,53.8751],[-3.03994,53.8772],[-3.03918,53.87969],[-3.03884,53.88186],[-3.04047,53.88702],[-3.03919,53.89843],[-3.03792,53.89989],[-3.03299,53.90317],[-3.02906,53.90724],[-3.02736,53.91005],[-3.01677,53.92029],[-3.0088,53.92382],[-3.00852,53.9264],[-3.00896,53.92724],[-3.00793,53.9276]]},"properties":{"name":"Railways","category":"tram","osm_type":"way","osm_id":"97542763","operator":"Blackpool Transport"}},{"type":"Feature","geometry":{"type":"LineString","coordinates":[[-3.05611,53.81876],[-3.0555,53.80319],[-3.05673,53.79329],[-3.0581,53.7905],[-3.05833,53.786],[-3.05754,53.77873],[-3.05605,53.77795]]},"properties":{"name":"Railways","category":"tram","osm_type":"way","osm_id":"97542765","operator":"Blackpool Transport"}},{"type":"Feature","geometry":{"type":"LineString","coordinates":[[-3.04668,53.825],[-3.04876,53.82252]]},"properties":{"name":"Preston and Blackpool North Branch","category":"rail","osm_type":"way","osm_id":"99029785","operator":"Network Rail","ref":"PBN"}},{"type":"Feature","geometry":{"type":"LineString","coordinates":[[-3.04902,53.82257],[-3.04734,53.82443]]},"properties":{"name":"Preston and Blackpool North Branch","category":"rail","osm_type":"way","osm_id":"99029786","operator":"Network Rail","ref":"PBN"}},{"type":"Feature","geometry":{"type":"LineString","coordinates":[[-3.04901,53.82194],[-3.04729,53.82441]]},"properties":{"name":"Preston and Blackpool North Branch","category":"rail","osm_type":"way","osm_id":"99029787","operator":"Network Rail","ref":"PBN"}},{"type":"Feature","geometry":{"type":"LineString","coordinates":[[-3.02423,53.6402],[-3.02359,53.64052],[-3.02425,53.64056],[-3.02439,53.6403],[-3.02596,53.63934],[-3.02596,53.63925],[-3.02423,53.6402]]},"properties":{"name":"Railways","category":"narrow_gauge","osm_type":"way","osm_id":"124113847"}},{"type":"Feature","geometry":{"type":"LineString","coordinates":[[-3.02385,53.64056],[-3.0243,53.6404],[-3.02406,53.64016],[-3.02361,53.64045],[-3.02385,53.64056]]},"properties":{"name":"Railways","category":"narrow_gauge","osm_type":"way","osm_id":"124113848"}},{"type":"Feature","geometry":{"type":"LineString","coordinates":[[-3.05325,53.85009],[-3.05325,53.84993]]},"properties":{"name":"Railways","category":"tram","osm_type":"way","osm_id":"160374487","operator":"Blackpool Transport"}},{"type":"Feature","geometry":{"type":"LineString","coordinates":[[-3.05344,53.84967],[-3.05292,53.85089]]},"properties":{"name":"Railways","category":"tram","osm_type":"way","osm_id":"160374488","operator":"Blackpool Transport"}},{"type":"Feature","geometry":{"type":"LineString","coordinates":[[-3.05302,53.85066],[-3.05291,53.85076]]},"properties":{"name":"Railways","category":"tram","osm_type":"way","osm_id":"160599526","operator":"Blackpool Transport"}},{"type":"Feature","geometry":{"type":"LineString","coordinates":[[-3.03953,53.87857],[-3.03954,53.87834]]},"properties":{"name":"Railways","category":"tram","osm_type":"way","osm_id":"161296278","operator":"Blackpool Transport"}},{"type":"Feature","geometry":{"type":"LineString","coordinates":[[-3.03976,53.82944],[-3.04012,53.82924]]},"properties":{"name":"Preston and Blackpool North Branch","category":"rail","osm_type":"way","osm_id":"210984885","operator":"Network Rail","ref":"PBN"}},{"type":"Feature","geometry":{"type":"LineString","coordinates":[[-3.04481,53.82645],[-3.04657,53.82509]]},"properties":{"name":"Preston and Blackpool North Branch","category":"rail","osm_type":"way","osm_id":"210984888","operator":"Network Rail","ref":"PBN"}},{"type":"Feature","geometry":{"type":"LineString","coordinates":[[-3.03988,53.8295],[-3.03789,53.83066]]},"properties":{"name":"Blackpool Carriage Sidings","category":"rail","osm_type":"way","osm_id":"210984889","ref":"BCR"}},{"type":"Feature","geometry":{"type":"LineString","coordinates":[[-3.03988,53.8295],[-3.04023,53.82934]]},"properties":{"name":"Blackpool Carriage Sidings","category":"rail","osm_type":"way","osm_id":"210984890","ref":"BCR"}},{"type":"Feature","geometry":{"type":"LineString","coordinates":[[-2.99208,53.84853],[-2.99649,53.8485],[-3.00098,53.84783],[-3.01982,53.84115],[-3.03976,53.82944]]},"properties":{"name":"Preston and Blackpool North Branch","category":"rail","osm_type":"way","osm_id":"210984891","operator":"Network Rail","ref":"PBN"}},{"type":"Feature","geometry":{"type":"LineString","coordinates":[[-3.05669,53.77786],[-3.05673,53.77807]]},"properties":{"name":"Railways","category":"tram","osm_type":"way","osm_id":"213938362","operator":"Blackpool Transport"}},{"type":"Feature","geometry":{"type":"LineString","coordinates":[[-3.05628,53.77779],[-3.05642,53.77799]]},"properties":{"name":"Railways","category":"tram","osm_type":"way","osm_id":"213938363","operator":"Blackpool Transport"}},{"type":"Feature","geometry":{"type":"LineString","coordinates":[[-3.05726,53.77834],[-3.05703,53.77792]]},"properties":{"name":"Railways","category":"tram","osm_type":"way","osm_id":"213938365","operator":"Blackpool Transport"}},{"type":"Feature","geometry":{"type":"LineString","coordinates":[[-3.05711,53.77792],[-3.05717,53.77826]]},"properties":{"name":"Railways","category":"tram","osm_type":"way","osm_id":"213938368","operator":"Blackpool Transport"}},{"type":"Feature","geometry":{"type":"LineString","coordinates":[[-3.05721,53.7779],[-3.05713,53.77817]]},"properties":{"name":"Railways","category":"tram","osm_type":"way","osm_id":"213938369","operator":"Blackpool Transport"}},{"type":"Feature","geometry":{"type":"LineString","coordinates":[[-3.05668,53.77809],[-3.05647,53.77781]]},"properties":{"name":"Railways","category":"tram","osm_type":"way","osm_id":"213938370","operator":"Blackpool Transport"}},{"type":"Feature","geometry":{"type":"LineString","coordinates":[[-3.05657,53.77805],[-3.05639,53.7778]]},"properties":{"name":"Railways","category":"tram","osm_type":"way","osm_id":"213938371","operator":"Blackpool Transport"}},{"type":"Feature","geometry":{"type":"LineString","coordinates":[[-3.05661,53.77803],[-3.05655,53.77782]]},"properties":{"name":"Railways","category":"tram","osm_type":"way","osm_id":"213938373","operator":"Blackpool Transport"}},{"type":"Feature","geometry":{"type":"LineString","coordinates":[[-3.05682,53.77815],[-3.05662,53.77784]]},"properties":{"name":"Railways","category":"tram","osm_type":"way","osm_id":"213938374","operator":"Blackpool Transport"}},{"type":"Feature","geometry":{"type":"LineString","coordinates":[[-3.04734,53.82443],[-3.04915,53.82208]]},"properties":{"name":"Preston and Blackpool North Branch","category":"rail","osm_type":"way","osm_id":"218492683","operator":"Network Rail","ref":"PBN"}},{"type":"Feature","geometry":{"type":"LineString","coordinates":[[-3.05719,53.79272],[-3.05798,53.79206],[-3.05732,53.79195]]},"properties":{"name":"Railways","category":"tram","osm_type":"way","osm_id":"237229864","operator":"Blackpool Transport"}},{"type":"Feature","geometry":{"type":"LineString","coordinates":[[-3.05732,53.79195],[-3.05789,53.79211],[-3.05679,53.79304]]},"properties":{"name":"Railways","category":"tram","osm_type":"way","osm_id":"237229865","operator":"Blackpool Transport"}},{"type":"Feature","geometry":{"type":"LineString","coordinates":[[-3.00292,53.64645],[-3.00077,53.64509]]},"properties":{"name":"Wallside Siding","category":"rail","osm_type":"way","osm_id":"238359741","operator":"Network Rail"}},{"type":"Feature","geometry":{"type":"LineString","coordinates":[[-3.01661,53.63165],[-3.01224,53.63606],[-3.00257,53.64216]]},"properties":{"name":"Northern Line","category":"rail","osm_type":"way","osm_id":"238359744","operator":"Network Rail","ref":"HXS3"}},{"type":"Feature","geometry":{"type":"LineString","coordinates":[[-3.00109,53.6455],[-3.00044,53.6447]]},"properties":{"name":"Northern Line","category":"rail","osm_type":"way","osm_id":"238359750","operator":"Network Rail","ref":"HXS3"}},{"type":"Feature","geometry":{"type":"LineString","coordinates":[[-3.00058,53.6451],[-3.00038,53.64376]]},"properties":{"name":"Railways","category":"rail","osm_type":"way","osm_id":"238359752"}},{"type":"Feature","geometry":{"type":"LineString","coordinates":[[-3.00148,53.64582],[-3.00012,53.64526]]},"properties":{"name":"Manchester to Southport Line","category":"rail","osm_type":"way","osm_id":"238359753","operator":"Network Rail","ref":"WBS3"}},{"type":"Feature","geometry":{"type":"LineString","coordinates":[[-3.00055,53.64513],[-3.00102,53.64552]]},"properties":{"name":"Railways","category":"rail","osm_type":"way","osm_id":"238359755"}},{"type":"Feature","geometry":{"type":"LineString","coordinates":[[-3.04023,53.82934],[-3.04491,53.82734],[-3.04845,53.82369]]},"properties":{"name":"Blackpool Carriage Sidings","category":"rail","osm_type":"way","osm_id":"238405279","ref":"BCR"}},{"type":"Feature","geometry":{"type":"LineString","coordinates":[[-3.04049,53.82923],[-3.04571,53.82619]]},"properties":{"name":"Blackpool Carriage Sidings","category":"rail","osm_type":"way","osm_id":"238405281","ref":"BCR"}},{"type":"Feature","geometry":{"type":"LineString","coordinates":[[-3.04797,53.82614],[-3.04465,53.82752]]},"properties":{"name":"Blackpool Carriage Sidings","category":"rail","osm_type":"way","osm_id":"238405285","ref":"BCR"}},{"type":"Feature","geometry":{"type":"LineString","coordinates":[[-3.04479,53.82642],[-3.04597,53.8256]]},"properties":{"name":"Preston and Blackpool North Branch","category":"rail","osm_type":"way","osm_id":"238405288","operator":"Network Rail","ref":"PBN"}},{"type":"Feature","geometry":{"type":"LineString","coordinates":[[-3.04282,53.82809],[-3.04551,53.82637]]},"properties":{"name":"Blackpool Carriage Sidings","category":"rail","osm_type":"way","osm_id":"238405292","ref":"BCR"}},{"type":"Feature","geometry":{"type":"LineString","coordinates":[[-3.04648,53.82524],[-3.04485,53.82647]]},"properties":{"name":"Preston and Blackpool North Branch","category":"rail","osm_type":"way","osm_id":"238405296","operator":"Network Rail","ref":"PBN"}},{"type":"Feature","geometry":{"type":"LineString","coordinates":[[-3.04183,53.82855],[-3.04553,53.82624]]},"properties":{"name":"Blackpool Carriage Sidings","category":"rail","osm_type":"way","osm_id":"238405299","ref":"BCR"}},{"type":"Feature","geometry":{"type":"LineString","coordinates":[[-3.04582,53.82611],[-3.0447,53.82714],[-3.04085,53.8291]]},"properties":{"name":"Blackpool Carriage Sidings","category":"rail","osm_type":"way","osm_id":"238405300","ref":"BCR"}},{"type":"Feature","geometry":{"type":"LineString","coordinates":[[-3.04085,53.8291],[-3.04451,53.82737],[-3.04563,53.82637]]},"properties":{"name":"Blackpool Carriage Sidings","category":"rail","osm_type":"way","osm_id":"238405301","ref":"BCR"}},{"type":"Feature","geometry":{"type":"LineString","coordinates":[[-3.04449,53.82691],[-3.04144,53.82875]]},"properties":{"name":"Blackpool Carriage Sidings","category":"rail","osm_type":"way","osm_id":"238405303","ref":"BCR"}},{"type":"Feature","geometry":{"type":"LineString","coordinates":[[-3.04551,53.82613],[-3.04082,53.82907]]},"properties":{"name":"Blackpool Carriage Sidings","category":"rail","osm_type":"way","osm_id":"238405304","ref":"BCR"}},{"type":"Feature","geometry":{"type":"LineString","coordinates":[[-3.04246,53.82826],[-3.04594,53.8259]]},"properties":{"name":"Blackpool Carriage Sidings","category":"rail","osm_type":"way","osm_id":"238405305","ref":"BCR"}},{"type":"Feature","geometry":{"type":"LineString","coordinates":[[-3.04163,53.82887],[-3.04545,53.82664]]},"properties":{"name":"Blackpool Carriage Sidings","category":"rail","osm_type":"way","osm_id":"238405605","ref":"BCR"}},{"type":"Feature","geometry":{"type":"LineString","coordinates":[[-3.04443,53.82763],[-3.04483,53.82735]]},"properties":{"name":"Railways","category":"rail","osm_type":"way","osm_id":"238405606"}},{"type":"Feature","geometry":{"type":"LineString","coordinates":[[-3.04533,53.8267],[-3.04125,53.82892]]},"properties":{"name":"Blackpool Carriage Sidings","category":"rail","osm_type":"way","osm_id":"238405607","ref":"BCR"}},{"type":"Feature","geometry":{"type":"LineString","coordinates":[[-3.04114,53.82902],[-3.04516,53.82704]]},"properties":{"name":"Blackpool Carriage Sidings","category":"rail","osm_type":"way","osm_id":"238405608","ref":"BCR"}},{"type":"Feature","geometry":{"type":"LineString","coordinates":[[-3.04221,53.82868],[-3.04531,53.82685]]},"properties":{"name":"Blackpool Carriage Sidings","category":"rail","osm_type":"way","osm_id":"238405609","ref":"BCR"}},{"type":"Feature","geometry":{"type":"LineString","coordinates":[[-3.05541,53.81894],[-3.05611,53.81876]]},"properties":{"name":"Railways","category":"tram","osm_type":"way","osm_id":"238547774","operator":"Blackpool Transport"}},{"type":"Feature","geometry":{"type":"LineString","coordinates":[[-3.05537,53.81898],[-3.05071,53.82061]]},"properties":{"name":"Railways","category":"tram","osm_type":"way","osm_id":"238547775","operator":"Blackpool Transport"}},{"type":"Feature","geometry":{"type":"LineString","coordinates":[[-3.05614,53.81806],[-3.05621,53.81828]]},"properties":{"name":"Railways","category":"tram","osm_type":"way","osm_id":"238547776","operator":"Blackpool Transport"}},{"type":"Feature","geometry":{"type":"LineString","coordinates":[[-3.05066,53.82058],[-3.05541,53.81894]]},"properties":{"name":"Railways","category":"tram","osm_type":"way","osm_id":"238547777","operator":"Blackpool Transport"}},{"type":"Feature","geometry":{"type":"LineString","coordinates":[[-3.05616,53.81879],[-3.05537,53.81898]]},"properties":{"name":"Railways","category":"tram","osm_type":"way","osm_id":"238547778","operator":"Blackpool Transport"}},{"type":"Feature","geometry":{"type":"LineString","coordinates":[[-3.05616,53.8174],[-3.0562,53.81808]]},"properties":{"name":"Railways","category":"tram","osm_type":"way","osm_id":"238547779","operator":"Blackpool Transport"}},{"type":"Feature","geometry":{"type":"LineString","coordinates":[[-3.05548,53.80758],[-3.05407,53.8063],[-3.05352,53.80635]]},"properties":{"name":"Railways","category":"tram","osm_type":"way","osm_id":"283380376","operator":"Blackpool Transport"}},{"type":"Feature","geometry":{"type":"LineString","coordinates":[[-3.05554,53.80761],[-3.05419,53.80635]]},"properties":{"name":"Railways","category":"tram","osm_type":"way","osm_id":"283380377","operator":"Blackpool Transport"}},{"type":"Feature","geometry":{"type":"LineString","coordinates":[[-3.00109,53.6455],[-3.00148,53.64582]]},"properties":{"name":"Northern Line","category":"rail","osm_type":"way","osm_id":"308880636","operator":"Network Rail","ref":"HXS3"}},{"type":"Feature","geometry":{"type":"LineString","coordinates":[[-3.00045,53.64445],[-3.00067,53.64508]]},"properties":{"name":"Northern Line","category":"rail","osm_type":"way","osm_id":"363277158","operator":"Network Rail","ref":"HXS3"}},{"type":"Feature","geometry":{"type":"LineString","coordinates":[[-3.0571,53.52488],[-3.05804,53.52802],[-3.06595,53.54206]]},"properties":{"name":"Northern Line","category":"rail","osm_type":"way","osm_id":"373888936","operator":"Network Rail","ref":"HXS3"}},{"type":"Feature","geometry":{"type":"LineString","coordinates":[[-3.05703,53.52488],[-3.05797,53.52803],[-3.06588,53.54207]]},"properties":{"name":"Northern Line","category":"rail","osm_type":"way","osm_id":"373888937","operator":"Network Rail","ref":"HXS3"}},{"type":"Feature","geometry":{"type":"LineString","coordinates":[[-3.06595,53.54206],[-3.06604,53.54223]]},"properties":{"name":"Northern Line","category":"rail","osm_type":"way","osm_id":"373888938","operator":"Network Rail","ref":"HXS3"}},{"type":"Feature","geometry":{"type":"LineString","coordinates":[[-3.02696,53.61976],[-3.025,53.62199]]},"properties":{"name":"Northern Line","category":"rail","osm_type":"way","osm_id":"373888940","operator":"Network Rail","ref":"HXS3"}},{"type":"Feature","geometry":{"type":"LineString","coordinates":[[-3.02701,53.61978],[-3.02504,53.62202]]},"properties":{"name":"Northern Line","category":"rail","osm_type":"way","osm_id":"373888941","operator":"Network Rail","ref":"HXS3"}},{"type":"Feature","geometry":{"type":"LineString","coordinates":[[-3.06604,53.54223],[-3.06998,53.54923],[-3.07088,53.5534]]},"properties":{"name":"Northern Line","category":"rail","osm_type":"way","osm_id":"373888942","operator":"Network Rail","ref":"HXS3"}},{"type":"Feature","geometry":{"type":"LineString","coordinates":[[-3.05031,53.49881],[-3.05212,53.50353]]},"properties":{"name":"Northern Line","category":"rail","osm_type":"way","osm_id":"373888944","operator":"Network Rail","ref":"HXS3"}},{"type":"Feature","geometry":{"type":"LineString","coordinates":[[-3.05041,53.49879],[-3.0522,53.50354]]},"properties":{"name":"Northern Line","category":"rail","osm_type":"way","osm_id":"373888945","operator":"Network Rail","ref":"HXS3"}},{"type":"Feature","geometry":{"type":"LineString","coordinates":[[-3.05212,53.50353],[-3.05703,53.52488]]},"properties":{"name":"Northern Line","category":"rail","osm_type":"way","osm_id":"373888946","operator":"Network Rail","ref":"HXS3"}},{"type":"Feature","geometry":{"type":"LineString","coordinates":[[-3.0522,53.50354],[-3.0571,53.52488]]},"properties":{"name":"Northern Line","category":"rail","osm_type":"way","osm_id":"373888947","operator":"Network Rail","ref":"HXS3"}},{"type":"Feature","geometry":{"type":"LineString","coordinates":[[-3.04646,53.82514],[-3.04861,53.82214]]},"properties":{"name":"Preston and Blackpool North Branch","category":"rail","osm_type":"way","osm_id":"383170546","operator":"Network Rail","ref":"PBN"}},{"type":"Feature","geometry":{"type":"LineString","coordinates":[[-3.04646,53.82514],[-3.04898,53.82191]]},"properties":{"name":"Preston and Blackpool North Branch","category":"rail","osm_type":"way","osm_id":"383170551","operator":"Network Rail","ref":"PBN"}},{"type":"Feature","geometry":{"type":"LineString","coordinates":[[-3.00005,53.64537],[-3.00264,53.64693]]},"properties":{"name":"WBS3","category":"rail","osm_type":"way","osm_id":"383210162","operator":"Network Rail","ref":"WBS3"}},{"type":"Feature","geometry":{"type":"LineString","coordinates":[[-3.00855,53.92585],[-3.0085,53.92562]]},"properties":{"name":"Railways","category":"tram","osm_type":"way","osm_id":"449870991","operator":"Blackpool Transport"}},{"type":"Feature","geometry":{"type":"LineString","coordinates":[[-3.03966,53.88413],[-3.03962,53.88425]]},"properties":{"name":"Railways","category":"tram","osm_type":"way","osm_id":"449870993","operator":"Blackpool Transport"}},{"type":"Feature","geometry":{"type":"LineString","coordinates":[[-3.007,53.92737],[-3.007,53.92663]]},"properties":{"name":"Railways","category":"tram","osm_type":"way","osm_id":"452223517","operator":"Blackpool Transport"}},{"type":"Feature","geometry":{"type":"LineString","coordinates":[[-3.007,53.92663],[-3.00841,53.92633],[-3.00883,53.92372],[-3.01695,53.92005],[-3.02718,53.91018],[-3.02906,53.90716],[-3.03293,53.90315],[-3.03784,53.8999],[-3.03917,53.89831],[-3.04039,53.88702],[-3.03876,53.88174],[-3.03907,53.87995],[-3.03987,53.8772],[-3.04304,53.87521],[-3.0428,53.87036],[-3.04645,53.86808],[-3.04714,53.86721],[-3.05046,53.8566],[-3.05336,53.84965],[-3.05504,53.83315],[-3.05578,53.8321],[-3.05535,53.82225]]},"properties":{"name":"Railways","category":"tram","osm_type":"way","osm_id":"483553693","operator":"Blackpool Transport"}},{"type":"Feature","geometry":{"type":"LineString","coordinates":[[-3.05605,53.77795],[-3.0552,53.77763]]},"properties":{"name":"Railways","category":"tram","osm_type":"way","osm_id":"483553695","operator":"Blackpool Transport"}},{"type":"Feature","geometry":{"type":"LineString","coordinates":[[-3.07089,53.55348],[-3.0721,53.56931],[-3.07154,53.57233],[-3.0699,53.57559],[-3.06734,53.57854],[-3.04368,53.60079],[-3.02701,53.61978]]},"properties":{"name":"Merseyrail","category":"rail","osm_type":"way","osm_id":"490313906","operator":"Network Rail","ref":"HXS3"}},{"type":"Feature","geometry":{"type":"LineString","coordinates":[[-3.07088,53.5534],[-3.07089,53.55348]]},"properties":{"name":"Northern Line","category":"rail","osm_type":"way","osm_id":"490313907","operator":"Network Rail","ref":"HXS3"}},{"type":"Feature","geometry":{"type":"LineString","coordinates":[[-3.07083,53.55349],[-3.07204,53.56931],[-3.07148,53.57232],[-3.06985,53.57558],[-3.06729,53.57853],[-3.04363,53.60077],[-3.02696,53.61976]]},"properties":{"name":"Merseyrail","category":"rail","osm_type":"way","osm_id":"490313908","operator":"Network Rail","ref":"HXS3"}},{"type":"Feature","geometry":{"type":"LineString","coordinates":[[-3.07082,53.5534],[-3.07083,53.55349]]},"properties":{"name":"Northern Line","category":"rail","osm_type":"way","osm_id":"490313909","operator":"Network Rail","ref":"HXS3"}},{"type":"Feature","geometry":{"type":"LineString","coordinates":[[-3.02504,53.62202],[-3.02496,53.62211]]},"properties":{"name":"Northern Line","category":"rail","osm_type":"way","osm_id":"490315730","operator":"Network Rail","ref":"HXS3"}},{"type":"Feature","geometry":{"type":"LineString","coordinates":[[-3.02425,53.62293],[-3.01837,53.62962]]},"properties":{"name":"Northern Line","category":"rail","osm_type":"way","osm_id":"490315731","operator":"Network Rail","ref":"HXS3"}},{"type":"Feature","geometry":{"type":"LineString","coordinates":[[-3.02492,53.62208],[-3.01656,53.63163]]},"properties":{"name":"Northern Line","category":"rail","osm_type":"way","osm_id":"490315732","operator":"Network Rail","ref":"HXS3"}},{"type":"Feature","geometry":{"type":"LineString","coordinates":[[-3.025,53.62199],[-3.02492,53.62208]]},"properties":{"name":"Northern Line","category":"rail","osm_type":"way","osm_id":"490315733","operator":"Network Rail","ref":"HXS3"}},{"type":"Feature","geometry":{"type":"LineString","coordinates":[[-3.04062,53.82898],[-3.04015,53.82927]]},"properties":{"name":"Preston and Blackpool North Branch","category":"rail","osm_type":"way","osm_id":"589291174","operator":"Network Rail","ref":"PBN"}},{"type":"Feature","geometry":{"type":"LineString","coordinates":[[-3.04158,53.82838],[-3.04111,53.8287]]},"properties":{"name":"Preston and Blackpool North Branch","category":"rail","osm_type":"way","osm_id":"589291175","operator":"Network Rail","ref":"PBN"}},{"type":"Feature","geometry":{"type":"LineString","coordinates":[[-3.04734,53.82443],[-3.04712,53.82463]]},"properties":{"name":"Preston and Blackpool North Branch","category":"rail","osm_type":"way","osm_id":"589291176","operator":"Network Rail","ref":"PBN"}},{"type":"Feature","geometry":{"type":"LineString","coordinates":[[-3.04336,53.82731],[-3.04479,53.82642]]},"properties":{"name":"Preston and Blackpool North Branch","category":"rail","osm_type":"way","osm_id":"589291177","operator":"Network Rail","ref":"PBN"}},{"type":"Feature","geometry":{"type":"LineString","coordinates":[[-3.04012,53.82924],[-3.04329,53.82734]]},"properties":{"name":"Preston and Blackpool North Branch","category":"rail","osm_type":"way","osm_id":"589291178","operator":"Network Rail","ref":"PBN"}},{"type":"Feature","geometry":{"type":"LineString","coordinates":[[-3.04485,53.82647],[-3.04062,53.82898]]},"properties":{"name":"Preston and Blackpool North Branch","category":"rail","osm_type":"way","osm_id":"589291179","operator":"Network Rail","ref":"PBN"}},{"type":"Feature","geometry":{"type":"LineString","coordinates":[[-3.04477,53.82652],[-3.04438,53.8267]]},"properties":{"name":"Preston and Blackpool North Branch","category":"rail","osm_type":"way","osm_id":"589291181","operator":"Network Rail","ref":"PBN"}},{"type":"Feature","geometry":{"type":"LineString","coordinates":[[-3.04564,53.82598],[-3.04534,53.82625]]},"properties":{"name":"Railways","category":"rail","osm_type":"way","osm_id":"589291182"}},{"type":"Feature","geometry":{"type":"LineString","coordinates":[[-3.04597,53.8256],[-3.04646,53.82514]]},"properties":{"name":"Preston and Blackpool North Branch","category":"rail","osm_type":"way","osm_id":"589291183","operator":"Network Rail","ref":"PBN"}},{"type":"Feature","geometry":{"type":"LineString","coordinates":[[-3.04657,53.82509],[-3.04668,53.825]]},"properties":{"name":"Preston and Blackpool North Branch","category":"rail","osm_type":"way","osm_id":"589291184","operator":"Network Rail","ref":"PBN"}},{"type":"Feature","geometry":{"type":"LineString","coordinates":[[-3.04712,53.82463],[-3.04648,53.82524]]},"properties":{"name":"Preston and Blackpool North Branch","category":"rail","osm_type":"way","osm_id":"589291185","operator":"Network Rail","ref":"PBN"}},{"type":"Feature","geometry":{"type":"LineString","coordinates":[[-3.04648,53.82524],[-3.04614,53.82566]]},"properties":{"name":"Railways","category":"rail","osm_type":"way","osm_id":"589291186"}},{"type":"Feature","geometry":{"type":"LineString","coordinates":[[-3.04693,53.82477],[-3.04673,53.825]]},"properties":{"name":"Preston and Blackpool North Branch","category":"rail","osm_type":"way","osm_id":"589291187","operator":"Network Rail","ref":"PBN"}},{"type":"Feature","geometry":{"type":"LineString","coordinates":[[-3.04329,53.82734],[-3.04481,53.82645]]},"properties":{"name":"Preston and Blackpool North Branch","category":"rail","osm_type":"way","osm_id":"589328174","operator":"Network Rail","ref":"PBN"}},{"type":"Feature","geometry":{"type":"LineString","coordinates":[[-3.04927,53.8222],[-3.04902,53.82257]]},"properties":{"name":"Railways","category":"rail","osm_type":"way","osm_id":"778991052","operator":"Network Rail"}},{"type":"Feature","geometry":{"type":"LineString","coordinates":[[-3.00793,53.9276],[-3.007,53.92737]]},"properties":{"name":"Railways","category":"tram","osm_type":"way","osm_id":"781677069","operator":"Blackpool Transport"}},{"type":"Feature","geometry":{"type":"LineString","coordinates":[[-3.007,53.92737],[-3.00657,53.92684],[-3.007,53.92663]]},"properties":{"name":"Railways","category":"tram","osm_type":"way","osm_id":"781677070","operator":"Blackpool Transport"}},{"type":"Feature","geometry":{"type":"LineString","coordinates":[[-3.05607,53.77793],[-3.05757,53.77863]]},"properties":{"name":"Railways","category":"tram","osm_type":"way","osm_id":"781677071","operator":"Blackpool Transport"}},{"type":"Feature","geometry":{"type":"LineString","coordinates":[[-3.07116,53.55693],[-3.07106,53.55648]]},"properties":{"name":"Railways","category":"rail","osm_type":"way","osm_id":"818122324","operator":"Network Rail"}},{"type":"Feature","geometry":{"type":"LineString","coordinates":[[-3.00077,53.64509],[-3.00044,53.6447]]},"properties":{"name":"Northern Line","category":"rail","osm_type":"way","osm_id":"818127536","operator":"Network Rail","ref":"HXS3"}},{"type":"Feature","geometry":{"type":"LineString","coordinates":[[-3.00298,53.64675],[-3.00148,53.64582]]},"properties":{"name":"Northern Line","category":"rail","osm_type":"way","osm_id":"818127537","operator":"Network Rail","ref":"HXS3"}},{"type":"Feature","geometry":{"type":"LineString","coordinates":[[-3.00077,53.64509],[-3.00287,53.64647]]},"properties":{"name":"Northern Line","category":"rail","osm_type":"way","osm_id":"856899301","operator":"Network Rail","ref":"HXS3"}},{"type":"Feature","geometry":{"type":"LineString","coordinates":[[-3.00253,53.64213],[-3.01221,53.63604],[-3.01656,53.63163]]},"properties":{"name":"Northern Line","category":"rail","osm_type":"way","osm_id":"856899302","operator":"Network Rail","ref":"HXS3"}},{"type":"Feature","geometry":{"type":"LineString","coordinates":[[-3.02496,53.62211],[-3.02425,53.62293]]},"properties":{"name":"Northern Line","category":"rail","osm_type":"way","osm_id":"881057223","operator":"Network Rail","ref":"HXS3"}},{"type":"Feature","geometry":{"type":"LineString","coordinates":[[-3.01837,53.62962],[-3.01661,53.63165]]},"properties":{"name":"Northern Line","category":"rail","osm_type":"way","osm_id":"881057224","operator":"Network Rail","ref":"HXS3"}},{"type":"Feature","geometry":{"type":"LineString","coordinates":[[-3.00037,53.64446],[-3.00076,53.64335],[-3.00253,53.64213]]},"properties":{"name":"Northern Line","category":"rail","osm_type":"way","osm_id":"881057225","operator":"Network Rail","ref":"HXS3"}},{"type":"Feature","geometry":{"type":"LineString","coordinates":[[-3.00257,53.64216],[-3.00081,53.64338],[-3.00045,53.64445]]},"properties":{"name":"Northern Line","category":"rail","osm_type":"way","osm_id":"881057226","operator":"Network Rail","ref":"HXS3"}},{"type":"Feature","geometry":{"type":"LineString","coordinates":[[-3.00044,53.6447],[-3.00037,53.64446]]},"properties":{"name":"Northern Line","category":"rail","osm_type":"way","osm_id":"881057227","operator":"Network Rail","ref":"HXS3"}},{"type":"Feature","geometry":{"type":"LineString","coordinates":[[-3.05473,53.83848],[-3.0548,53.83861]]},"properties":{"name":"Railways","category":"tram","osm_type":"way","osm_id":"911453592","operator":"Blackpool Transport"}},{"type":"Feature","geometry":{"type":"LineString","coordinates":[[-3.00216,53.64642],[-3.00283,53.64683]]},"properties":{"name":"Manchester to Southport Line","category":"rail","osm_type":"way","osm_id":"912501391","operator":"Network Rail","ref":"WBS3"}},{"type":"Feature","geometry":{"type":"LineString","coordinates":[[-3.00278,53.64685],[-3.00212,53.64644]]},"properties":{"name":"Manchester to Southport Line","category":"rail","osm_type":"way","osm_id":"912501392","operator":"Network Rail","ref":"WBS3"}},{"type":"Feature","geometry":{"type":"LineString","coordinates":[[-3.00212,53.64644],[-3.00008,53.64528]]},"properties":{"name":"Manchester to Southport Line","category":"rail","osm_type":"way","osm_id":"932331865","operator":"Network Rail","ref":"WBS3"}},{"type":"Feature","geometry":{"type":"LineString","coordinates":[[-3.00076,53.64559],[-3.00216,53.64642]]},"properties":{"name":"Manchester to Southport Line","category":"rail","osm_type":"way","osm_id":"932331866","operator":"Network Rail","ref":"WBS3"}},{"type":"Feature","geometry":{"type":"LineString","coordinates":[[-3.04492,53.82737],[-3.04621,53.82654]]},"properties":{"name":"Blackpool Carriage Sidings","category":"rail","osm_type":"way","osm_id":"932386469","ref":"BCR"}},{"type":"Feature","geometry":{"type":"LineString","coordinates":[[-3.04616,53.8265],[-3.04491,53.82734]]},"properties":{"name":"Blackpool Carriage Sidings","category":"rail","osm_type":"way","osm_id":"932386470","ref":"BCR"}},{"type":"Feature","geometry":{"type":"LineString","coordinates":[[-3.01783,53.65414],[-3.0084,53.65064]]},"properties":{"name":"Railways","category":"tram","osm_type":"way","osm_id":"945106437"}},{"type":"Feature","geometry":{"type":"LineString","coordinates":[[-3.0552,53.77763],[-3.05485,53.77703],[-3.05591,53.77728],[-3.0562,53.77788],[-3.05743,53.7784]]},"properties":{"name":"Railways","category":"tram","osm_type":"way","osm_id":"953422912","operator":"Blackpool Transport"}},{"type":"Feature","geometry":{"type":"LineString","coordinates":[[-3.05773,53.77923],[-3.05743,53.7784]]},"properties":{"name":"Railways","category":"tram","osm_type":"way","osm_id":"953422913","operator":"Blackpool Transport"}},{"type":"Feature","geometry":{"type":"LineString","coordinates":[[-2.9632,53.73932],[-2.9772,53.73885],[-2.98528,53.73962],[-3.00859,53.74522],[-3.01713,53.74763],[-3.02458,53.75075],[-3.03086,53.75435],[-3.03781,53.75976],[-3.04306,53.76538],[-3.04686,53.77084],[-3.05302,53.78263],[-3.05396,53.78653],[-3.05367,53.78891],[-3.05203,53.7923],[-3.04895,53.79655]]},"properties":{"name":"South Fylde Community Railway Line","category":"rail","osm_type":"way","osm_id":"979325415","operator":"Network Rail","ref":"KBS1"}},{"type":"Feature","geometry":{"type":"LineString","coordinates":[[-3.05195,53.50238],[-3.05041,53.49879]]},"properties":{"name":"Railways","category":"rail","osm_type":"way","osm_id":"980173437","operator":"Network Rail"}},{"type":"Feature","geometry":{"type":"LineString","coordinates":[[-3.05052,53.82075],[-3.04969,53.82106]]},"properties":{"name":"Railways","category":"tram","osm_type":"way","osm_id":"1041183021","operator":"Blackpool Transport"}},{"type":"Feature","geometry":{"type":"LineString","coordinates":[[-3.04976,53.82114],[-3.05062,53.82076]]},"properties":{"name":"Railways","category":"tram","osm_type":"way","osm_id":"1041183022","operator":"Blackpool Transport"}},{"type":"Feature","geometry":{"type":"LineString","coordinates":[[-3.00045,53.64445],[-3.00077,53.64509]]},"properties":{"name":"Northern Line","category":"rail","osm_type":"way","osm_id":"1056526899","operator":"Network Rail","ref":"HXS3"}},{"type":"Feature","geometry":{"type":"LineString","coordinates":[[-3.05198,53.80641],[-3.05235,53.8065]]},"properties":{"name":"Railways","category":"tram","osm_type":"way","osm_id":"1127815123","operator":"Blackpool Transport"}},{"type":"Feature","geometry":{"type":"LineString","coordinates":[[-3.05235,53.8065],[-3.05283,53.80644]]},"properties":{"name":"Railways","category":"tram","osm_type":"way","osm_id":"1127815124","operator":"Blackpool Transport"}},{"type":"Feature","geometry":{"type":"LineString","coordinates":[[-3.0527,53.80708],[-3.05299,53.80741]]},"properties":{"name":"Railways","category":"tram","osm_type":"way","osm_id":"1127815125","operator":"Blackpool Transport"}},{"type":"Feature","geometry":{"type":"LineString","coordinates":[[-3.05252,53.80665],[-3.0527,53.80708]]},"properties":{"name":"Railways","category":"tram","osm_type":"way","osm_id":"1127815126","operator":"Blackpool Transport"}},{"type":"Feature","geometry":{"type":"LineString","coordinates":[[-3.05269,53.80648],[-3.05262,53.80664]]},"properties":{"name":"Railways","category":"tram","osm_type":"way","osm_id":"1127826197","operator":"Blackpool Transport"}},{"type":"Feature","geometry":{"type":"LineString","coordinates":[[-3.05299,53.80741],[-3.05302,53.80752]]},"properties":{"name":"Blundell Street","category":"unclassified","osm_type":"way","osm_id":"1127827333","operator":"Blackpool Transport"}},{"type":"Feature","geometry":{"type":"LineString","coordinates":[[-3.05419,53.80635],[-3.05403,53.80625]]},"properties":{"name":"Railways","category":"tram","osm_type":"way","osm_id":"1132720553","operator":"Blackpool Transport"}},{"type":"Feature","geometry":{"type":"LineString","coordinates":[[-3.05403,53.80625],[-3.05309,53.80642]]},"properties":{"name":"Hopton Road","category":"unclassified","osm_type":"way","osm_id":"1132752575","operator":"Blackpool Transport"}},{"type":"Feature","geometry":{"type":"LineString","coordinates":[[-3.02833,53.6182],[-3.02793,53.61874]]},"properties":{"name":"Merseyrail","category":"rail","osm_type":"way","osm_id":"1202739113","operator":"Network Rail","ref":"HXS3"}},{"type":"Feature","geometry":{"type":"LineString","coordinates":[[-3.05585,53.81932],[-3.05537,53.81898]]},"properties":{"name":"Railways","category":"tram","osm_type":"way","osm_id":"1294679438","operator":"Blackpool Transport"}},{"type":"Feature","geometry":{"type":"LineString","coordinates":[[-3.05062,53.82076],[-3.05066,53.82058]]},"properties":{"name":"Railways","category":"tram","osm_type":"way","osm_id":"1332643387","operator":"Blackpool Transport"}},{"type":"Feature","geometry":{"type":"LineString","coordinates":[[-3.05071,53.82061],[-3.05052,53.82075]]},"properties":{"name":"Railways","category":"tram","osm_type":"way","osm_id":"1332643388","operator":"Blackpool Transport"}},{"type":"Feature","geometry":{"type":"LineString","coordinates":[[-3.05616,53.81879],[-3.05589,53.81933]]},"properties":{"name":"Railways","category":"tram","osm_type":"way","osm_id":"1348494359","operator":"Blackpool Transport"}},{"type":"Feature","geometry":{"type":"LineString","coordinates":[[-3.04895,53.79655],[-3.04889,53.79858]]},"properties":{"name":"South Fylde Community Railway Line","category":"rail","osm_type":"way","osm_id":"1353755358","operator":"Network Rail","ref":"KBS1"}},{"type":"Feature","geometry":{"type":"LineString","coordinates":[[-3.05541,53.81894],[-3.05589,53.81933]]},"properties":{"name":"Railways","category":"tram","osm_type":"way","osm_id":"1365286968","operator":"Blackpool Transport"}},{"type":"Feature","geometry":{"type":"LineString","coordinates":[[-3.05052,53.82075],[-3.05066,53.82058]]},"properties":{"name":"Railways","category":"tram","osm_type":"way","osm_id":"1365286969","operator":"Blackpool Transport"}},{"type":"Feature","geometry":{"type":"LineString","coordinates":[[-3.05585,53.81932],[-3.05611,53.81876]]},"properties":{"name":"Railways","category":"tram","osm_type":"way","osm_id":"1365286970","operator":"Blackpool Transport"}},{"type":"Feature","geometry":{"type":"LineString","coordinates":[[-3.05071,53.82061],[-3.05062,53.82076]]},"properties":{"name":"Railways","category":"tram","osm_type":"way","osm_id":"1365286971","operator":"Blackpool Transport"}},{"type":"Feature","geometry":{"type":"LineString","coordinates":[[-3.0552,53.77763],[-3.05607,53.77793]]},"properties":{"name":"Railways","category":"tram","osm_type":"way","osm_id":"1365781738","operator":"Blackpool Transport"}},{"type":"Feature","geometry":{"type":"LineString","coordinates":[[-3.05743,53.7784],[-3.05757,53.77863]]},"properties":{"name":"Railways","category":"tram","osm_type":"way","osm_id":"1365784827","operator":"Blackpool Transport"}},{"type":"Feature","geometry":{"type":"LineString","coordinates":[[-3.04876,53.82252],[-3.04912,53.82206]]},"properties":{"name":"Preston and Blackpool North Branch","category":"rail","osm_type":"way","osm_id":"1459427083","operator":"Network Rail","ref":"PBN"}},{"type":"Feature","geometry":{"type":"LineString","coordinates":[[-3.05649,53.77799],[-3.05634,53.7778]]},"properties":{"name":"Railways","category":"tram","osm_type":"way","osm_id":"1464871288","operator":"Blackpool Transport"}},{"type":"Feature","geometry":{"type":"LineString","coordinates":[[-3.05766,53.77915],[-3.05759,53.77898]]},"properties":{"name":"Railways","category":"tram","osm_type":"way","osm_id":"1464871289","operator":"Blackpool Transport"}},{"type":"Feature","geometry":{"type":"LineString","coordinates":[[-3.05767,53.77949],[-3.05768,53.77928]]},"properties":{"name":"Railways","category":"tram","osm_type":"way","osm_id":"1464871290","operator":"Blackpool Transport"}}]}