{"type":"FeatureCollection","features":[{"type":"Feature","geometry":{"type":"LineString","coordinates":[[-3.06528,52.35257],[-3.05614,52.34993]]},"properties":{"name":"Heart of Wales Line","category":"rail","osm_type":"way","osm_id":"138146778","operator":"Network Rail","ref":"CWL2"}},{"type":"Feature","geometry":{"type":"LineString","coordinates":[[-3.05614,52.34993],[-3.05579,52.34983]]},"properties":{"name":"Heart of Wales Line","category":"rail","osm_type":"way","osm_id":"198920031","operator":"Network Rail","ref":"CWL2"}},{"type":"Feature","geometry":{"type":"LineString","coordinates":[[-3.04469,52.34581],[-3.04233,52.345],[-3.04013,52.34477]]},"properties":{"name":"Heart of Wales Line","category":"rail","osm_type":"way","osm_id":"366813578","operator":"Network Rail","ref":"CWL2"}},{"type":"Feature","geometry":{"type":"LineString","coordinates":[[-3.04469,52.34581],[-3.04013,52.34477]]},"properties":{"name":"Heart of Wales Line","category":"rail","osm_type":"way","osm_id":"925628912","operator":"Network Rail","ref":"CWL2"}},{"type":"Feature","geometry":{"type":"LineString","coordinates":[[-3.05423,52.34938],[-3.04803,52.34757],[-3.04469,52.34581]]},"properties":{"name":"Heart of Wales Line","category":"rail","osm_type":"way","osm_id":"925628913","operator":"Network Rail","ref":"CWL2"}},{"type":"Feature","geometry":{"type":"LineString","coordinates":[[-3.05579,52.34983],[-3.0543,52.3494]]},"properties":{"name":"Heart of Wales Line","category":"rail","osm_type":"way","osm_id":"1119218258","operator":"Network Rail","ref":"CWL2"}},{"type":"Feature","geometry":{"type":"LineString","coordinates":[[-3.0543,52.3494],[-3.05423,52.34938]]},"properties":{"name":"Heart of Wales Line","category":"rail","osm_type":"way","osm_id":"1119218259","operator":"Network Rail","ref":"CWL2"}}]}