{"type":"FeatureCollection","features":[{"type":"Feature","geometry":{"type":"Point","coordinates":[-0.16433,52.50528]},"properties":{"name":"Bevill's Leam Pumping Station","category":"pumping_station","osm_type":"node","osm_id":"117007928","operator":"Middle Level Commissioners"}},{"type":"Feature","geometry":{"type":"Point","coordinates":[-0.2944,52.78974]},"properties":{"name":"Dyke Fen Pumping Station","category":"pumping_station","osm_type":"node","osm_id":"319239750","operator":"Black Sluice Internal Drainage Board"}},{"type":"Feature","geometry":{"type":"Point","coordinates":[-0.17667,52.92032]},"properties":{"name":"Bicker Eau","category":"pumping_station","osm_type":"node","osm_id":"338447828","operator":"Black Sluice Internal Drainage Board"}},{"type":"Feature","geometry":{"type":"Point","coordinates":[-0.18228,52.60878]},"properties":{"name":"Mapped water infrastructure","category":"pumping_station","osm_type":"node","osm_id":"546643317"}},{"type":"Feature","geometry":{"type":"Point","coordinates":[-0.09377,52.90251]},"properties":{"name":"Mapped water infrastructure","category":"water_tower","osm_type":"node","osm_id":"690303062"}},{"type":"Feature","geometry":{"type":"Point","coordinates":[-0.039,52.96349]},"properties":{"name":"Mapped water infrastructure","category":"water_tower","osm_type":"node","osm_id":"690303068"}},{"type":"Feature","geometry":{"type":"Point","coordinates":[-0.26946,52.81116]},"properties":{"name":"Black Hole Drove Pumping Station","category":"pumping_station","osm_type":"node","osm_id":"696742604","operator":"Black Sluice Internal Drainage Board"}},{"type":"Feature","geometry":{"type":"Point","coordinates":[-0.29396,52.77187]},"properties":{"name":"Twenty Corner Pumping Station","category":"pumping_station","osm_type":"node","osm_id":"763200485","operator":"Black Sluice Internal Drainage Board"}},{"type":"Feature","geometry":{"type":"Point","coordinates":[-0.27182,52.87138]},"properties":{"name":"Sempringham Pumping Station","category":"pumping_station","osm_type":"node","osm_id":"763200487","operator":"Black Sluice Internal Drainage Board"}},{"type":"Feature","geometry":{"type":"Point","coordinates":[-0.27506,52.8496]},"properties":{"name":"Gosberton Pumping Station","category":"pumping_station","osm_type":"node","osm_id":"763200488","operator":"Black Sluice Internal Drainage Board"}},{"type":"Feature","geometry":{"type":"Point","coordinates":[-0.27604,52.84948]},"properties":{"name":"Dowsby Fen Pumping Station","category":"pumping_station","osm_type":"node","osm_id":"763200489","operator":"Black Sluice Internal Drainage Board"}},{"type":"Feature","geometry":{"type":"Point","coordinates":[-0.26152,52.89674]},"properties":{"name":"Dowsby Fen Pumping Station","category":"pumping_station","osm_type":"node","osm_id":"763200494","operator":"Black Sluice Internal Drainage Board"}},{"type":"Feature","geometry":{"type":"Point","coordinates":[-0.26682,52.88503]},"properties":{"name":"Billingborough Pumping Station","category":"pumping_station","osm_type":"node","osm_id":"763200495","operator":"Black Sluice Internal Drainage Board"}},{"type":"Feature","geometry":{"type":"Point","coordinates":[-0.68181,52.80396]},"properties":{"name":"Mapped water infrastructure","category":"water_tower","osm_type":"node","osm_id":"979677511"}},{"type":"Feature","geometry":{"type":"Point","coordinates":[-0.14893,52.7169]},"properties":{"name":"Crowland and Cowbit Pumping Station","category":"pumping_station","osm_type":"node","osm_id":"1126322032","operator":"Welland and Deepings Internal Drainage Board"}},{"type":"Feature","geometry":{"type":"Point","coordinates":[-0.07704,52.72256]},"properties":{"name":"Wisemans Pumping Station","category":"pumping_station","osm_type":"node","osm_id":"1127886252","operator":"South Holland Internal Drainage Board"}},{"type":"Feature","geometry":{"type":"Point","coordinates":[-0.99861,52.50497]},"properties":{"name":"The Tower House","category":"water_tower","osm_type":"node","osm_id":"1379883928"}},{"type":"Feature","geometry":{"type":"Point","coordinates":[-0.4026,52.53296]},"properties":{"name":"Elton River Lane terminal Pumping Station","category":"water_works","osm_type":"node","osm_id":"1380919388"}},{"type":"Feature","geometry":{"type":"Point","coordinates":[-0.39236,52.77474]},"properties":{"name":"Blind Well (Chalybeate)","category":"water_well","osm_type":"node","osm_id":"2083628330"}},{"type":"Feature","geometry":{"type":"Point","coordinates":[-0.24637,52.56757]},"properties":{"name":"Mapped water infrastructure","category":"water_tower","osm_type":"node","osm_id":"2140733318"}},{"type":"Feature","geometry":{"type":"Point","coordinates":[-0.27148,52.81652]},"properties":{"name":"Hacconby Fen Pumping Station","category":"pumping_station","osm_type":"node","osm_id":"2558650275","operator":"Black Sluice Internal Drainage Board"}},{"type":"Feature","geometry":{"type":"Point","coordinates":[-0.98222,52.50159]},"properties":{"name":"Foxton Junction Water Point","category":"water_point","osm_type":"node","osm_id":"2793497453","operator":"Canal and River Trust"}},{"type":"Feature","geometry":{"type":"Point","coordinates":[-0.72191,52.71354]},"properties":{"name":"Mapped water infrastructure","category":"water_well","osm_type":"node","osm_id":"3088771333","website":"https://www.britishlistedbuildings.co.uk/en-186592-village-well-ashwell-"}},{"type":"Feature","geometry":{"type":"Point","coordinates":[-0.3991,52.87925]},"properties":{"name":"Mapped water infrastructure","category":"water_tower","osm_type":"node","osm_id":"3278874281"}},{"type":"Feature","geometry":{"type":"Point","coordinates":[-0.19329,52.90538]},"properties":{"name":"Donington Wykes Pumping Station","category":"pumping_station","osm_type":"node","osm_id":"3763686620","operator":"Black Sluice Internal Drainage Board"}},{"type":"Feature","geometry":{"type":"Point","coordinates":[-0.53915,52.62858]},"properties":{"name":"Mapped water infrastructure","category":"wastewater_plant","osm_type":"node","osm_id":"3779078627"}},{"type":"Feature","geometry":{"type":"Point","coordinates":[-0.05316,52.75592]},"properties":{"name":"Roses Pumping Station","category":"pumping_station","osm_type":"node","osm_id":"3801199799","operator":"South Holland Internal Drainage Board"}},{"type":"Feature","geometry":{"type":"Point","coordinates":[-0.2687,52.639]},"properties":{"name":"Mapped water infrastructure","category":"pumping_station","osm_type":"node","osm_id":"3801238533","operator":"North Level District Internal Drainage Board"}},{"type":"Feature","geometry":{"type":"Point","coordinates":[-0.68682,52.88464]},"properties":{"name":"Mapped water infrastructure","category":"water_well","osm_type":"node","osm_id":"3917301773"}},{"type":"Feature","geometry":{"type":"Point","coordinates":[-0.64872,52.89237]},"properties":{"name":"Mapped water infrastructure","category":"water_tower","osm_type":"node","osm_id":"3983773391"}},{"type":"Feature","geometry":{"type":"Point","coordinates":[-0.98464,52.92814]},"properties":{"name":"Mapped water infrastructure","category":"water_well","osm_type":"node","osm_id":"4162220145"}},{"type":"Feature","geometry":{"type":"Point","coordinates":[-0.40122,52.72071]},"properties":{"name":"Mapped water infrastructure","category":"pumping_station","osm_type":"node","osm_id":"4711305135"}},{"type":"Feature","geometry":{"type":"Point","coordinates":[-0.97544,52.60291]},"properties":{"name":"Mapped water infrastructure","category":"drinking_water","osm_type":"node","osm_id":"5605441059"}},{"type":"Feature","geometry":{"type":"Point","coordinates":[-0.29564,52.53891]},"properties":{"name":"Mapped water infrastructure","category":"drinking_water","osm_type":"node","osm_id":"5831980249"}},{"type":"Feature","geometry":{"type":"Point","coordinates":[-0.29567,52.5389]},"properties":{"name":"Mapped water infrastructure","category":"drinking_water","osm_type":"node","osm_id":"5831980250"}},{"type":"Feature","geometry":{"type":"Point","coordinates":[-0.29562,52.53893]},"properties":{"name":"Mapped water infrastructure","category":"drinking_water","osm_type":"node","osm_id":"5832597972"}},{"type":"Feature","geometry":{"type":"Point","coordinates":[-0.29559,52.53894]},"properties":{"name":"Mapped water infrastructure","category":"drinking_water","osm_type":"node","osm_id":"5832597973"}},{"type":"Feature","geometry":{"type":"Point","coordinates":[-0.29556,52.53895]},"properties":{"name":"Mapped water infrastructure","category":"drinking_water","osm_type":"node","osm_id":"5832597974"}},{"type":"Feature","geometry":{"type":"Point","coordinates":[-0.29553,52.53897]},"properties":{"name":"Mapped water infrastructure","category":"drinking_water","osm_type":"node","osm_id":"5832597975"}},{"type":"Feature","geometry":{"type":"Point","coordinates":[-0.2955,52.53898]},"properties":{"name":"Mapped water infrastructure","category":"drinking_water","osm_type":"node","osm_id":"5832597976"}},{"type":"Feature","geometry":{"type":"Point","coordinates":[-0.29547,52.53899]},"properties":{"name":"Mapped water infrastructure","category":"drinking_water","osm_type":"node","osm_id":"5832597977"}},{"type":"Feature","geometry":{"type":"Point","coordinates":[-0.29545,52.539]},"properties":{"name":"Mapped water infrastructure","category":"drinking_water","osm_type":"node","osm_id":"5832597978"}},{"type":"Feature","geometry":{"type":"Point","coordinates":[-0.29541,52.53902]},"properties":{"name":"Mapped water infrastructure","category":"drinking_water","osm_type":"node","osm_id":"5832597979"}},{"type":"Feature","geometry":{"type":"Point","coordinates":[-0.29562,52.53891]},"properties":{"name":"Mapped water infrastructure","category":"drinking_water","osm_type":"node","osm_id":"5832597980"}},{"type":"Feature","geometry":{"type":"Point","coordinates":[-0.29556,52.53894]},"properties":{"name":"Mapped water infrastructure","category":"drinking_water","osm_type":"node","osm_id":"5832597981"}},{"type":"Feature","geometry":{"type":"Point","coordinates":[-0.29551,52.53896]},"properties":{"name":"Mapped water infrastructure","category":"drinking_water","osm_type":"node","osm_id":"5832597982"}},{"type":"Feature","geometry":{"type":"Point","coordinates":[-0.29545,52.53899]},"properties":{"name":"Mapped water infrastructure","category":"drinking_water","osm_type":"node","osm_id":"5832597983"}},{"type":"Feature","geometry":{"type":"Point","coordinates":[-0.29539,52.53901]},"properties":{"name":"Mapped water infrastructure","category":"drinking_water","osm_type":"node","osm_id":"5832597984"}},{"type":"Feature","geometry":{"type":"Point","coordinates":[-0.4486,52.61098]},"properties":{"name":"Mapped water infrastructure","category":"water_tower","osm_type":"node","osm_id":"6092537849","operator":"Anglian"}},{"type":"Feature","geometry":{"type":"Point","coordinates":[-0.23969,52.57224]},"properties":{"name":"Mapped water infrastructure","category":"water_well","osm_type":"node","osm_id":"6124155660"}},{"type":"Feature","geometry":{"type":"Point","coordinates":[-0.12629,52.8436]},"properties":{"name":"Mapped water infrastructure","category":"wastewater_plant","osm_type":"node","osm_id":"6347517840","operator":"Anglian Water"}},{"type":"Feature","geometry":{"type":"Point","coordinates":[-0.52461,52.61029]},"properties":{"name":"Mapped water infrastructure","category":"water_tower","osm_type":"node","osm_id":"7109310649"}},{"type":"Feature","geometry":{"type":"Point","coordinates":[-0.26326,52.6503]},"properties":{"name":"Peakirk Pumping Station","category":"pumping_station","osm_type":"node","osm_id":"7201070506"}},{"type":"Feature","geometry":{"type":"Point","coordinates":[-0.46242,52.99787]},"properties":{"name":"Mapped water infrastructure","category":"water_well","osm_type":"node","osm_id":"8188961925"}},{"type":"Feature","geometry":{"type":"Point","coordinates":[-0.41131,52.94646]},"properties":{"name":"Mapped water infrastructure","category":"water_well","osm_type":"node","osm_id":"8430136816"}},{"type":"Feature","geometry":{"type":"Point","coordinates":[-0.2501,52.57473]},"properties":{"name":"Mapped water infrastructure","category":"drinking_water","osm_type":"node","osm_id":"8755532617","operator":"LNER"}},{"type":"Feature","geometry":{"type":"Point","coordinates":[-0.38552,52.69357]},"properties":{"name":"Mapped water infrastructure","category":"water_works","osm_type":"node","osm_id":"8914546154"}},{"type":"Feature","geometry":{"type":"Point","coordinates":[-0.94259,52.52973]},"properties":{"name":"Mapped water infrastructure","category":"pumping_station","osm_type":"node","osm_id":"8951874383"}},{"type":"Feature","geometry":{"type":"Point","coordinates":[-0.77607,52.87252]},"properties":{"name":"Mapped water infrastructure","category":"water_well","osm_type":"node","osm_id":"9130049615"}},{"type":"Feature","geometry":{"type":"Point","coordinates":[-0.9575,52.58708]},"properties":{"name":"Mapped water infrastructure","category":"water_well","osm_type":"node","osm_id":"9161251229"}},{"type":"Feature","geometry":{"type":"Point","coordinates":[-0.99647,52.54463]},"properties":{"name":"Mapped water infrastructure","category":"water_well","osm_type":"node","osm_id":"9191001527"}},{"type":"Feature","geometry":{"type":"Point","coordinates":[-0.59513,52.73205]},"properties":{"name":"Mapped water infrastructure","category":"water_well","osm_type":"node","osm_id":"9325860983"}},{"type":"Feature","geometry":{"type":"Point","coordinates":[-0.61641,52.94609]},"properties":{"name":"Mapped water infrastructure","category":"water_well","osm_type":"node","osm_id":"9333333354"}},{"type":"Feature","geometry":{"type":"Point","coordinates":[-0.30712,52.56314]},"properties":{"name":"Mapped water infrastructure","category":"drinking_water","osm_type":"node","osm_id":"10651629736","operator":"Oasis","wheelchair":"yes"}},{"type":"Feature","geometry":{"type":"Point","coordinates":[-0.57325,52.61522]},"properties":{"name":"Mapped water infrastructure","category":"pumping_station","osm_type":"node","osm_id":"10990395539"}},{"type":"Feature","geometry":{"type":"Point","coordinates":[-0.4156,52.595]},"properties":{"name":"Shaft 1","category":"water_works","osm_type":"node","osm_id":"11658375822","operator":"Anglian Water"}},{"type":"Feature","geometry":{"type":"Point","coordinates":[-0.25069,52.57468]},"properties":{"name":"Mapped water infrastructure","category":"drinking_water","osm_type":"node","osm_id":"11971972391"}},{"type":"Feature","geometry":{"type":"Point","coordinates":[-0.43908,52.52602]},"properties":{"name":"Mapped water infrastructure","category":"drinking_water","osm_type":"node","osm_id":"12164333864"}},{"type":"Feature","geometry":{"type":"Point","coordinates":[-0.36197,52.78743]},"properties":{"name":"Eau Well","category":"water_well","osm_type":"node","osm_id":"12381254089"}},{"type":"Feature","geometry":{"type":"Point","coordinates":[-0.64326,52.90659]},"properties":{"name":"Mapped water infrastructure","category":"drinking_water","osm_type":"node","osm_id":"12487149501"}},{"type":"Feature","geometry":{"type":"Point","coordinates":[-0.22254,52.63852]},"properties":{"name":"Mapped water infrastructure","category":"drinking_water","osm_type":"node","osm_id":"12557399261"}},{"type":"Feature","geometry":{"type":"Point","coordinates":[-0.62764,52.76855]},"properties":{"name":"Mapped water infrastructure","category":"drinking_water","osm_type":"node","osm_id":"12748874097"}},{"type":"Feature","geometry":{"type":"Point","coordinates":[-0.16567,52.67637]},"properties":{"name":"Mapped water infrastructure","category":"drinking_water","osm_type":"node","osm_id":"12917942518"}},{"type":"Feature","geometry":{"type":"Point","coordinates":[-0.53696,52.75518]},"properties":{"name":"Mapped water infrastructure","category":"drinking_water","osm_type":"node","osm_id":"13060087033","wheelchair":"yes"}},{"type":"Feature","geometry":{"type":"Point","coordinates":[-0.51607,52.81311]},"properties":{"name":"Mapped water infrastructure","category":"drinking_water","osm_type":"node","osm_id":"13060103138","wheelchair":"yes"}},{"type":"Feature","geometry":{"type":"Point","coordinates":[-0.55095,52.6275]},"properties":{"name":"Mapped water infrastructure","category":"drinking_water","osm_type":"node","osm_id":"13250549943","wheelchair":"limited"}},{"type":"Feature","geometry":{"type":"Point","coordinates":[-0.27021,52.51377]},"properties":{"name":"Mapped water infrastructure","category":"drinking_water","osm_type":"node","osm_id":"13595492662","wheelchair":"yes"}},{"type":"Feature","geometry":{"type":"Point","coordinates":[-0.99583,52.50354]},"properties":{"name":"Mapped water infrastructure","category":"water_well","osm_type":"node","osm_id":"13776432773"}},{"type":"Feature","geometry":{"type":"Point","coordinates":[-0.39952,52.70628]},"properties":{"name":"Mapped water infrastructure","category":"drinking_water","osm_type":"node","osm_id":"14066928998","wheelchair":"limited"}},{"type":"Feature","geometry":{"type":"Point","coordinates":[-0.2015,52.5682]},"properties":{"name":"Flag Fen Wastewater Treatment Works","category":"wastewater_plant","osm_type":"way","osm_id":"102968362"}},{"type":"Feature","geometry":{"type":"Point","coordinates":[-0.39069,52.57237]},"properties":{"name":"Mapped water infrastructure","category":"wastewater_plant","osm_type":"way","osm_id":"107757330"}},{"type":"Feature","geometry":{"type":"Point","coordinates":[-0.71066,52.66874]},"properties":{"name":"Oakham Sewage Works","category":"wastewater_plant","osm_type":"way","osm_id":"143721258","operator":"Anglian Water","ref":"OAKHST"}},{"type":"Feature","geometry":{"type":"Point","coordinates":[-0.15862,52.66646]},"properties":{"name":"Mapped water infrastructure","category":"wastewater_plant","osm_type":"way","osm_id":"148072922"}},{"type":"Feature","geometry":{"type":"Point","coordinates":[-0.33871,52.53814]},"properties":{"name":"Mapped water infrastructure","category":"reservoir_covered","osm_type":"way","osm_id":"152674095"}},{"type":"Feature","geometry":{"type":"Point","coordinates":[-0.33864,52.53663]},"properties":{"name":"Mapped water infrastructure","category":"reservoir_covered","osm_type":"way","osm_id":"152674096"}},{"type":"Feature","geometry":{"type":"Point","coordinates":[-0.65048,52.9737]},"properties":{"name":"Marston STW","category":"wastewater_plant","osm_type":"way","osm_id":"153479984","operator":"Anglian Water"}},{"type":"Feature","geometry":{"type":"Point","coordinates":[-0.12228,52.54824]},"properties":{"name":"Whittlesey STW","category":"wastewater_plant","osm_type":"way","osm_id":"153977618","operator":"Anglian Water","ref":"WHISST"}},{"type":"Feature","geometry":{"type":"Point","coordinates":[-0.01752,52.56637]},"properties":{"name":"Mapped water infrastructure","category":"pumping_station","osm_type":"way","osm_id":"161873629"}},{"type":"Feature","geometry":{"type":"Point","coordinates":[-0.67612,52.61282]},"properties":{"name":"Mapped water infrastructure","category":"reservoir_covered","osm_type":"way","osm_id":"166674310"}},{"type":"Feature","geometry":{"type":"Point","coordinates":[-0.68512,52.62185]},"properties":{"name":"Wing STW","category":"wastewater_plant","osm_type":"way","osm_id":"168063167","operator":"Anglian Water","ref":"WINGST"}},{"type":"Feature","geometry":{"type":"Point","coordinates":[-0.36189,52.99017]},"properties":{"name":"Mapped water infrastructure","category":"wastewater_plant","osm_type":"way","osm_id":"178958335"}},{"type":"Feature","geometry":{"type":"Point","coordinates":[-0.79495,52.86062]},"properties":{"name":"Branston (STW)","category":"wastewater_plant","osm_type":"way","osm_id":"188144511","operator":"Severn Trent","ref":"11127-ST1"}},{"type":"Feature","geometry":{"type":"Point","coordinates":[-0.04698,52.93924]},"properties":{"name":"Frampton Sewage Treatment Works","category":"wastewater_plant","osm_type":"way","osm_id":"189668206","operator":"Anglian Water","ref":"FRAMST"}},{"type":"Feature","geometry":{"type":"Point","coordinates":[-0.82059,52.90926]},"properties":{"name":"Redmile (STW)","category":"wastewater_plant","osm_type":"way","osm_id":"192227237","operator":"Severn Trent","ref":"11276-ST1"}},{"type":"Feature","geometry":{"type":"Point","coordinates":[-0.42953,52.55682]},"properties":{"name":"Nassington STW","category":"wastewater_plant","osm_type":"way","osm_id":"210245257","operator":"Anglian Water","ref":"NASSST"}},{"type":"Feature","geometry":{"type":"Point","coordinates":[-0.86248,52.99914]},"properties":{"name":"Sibthorpe (STW)","category":"wastewater_plant","osm_type":"way","osm_id":"211136146","operator":"Severn Trent","ref":"17975-ST1"}},{"type":"Feature","geometry":{"type":"Point","coordinates":[-0.77205,52.85429]},"properties":{"name":"Croxton Kerrial (STW)","category":"wastewater_plant","osm_type":"way","osm_id":"211628884","operator":"Severn Trent","ref":"11132-ST1"}},{"type":"Feature","geometry":{"type":"Point","coordinates":[-0.58469,52.93375]},"properties":{"name":"Mapped water infrastructure","category":"wastewater_plant","osm_type":"way","osm_id":"219971393"}},{"type":"Feature","geometry":{"type":"Point","coordinates":[-0.97827,52.87138]},"properties":{"name":"Kinoulton (STW)","category":"wastewater_plant","osm_type":"way","osm_id":"221597144","operator":"Severn Trent","ref":"11138-ST1"}},{"type":"Feature","geometry":{"type":"Point","coordinates":[-0.49342,52.5109]},"properties":{"name":"Mapped water infrastructure","category":"water_tower","osm_type":"way","osm_id":"222318627"}},{"type":"Feature","geometry":{"type":"Point","coordinates":[-0.49455,52.5107]},"properties":{"name":"Mapped water infrastructure","category":"reservoir_covered","osm_type":"way","osm_id":"222318633"}},{"type":"Feature","geometry":{"type":"Point","coordinates":[-0.07516,52.80086]},"properties":{"name":"Moulton STW","category":"wastewater_plant","osm_type":"way","osm_id":"224965585","operator":"Anglian Water","ref":"MOULST"}},{"type":"Feature","geometry":{"type":"Point","coordinates":[-0.53702,52.61829]},"properties":{"name":"Mapped water infrastructure","category":"wastewater_plant","osm_type":"way","osm_id":"246069946"}},{"type":"Feature","geometry":{"type":"Point","coordinates":[-0.92123,52.69038]},"properties":{"name":"Thorpe Satchville (STW)","category":"wastewater_plant","osm_type":"way","osm_id":"261116340","operator":"Severn Trent","ref":"11155-ST1"}},{"type":"Feature","geometry":{"type":"Point","coordinates":[-0.35751,52.76613]},"properties":{"name":"Bourne STW","category":"wastewater_plant","osm_type":"way","osm_id":"295741624","operator":"Anglian Water","ref":"BOURST"}},{"type":"Feature","geometry":{"type":"Point","coordinates":[-0.66013,52.82098]},"properties":{"name":"Mapped water infrastructure","category":"wastewater_plant","osm_type":"way","osm_id":"298138777"}},{"type":"Feature","geometry":{"type":"Point","coordinates":[-0.36957,52.60676]},"properties":{"name":"Mapped water infrastructure","category":"reservoir_covered","osm_type":"way","osm_id":"298164849","operator":"Anglian Water"}},{"type":"Feature","geometry":{"type":"Point","coordinates":[-0.62421,52.76692]},"properties":{"name":"South Witham STW","category":"wastewater_plant","osm_type":"way","osm_id":"298403381","operator":"Anglian Water","ref":"SWITST"}},{"type":"Feature","geometry":{"type":"Point","coordinates":[-0.85139,52.74824]},"properties":{"name":"Mapped water infrastructure","category":"wastewater_plant","osm_type":"way","osm_id":"298805068"}},{"type":"Feature","geometry":{"type":"Point","coordinates":[-0.76874,52.61347]},"properties":{"name":"Mapped water infrastructure","category":"reservoir_covered","osm_type":"way","osm_id":"304205653"}},{"type":"Feature","geometry":{"type":"Point","coordinates":[-0.71953,52.94963]},"properties":{"name":"Mapped water infrastructure","category":"wastewater_plant","osm_type":"way","osm_id":"304658944"}},{"type":"Feature","geometry":{"type":"Point","coordinates":[-0.88723,52.77997]},"properties":{"name":"Severn Trent Water","category":"water_works","osm_type":"way","osm_id":"309304406"}},{"type":"Feature","geometry":{"type":"Point","coordinates":[-0.52707,52.98559]},"properties":{"name":"Mapped water infrastructure","category":"wastewater_plant","osm_type":"way","osm_id":"315072807"}},{"type":"Feature","geometry":{"type":"Point","coordinates":[-0.4975,52.97193]},"properties":{"name":"Mapped water infrastructure","category":"wastewater_plant","osm_type":"way","osm_id":"315224732"}},{"type":"Feature","geometry":{"type":"Point","coordinates":[-0.50841,52.93598]},"properties":{"name":"Mapped water infrastructure","category":"wastewater_plant","osm_type":"way","osm_id":"315361718"}},{"type":"Feature","geometry":{"type":"Point","coordinates":[-0.40147,52.93116]},"properties":{"name":"Osbournby STW","category":"wastewater_plant","osm_type":"way","osm_id":"315541959","operator":"Anglian Water","ref":"OSBOST"}},{"type":"Feature","geometry":{"type":"Point","coordinates":[-0.33203,52.89767]},"properties":{"name":"Mapped water infrastructure","category":"wastewater_plant","osm_type":"way","osm_id":"316289392"}},{"type":"Feature","geometry":{"type":"Point","coordinates":[-0.17317,52.96044]},"properties":{"name":"Swineshead STW (Lincs)","category":"wastewater_plant","osm_type":"way","osm_id":"318368776","operator":"Anglian Water","ref":"SWINST"}},{"type":"Feature","geometry":{"type":"Point","coordinates":[-0.22377,52.89803]},"properties":{"name":"Mapped water infrastructure","category":"wastewater_plant","osm_type":"way","osm_id":"318610451"}},{"type":"Feature","geometry":{"type":"Point","coordinates":[-0.28801,52.99405]},"properties":{"name":"Heckington STW","category":"wastewater_plant","osm_type":"way","osm_id":"318610454","operator":"Anglian Water","ref":"HECKST"}},{"type":"Feature","geometry":{"type":"Point","coordinates":[-0.30415,52.95401]},"properties":{"name":"Helpringham STW","category":"wastewater_plant","osm_type":"way","osm_id":"318610457","operator":"Anglian Water","ref":"HELPST"}},{"type":"Feature","geometry":{"type":"Point","coordinates":[-0.35997,52.83376]},"properties":{"name":"Dunsby STW","category":"wastewater_plant","osm_type":"way","osm_id":"318610459","operator":"Anglian Water","ref":"DUNBST"}},{"type":"Feature","geometry":{"type":"Point","coordinates":[-0.27229,52.83402]},"properties":{"name":"Mapped water infrastructure","category":"wastewater_plant","osm_type":"way","osm_id":"318610461"}},{"type":"Feature","geometry":{"type":"Point","coordinates":[-0.13042,52.80845]},"properties":{"name":"Mapped water infrastructure","category":"wastewater_plant","osm_type":"way","osm_id":"318610470"}},{"type":"Feature","geometry":{"type":"Point","coordinates":[-0.98234,52.53452]},"properties":{"name":"Mapped water infrastructure","category":"wastewater_plant","osm_type":"way","osm_id":"329640787"}},{"type":"Feature","geometry":{"type":"Point","coordinates":[-0.51382,52.89122]},"properties":{"name":"Ropsley STW","category":"wastewater_plant","osm_type":"way","osm_id":"340196662","operator":"Anglian Water","ref":"ROPSST"}},{"type":"Feature","geometry":{"type":"Point","coordinates":[-0.63359,52.62757]},"properties":{"name":"Mapped water infrastructure","category":"wastewater_plant","osm_type":"way","osm_id":"390776127"}},{"type":"Feature","geometry":{"type":"Point","coordinates":[-0.92547,52.80693]},"properties":{"name":"Mapped water infrastructure","category":"reservoir_covered","osm_type":"way","osm_id":"400490181"}},{"type":"Feature","geometry":{"type":"Point","coordinates":[-0.926,52.80775]},"properties":{"name":"Mapped water infrastructure","category":"reservoir_covered","osm_type":"way","osm_id":"400490774"}},{"type":"Feature","geometry":{"type":"Point","coordinates":[-0.80264,52.94912]},"properties":{"name":"Mapped water infrastructure","category":"wastewater_plant","osm_type":"way","osm_id":"419390264"}},{"type":"Feature","geometry":{"type":"Point","coordinates":[-0.95651,52.95666]},"properties":{"name":"Mapped water infrastructure","category":"pumping_station","osm_type":"way","osm_id":"419589556","operator":"Severn Trent Water"}},{"type":"Feature","geometry":{"type":"Point","coordinates":[-0.85741,52.96082]},"properties":{"name":"Mapped water infrastructure","category":"pumping_station","osm_type":"way","osm_id":"420564939"}},{"type":"Feature","geometry":{"type":"Point","coordinates":[-0.57294,52.66517]},"properties":{"name":"Mapped water infrastructure","category":"wastewater_plant","osm_type":"way","osm_id":"422840792"}},{"type":"Feature","geometry":{"type":"Point","coordinates":[-0.11125,52.90249]},"properties":{"name":"Sutterton-Wigtoft STW","category":"wastewater_plant","osm_type":"way","osm_id":"428458872","operator":"Anglian Water","ref":"STTWST"}},{"type":"Feature","geometry":{"type":"Point","coordinates":[-0.67654,52.88811]},"properties":{"name":"Harlaxton STW","category":"wastewater_plant","osm_type":"way","osm_id":"432813689","operator":"Anglian Water","ref":"HLXTST"}},{"type":"Feature","geometry":{"type":"Point","coordinates":[-0.92091,52.95576]},"properties":{"name":"Mapped water infrastructure","category":"wastewater_plant","osm_type":"way","osm_id":"445521233"}},{"type":"Feature","geometry":{"type":"Point","coordinates":[-0.85317,52.81724]},"properties":{"name":"Mapped water infrastructure","category":"pumping_station","osm_type":"way","osm_id":"466043663"}},{"type":"Feature","geometry":{"type":"Point","coordinates":[-0.86741,52.80873]},"properties":{"name":"Mapped water infrastructure","category":"pumping_station","osm_type":"way","osm_id":"466130838","operator":"Severn Trent"}},{"type":"Feature","geometry":{"type":"Point","coordinates":[-0.80326,52.81244]},"properties":{"name":"Mapped water infrastructure","category":"water_works","osm_type":"way","osm_id":"466512791"}},{"type":"Feature","geometry":{"type":"Point","coordinates":[-0.80322,52.81282]},"properties":{"name":"Mapped water infrastructure","category":"reservoir_covered","osm_type":"way","osm_id":"466512793"}},{"type":"Feature","geometry":{"type":"Point","coordinates":[-0.63951,52.72015]},"properties":{"name":"Cottesmore STW","category":"wastewater_plant","osm_type":"way","osm_id":"469801042","operator":"Anglian Water","ref":"COTMST"}},{"type":"Feature","geometry":{"type":"Point","coordinates":[-0.39043,52.73059]},"properties":{"name":"Wilsthorpe SR","category":"reservoir_covered","osm_type":"way","osm_id":"477829430","operator":"Anglian Water"}},{"type":"Feature","geometry":{"type":"Point","coordinates":[-0.82909,52.55607]},"properties":{"name":"Mapped water infrastructure","category":"wastewater_plant","osm_type":"way","osm_id":"478608180"}},{"type":"Feature","geometry":{"type":"Point","coordinates":[-0.86732,52.64492]},"properties":{"name":"Mapped water infrastructure","category":"reservoir_covered","osm_type":"way","osm_id":"491752826"}},{"type":"Feature","geometry":{"type":"Point","coordinates":[-0.8499,52.68913]},"properties":{"name":"Somerby (STW)","category":"wastewater_plant","osm_type":"way","osm_id":"511302648","operator":"Severn Trent","ref":"11154-ST1"}},{"type":"Feature","geometry":{"type":"Point","coordinates":[-0.87799,52.68682]},"properties":{"name":"Burrough On The Hill (STW)","category":"wastewater_plant","osm_type":"way","osm_id":"511305505","operator":"Severn Trent","ref":"11128-ST1"}},{"type":"Feature","geometry":{"type":"Point","coordinates":[-0.4002,52.53829]},"properties":{"name":"Mapped water infrastructure","category":"wastewater_plant","osm_type":"way","osm_id":"550205540"}},{"type":"Feature","geometry":{"type":"Point","coordinates":[-0.7073,52.58416]},"properties":{"name":"Mapped water infrastructure","category":"wastewater_plant","osm_type":"way","osm_id":"590451153"}},{"type":"Feature","geometry":{"type":"Point","coordinates":[-0.70343,52.55939]},"properties":{"name":"Mapped water infrastructure","category":"wastewater_plant","osm_type":"way","osm_id":"590466443"}},{"type":"Feature","geometry":{"type":"Point","coordinates":[-0.5938,52.5882]},"properties":{"name":"Mapped water infrastructure","category":"wastewater_plant","osm_type":"way","osm_id":"591037945"}},{"type":"Feature","geometry":{"type":"Point","coordinates":[-0.71626,52.52242]},"properties":{"name":"Mapped water infrastructure","category":"wastewater_plant","osm_type":"way","osm_id":"591037963"}},{"type":"Feature","geometry":{"type":"Point","coordinates":[-0.86242,52.97724]},"properties":{"name":"Mapped water infrastructure","category":"wastewater_plant","osm_type":"way","osm_id":"591339632"}},{"type":"Feature","geometry":{"type":"Point","coordinates":[-0.8767,52.97839]},"properties":{"name":"Hawksworth (STW)","category":"wastewater_plant","osm_type":"way","osm_id":"593390573","operator":"Severn Trent","ref":"14615-ST1"}},{"type":"Feature","geometry":{"type":"Point","coordinates":[-0.40541,52.58362]},"properties":{"name":"Wansford Pumping Station","category":"pumping_station","osm_type":"way","osm_id":"621280403","operator":"Anglian Water"}},{"type":"Feature","geometry":{"type":"Point","coordinates":[-0.22923,52.6125]},"properties":{"name":"Mapped water infrastructure","category":"pumping_station","osm_type":"way","osm_id":"747163633"}},{"type":"Feature","geometry":{"type":"Point","coordinates":[-0.27439,52.64693]},"properties":{"name":"Mapped water infrastructure","category":"pumping_station","osm_type":"way","osm_id":"757983846"}},{"type":"Feature","geometry":{"type":"Point","coordinates":[-0.18195,52.61301]},"properties":{"name":"Mapped water infrastructure","category":"pumping_station","osm_type":"way","osm_id":"766778040"}},{"type":"Feature","geometry":{"type":"Point","coordinates":[-0.41936,52.64116]},"properties":{"name":"Mapped water infrastructure","category":"pumping_station","osm_type":"way","osm_id":"767503261"}},{"type":"Feature","geometry":{"type":"Point","coordinates":[-0.18845,52.56905]},"properties":{"name":"Mapped water infrastructure","category":"pumping_station","osm_type":"way","osm_id":"771772650"}},{"type":"Feature","geometry":{"type":"Point","coordinates":[-0.23971,52.61313]},"properties":{"name":"Mapped water infrastructure","category":"pumping_station","osm_type":"way","osm_id":"771874383"}},{"type":"Feature","geometry":{"type":"Point","coordinates":[-0.10427,52.6274]},"properties":{"name":"Mapped water infrastructure","category":"wastewater_plant","osm_type":"way","osm_id":"775548570"}},{"type":"Feature","geometry":{"type":"Point","coordinates":[-0.31511,52.62962]},"properties":{"name":"Mapped water infrastructure","category":"reservoir_covered","osm_type":"way","osm_id":"819721154","operator":"Anglian Water"}},{"type":"Feature","geometry":{"type":"Point","coordinates":[-0.3135,52.63061]},"properties":{"name":"Mapped water infrastructure","category":"reservoir_covered","osm_type":"way","osm_id":"819721155","operator":"Anglian Water"}},{"type":"Feature","geometry":{"type":"Point","coordinates":[-0.44481,52.60338]},"properties":{"name":"Wittering STW","category":"wastewater_plant","osm_type":"way","osm_id":"826444841","operator":"Anglian Water","ref":"WITTST"}},{"type":"Feature","geometry":{"type":"Point","coordinates":[-0.17919,52.5616]},"properties":{"name":"Mapped water infrastructure","category":"wastewater_plant","osm_type":"way","osm_id":"839310507"}},{"type":"Feature","geometry":{"type":"Point","coordinates":[-0.4981,52.64274]},"properties":{"name":"Tinwell Pumping Station","category":"pumping_station","osm_type":"way","osm_id":"863776443","operator":"Anglian Wate"}},{"type":"Feature","geometry":{"type":"Point","coordinates":[-0.26703,52.65163]},"properties":{"name":"Mapped water infrastructure","category":"pumping_station","osm_type":"way","osm_id":"876652450"}},{"type":"Feature","geometry":{"type":"Point","coordinates":[-0.31141,52.68347]},"properties":{"name":"Mapped water infrastructure","category":"pumping_station","osm_type":"way","osm_id":"886477225"}},{"type":"Feature","geometry":{"type":"Point","coordinates":[-0.72755,52.67009]},"properties":{"name":"Mapped water infrastructure","category":"water_well","osm_type":"way","osm_id":"891690404"}},{"type":"Feature","geometry":{"type":"Point","coordinates":[-0.74993,52.99713]},"properties":{"name":"Mapped water infrastructure","category":"wastewater_plant","osm_type":"way","osm_id":"903242688"}},{"type":"Feature","geometry":{"type":"Point","coordinates":[-0.42046,52.78146]},"properties":{"name":"Edenham STW","category":"wastewater_plant","osm_type":"way","osm_id":"904031871","operator":"Anglian Water"}},{"type":"Feature","geometry":{"type":"Point","coordinates":[-0.62534,52.81212]},"properties":{"name":"Mapped water infrastructure","category":"wastewater_plant","osm_type":"way","osm_id":"904103519"}},{"type":"Feature","geometry":{"type":"Point","coordinates":[-0.32572,52.68293]},"properties":{"name":"Mapped water infrastructure","category":"pumping_station","osm_type":"way","osm_id":"915635871"}},{"type":"Feature","geometry":{"type":"Point","coordinates":[-0.32615,52.67812]},"properties":{"name":"Mapped water infrastructure","category":"pumping_station","osm_type":"way","osm_id":"916448006"}},{"type":"Feature","geometry":{"type":"Point","coordinates":[-0.04304,52.88358]},"properties":{"name":"Fosdyke Whitecross Gate STW","category":"wastewater_plant","osm_type":"way","osm_id":"944614265","operator":"Anglian Water","ref":"FOSDST"}},{"type":"Feature","geometry":{"type":"Point","coordinates":[-0.91002,52.94759]},"properties":{"name":"Pump House","category":"pumping_station","osm_type":"way","osm_id":"967217746"}},{"type":"Feature","geometry":{"type":"Point","coordinates":[-0.16717,52.81761]},"properties":{"name":"Mapped water infrastructure","category":"water_tower","osm_type":"way","osm_id":"970637385"}},{"type":"Feature","geometry":{"type":"Point","coordinates":[-0.81925,52.52372]},"properties":{"name":"Mapped water infrastructure","category":"wastewater_plant","osm_type":"way","osm_id":"974475739"}},{"type":"Feature","geometry":{"type":"Point","coordinates":[-0.85159,52.51894]},"properties":{"name":"Mapped water infrastructure","category":"wastewater_plant","osm_type":"way","osm_id":"1005991575"}},{"type":"Feature","geometry":{"type":"Point","coordinates":[-0.74326,52.52459]},"properties":{"name":"Mapped water infrastructure","category":"wastewater_plant","osm_type":"way","osm_id":"1021350896"}},{"type":"Feature","geometry":{"type":"Point","coordinates":[-0.89828,52.63819]},"properties":{"name":"Tilton On The Hill STW","category":"wastewater_plant","osm_type":"way","osm_id":"1030419190","operator":"Anglian Water","ref":"TILTST"}},{"type":"Feature","geometry":{"type":"Point","coordinates":[-0.80855,52.66202]},"properties":{"name":"Knossington STW","category":"wastewater_plant","osm_type":"way","osm_id":"1031585528","operator":"Anglian Water","ref":"KNOSST"}},{"type":"Feature","geometry":{"type":"Point","coordinates":[-0.52748,52.8107]},"properties":{"name":"Corby Glen STW","category":"wastewater_plant","osm_type":"way","osm_id":"1031941552","operator":"Anglian Water","ref":"CORGST"}},{"type":"Feature","geometry":{"type":"Point","coordinates":[-0.74687,52.69393]},"properties":{"name":"Langdon WwTW","category":"wastewater_plant","osm_type":"way","osm_id":"1033091584","operator":"Dwr Cymru Welsh Water","ref":"50650"}},{"type":"Feature","geometry":{"type":"Point","coordinates":[-0.17844,52.8737]},"properties":{"name":"Gosberton STW","category":"wastewater_plant","osm_type":"way","osm_id":"1033414531","operator":"Anglian Water","ref":"GSBTST"}},{"type":"Feature","geometry":{"type":"Point","coordinates":[-0.21172,52.7211]},"properties":{"name":"Deeping St Nich - Wren Cl STW","category":"wastewater_plant","osm_type":"way","osm_id":"1033957694","operator":"Anglian Water","ref":"DSNWST"}},{"type":"Feature","geometry":{"type":"Point","coordinates":[-0.09391,52.75446]},"properties":{"name":"Cowbit STW","category":"wastewater_plant","osm_type":"way","osm_id":"1034849742","operator":"Anglian Water","ref":"COWBST"}},{"type":"Feature","geometry":{"type":"Point","coordinates":[-0.79029,52.60218]},"properties":{"name":"Belton STW","category":"wastewater_plant","osm_type":"way","osm_id":"1034887652","operator":"Anglian Water","ref":"BELTST"}},{"type":"Feature","geometry":{"type":"Point","coordinates":[-0.5601,52.89176]},"properties":{"name":"Old Somerby STW","category":"wastewater_plant","osm_type":"way","osm_id":"1034888674","operator":"Anglian Water","ref":"OSOMST"}},{"type":"Feature","geometry":{"type":"Point","coordinates":[-0.90217,52.55302]},"properties":{"name":"Glooston STW","category":"wastewater_plant","osm_type":"way","osm_id":"1034903486","operator":"Anglian Water","ref":"GLOOST"}},{"type":"Feature","geometry":{"type":"Point","coordinates":[-0.44643,52.8924]},"properties":{"name":"Pickworth Church Lane STW","category":"wastewater_plant","osm_type":"way","osm_id":"1036122987","operator":"Anglian Water","ref":"PICLST"}},{"type":"Feature","geometry":{"type":"Point","coordinates":[-0.29642,52.61862]},"properties":{"name":"Peterborough-Hurn Rd STW","category":"wastewater_plant","osm_type":"way","osm_id":"1039178426","operator":"Anglian Water","ref":"PETHST"}},{"type":"Feature","geometry":{"type":"Point","coordinates":[-0.50791,52.56481]},"properties":{"name":"Kingscliffe STW","category":"wastewater_plant","osm_type":"way","osm_id":"1040368922","operator":"Anglian Water","ref":"KINGST"}},{"type":"Feature","geometry":{"type":"Point","coordinates":[-0.59261,52.51577]},"properties":{"name":"Deenethorpe STW","category":"wastewater_plant","osm_type":"way","osm_id":"1040760669","operator":"Anglian Water","ref":"DEDLST"}},{"type":"Feature","geometry":{"type":"Point","coordinates":[-0.94813,52.6142]},"properties":{"name":"Billesdon (STW)","category":"wastewater_plant","osm_type":"way","osm_id":"1041762475","operator":"Severn Trent","ref":"11212-ST1"}},{"type":"Feature","geometry":{"type":"Point","coordinates":[-0.47536,52.83015]},"properties":{"name":"Irnham STW","category":"wastewater_plant","osm_type":"way","osm_id":"1041765619","operator":"Anglian Water","ref":"IRNHST"}},{"type":"Feature","geometry":{"type":"Point","coordinates":[-0.9122,52.91348]},"properties":{"name":"Barnstone - Main Road (STW)","category":"wastewater_plant","osm_type":"way","osm_id":"1046691124","operator":"Severn Trent","ref":"14526-ST1"}},{"type":"Feature","geometry":{"type":"Point","coordinates":[-0.91156,52.90934]},"properties":{"name":"Barnstone - Park Road (STW)","category":"wastewater_plant","osm_type":"way","osm_id":"1046691604","operator":"Severn Trent","ref":"11254-ST1"}},{"type":"Feature","geometry":{"type":"Point","coordinates":[-0.90133,52.86993]},"properties":{"name":"Harby (STW)","category":"wastewater_plant","osm_type":"way","osm_id":"1046802385","operator":"Severn Trent","ref":"11136-ST1"}},{"type":"Feature","geometry":{"type":"Point","coordinates":[-0.90135,52.61163]},"properties":{"name":"Skeffington STW","category":"wastewater_plant","osm_type":"way","osm_id":"1049118372","operator":"Anglian Water","ref":"SKEFST"}},{"type":"Feature","geometry":{"type":"Point","coordinates":[-0.76139,52.6493]},"properties":{"name":"Braunston STW","category":"wastewater_plant","osm_type":"way","osm_id":"1049118520","operator":"Anglian Water","ref":"BRAUST"}},{"type":"Feature","geometry":{"type":"Point","coordinates":[-0.87955,52.59719]},"properties":{"name":"Tugby STW","category":"wastewater_plant","osm_type":"way","osm_id":"1049118763","operator":"Anglian Water","ref":"TUGBST"}},{"type":"Feature","geometry":{"type":"Point","coordinates":[-0.67004,52.5704]},"properties":{"name":"Seaton STW","category":"wastewater_plant","osm_type":"way","osm_id":"1049135623","operator":"Anglian Water","ref":"SEATST"}},{"type":"Feature","geometry":{"type":"Point","coordinates":[-0.76678,52.50519]},"properties":{"name":"Middleton STW (Northants)","category":"wastewater_plant","osm_type":"way","osm_id":"1049136510","operator":"Anglian Water","ref":"MIDDST"}},{"type":"Feature","geometry":{"type":"Point","coordinates":[-0.92918,52.51908]},"properties":{"name":"East Langton STW","category":"wastewater_plant","osm_type":"way","osm_id":"1049136982","operator":"Anglian Water","ref":"ELANST"}},{"type":"Feature","geometry":{"type":"Point","coordinates":[-0.90249,52.52668]},"properties":{"name":"Thorpe Langton STW","category":"wastewater_plant","osm_type":"way","osm_id":"1049137684","operator":"Anglian Water","ref":"THOLST"}},{"type":"Feature","geometry":{"type":"Point","coordinates":[-0.18174,52.56265]},"properties":{"name":"Whittlesey Covered Anaerobic Lagoon","category":"reservoir_covered","osm_type":"way","osm_id":"1090415429"}},{"type":"Feature","geometry":{"type":"Point","coordinates":[-0.88088,52.54556]},"properties":{"name":"Cranoe STW","category":"wastewater_plant","osm_type":"way","osm_id":"1092188297","operator":"Anglian Water","ref":"CROEST"}},{"type":"Feature","geometry":{"type":"Point","coordinates":[-0.50164,52.62998]},"properties":{"name":"Easton On The Hill STW","category":"wastewater_plant","osm_type":"way","osm_id":"1107049359","operator":"Anglian Water","ref":"EASHST"}},{"type":"Feature","geometry":{"type":"Point","coordinates":[-0.62982,52.59873]},"properties":{"name":"Morcott STW","category":"wastewater_plant","osm_type":"way","osm_id":"1110092325","operator":"Anglian Water","ref":"MORCST"}},{"type":"Feature","geometry":{"type":"Point","coordinates":[-0.69633,52.62153]},"properties":{"name":"Wing Hollow STW","category":"wastewater_plant","osm_type":"way","osm_id":"1110242540","operator":"Anglian Water","ref":"WHOLST"}},{"type":"Feature","geometry":{"type":"Point","coordinates":[-0.62999,52.57022]},"properties":{"name":"Harringworth STW","category":"wastewater_plant","osm_type":"way","osm_id":"1111896375","operator":"Anglian Water","ref":"HAWRST"}},{"type":"Feature","geometry":{"type":"Point","coordinates":[-0.45223,52.88913]},"properties":{"name":"Pickworth STW (Grantham)","category":"wastewater_plant","osm_type":"way","osm_id":"1112295360","operator":"Anglian Water","ref":"PICKST"}},{"type":"Feature","geometry":{"type":"Point","coordinates":[-0.52763,52.7121]},"properties":{"name":"Pickworth STW (Rutland)","category":"wastewater_plant","osm_type":"way","osm_id":"1112295452","operator":"Anglian Water","ref":"PICWST"}},{"type":"Feature","geometry":{"type":"Point","coordinates":[-0.71863,52.61818]},"properties":{"name":"Preston STW","category":"wastewater_plant","osm_type":"way","osm_id":"1112296176","operator":"Anglian Water","ref":"PRSNST"}},{"type":"Feature","geometry":{"type":"Point","coordinates":[-0.49477,52.67845]},"properties":{"name":"Little Casterton STW","category":"wastewater_plant","osm_type":"way","osm_id":"1112743953","operator":"Anglian Water","ref":"LCASST"}},{"type":"Feature","geometry":{"type":"Point","coordinates":[-0.44143,52.9373]},"properties":{"name":"Aunsby Village STW","category":"wastewater_plant","osm_type":"way","osm_id":"1113172282","operator":"Anglian Water","ref":"AUNBST"}},{"type":"Feature","geometry":{"type":"Point","coordinates":[-0.42229,52.50911]},"properties":{"name":"Warmington STW","category":"wastewater_plant","osm_type":"way","osm_id":"1113174205","operator":"Anglian Water","ref":"WARMST"}},{"type":"Feature","geometry":{"type":"Point","coordinates":[-0.31956,52.91909]},"properties":{"name":"Swaton STW","category":"wastewater_plant","osm_type":"way","osm_id":"1114726094","operator":"Anglian Water","ref":"SWATST"}},{"type":"Feature","geometry":{"type":"Point","coordinates":[-0.32772,52.68763]},"properties":{"name":"Mapped water infrastructure","category":"wastewater_plant","osm_type":"way","osm_id":"1114756898"}},{"type":"Feature","geometry":{"type":"Point","coordinates":[-0.46449,52.99163]},"properties":{"name":"South Rauceby STW","category":"wastewater_plant","osm_type":"way","osm_id":"1125188274","operator":"Anglian Water","ref":"SRAUST"}},{"type":"Feature","geometry":{"type":"Point","coordinates":[-0.08809,52.91484]},"properties":{"name":"Sutterton-Ropers La STW","category":"wastewater_plant","osm_type":"way","osm_id":"1125581801","operator":"Anglian Water","ref":"STTRST"}},{"type":"Feature","geometry":{"type":"Point","coordinates":[-0.31342,52.62986]},"properties":{"name":"Etton STW","category":"wastewater_plant","osm_type":"way","osm_id":"1126360642","operator":"Anglian Water","ref":"ETTOST"}},{"type":"Feature","geometry":{"type":"Point","coordinates":[-0.83927,52.99608]},"properties":{"name":"Shelton - (Notts) (STW)","category":"wastewater_plant","osm_type":"way","osm_id":"1126577056","operator":"Severn Trent","ref":"17843-ST1"}},{"type":"Feature","geometry":{"type":"Point","coordinates":[-0.89628,52.58125]},"properties":{"name":"Goadby STW","category":"wastewater_plant","osm_type":"way","osm_id":"1126579539","operator":"Anglian Water","ref":"GOADST"}},{"type":"Feature","geometry":{"type":"Point","coordinates":[-0.99894,52.63007]},"properties":{"name":"Mapped water infrastructure","category":"pumping_station","osm_type":"way","osm_id":"1131525625"}},{"type":"Feature","geometry":{"type":"Point","coordinates":[-0.1286,52.80006]},"properties":{"name":"Mapped water infrastructure","category":"pumping_station","osm_type":"way","osm_id":"1204160766"}},{"type":"Feature","geometry":{"type":"Point","coordinates":[-0.60045,52.66236]},"properties":{"name":"Empingham Pumping Station","category":"pumping_station","osm_type":"way","osm_id":"1214809787","operator":"Anglian Water"}},{"type":"Feature","geometry":{"type":"Point","coordinates":[-0.92092,52.90265]},"properties":{"name":"Langar Limes Farm (STW)","category":"wastewater_plant","osm_type":"way","osm_id":"1242810180","operator":"Severn Trent","ref":"17609-ST1"}},{"type":"Feature","geometry":{"type":"Point","coordinates":[-0.90068,52.98558]},"properties":{"name":"Screveton (STW)","category":"wastewater_plant","osm_type":"way","osm_id":"1242810294","operator":"Severn Trent","ref":"17680-ST1"}},{"type":"Feature","geometry":{"type":"Point","coordinates":[-0.13395,52.84773]},"properties":{"name":"Surfleet STW","category":"wastewater_plant","osm_type":"way","osm_id":"1242822659","operator":"Anglian Water","ref":"SURFST"}},{"type":"Feature","geometry":{"type":"Point","coordinates":[-0.55536,52.86502]},"properties":{"name":"Boothby Pagnell STW","category":"wastewater_plant","osm_type":"way","osm_id":"1243130034","operator":"Anglian Water","ref":"BOOTST"}},{"type":"Feature","geometry":{"type":"Point","coordinates":[-0.42142,52.73442]},"properties":{"name":"Manthorpe STW","category":"wastewater_plant","osm_type":"way","osm_id":"1246461778","operator":"Anglian Water","ref":"MANTST"}},{"type":"Feature","geometry":{"type":"Point","coordinates":[-0.32075,52.68524]},"properties":{"name":"Mapped water infrastructure","category":"pumping_station","osm_type":"way","osm_id":"1252556535"}},{"type":"Feature","geometry":{"type":"Point","coordinates":[-0.31325,52.68791]},"properties":{"name":"Mapped water infrastructure","category":"pumping_station","osm_type":"way","osm_id":"1253394373"}},{"type":"Feature","geometry":{"type":"Point","coordinates":[-0.48388,52.63932]},"properties":{"name":"Shaft 3","category":"water_works","osm_type":"way","osm_id":"1254206983","operator":"Anglian Water"}},{"type":"Feature","geometry":{"type":"Point","coordinates":[-0.36466,52.73822]},"properties":{"name":"Mapped water infrastructure","category":"pumping_station","osm_type":"way","osm_id":"1256994812"}},{"type":"Feature","geometry":{"type":"Point","coordinates":[-0.37861,52.66476]},"properties":{"name":"Tallington WTW","category":"water_works","osm_type":"way","osm_id":"1259537154","operator":"Anglian Water"}},{"type":"Feature","geometry":{"type":"Point","coordinates":[-0.40142,52.7208]},"properties":{"name":"Mapped water infrastructure","category":"water_works","osm_type":"way","osm_id":"1259741632","operator":"Anglian Water"}},{"type":"Feature","geometry":{"type":"Point","coordinates":[-0.2559,52.82203]},"properties":{"name":"West Pinchbeck WTW","category":"water_works","osm_type":"way","osm_id":"1259745539","operator":"Anglian Water"}},{"type":"Feature","geometry":{"type":"Point","coordinates":[-0.41266,52.93994]},"properties":{"name":"Aswarby WTW","category":"water_works","osm_type":"way","osm_id":"1259749106","operator":"Anglian Water"}},{"type":"Feature","geometry":{"type":"Point","coordinates":[-0.42424,52.9734]},"properties":{"name":"Silk Willoughby STW","category":"wastewater_plant","osm_type":"way","osm_id":"1293528158","operator":"Anglian Water","ref":"SILKST"}},{"type":"Feature","geometry":{"type":"Point","coordinates":[-0.75807,52.9012]},"properties":{"name":"Woolsthorpe (STW)","category":"wastewater_plant","osm_type":"way","osm_id":"1293993320","operator":"Severn Trent","ref":"11251-ST1"}},{"type":"Feature","geometry":{"type":"Point","coordinates":[-0.47286,52.67913]},"properties":{"name":"Mapped water infrastructure","category":"pumping_station","osm_type":"way","osm_id":"1306882311"}},{"type":"Feature","geometry":{"type":"Point","coordinates":[-0.6815,52.69164]},"properties":{"name":"Mapped water infrastructure","category":"water_works","osm_type":"way","osm_id":"1338867399"}},{"type":"Feature","geometry":{"type":"Point","coordinates":[-0.65989,52.6679]},"properties":{"name":"Mapped water infrastructure","category":"wastewater_plant","osm_type":"way","osm_id":"1339419911"}},{"type":"Feature","geometry":{"type":"Point","coordinates":[-0.42461,52.65894]},"properties":{"name":"Mapped water infrastructure","category":"pumping_station","osm_type":"way","osm_id":"1348932921","operator":"Anglian Water"}},{"type":"Feature","geometry":{"type":"Point","coordinates":[-0.46156,52.65439]},"properties":{"name":"Mapped water infrastructure","category":"wastewater_plant","osm_type":"way","osm_id":"1349170897"}},{"type":"Feature","geometry":{"type":"Point","coordinates":[-0.38799,52.68433]},"properties":{"name":"Mapped water infrastructure","category":"wastewater_plant","osm_type":"way","osm_id":"1349507604"}},{"type":"Feature","geometry":{"type":"Point","coordinates":[-0.46221,52.68417]},"properties":{"name":"Ryhall Pumping Station","category":"pumping_station","osm_type":"way","osm_id":"1365840384","operator":"Environment Agency"}},{"type":"Feature","geometry":{"type":"Point","coordinates":[-0.46222,52.68414]},"properties":{"name":"RYHASM","category":"pumping_station","osm_type":"way","osm_id":"1365840386","operator":"Anglian Water","ref":"RYHASM"}},{"type":"Feature","geometry":{"type":"Point","coordinates":[-0.46818,52.5351]},"properties":{"name":"Mapped water infrastructure","category":"wastewater_plant","osm_type":"way","osm_id":"1375223074"}},{"type":"Feature","geometry":{"type":"Point","coordinates":[-0.68434,52.54133]},"properties":{"name":"Gretton STW","category":"wastewater_plant","osm_type":"way","osm_id":"1388475456","operator":"Anglian Water","ref":"GRETST"}},{"type":"Feature","geometry":{"type":"Point","coordinates":[-0.87103,52.52575]},"properties":{"name":"Welham STW","category":"wastewater_plant","osm_type":"way","osm_id":"1388500565","operator":"Anglian Water","ref":"WELHST"}},{"type":"Feature","geometry":{"type":"Point","coordinates":[-0.37057,52.59081]},"properties":{"name":"Upton (Peterborough) STW","category":"wastewater_plant","osm_type":"way","osm_id":"1392312097","operator":"Anglian Water","ref":"UPPBST"}},{"type":"Feature","geometry":{"type":"Point","coordinates":[-0.85568,52.6657]},"properties":{"name":"Owston (STW)","category":"wastewater_plant","osm_type":"way","osm_id":"1392720998","operator":"Severn Trent","ref":"11148-ST1"}},{"type":"Feature","geometry":{"type":"Point","coordinates":[-0.77373,52.72256]},"properties":{"name":"Whissendine (STW)","category":"wastewater_plant","osm_type":"way","osm_id":"1393795067","operator":"Severn Trent","ref":"11159-ST1"}},{"type":"Feature","geometry":{"type":"Point","coordinates":[-0.48401,52.85939]},"properties":{"name":"Ingoldsby STW","category":"wastewater_plant","osm_type":"way","osm_id":"1394960821","operator":"Anglian Water","ref":"INGBST"}},{"type":"Feature","geometry":{"type":"Point","coordinates":[-0.68699,52.73294]},"properties":{"name":"Market Overton (STW)","category":"wastewater_plant","osm_type":"way","osm_id":"1394965119","operator":"Severn Trent","ref":"11146-ST1"}},{"type":"Feature","geometry":{"type":"Point","coordinates":[-0.72015,52.72059]},"properties":{"name":"Ashwell (STW)","category":"wastewater_plant","osm_type":"way","osm_id":"1395931673","operator":"Severn Trent","ref":"11123-ST1"}},{"type":"Feature","geometry":{"type":"Point","coordinates":[-0.58416,52.99756]},"properties":{"name":"Carlton Scroop STW","category":"wastewater_plant","osm_type":"way","osm_id":"1396552338","operator":"Anglian Water","ref":"CARSST"}},{"type":"Feature","geometry":{"type":"Point","coordinates":[-0.74737,52.62099]},"properties":{"name":"Ridlington STW (Leics)","category":"wastewater_plant","osm_type":"way","osm_id":"1408812907","operator":"Anglian Water","ref":"RIDNST"}},{"type":"Feature","geometry":{"type":"Point","coordinates":[-0.4135,52.58164]},"properties":{"name":"Mapped water infrastructure","category":"pumping_station","osm_type":"way","osm_id":"1410721853"}},{"type":"Feature","geometry":{"type":"Point","coordinates":[-0.38355,52.57423]},"properties":{"name":"Mapped water infrastructure","category":"pumping_station","osm_type":"way","osm_id":"1410732004"}},{"type":"Feature","geometry":{"type":"Point","coordinates":[-0.98549,52.65599]},"properties":{"name":"Hungarton (STW)","category":"wastewater_plant","osm_type":"way","osm_id":"1414724543","operator":"Severn Trent","ref":"11226-ST1"}},{"type":"Feature","geometry":{"type":"Point","coordinates":[-0.96929,52.59888]},"properties":{"name":"Gaulby (STW)","category":"wastewater_plant","osm_type":"way","osm_id":"1420018575","operator":"Severn Trent","ref":"11221-ST1"}},{"type":"Feature","geometry":{"type":"Point","coordinates":[-0.96146,52.70345]},"properties":{"name":"Ashby Folville (STW)","category":"wastewater_plant","osm_type":"way","osm_id":"1420021184","operator":"Severn Trent","ref":"11121-ST1"}},{"type":"Feature","geometry":{"type":"Point","coordinates":[-0.80342,52.68913]},"properties":{"name":"Cold Overton (STW)","category":"wastewater_plant","osm_type":"way","osm_id":"1420022881","operator":"Severn Trent","ref":"11131-ST1"}},{"type":"Feature","geometry":{"type":"Point","coordinates":[-0.94407,52.64908]},"properties":{"name":"Cold Newton (STW)","category":"wastewater_plant","osm_type":"way","osm_id":"1420452429","operator":"Severn Trent","ref":"17970-ST1"}},{"type":"Feature","geometry":{"type":"Point","coordinates":[-0.81892,52.56433]},"properties":{"name":"Horninghold STW","category":"wastewater_plant","osm_type":"way","osm_id":"1420452646","operator":"Anglian Water","ref":"HORDST"}},{"type":"Feature","geometry":{"type":"Point","coordinates":[-0.90987,52.89949]},"properties":{"name":"Langar (STW)","category":"wastewater_plant","osm_type":"way","osm_id":"1420708953","operator":"Severn Trent","ref":"11280-ST1"}},{"type":"Feature","geometry":{"type":"Point","coordinates":[-0.20153,52.71706]},"properties":{"name":"Deeping St Nicholas New Rd St WwTW","category":"wastewater_plant","osm_type":"way","osm_id":"1420952991","operator":"Anglian Water","ref":"DNNRST"}},{"type":"Feature","geometry":{"type":"Point","coordinates":[-0.82149,52.97298]},"properties":{"name":"Alverton (STW)","category":"wastewater_plant","osm_type":"way","osm_id":"1423280882","operator":"Severn Trent","ref":"17942-ST1"}},{"type":"Feature","geometry":{"type":"Point","coordinates":[-0.5369,52.6731]},"properties":{"name":"Tickencote STW","category":"wastewater_plant","osm_type":"way","osm_id":"1423964558","operator":"Anglian Water","ref":"TICKST"}},{"type":"Feature","geometry":{"type":"Point","coordinates":[-0.49232,52.55083]},"properties":{"name":"Mapped water infrastructure","category":"water_tower","osm_type":"way","osm_id":"1450122354"}},{"type":"Feature","geometry":{"type":"Point","coordinates":[-0.10816,52.526]},"properties":{"name":"Glassmoor Bank Pumping Station","category":"pumping_station","osm_type":"way","osm_id":"1481406695"}},{"type":"Feature","geometry":{"type":"Point","coordinates":[-0.12511,52.79919]},"properties":{"name":"Mapped water infrastructure","category":"water_tower","osm_type":"way","osm_id":"1482201975"}},{"type":"Feature","geometry":{"type":"Point","coordinates":[-0.60098,52.91487]},"properties":{"name":"Mapped water infrastructure","category":"reservoir_covered","osm_type":"way","osm_id":"1532025441"}},{"type":"Feature","geometry":{"type":"Point","coordinates":[-0.97642,52.55409]},"properties":{"name":"Mapped water infrastructure","category":"reservoir_covered","osm_type":"way","osm_id":"1543235696"}},{"type":"Feature","geometry":{"type":"Point","coordinates":[-0.9759,52.55383]},"properties":{"name":"Mapped water infrastructure","category":"reservoir_covered","osm_type":"way","osm_id":"1543235698"}},{"type":"Feature","geometry":{"type":"Point","coordinates":[-0.26653,52.78573]},"properties":{"name":"Mapped water infrastructure","category":"pumping_station","osm_type":"way","osm_id":"1551138824"}},{"type":"Feature","geometry":{"type":"Point","coordinates":[-0.60903,52.93423]},"properties":{"name":"Mapped water infrastructure","category":"water_well","osm_type":"way","osm_id":"1559137255"}},{"type":"Feature","geometry":{"type":"Point","coordinates":[-0.54467,52.82136]},"properties":{"name":"Burton Coggles STW","category":"wastewater_plant","osm_type":"way","osm_id":"104211430","operator":"Anglian Water","ref":"BURTST"}},{"type":"Feature","geometry":{"type":"Point","coordinates":[-0.99206,52.50452]},"properties":{"name":"Gumley WWTW","category":"wastewater_plant","osm_type":"way","osm_id":"123870674","operator":"Anglian Water","ref":"GUMLST"}},{"type":"Feature","geometry":{"type":"Point","coordinates":[-0.90938,52.75929]},"properties":{"name":"Mapped water infrastructure","category":"wastewater_plant","osm_type":"way","osm_id":"128384367"}},{"type":"Feature","geometry":{"type":"Point","coordinates":[-0.9818,52.98226]},"properties":{"name":"Mapped water infrastructure","category":"wastewater_plant","osm_type":"way","osm_id":"144459917"}},{"type":"Feature","geometry":{"type":"Point","coordinates":[-0.08134,52.57322]},"properties":{"name":"Mapped water infrastructure","category":"pumping_station","osm_type":"way","osm_id":"148453682"}},{"type":"Feature","geometry":{"type":"Point","coordinates":[-0.01468,52.59446]},"properties":{"name":"Cross Guns Pumping Station","category":"pumping_station","osm_type":"way","osm_id":"156199898","operator":"North Level District Internal Drainage Board","website":"https://www.northlevelidb.org/engineering/catchment-pumping-station-map/cross-guns-pumping-station"}},{"type":"Feature","geometry":{"type":"Point","coordinates":[-0.16565,52.50529]},"properties":{"name":"Mapped water infrastructure","category":"pumping_station","osm_type":"way","osm_id":"159048852"}},{"type":"Feature","geometry":{"type":"Point","coordinates":[-0.12075,52.57781]},"properties":{"name":"Dog in a Doublet Old Pumping Station","category":"pumping_station","osm_type":"way","osm_id":"161173948","operator":"North Level District Internal Drainage Board"}},{"type":"Feature","geometry":{"type":"Point","coordinates":[-0.12372,52.57731]},"properties":{"name":"Mapped water infrastructure","category":"pumping_station","osm_type":"way","osm_id":"161176321"}},{"type":"Feature","geometry":{"type":"Point","coordinates":[-0.67446,52.61458]},"properties":{"name":"Wing Water Treatment Works","category":"water_works","osm_type":"way","osm_id":"166674342","operator":"Anglian Water"}},{"type":"Feature","geometry":{"type":"Point","coordinates":[-0.42863,52.9944]},"properties":{"name":"Mapped water infrastructure","category":"water_works","osm_type":"way","osm_id":"188400518"}},{"type":"Feature","geometry":{"type":"Point","coordinates":[-0.01408,52.96461]},"properties":{"name":"Mapped water infrastructure","category":"pumping_station","osm_type":"way","osm_id":"190592639","operator":"Anglian Water","addr:city":"Boston","addr:postcode":"PE21 7SW"}},{"type":"Feature","geometry":{"type":"Point","coordinates":[-0.15447,52.78986]},"properties":{"name":"Chatterton Tower","category":"water_tower","osm_type":"way","osm_id":"192325954","addr:city":"Spalding","addr:postcode":"PE11 1DA"}},{"type":"Feature","geometry":{"type":"Point","coordinates":[-0.38431,52.64915]},"properties":{"name":"Bainton STW","category":"wastewater_plant","osm_type":"way","osm_id":"219258425","operator":"Anglian Water","ref":"BAINST"}},{"type":"Feature","geometry":{"type":"Point","coordinates":[-0.97793,52.91686]},"properties":{"name":"Mapped water infrastructure","category":"wastewater_plant","osm_type":"way","osm_id":"229547275"}},{"type":"Feature","geometry":{"type":"Point","coordinates":[-0.02642,52.96686]},"properties":{"name":"Black Sluice Pumping Station","category":"pumping_station","osm_type":"way","osm_id":"243346529","operator":"Environment Agency","addr:city":"Boston","addr:postcode":"PE21 8AH"}},{"type":"Feature","geometry":{"type":"Point","coordinates":[-0.42051,52.64588]},"properties":{"name":"Stamford STW","category":"wastewater_plant","osm_type":"way","osm_id":"297505466"}},{"type":"Feature","geometry":{"type":"Point","coordinates":[-0.26551,52.66181]},"properties":{"name":"Mapped water infrastructure","category":"wastewater_plant","osm_type":"way","osm_id":"302023302"}},{"type":"Feature","geometry":{"type":"Point","coordinates":[-0.02827,52.96655]},"properties":{"name":"Mapped water infrastructure","category":"pumping_station","osm_type":"way","osm_id":"318610448","operator":"Anglian Water","addr:city":"Boston","addr:postcode":"PE21 7JJ"}},{"type":"Feature","geometry":{"type":"Point","coordinates":[-0.04458,52.87182]},"properties":{"name":"Five Towns Pumping Station","category":"pumping_station","osm_type":"way","osm_id":"325913308","operator":"Welland and Deepings Internal Drainage Board"}},{"type":"Feature","geometry":{"type":"Point","coordinates":[-0.01966,52.98575]},"properties":{"name":"Mapped water infrastructure","category":"water_tower","osm_type":"way","osm_id":"348790573"}},{"type":"Feature","geometry":{"type":"Point","coordinates":[-0.00499,52.89576]},"properties":{"name":"Kirton Marsh Pumping Station","category":"pumping_station","osm_type":"way","osm_id":"354326450","operator":"Black Sluice Internal Drainage Board"}},{"type":"Feature","geometry":{"type":"Point","coordinates":[-0.06485,52.8665]},"properties":{"name":"Risegate Eau Pumping Station","category":"pumping_station","osm_type":"way","osm_id":"354559091","operator":"Welland and Deepings Internal Drainage Board"}},{"type":"Feature","geometry":{"type":"Point","coordinates":[-0.60421,52.6553]},"properties":{"name":"Pump House","category":"pumping_station","osm_type":"way","osm_id":"361396691"}},{"type":"Feature","geometry":{"type":"Point","coordinates":[-0.07681,52.85856]},"properties":{"name":"Lord's Drain Pumping Station","category":"pumping_station","osm_type":"way","osm_id":"361981647","operator":"South Holland Internal Drainage Board"}},{"type":"Feature","geometry":{"type":"Point","coordinates":[-0.09437,52.85092]},"properties":{"name":"Surfleet Marsh Pumping Station","category":"pumping_station","osm_type":"way","osm_id":"362143891","operator":"Welland and Deepings Internal Drainage Board"}},{"type":"Feature","geometry":{"type":"Point","coordinates":[-0.00517,52.88854]},"properties":{"name":"Fosdyke Marsh Pumping Station","category":"pumping_station","osm_type":"way","osm_id":"375383363","operator":"Welland and Deepings Internal Drainage Board"}},{"type":"Feature","geometry":{"type":"Point","coordinates":[-0.14882,52.83519]},"properties":{"name":"Surfleet Newbury Pumping Station","category":"pumping_station","osm_type":"way","osm_id":"375383722","operator":"Welland and Deepings Internal Drainage Board"}},{"type":"Feature","geometry":{"type":"Point","coordinates":[-0.03261,52.97874]},"properties":{"name":"Allan House Pumping Station","category":"pumping_station","osm_type":"way","osm_id":"375538556","operator":"Black Sluice Internal Drainage Board"}},{"type":"Feature","geometry":{"type":"Point","coordinates":[-0.20338,52.78171]},"properties":{"name":"Deeping St Nicholas Pumping Station","category":"pumping_station","osm_type":"way","osm_id":"375732546","operator":"Welland and Deepings Internal Drainage Board","addr:city":"Spalding","addr:postcode":"PE11 3LL"}},{"type":"Feature","geometry":{"type":"Point","coordinates":[-0.20297,52.78185]},"properties":{"name":"Adventurers Pumping Station","category":"pumping_station","osm_type":"way","osm_id":"375732547","operator":"Welland and Deepings Internal Drainage Board","addr:city":"Spalding","addr:postcode":"PE11 3LL"}},{"type":"Feature","geometry":{"type":"Point","coordinates":[-0.19976,52.78388]},"properties":{"name":"Fourth District Pumping Station","category":"pumping_station","osm_type":"way","osm_id":"375737971","operator":"Welland and Deepings Internal Drainage Board"}},{"type":"Feature","geometry":{"type":"Point","coordinates":[-0.12878,52.81805]},"properties":{"name":"Pinchbeck Marsh Pumping Station","category":"pumping_station","osm_type":"way","osm_id":"376500339","operator":"Welland and Deepings Internal Drainage Board","addr:city":"Spalding","addr:postcode":"PE11 3UW"}},{"type":"Feature","geometry":{"type":"Point","coordinates":[-0.12909,52.81849]},"properties":{"name":"Riddington Pumping Station","category":"pumping_station","osm_type":"way","osm_id":"376501073","operator":"Welland and Deepings Internal Drainage Board","addr:city":"Spalding","addr:postcode":"PE11 3UW"}},{"type":"Feature","geometry":{"type":"Point","coordinates":[-0.29552,52.75141]},"properties":{"name":"Bourne South Fen Pumping Station","category":"pumping_station","osm_type":"way","osm_id":"376707302","operator":"Welland and Deepings Internal Drainage Board"}},{"type":"Feature","geometry":{"type":"Point","coordinates":[-0.26684,52.65155]},"properties":{"name":"Maxey North Fen Pumping Station","category":"pumping_station","osm_type":"way","osm_id":"376707303","operator":"Welland and Deepings Internal Drainage Board"}},{"type":"Feature","geometry":{"type":"Point","coordinates":[-0.14246,52.77735]},"properties":{"name":"Clay Lake Pumping Station","category":"pumping_station","osm_type":"way","osm_id":"376728472","operator":"South Holland Internal Drainage Board","addr:city":"Spalding","addr:postcode":"PE11 2QQ"}},{"type":"Feature","geometry":{"type":"Point","coordinates":[-0.03808,52.72384]},"properties":{"name":"Peartree Hill Pumping Station","category":"pumping_station","osm_type":"way","osm_id":"376728474","operator":"South Holland Internal Drainage Board"}},{"type":"Feature","geometry":{"type":"Point","coordinates":[-0.03809,52.72327]},"properties":{"name":"Donningtons Pumping Station","category":"pumping_station","osm_type":"way","osm_id":"376728475","operator":"South Holland Internal Drainage Board"}},{"type":"Feature","geometry":{"type":"Point","coordinates":[-0.16806,52.70849]},"properties":{"name":"Postland Pumping Station","category":"pumping_station","osm_type":"way","osm_id":"376732256","operator":"North Level District Internal Drainage Board"}},{"type":"Feature","geometry":{"type":"Point","coordinates":[-0.20461,52.66717]},"properties":{"name":"Newborough Pumping Station","category":"pumping_station","osm_type":"way","osm_id":"376732257","operator":"North Level District Internal Drainage Board"}},{"type":"Feature","geometry":{"type":"Point","coordinates":[-0.14953,52.66043]},"properties":{"name":"Hundreds Pumping Station","category":"pumping_station","osm_type":"way","osm_id":"376732258","operator":"North Level District Internal Drainage Board"}},{"type":"Feature","geometry":{"type":"Point","coordinates":[-0.12049,52.57835]},"properties":{"name":"Dog in a Doublet New Pumping Station","category":"pumping_station","osm_type":"way","osm_id":"376732259","operator":"North Level District Internal Drainage Board"}},{"type":"Feature","geometry":{"type":"Point","coordinates":[-0.18745,52.99598]},"properties":{"name":"Trinity College Pumping Station","category":"pumping_station","osm_type":"way","osm_id":"377020911","operator":"Black Sluice Internal Drainage Board"}},{"type":"Feature","geometry":{"type":"Point","coordinates":[-0.17106,52.97106]},"properties":{"name":"Swineshead Pumping Station","category":"pumping_station","osm_type":"way","osm_id":"377539430","operator":"Black Sluice Internal Drainage Board"}},{"type":"Feature","geometry":{"type":"Point","coordinates":[-0.25635,52.90489]},"properties":{"name":"Donington Mallard Hurn Pumping Station","category":"pumping_station","osm_type":"way","osm_id":"378313438","operator":"Black Sluice Internal Drainage Board"}},{"type":"Feature","geometry":{"type":"Point","coordinates":[-0.2542,52.91264]},"properties":{"name":"Swaton Pumping Station","category":"pumping_station","osm_type":"way","osm_id":"378948541","operator":"Black Sluice Internal Drainage Board"}},{"type":"Feature","geometry":{"type":"Point","coordinates":[-0.26624,52.88319]},"properties":{"name":"Quadring Pumping Station","category":"pumping_station","osm_type":"way","osm_id":"379103669","operator":"Black Sluice Internal Drainage Board"}},{"type":"Feature","geometry":{"type":"Point","coordinates":[-0.27069,52.82384]},"properties":{"name":"Pinchbeck North Fen Pumping Station","category":"pumping_station","osm_type":"way","osm_id":"379906277","operator":"Black Sluice Internal Drainage Board"}},{"type":"Feature","geometry":{"type":"Point","coordinates":[-0.14149,52.97585]},"properties":{"name":"Holland Fen Pumping Station","category":"pumping_station","osm_type":"way","osm_id":"381506195","operator":"Black Sluice Internal Drainage Board"}},{"type":"Feature","geometry":{"type":"Point","coordinates":[-0.20458,52.96726]},"properties":{"name":"Great Hale & Little Hale Pumping Station","category":"pumping_station","osm_type":"way","osm_id":"381516575","operator":"Black Sluice Internal Drainage Board"}},{"type":"Feature","geometry":{"type":"Point","coordinates":[-0.23509,52.94178]},"properties":{"name":"Bicker Fen Pumping Station","category":"pumping_station","osm_type":"way","osm_id":"382669291","operator":"Black Sluice Internal Drainage Board"}},{"type":"Feature","geometry":{"type":"Point","coordinates":[-0.27562,52.84088]},"properties":{"name":"Dowsby Lode Pumping Station","category":"pumping_station","osm_type":"way","osm_id":"384325146","operator":"Black Sluice Internal Drainage Board"}},{"type":"Feature","geometry":{"type":"Point","coordinates":[-0.27439,52.83671]},"properties":{"name":"Rippingale Pumping Station","category":"pumping_station","osm_type":"way","osm_id":"384824298","operator":"Black Sluice Internal Drainage Board"}},{"type":"Feature","geometry":{"type":"Point","coordinates":[-0.05472,52.97097]},"properties":{"name":"Chain Bridge Pumping Station","category":"pumping_station","osm_type":"way","osm_id":"385248370","operator":"Black Sluice Internal Drainage Board","addr:city":"Boston","addr:postcode":"PE21 7NH"}},{"type":"Feature","geometry":{"type":"Point","coordinates":[-0.27206,52.82881]},"properties":{"name":"Dunsby Fen Pumping Station","category":"pumping_station","osm_type":"way","osm_id":"385416024","operator":"Black Sluice Internal Drainage Board"}},{"type":"Feature","geometry":{"type":"Point","coordinates":[-0.80299,52.81243]},"properties":{"name":"Mapped water infrastructure","category":"water_tower","osm_type":"way","osm_id":"388908555"}},{"type":"Feature","geometry":{"type":"Point","coordinates":[-0.9784,52.82077]},"properties":{"name":"Nether Broughton (STW)","category":"wastewater_plant","osm_type":"way","osm_id":"400035900","operator":"Severn Trent","ref":"11147-ST1"}},{"type":"Feature","geometry":{"type":"Point","coordinates":[-0.51534,52.67208]},"properties":{"name":"Mapped water infrastructure","category":"wastewater_plant","osm_type":"way","osm_id":"403883182"}},{"type":"Feature","geometry":{"type":"Point","coordinates":[-0.28937,52.75437]},"properties":{"name":"Bourne Eau Pumping Station","category":"pumping_station","osm_type":"way","osm_id":"413892749","operator":"Environment Agency"}},{"type":"Feature","geometry":{"type":"Point","coordinates":[-0.27115,52.81637]},"properties":{"name":"Hacconby Fen (Diesel) Pumping Station","category":"pumping_station","osm_type":"way","osm_id":"414162370","operator":"Black Sluice Internal Drainage Board"}},{"type":"Feature","geometry":{"type":"Point","coordinates":[-0.25038,52.91809]},"properties":{"name":"Donington North Ing Pumping Station","category":"pumping_station","osm_type":"way","osm_id":"414407786","operator":"Black Sluice Internal Drainage Board"}},{"type":"Feature","geometry":{"type":"Point","coordinates":[-0.25034,52.92235]},"properties":{"name":"Helpringham Pumping Station","category":"pumping_station","osm_type":"way","osm_id":"419234773","operator":"Black Sluice Internal Drainage Board"}},{"type":"Feature","geometry":{"type":"Point","coordinates":[-0.94251,52.95062]},"properties":{"name":"Mapped water infrastructure","category":"pumping_station","osm_type":"way","osm_id":"419589585","operator":"Severn Trent Water"}},{"type":"Feature","geometry":{"type":"Point","coordinates":[-0.62488,52.88912]},"properties":{"name":"Saltersford Water Treatment Works","category":"water_works","osm_type":"way","osm_id":"427603724"}},{"type":"Feature","geometry":{"type":"Point","coordinates":[-0.90716,52.81282]},"properties":{"name":"Mapped water infrastructure","category":"water_tower","osm_type":"way","osm_id":"443766732"}},{"type":"Feature","geometry":{"type":"Point","coordinates":[-0.43994,52.61576]},"properties":{"name":"RAF Wittering Sewage Works","category":"wastewater_plant","osm_type":"way","osm_id":"469009480"}},{"type":"Feature","geometry":{"type":"Point","coordinates":[-0.50811,52.75109]},"properties":{"name":"Little Bytham STW","category":"wastewater_plant","osm_type":"way","osm_id":"478018596","operator":"Anglian Water","ref":"LBYTST"}},{"type":"Feature","geometry":{"type":"Point","coordinates":[-0.59144,52.9376]},"properties":{"name":"Mapped water infrastructure","category":"reservoir_covered","osm_type":"way","osm_id":"481191946"}},{"type":"Feature","geometry":{"type":"Point","coordinates":[-0.61197,52.61411]},"properties":{"name":"Mapped water infrastructure","category":"wastewater_plant","osm_type":"way","osm_id":"495188344"}},{"type":"Feature","geometry":{"type":"Point","coordinates":[-0.82459,52.82203]},"properties":{"name":"Waltham (STW)","category":"wastewater_plant","osm_type":"way","osm_id":"496644514","operator":"Severn Trent Water","ref":"11157-ST1"}},{"type":"Feature","geometry":{"type":"Point","coordinates":[-0.61884,52.86491]},"properties":{"name":"Great Ponton STW","category":"wastewater_plant","osm_type":"way","osm_id":"819721300","operator":"Anglian Water","ref":"GPONST"}},{"type":"Feature","geometry":{"type":"Point","coordinates":[-0.63742,52.89463]},"properties":{"name":"Mapped water infrastructure","category":"reservoir_covered","osm_type":"way","osm_id":"820105686"}},{"type":"Feature","geometry":{"type":"Point","coordinates":[-0.42256,52.9863]},"properties":{"name":"Mapped water infrastructure","category":"pumping_station","osm_type":"way","osm_id":"957879133","operator":"Anglian Water"}},{"type":"Feature","geometry":{"type":"Point","coordinates":[-0.16439,52.50538]},"properties":{"name":"Mapped water infrastructure","category":"pumping_station","osm_type":"way","osm_id":"969488273","operator":"Middle Level Commissioners"}},{"type":"Feature","geometry":{"type":"Point","coordinates":[-0.07577,52.54267]},"properties":{"name":"Wype Doles Pumping Station","category":"pumping_station","osm_type":"way","osm_id":"1021219744","operator":"Whittlesey and District Internal Drainage Board"}},{"type":"Feature","geometry":{"type":"Point","coordinates":[-0.05339,52.53685]},"properties":{"name":"Ironside Pumping Station","category":"pumping_station","osm_type":"way","osm_id":"1021222269","operator":"Whittlesey and District Internal Drainage Board"}},{"type":"Feature","geometry":{"type":"Point","coordinates":[-0.95011,52.51008]},"properties":{"name":"Foxton STW (Leics)","category":"wastewater_plant","osm_type":"way","osm_id":"1049136147","operator":"Anglian Water","ref":"FOXTST"}},{"type":"Feature","geometry":{"type":"Point","coordinates":[-0.45909,52.68528]},"properties":{"name":"Ryhall STW","category":"wastewater_plant","osm_type":"way","osm_id":"1085368479"}},{"type":"Feature","geometry":{"type":"Point","coordinates":[-0.53929,52.62851]},"properties":{"name":"Ketton STW","category":"wastewater_plant","osm_type":"way","osm_id":"1085369446"}},{"type":"Feature","geometry":{"type":"Point","coordinates":[-0.67296,52.53635]},"properties":{"name":"Mapped water infrastructure","category":"water_tower","osm_type":"way","osm_id":"1311464664"}},{"type":"Feature","geometry":{"type":"Point","coordinates":[-0.00595,52.52209]},"properties":{"name":"Mapped water infrastructure","category":"pumping_station","osm_type":"way","osm_id":"1336487938"}},{"type":"Feature","geometry":{"type":"Point","coordinates":[-0.00018,52.51176]},"properties":{"name":"Ransonmoor Pumpng station","category":"pumping_station","osm_type":"way","osm_id":"1336487941","operator":"Ransonmoor District Drainage Commissioners"}},{"type":"Feature","geometry":{"type":"Point","coordinates":[-0.04491,52.97027]},"properties":{"name":"Cook's Lock Pumping Station","category":"pumping_station","osm_type":"way","osm_id":"1391040632","operator":"Black Sluice Internal Drainage Board","addr:city":"Boston","addr:postcode":"PE21 7PN"}},{"type":"Feature","geometry":{"type":"Point","coordinates":[-0.14378,52.5614]},"properties":{"name":"Mapped water infrastructure","category":"water_tower","osm_type":"way","osm_id":"1451338603"}}]}