{"type":"FeatureCollection","features":[{"type":"Feature","geometry":{"type":"Point","coordinates":[-0.53178,54.44184]},"properties":{"name":"Dowbrow Well","category":"water_well","osm_type":"node","osm_id":"639530468"}},{"type":"Feature","geometry":{"type":"Point","coordinates":[-0.56539,54.40695]},"properties":{"name":"Kettle Well","category":"water_well","osm_type":"node","osm_id":"639551008"}},{"type":"Feature","geometry":{"type":"Point","coordinates":[-0.59611,54.43674]},"properties":{"name":"Mapped water infrastructure","category":"water_well","osm_type":"node","osm_id":"641705229"}},{"type":"Feature","geometry":{"type":"Point","coordinates":[-0.59721,54.09249]},"properties":{"name":"Mapped water infrastructure","category":"water_tower","osm_type":"node","osm_id":"3578398513"}},{"type":"Feature","geometry":{"type":"Point","coordinates":[-0.83817,54.29294]},"properties":{"name":"Mapped water infrastructure","category":"water_well","osm_type":"node","osm_id":"3739024295"}},{"type":"Feature","geometry":{"type":"Point","coordinates":[-0.94914,54.30987]},"properties":{"name":"Mapped water infrastructure","category":"pumping_station","osm_type":"node","osm_id":"4356824655"}},{"type":"Feature","geometry":{"type":"Point","coordinates":[-0.79324,54.2495]},"properties":{"name":"Keldhead Water Treatment Plant","category":"wastewater_plant","osm_type":"node","osm_id":"5018005639"}},{"type":"Feature","geometry":{"type":"Point","coordinates":[-0.32312,54.04995]},"properties":{"name":"Mapped water infrastructure","category":"wastewater_plant","osm_type":"node","osm_id":"5694761934"}},{"type":"Feature","geometry":{"type":"Point","coordinates":[-0.49997,54.3656]},"properties":{"name":"Teydale Well","category":"water_well","osm_type":"node","osm_id":"6247808744"}},{"type":"Feature","geometry":{"type":"Point","coordinates":[-0.89141,54.07863]},"properties":{"name":"Mapped water infrastructure","category":"water_well","osm_type":"node","osm_id":"6740354953"}},{"type":"Feature","geometry":{"type":"Point","coordinates":[-0.97781,54.23556]},"properties":{"name":"Mapped water infrastructure","category":"water_point","osm_type":"node","osm_id":"7709962959"}},{"type":"Feature","geometry":{"type":"Point","coordinates":[-0.97724,54.23563]},"properties":{"name":"Mapped water infrastructure","category":"water_point","osm_type":"node","osm_id":"7709962960"}},{"type":"Feature","geometry":{"type":"Point","coordinates":[-0.97667,54.23569]},"properties":{"name":"Mapped water infrastructure","category":"water_point","osm_type":"node","osm_id":"7709962961"}},{"type":"Feature","geometry":{"type":"Point","coordinates":[-0.97587,54.23574]},"properties":{"name":"Mapped water infrastructure","category":"water_point","osm_type":"node","osm_id":"7709962962"}},{"type":"Feature","geometry":{"type":"Point","coordinates":[-0.97588,54.23539]},"properties":{"name":"Mapped water infrastructure","category":"water_point","osm_type":"node","osm_id":"7709962963"}},{"type":"Feature","geometry":{"type":"Point","coordinates":[-0.97671,54.23535]},"properties":{"name":"Mapped water infrastructure","category":"water_point","osm_type":"node","osm_id":"7709962964"}},{"type":"Feature","geometry":{"type":"Point","coordinates":[-0.97723,54.23528]},"properties":{"name":"Mapped water infrastructure","category":"water_point","osm_type":"node","osm_id":"7709962965"}},{"type":"Feature","geometry":{"type":"Point","coordinates":[-0.97674,54.23502]},"properties":{"name":"Mapped water infrastructure","category":"water_point","osm_type":"node","osm_id":"7709962966"}},{"type":"Feature","geometry":{"type":"Point","coordinates":[-0.97597,54.23502]},"properties":{"name":"Mapped water infrastructure","category":"water_point","osm_type":"node","osm_id":"7709962967"}},{"type":"Feature","geometry":{"type":"Point","coordinates":[-0.97578,54.2362]},"properties":{"name":"Mapped water infrastructure","category":"water_point","osm_type":"node","osm_id":"7709962968"}},{"type":"Feature","geometry":{"type":"Point","coordinates":[-0.50372,54.06974]},"properties":{"name":"Mapped water infrastructure","category":"water_well","osm_type":"node","osm_id":"8071964525"}},{"type":"Feature","geometry":{"type":"Point","coordinates":[-0.78358,54.12914]},"properties":{"name":"Mapped water infrastructure","category":"drinking_water","osm_type":"node","osm_id":"8149737553","wheelchair":"yes"}},{"type":"Feature","geometry":{"type":"Point","coordinates":[-0.7123,54.12013]},"properties":{"name":"Mapped water infrastructure","category":"pumping_station","osm_type":"node","osm_id":"8239966769","operator":"Yorkshire Water"}},{"type":"Feature","geometry":{"type":"Point","coordinates":[-0.95301,54.30114]},"properties":{"name":"Mapped water infrastructure","category":"drinking_water","osm_type":"node","osm_id":"8866279695","wheelchair":"yes"}},{"type":"Feature","geometry":{"type":"Point","coordinates":[-0.33072,54.23339]},"properties":{"name":"Mapped water infrastructure","category":"water_point","osm_type":"node","osm_id":"9002031707"}},{"type":"Feature","geometry":{"type":"Point","coordinates":[-0.67564,54.12385]},"properties":{"name":"Settrington Service Reservoir","category":"pumping_station","osm_type":"node","osm_id":"9032182909","operator":"Yorkshire Water"}},{"type":"Feature","geometry":{"type":"Point","coordinates":[-0.54992,54.46]},"properties":{"name":"Mapped water infrastructure","category":"wastewater_plant","osm_type":"node","osm_id":"10053309567"}},{"type":"Feature","geometry":{"type":"Point","coordinates":[-0.55009,54.46003]},"properties":{"name":"Mapped water infrastructure","category":"wastewater_plant","osm_type":"node","osm_id":"10053309568"}},{"type":"Feature","geometry":{"type":"Point","coordinates":[-0.49142,54.39972]},"properties":{"name":"Mapped water infrastructure","category":"drinking_water","osm_type":"node","osm_id":"10223388135","opening_hours":"24/7","wheelchair":"yes"}},{"type":"Feature","geometry":{"type":"Point","coordinates":[-0.38853,54.26138]},"properties":{"name":"Mapped water infrastructure","category":"drinking_water","osm_type":"node","osm_id":"10814218217"}},{"type":"Feature","geometry":{"type":"Point","coordinates":[-0.85786,54.15289]},"properties":{"name":"Mapped water infrastructure","category":"water_well","osm_type":"node","osm_id":"10983746753"}},{"type":"Feature","geometry":{"type":"Point","coordinates":[-0.9,54.36292]},"properties":{"name":"Mapped water infrastructure","category":"drinking_water","osm_type":"node","osm_id":"12074829456"}},{"type":"Feature","geometry":{"type":"Point","coordinates":[-0.13049,54.12168]},"properties":{"name":"Mapped water infrastructure","category":"drinking_water","osm_type":"node","osm_id":"12500760730"}},{"type":"Feature","geometry":{"type":"Point","coordinates":[-0.12943,54.12173]},"properties":{"name":"Mapped water infrastructure","category":"drinking_water","osm_type":"node","osm_id":"12500760731"}},{"type":"Feature","geometry":{"type":"Point","coordinates":[-0.13064,54.12263]},"properties":{"name":"Mapped water infrastructure","category":"drinking_water","osm_type":"node","osm_id":"12500760732"}},{"type":"Feature","geometry":{"type":"Point","coordinates":[-0.13076,54.12263]},"properties":{"name":"Mapped water infrastructure","category":"drinking_water","osm_type":"node","osm_id":"12500760733"}},{"type":"Feature","geometry":{"type":"Point","coordinates":[-0.16846,54.14734]},"properties":{"name":"Mapped water infrastructure","category":"drinking_water","osm_type":"node","osm_id":"12762697950","wheelchair":"yes"}},{"type":"Feature","geometry":{"type":"Point","coordinates":[-0.91153,54.12054]},"properties":{"name":"Mapped water infrastructure","category":"water_well","osm_type":"node","osm_id":"12806024027"}},{"type":"Feature","geometry":{"type":"Point","coordinates":[-0.27788,54.1624]},"properties":{"name":"St Helen's Well","category":"water_well","osm_type":"node","osm_id":"13200421127","ref":"St Helen's Well"}},{"type":"Feature","geometry":{"type":"Point","coordinates":[-0.87016,54.15371]},"properties":{"name":"Mapped water infrastructure","category":"water_well","osm_type":"node","osm_id":"13427727574"}},{"type":"Feature","geometry":{"type":"Point","coordinates":[-0.19127,54.08117]},"properties":{"name":"Mapped water infrastructure","category":"drinking_water","osm_type":"node","osm_id":"13844538416","wheelchair":"yes"}},{"type":"Feature","geometry":{"type":"Point","coordinates":[-0.71614,54.03901]},"properties":{"name":"Mapped water infrastructure","category":"drinking_water","osm_type":"node","osm_id":"13899082781","operator":"Thixendale Village Hall","wheelchair":"yes"}},{"type":"Feature","geometry":{"type":"Point","coordinates":[-0.85283,54.15128]},"properties":{"name":"Mapped water infrastructure","category":"drinking_water","osm_type":"node","osm_id":"13918071201","wheelchair":"yes"}},{"type":"Feature","geometry":{"type":"Point","coordinates":[-0.93398,54.16601]},"properties":{"name":"Mapped water infrastructure","category":"drinking_water","osm_type":"node","osm_id":"13918144374"}},{"type":"Feature","geometry":{"type":"Point","coordinates":[-0.97365,54.12828]},"properties":{"name":"Mapped water infrastructure","category":"drinking_water","osm_type":"node","osm_id":"13918193205","wheelchair":"yes"}},{"type":"Feature","geometry":{"type":"Point","coordinates":[-0.78856,54.13188]},"properties":{"name":"Mapped water infrastructure","category":"drinking_water","osm_type":"node","osm_id":"13920581263","operator":"Derwent Arms","wheelchair":"yes"}},{"type":"Feature","geometry":{"type":"Point","coordinates":[-0.53106,54.42273]},"properties":{"name":"Mapped water infrastructure","category":"drinking_water","osm_type":"node","osm_id":"14089935113"}},{"type":"Feature","geometry":{"type":"Point","coordinates":[-0.53131,54.42276]},"properties":{"name":"Mapped water infrastructure","category":"drinking_water","osm_type":"node","osm_id":"14089935114"}},{"type":"Feature","geometry":{"type":"Point","coordinates":[-0.53392,54.43223]},"properties":{"name":"Mapped water infrastructure","category":"drinking_water","osm_type":"node","osm_id":"14089935118"}},{"type":"Feature","geometry":{"type":"Point","coordinates":[-0.78927,54.05847]},"properties":{"name":"Mapped water infrastructure","category":"reservoir_covered","osm_type":"way","osm_id":"30391708"}},{"type":"Feature","geometry":{"type":"Point","coordinates":[-0.74978,54.00248]},"properties":{"name":"Kirby Underdale","category":"water_works","osm_type":"way","osm_id":"137420037","operator":"Yorkshire Water"}},{"type":"Feature","geometry":{"type":"Point","coordinates":[-0.67944,54.368]},"properties":{"name":"RAF Fylingdales Wastewater Treatment Works","category":"wastewater_plant","osm_type":"way","osm_id":"200140494","addr:city":"Pickering","addr:postcode":"YO18 7NT"}},{"type":"Feature","geometry":{"type":"Point","coordinates":[-0.76635,54.31089]},"properties":{"name":"Mapped water infrastructure","category":"reservoir_covered","osm_type":"way","osm_id":"204187574"}},{"type":"Feature","geometry":{"type":"Point","coordinates":[-0.76659,54.31081]},"properties":{"name":"Mapped water infrastructure","category":"reservoir_covered","osm_type":"way","osm_id":"204187575"}},{"type":"Feature","geometry":{"type":"Point","coordinates":[-0.3693,54.06227]},"properties":{"name":"Kilburn/STW","category":"wastewater_plant","osm_type":"way","osm_id":"215650719","operator":"Yorkshire Water","ref":"SAI00001796"}},{"type":"Feature","geometry":{"type":"Point","coordinates":[-0.22866,54.06998]},"properties":{"name":"Mapped water infrastructure","category":"wastewater_plant","osm_type":"way","osm_id":"283820882"}},{"type":"Feature","geometry":{"type":"Point","coordinates":[-0.39194,54.00933]},"properties":{"name":"Nafferton WPC works","category":"wastewater_plant","osm_type":"way","osm_id":"288294346","operator":"Yorkshire Water"}},{"type":"Feature","geometry":{"type":"Point","coordinates":[-0.63025,54.43893]},"properties":{"name":"Mapped water infrastructure","category":"reservoir_covered","osm_type":"way","osm_id":"295103631"}},{"type":"Feature","geometry":{"type":"Point","coordinates":[-0.27301,54.06935]},"properties":{"name":"Mapped water infrastructure","category":"water_works","osm_type":"way","osm_id":"311871016"}},{"type":"Feature","geometry":{"type":"Point","coordinates":[-0.51302,54.12083]},"properties":{"name":"Weaverthorpe Sewage Treatment Works","category":"wastewater_plant","osm_type":"way","osm_id":"315552903","operator":"Yorkshire Water","ref":"SAI00001606"}},{"type":"Feature","geometry":{"type":"Point","coordinates":[-0.21862,54.1251]},"properties":{"name":"Mapped water infrastructure","category":"reservoir_covered","osm_type":"way","osm_id":"316145860"}},{"type":"Feature","geometry":{"type":"Point","coordinates":[-0.12925,54.10781]},"properties":{"name":"Flamborough Village Sewage Treatment Works","category":"wastewater_plant","osm_type":"way","osm_id":"316422889","operator":"Yorkshire Water","ref":"SAI00011397"}},{"type":"Feature","geometry":{"type":"Point","coordinates":[-0.57791,54.11278]},"properties":{"name":"West Handley/STW","category":"wastewater_plant","osm_type":"way","osm_id":"352065418","operator":"Yorkshire Water","ref":"SAI00002614"}},{"type":"Feature","geometry":{"type":"Point","coordinates":[-0.58034,54.18355]},"properties":{"name":"East Heslerton/STW","category":"wastewater_plant","osm_type":"way","osm_id":"352999373","operator":"Yorkshire Water","ref":"SAI00002101"}},{"type":"Feature","geometry":{"type":"Point","coordinates":[-0.26603,54.15497]},"properties":{"name":"Reighton Reservoir","category":"water_works","osm_type":"way","osm_id":"382054513"}},{"type":"Feature","geometry":{"type":"Point","coordinates":[-0.26382,54.16284]},"properties":{"name":"Reighton Sewage Treatment Works","category":"wastewater_plant","osm_type":"way","osm_id":"382234608","operator":"Yorkshire Water","ref":"SAI00001909"}},{"type":"Feature","geometry":{"type":"Point","coordinates":[-0.30888,54.18441]},"properties":{"name":"Mapped water infrastructure","category":"wastewater_plant","osm_type":"way","osm_id":"383330509"}},{"type":"Feature","geometry":{"type":"Point","coordinates":[-0.29276,54.17335]},"properties":{"name":"Mapped water infrastructure","category":"water_works","osm_type":"way","osm_id":"383350085"}},{"type":"Feature","geometry":{"type":"Point","coordinates":[-0.32601,54.18773]},"properties":{"name":"Mapped water infrastructure","category":"water_works","osm_type":"way","osm_id":"384320739"}},{"type":"Feature","geometry":{"type":"Point","coordinates":[-0.58878,54.01887]},"properties":{"name":"Mapped water infrastructure","category":"pumping_station","osm_type":"way","osm_id":"387253386","operator":"Yorkshire Water"}},{"type":"Feature","geometry":{"type":"Point","coordinates":[-0.57467,54.01499]},"properties":{"name":"Wetwang/STW","category":"wastewater_plant","osm_type":"way","osm_id":"387253389","operator":"Yorkshire Water","ref":"SAI00002330"}},{"type":"Feature","geometry":{"type":"Point","coordinates":[-0.60369,54.46616]},"properties":{"name":"Whitby Sewage Treatment Works","category":"wastewater_plant","osm_type":"way","osm_id":"414917204","operator":"Yorkshire Water"}},{"type":"Feature","geometry":{"type":"Point","coordinates":[-0.79647,54.24649]},"properties":{"name":"Pickering STW","category":"wastewater_plant","osm_type":"way","osm_id":"415721289","operator":"Yorkshire Water"}},{"type":"Feature","geometry":{"type":"Point","coordinates":[-0.99109,54.23083]},"properties":{"name":"Harome/STW","category":"wastewater_plant","osm_type":"way","osm_id":"415723411","operator":"Yorkshire Water","ref":"SAI00002155"}},{"type":"Feature","geometry":{"type":"Point","coordinates":[-0.72282,54.22626]},"properties":{"name":"Thornton Le Dale/STW","category":"wastewater_plant","osm_type":"way","osm_id":"415738322","operator":"Yorkshire Water","ref":"SAI00002283"}},{"type":"Feature","geometry":{"type":"Point","coordinates":[-0.45364,54.23268]},"properties":{"name":"Scarborough STW","category":"wastewater_plant","osm_type":"way","osm_id":"416013251"}},{"type":"Feature","geometry":{"type":"Point","coordinates":[-0.75484,54.43446]},"properties":{"name":"Egton Bridge","category":"wastewater_plant","osm_type":"way","osm_id":"449655166"}},{"type":"Feature","geometry":{"type":"Point","coordinates":[-0.90407,54.13013]},"properties":{"name":"Mapped water infrastructure","category":"wastewater_plant","osm_type":"way","osm_id":"493251344"}},{"type":"Feature","geometry":{"type":"Point","coordinates":[-0.83478,54.15343]},"properties":{"name":"Swinton Waste Water Pumping Station","category":"pumping_station","osm_type":"way","osm_id":"496723063"}},{"type":"Feature","geometry":{"type":"Point","coordinates":[-0.67555,54.12379]},"properties":{"name":"Settrington Service Reservoir","category":"pumping_station","osm_type":"way","osm_id":"577856583","operator":"Yorkshire Water"}},{"type":"Feature","geometry":{"type":"Point","coordinates":[-0.79334,54.24962]},"properties":{"name":"water pumping station","category":"water_works","osm_type":"way","osm_id":"603960382"}},{"type":"Feature","geometry":{"type":"Point","coordinates":[-0.97553,54.17563]},"properties":{"name":"Mapped water infrastructure","category":"wastewater_plant","osm_type":"way","osm_id":"603996966"}},{"type":"Feature","geometry":{"type":"Point","coordinates":[-0.9221,54.26349]},"properties":{"name":"Mapped water infrastructure","category":"wastewater_plant","osm_type":"way","osm_id":"620431220"}},{"type":"Feature","geometry":{"type":"Point","coordinates":[-0.70376,54.16149]},"properties":{"name":"Rillington/STW","category":"wastewater_plant","osm_type":"way","osm_id":"645522645","operator":"Yorkshire Water","ref":"SAI00002243"}},{"type":"Feature","geometry":{"type":"Point","coordinates":[-0.72892,54.14149]},"properties":{"name":"Mapped water infrastructure","category":"wastewater_plant","osm_type":"way","osm_id":"646069171"}},{"type":"Feature","geometry":{"type":"Point","coordinates":[-0.82083,54.4651]},"properties":{"name":"Mapped water infrastructure","category":"reservoir_covered","osm_type":"way","osm_id":"647819271","operator":"Yorkshire Water"}},{"type":"Feature","geometry":{"type":"Point","coordinates":[-0.53565,54.18611]},"properties":{"name":"Mapped water infrastructure","category":"wastewater_plant","osm_type":"way","osm_id":"663357634"}},{"type":"Feature","geometry":{"type":"Point","coordinates":[-0.33843,54.13179]},"properties":{"name":"Burton Agnes/STW","category":"wastewater_plant","osm_type":"way","osm_id":"666444388","operator":"Yorkshire Water","ref":"SAI00002071"}},{"type":"Feature","geometry":{"type":"Point","coordinates":[-0.81039,54.05817]},"properties":{"name":"Mapped water infrastructure","category":"wastewater_plant","osm_type":"way","osm_id":"669577983"}},{"type":"Feature","geometry":{"type":"Point","coordinates":[-0.97562,54.24201]},"properties":{"name":"Mapped water infrastructure","category":"water_works","osm_type":"way","osm_id":"678932976","operator":"Yorkshire Water"}},{"type":"Feature","geometry":{"type":"Point","coordinates":[-0.41011,54.26766]},"properties":{"name":"Low Mount Service Reservoir","category":"reservoir_covered","osm_type":"way","osm_id":"686099495","operator":"Yorkshire Water"}},{"type":"Feature","geometry":{"type":"Point","coordinates":[-0.92248,54.07885]},"properties":{"name":"Foston STW","category":"wastewater_plant","osm_type":"way","osm_id":"690890287","operator":"Yorkshire Water"}},{"type":"Feature","geometry":{"type":"Point","coordinates":[-0.85336,54.0888]},"properties":{"name":"Firby","category":"wastewater_plant","osm_type":"way","osm_id":"690895157","operator":"Yorkshire Water"}},{"type":"Feature","geometry":{"type":"Point","coordinates":[-0.81719,54.12431]},"properties":{"name":"Mapped water infrastructure","category":"wastewater_plant","osm_type":"way","osm_id":"692591328"}},{"type":"Feature","geometry":{"type":"Point","coordinates":[-0.75599,54.01355]},"properties":{"name":"Mapped water infrastructure","category":"reservoir_covered","osm_type":"way","osm_id":"704712242"}},{"type":"Feature","geometry":{"type":"Point","coordinates":[-0.87801,54.07333]},"properties":{"name":"Crambe/STW","category":"wastewater_plant","osm_type":"way","osm_id":"717778922","operator":"Yorkshire Water","ref":"SAI00232827"}},{"type":"Feature","geometry":{"type":"Point","coordinates":[-0.9246,54.30824]},"properties":{"name":"Hutton Le Hole","category":"reservoir_covered","osm_type":"way","osm_id":"764628286"}},{"type":"Feature","geometry":{"type":"Point","coordinates":[-0.32113,54.21387]},"properties":{"name":"Mapped water infrastructure","category":"water_works","osm_type":"way","osm_id":"765736805"}},{"type":"Feature","geometry":{"type":"Point","coordinates":[-0.38074,54.20998]},"properties":{"name":"Folkton Sewage Treatment Works","category":"wastewater_plant","osm_type":"way","osm_id":"769707305","operator":"Yorkshire Water","ref":"SAI00002123"}},{"type":"Feature","geometry":{"type":"Point","coordinates":[-0.40629,54.20455]},"properties":{"name":"Mapped water infrastructure","category":"water_works","osm_type":"way","osm_id":"772142334"}},{"type":"Feature","geometry":{"type":"Point","coordinates":[-0.83197,54.29696]},"properties":{"name":"Cropton High","category":"reservoir_covered","osm_type":"way","osm_id":"775624504"}},{"type":"Feature","geometry":{"type":"Point","coordinates":[-0.40838,54.19402]},"properties":{"name":"Mapped water infrastructure","category":"water_works","osm_type":"way","osm_id":"778031812"}},{"type":"Feature","geometry":{"type":"Point","coordinates":[-0.42606,54.2005]},"properties":{"name":"Mapped water infrastructure","category":"water_works","osm_type":"way","osm_id":"778823001"}},{"type":"Feature","geometry":{"type":"Point","coordinates":[-0.83651,54.2049]},"properties":{"name":"Mapped water infrastructure","category":"wastewater_plant","osm_type":"way","osm_id":"781394816"}},{"type":"Feature","geometry":{"type":"Point","coordinates":[-0.72214,54.30683]},"properties":{"name":"Levisham","category":"reservoir_covered","osm_type":"way","osm_id":"783745478"}},{"type":"Feature","geometry":{"type":"Point","coordinates":[-0.37877,54.25896]},"properties":{"name":"Wheatcroft Sewage Pumping Station","category":"pumping_station","osm_type":"way","osm_id":"842475002"}},{"type":"Feature","geometry":{"type":"Point","coordinates":[-0.55006,54.45989]},"properties":{"name":"Mapped water infrastructure","category":"wastewater_plant","osm_type":"way","osm_id":"859067956"}},{"type":"Feature","geometry":{"type":"Point","coordinates":[-0.86,54.13369]},"properties":{"name":"Mapped water infrastructure","category":"reservoir_covered","osm_type":"way","osm_id":"860101989"}},{"type":"Feature","geometry":{"type":"Point","coordinates":[-0.86088,54.1338]},"properties":{"name":"Mapped water infrastructure","category":"reservoir_covered","osm_type":"way","osm_id":"860101990"}},{"type":"Feature","geometry":{"type":"Point","coordinates":[-0.38104,54.23233]},"properties":{"name":"Mapped water infrastructure","category":"water_works","osm_type":"way","osm_id":"886275109"}},{"type":"Feature","geometry":{"type":"Point","coordinates":[-0.92735,54.16931]},"properties":{"name":"Slingsby Waste Water Treatment Works","category":"wastewater_plant","osm_type":"way","osm_id":"891575921"}},{"type":"Feature","geometry":{"type":"Point","coordinates":[-0.39203,54.1845]},"properties":{"name":"Mapped water infrastructure","category":"water_works","osm_type":"way","osm_id":"907723163"}},{"type":"Feature","geometry":{"type":"Point","coordinates":[-0.42259,54.27221]},"properties":{"name":"Mapped water infrastructure","category":"reservoir_covered","osm_type":"way","osm_id":"908473723"}},{"type":"Feature","geometry":{"type":"Point","coordinates":[-0.42288,54.27249]},"properties":{"name":"Mapped water infrastructure","category":"reservoir_covered","osm_type":"way","osm_id":"908473724"}},{"type":"Feature","geometry":{"type":"Point","coordinates":[-0.38024,54.25241]},"properties":{"name":"Mapped water infrastructure","category":"reservoir_covered","osm_type":"way","osm_id":"954871797"}},{"type":"Feature","geometry":{"type":"Point","coordinates":[-0.38966,54.28717]},"properties":{"name":"Mapped water infrastructure","category":"water_well","osm_type":"way","osm_id":"967922895"}},{"type":"Feature","geometry":{"type":"Point","coordinates":[-0.77971,54.26461]},"properties":{"name":"Mapped water infrastructure","category":"reservoir_covered","osm_type":"way","osm_id":"976664071"}},{"type":"Feature","geometry":{"type":"Point","coordinates":[-0.77981,54.26513]},"properties":{"name":"Mapped water infrastructure","category":"reservoir_covered","osm_type":"way","osm_id":"976664072"}},{"type":"Feature","geometry":{"type":"Point","coordinates":[-0.82121,54.45793]},"properties":{"name":"Leahom Waste Water Treatment Works","category":"wastewater_plant","osm_type":"way","osm_id":"976807059"}},{"type":"Feature","geometry":{"type":"Point","coordinates":[-0.93101,54.04937]},"properties":{"name":"Mapped water infrastructure","category":"water_tower","osm_type":"way","osm_id":"1004746557"}},{"type":"Feature","geometry":{"type":"Point","coordinates":[-0.77944,54.26487]},"properties":{"name":"Swainsea Lane Service Reservoir and Water Pumping Station","category":"pumping_station","osm_type":"way","osm_id":"1025938617"}},{"type":"Feature","geometry":{"type":"Point","coordinates":[-0.45148,54.13577]},"properties":{"name":"Foxholes/STW","category":"wastewater_plant","osm_type":"way","osm_id":"1031576693","operator":"Yorkshire Water","ref":"SAI00001480"}},{"type":"Feature","geometry":{"type":"Point","coordinates":[-0.90323,54.36629]},"properties":{"name":"Rosedale Abbey Sewage Treatment Works","category":"wastewater_plant","osm_type":"way","osm_id":"1031944602","operator":"Yorkshire Water","ref":"SAI00035270"}},{"type":"Feature","geometry":{"type":"Point","coordinates":[-0.97744,54.44642]},"properties":{"name":"Westerdale/STW","category":"wastewater_plant","osm_type":"way","osm_id":"1033064068","operator":"Yorkshire Water","ref":"SAI00002302"}},{"type":"Feature","geometry":{"type":"Point","coordinates":[-0.65383,54.09388]},"properties":{"name":"Duggleby Sewage Treatment Works","category":"wastewater_plant","osm_type":"way","osm_id":"1033418836","operator":"Yorkshire Water","ref":"SAI00001464"}},{"type":"Feature","geometry":{"type":"Point","coordinates":[-0.73343,54.13425]},"properties":{"name":"Settrington Sewage Treatment Works","category":"wastewater_plant","osm_type":"way","osm_id":"1035592814","operator":"Yorkshire Water","ref":"SAI00002253"}},{"type":"Feature","geometry":{"type":"Point","coordinates":[-0.876,54.30301]},"properties":{"name":"Lastingham/STW","category":"wastewater_plant","osm_type":"way","osm_id":"1038855296","operator":"Yorkshire Water","ref":"SAI00002185"}},{"type":"Feature","geometry":{"type":"Point","coordinates":[-0.66262,54.48609]},"properties":{"name":"Newholm Sewage Treatment Works","category":"wastewater_plant","osm_type":"way","osm_id":"1038855629","operator":"Yorkshire Water","ref":"SAI00272242"}},{"type":"Feature","geometry":{"type":"Point","coordinates":[-0.66372,54.02125]},"properties":{"name":"Fridaythorpe Sewage Treatment Works","category":"wastewater_plant","osm_type":"way","osm_id":"1039276998","operator":"Yorkshire Water","ref":"SAI00002129"}},{"type":"Feature","geometry":{"type":"Point","coordinates":[-0.31335,54.04728]},"properties":{"name":"Burton Agnes Sewage Treatment Works","category":"wastewater_plant","osm_type":"way","osm_id":"1039292261","operator":"Yorkshire Water","ref":"SAI00001669"}},{"type":"Feature","geometry":{"type":"Point","coordinates":[-0.70813,54.29856]},"properties":{"name":"Lockton Sewage Treatment Works","category":"wastewater_plant","osm_type":"way","osm_id":"1039820629","operator":"Yorkshire Water","ref":"SAI00251783"}},{"type":"Feature","geometry":{"type":"Point","coordinates":[-0.90736,54.46527]},"properties":{"name":"Danby Sewage Treatment Works","category":"wastewater_plant","osm_type":"way","osm_id":"1039929672","operator":"Yorkshire Water","ref":"SAI00001703"}},{"type":"Feature","geometry":{"type":"Point","coordinates":[-0.69705,54.44411]},"properties":{"name":"Hard Struggle Sewage Treatment Works","category":"wastewater_plant","osm_type":"way","osm_id":"1040040819","operator":"Yorkshire Water","ref":"SAI00001760"}},{"type":"Feature","geometry":{"type":"Point","coordinates":[-0.49341,54.01674]},"properties":{"name":"Garton Wolds/STW","category":"wastewater_plant","osm_type":"way","osm_id":"1040369127","operator":"Yorkshire Water","ref":"SAI00002133"}},{"type":"Feature","geometry":{"type":"Point","coordinates":[-0.96093,54.04482]},"properties":{"name":"Flaxton Sewage Treatment Works","category":"wastewater_plant","osm_type":"way","osm_id":"1040467951","operator":"Yorkshire Water","ref":"SAI00241600"}},{"type":"Feature","geometry":{"type":"Point","coordinates":[-0.45187,54.08163]},"properties":{"name":"Langtoft Sewage Treatment Works","category":"wastewater_plant","osm_type":"way","osm_id":"1040956499","operator":"Yorkshire Water","ref":"SAI00001818"}},{"type":"Feature","geometry":{"type":"Point","coordinates":[-0.86161,54.25733]},"properties":{"name":"Bradfield St Clare STW","category":"wastewater_plant","osm_type":"way","osm_id":"1041170584","operator":"Anglian Water","ref":"BRFCST"}},{"type":"Feature","geometry":{"type":"Point","coordinates":[-0.48863,54.40226]},"properties":{"name":"Ravenscar/STW","category":"wastewater_plant","osm_type":"way","osm_id":"1041521658","operator":"Yorkshire Water","ref":"SAI00209762"}},{"type":"Feature","geometry":{"type":"Point","coordinates":[-0.57098,54.39453]},"properties":{"name":"Fylingdales Sewage Treatment Works","category":"wastewater_plant","osm_type":"way","osm_id":"1041729927","operator":"Yorkshire Water","ref":"SAI00001478"}},{"type":"Feature","geometry":{"type":"Point","coordinates":[-0.87742,54.27649]},"properties":{"name":"Appleton Le Moor/STW","category":"wastewater_plant","osm_type":"way","osm_id":"1059036495","operator":"Yorkshire Water","ref":"SAI00002039"}},{"type":"Feature","geometry":{"type":"Point","coordinates":[-0.97802,54.48272]},"properties":{"name":"Commondale/STW","category":"wastewater_plant","osm_type":"way","osm_id":"1107463803","operator":"Yorkshire Water","ref":"SAI00002087"}},{"type":"Feature","geometry":{"type":"Point","coordinates":[-0.79918,54.43952]},"properties":{"name":"Glaisdale/STW","category":"wastewater_plant","osm_type":"way","osm_id":"1107463948","operator":"Yorkshire Water","ref":"SAI00002139"}},{"type":"Feature","geometry":{"type":"Point","coordinates":[-0.94587,54.01345]},"properties":{"name":"Sand Hutton/STW","category":"wastewater_plant","osm_type":"way","osm_id":"1113330363","operator":"Yorkshire Water","ref":"SAI00001919"}},{"type":"Feature","geometry":{"type":"Point","coordinates":[-0.9461,54.03348]},"properties":{"name":"Claxton/STW","category":"wastewater_plant","osm_type":"way","osm_id":"1113331870","operator":"Yorkshire Water","ref":"SAI00001687"}},{"type":"Feature","geometry":{"type":"Point","coordinates":[-0.91875,54.04621]},"properties":{"name":"Harton/STW","category":"wastewater_plant","osm_type":"way","osm_id":"1113332283","operator":"Yorkshire Water","ref":"SAI00001766"}},{"type":"Feature","geometry":{"type":"Point","coordinates":[-0.82949,54.01059]},"properties":{"name":"Bugthorpe/STW","category":"wastewater_plant","osm_type":"way","osm_id":"1113577765","operator":"Yorkshire Water","ref":"SAI00209756"}},{"type":"Feature","geometry":{"type":"Point","coordinates":[-0.81054,54.04369]},"properties":{"name":"Acklam/STW","category":"wastewater_plant","osm_type":"way","osm_id":"1113578235","operator":"Yorkshire Water","ref":"SAI00251737"}},{"type":"Feature","geometry":{"type":"Point","coordinates":[-0.79009,54.0774]},"properties":{"name":"Burythorpe/STW","category":"wastewater_plant","osm_type":"way","osm_id":"1113579050","operator":"Yorkshire Water","ref":"SAI00002077"}},{"type":"Feature","geometry":{"type":"Point","coordinates":[-0.88717,54.02762]},"properties":{"name":"Scrayingham/STW","category":"wastewater_plant","osm_type":"way","osm_id":"1113579588","operator":"Yorkshire Water","ref":"SAI00209750"}},{"type":"Feature","geometry":{"type":"Point","coordinates":[-0.7254,54.40413]},"properties":{"name":"Goathland Waste Water Treatment Works","category":"wastewater_plant","osm_type":"way","osm_id":"1160955123"}},{"type":"Feature","geometry":{"type":"Point","coordinates":[-0.40523,54.26722]},"properties":{"name":"Upper Reservoir","category":"reservoir_covered","osm_type":"way","osm_id":"1196094693"}},{"type":"Feature","geometry":{"type":"Point","coordinates":[-0.39523,54.2303]},"properties":{"name":"Mapped water infrastructure","category":"water_works","osm_type":"way","osm_id":"1202003446"}},{"type":"Feature","geometry":{"type":"Point","coordinates":[-0.49804,54.19265]},"properties":{"name":"Ganton/STW","category":"wastewater_plant","osm_type":"way","osm_id":"1209009812","operator":"Yorkshire Water","ref":"SAI00002131"}},{"type":"Feature","geometry":{"type":"Point","coordinates":[-0.64531,54.48373]},"properties":{"name":"Mapped water infrastructure","category":"reservoir_covered","osm_type":"way","osm_id":"1357888144"}},{"type":"Feature","geometry":{"type":"Point","coordinates":[-0.645,54.48307]},"properties":{"name":"Mapped water infrastructure","category":"reservoir_covered","osm_type":"way","osm_id":"1357888145"}},{"type":"Feature","geometry":{"type":"Point","coordinates":[-0.91064,54.10738]},"properties":{"name":"Welburn STW","category":"wastewater_plant","osm_type":"way","osm_id":"1383251746","operator":"Yorkshire Water","ref":"SAI00001564"}},{"type":"Feature","geometry":{"type":"Point","coordinates":[-0.32373,54.09034]},"properties":{"name":"Rosedale/STW","category":"wastewater_plant","osm_type":"way","osm_id":"1393799682","operator":"Yorkshire Water","ref":"SAI00002247"}},{"type":"Feature","geometry":{"type":"Point","coordinates":[-0.57317,54.07411]},"properties":{"name":"Skipton On Swale/STW","category":"wastewater_plant","osm_type":"way","osm_id":"1396546574","operator":"Yorkshire Water","ref":"SAI00214068"}},{"type":"Feature","geometry":{"type":"Point","coordinates":[-0.84092,54.17488]},"properties":{"name":"Great Edstone/STW","category":"wastewater_plant","osm_type":"way","osm_id":"1408821278","operator":"Yorkshire Water","ref":"SAI00002143"}},{"type":"Feature","geometry":{"type":"Point","coordinates":[-0.85875,54.20061]},"properties":{"name":"Grantley/STW","category":"wastewater_plant","osm_type":"way","osm_id":"1408821841","operator":"Yorkshire Water","ref":"SAI00001744"}},{"type":"Feature","geometry":{"type":"Point","coordinates":[-0.87361,54.0972]},"properties":{"name":"Crambeck Village/STW","category":"wastewater_plant","osm_type":"way","osm_id":"1423513045","operator":"Yorkshire Water","ref":"SAI00080641"}},{"type":"Feature","geometry":{"type":"Point","coordinates":[-0.9065,54.06192]},"properties":{"name":"Barton Le Willow/STW","category":"wastewater_plant","osm_type":"way","osm_id":"1423513380","operator":"Yorkshire Water","ref":"SAI00002047"}},{"type":"Feature","geometry":{"type":"Point","coordinates":[-0.83233,54.0988]},"properties":{"name":"Huttons Ambo/STW","category":"wastewater_plant","osm_type":"way","osm_id":"1423513682","operator":"Yorkshire Water","ref":"SAI00002203"}},{"type":"Feature","geometry":{"type":"Point","coordinates":[-0.80121,54.20462]},"properties":{"name":"Kirby Misperton/STW","category":"wastewater_plant","osm_type":"way","osm_id":"1423591719","operator":"Yorkshire Water","ref":"SAI00209752"}},{"type":"Feature","geometry":{"type":"Point","coordinates":[-0.74239,54.2978]},"properties":{"name":"Newton Rawcliffe/STW","category":"wastewater_plant","osm_type":"way","osm_id":"1423591895","operator":"Yorkshire Water","ref":"SAI00002224"}},{"type":"Feature","geometry":{"type":"Point","coordinates":[-0.91416,54.29287]},"properties":{"name":"Hutton Le Hole/STW","category":"wastewater_plant","osm_type":"way","osm_id":"1423873175","operator":"Yorkshire Water","ref":"SAI00002177"}},{"type":"Feature","geometry":{"type":"Point","coordinates":[-0.93478,54.42976]},"properties":{"name":"Botton/STW","category":"wastewater_plant","osm_type":"way","osm_id":"1423925806","operator":"Yorkshire Water","ref":"SAI00002057"}},{"type":"Feature","geometry":{"type":"Point","coordinates":[-0.95685,54.29042]},"properties":{"name":"Gillamoor/STW","category":"wastewater_plant","osm_type":"way","osm_id":"1423926194","operator":"Yorkshire Water","ref":"SAI00002135"}},{"type":"Feature","geometry":{"type":"Point","coordinates":[-0.44758,54.34854]},"properties":{"name":"Bryherstones/STW","category":"wastewater_plant","osm_type":"way","osm_id":"1423933633","operator":"Yorkshire Water","ref":"SAI00002065"}},{"type":"Feature","geometry":{"type":"Point","coordinates":[-0.78171,54.12173]},"properties":{"name":"Mapped water infrastructure","category":"pumping_station","osm_type":"way","osm_id":"1451171247"}},{"type":"Feature","geometry":{"type":"Point","coordinates":[-0.76955,54.12148]},"properties":{"name":"Mapped water infrastructure","category":"pumping_station","osm_type":"way","osm_id":"1454664984"}},{"type":"Feature","geometry":{"type":"Point","coordinates":[-0.77281,54.12082]},"properties":{"name":"Mapped water infrastructure","category":"reservoir_covered","osm_type":"way","osm_id":"1454664985"}},{"type":"Feature","geometry":{"type":"Point","coordinates":[-0.4609,54.24221]},"properties":{"name":"Irton Water Treatment Works","category":"water_works","osm_type":"relation","osm_id":"21376639","operator":"Yorkshire Water","addr:city":"Scarborough","addr:postcode":"YO12 4RJ"}},{"type":"Feature","geometry":{"type":"Point","coordinates":[-0.53465,54.43306]},"properties":{"name":"Robin Hoods Bay Upper SPS","category":"pumping_station","osm_type":"way","osm_id":"373918954","operator":"Yorkshire Water"}},{"type":"Feature","geometry":{"type":"Point","coordinates":[-0.62391,54.46717]},"properties":{"name":"Mapped water infrastructure","category":"water_works","osm_type":"way","osm_id":"573845392"}},{"type":"Feature","geometry":{"type":"Point","coordinates":[-0.42468,54.31531]},"properties":{"name":"Scarborough STW","category":"wastewater_plant","osm_type":"way","osm_id":"1091232435"}},{"type":"Feature","geometry":{"type":"Point","coordinates":[-0.32081,54.21307]},"properties":{"name":"Filey STW","category":"wastewater_plant","osm_type":"way","osm_id":"1092040672","operator":"Yorkshire Water"}},{"type":"Feature","geometry":{"type":"Point","coordinates":[-0.32081,54.21307]},"properties":{"name":"Filey STW","category":"wastewater_plant","osm_type":"way","osm_id":"1092135046","operator":"Yorkshire Water"}},{"type":"Feature","geometry":{"type":"Point","coordinates":[-0.88097,54.30456]},"properties":{"name":"St Cedd's Well","category":"water_well","osm_type":"way","osm_id":"1352512597"}},{"type":"Feature","geometry":{"type":"Point","coordinates":[-0.55673,54.4488]},"properties":{"name":"T'Awd Abba Well","category":"water_well","osm_type":"way","osm_id":"1355979545"}}]}