{"type":"FeatureCollection","features":[{"type":"Feature","geometry":{"type":"Point","coordinates":[-0.75505,54.50312]},"properties":{"name":"Mickleby Sewage Treatment Works","category":"wastewater_plant","osm_type":"way","osm_id":"1040373165","operator":"Yorkshire Water","ref":"SAI00001838"}},{"type":"Feature","geometry":{"type":"Point","coordinates":[-0.93492,54.5244]},"properties":{"name":"Moorsholm Sewage Treatment Works","category":"wastewater_plant","osm_type":"way","osm_id":"1106603749","operator":"Northumbrian Water","ref":"TST6042"}},{"type":"Feature","geometry":{"type":"Point","coordinates":[-0.90493,54.57141]},"properties":{"name":"Skinningrove STW","category":"wastewater_plant","osm_type":"way","osm_id":"1112783292","operator":"Northumbrian Water","ref":"TST9982"}}]}