{"type":"FeatureCollection","features":[{"type":"Feature","geometry":{"type":"Point","coordinates":[-0.51375,53.78403]},"properties":{"name":"Mapped water infrastructure","category":"water_tower","osm_type":"node","osm_id":"116010860"}},{"type":"Feature","geometry":{"type":"Point","coordinates":[-0.80749,53.78827]},"properties":{"name":"Mapped water infrastructure","category":"water_tower","osm_type":"node","osm_id":"187287605"}},{"type":"Feature","geometry":{"type":"Point","coordinates":[-0.73071,53.64845]},"properties":{"name":"Garthorpe Water Tower","category":"water_tower","osm_type":"node","osm_id":"876502751","operator":"Yorkshire Water"}},{"type":"Feature","geometry":{"type":"Point","coordinates":[-0.67795,53.65823]},"properties":{"name":"Mapped water infrastructure","category":"water_tower","osm_type":"node","osm_id":"2225438603"}},{"type":"Feature","geometry":{"type":"Point","coordinates":[-0.60968,53.79632]},"properties":{"name":"Mapped water infrastructure","category":"water_well","osm_type":"node","osm_id":"3242367866"}},{"type":"Feature","geometry":{"type":"Point","coordinates":[-0.64386,53.78265]},"properties":{"name":"Quakers Well","category":"water_well","osm_type":"node","osm_id":"3252185239"}},{"type":"Feature","geometry":{"type":"Point","coordinates":[-0.57422,53.75616]},"properties":{"name":"Mapped water infrastructure","category":"water_well","osm_type":"node","osm_id":"3276439538"}},{"type":"Feature","geometry":{"type":"Point","coordinates":[-0.57428,53.75652]},"properties":{"name":"Mapped water infrastructure","category":"water_well","osm_type":"node","osm_id":"3276439559"}},{"type":"Feature","geometry":{"type":"Point","coordinates":[-0.86768,53.78767]},"properties":{"name":"Mapped water infrastructure","category":"water_tower","osm_type":"node","osm_id":"3452032221"}},{"type":"Feature","geometry":{"type":"Point","coordinates":[-0.82079,53.53357]},"properties":{"name":"Mapped water infrastructure","category":"water_tower","osm_type":"node","osm_id":"3720428198"}},{"type":"Feature","geometry":{"type":"Point","coordinates":[-0.97617,53.96298]},"properties":{"name":"Mapped water infrastructure","category":"pumping_station","osm_type":"node","osm_id":"6273405185","operator":"Yorkshire Water"}},{"type":"Feature","geometry":{"type":"Point","coordinates":[-0.81517,53.96158]},"properties":{"name":"Mapped water infrastructure","category":"water_well","osm_type":"node","osm_id":"6701035885"}},{"type":"Feature","geometry":{"type":"Point","coordinates":[-0.34264,53.81591]},"properties":{"name":"Mapped water infrastructure","category":"pumping_station","osm_type":"node","osm_id":"7396412178"}},{"type":"Feature","geometry":{"type":"Point","coordinates":[-0.43469,53.84433]},"properties":{"name":"Victorian Water Pump","category":"water_well","osm_type":"node","osm_id":"10012927269","website":"https://beverleycivicsociety.co.uk/pump-restoration.html"}},{"type":"Feature","geometry":{"type":"Point","coordinates":[-0.74156,53.59259]},"properties":{"name":"Mapped water infrastructure","category":"drinking_water","osm_type":"node","osm_id":"10816081438"}},{"type":"Feature","geometry":{"type":"Point","coordinates":[-0.89757,53.50721]},"properties":{"name":"Bullhassocks Pumping Station","category":"pumping_station","osm_type":"node","osm_id":"10839526636"}},{"type":"Feature","geometry":{"type":"Point","coordinates":[-0.16156,53.91548]},"properties":{"name":"Mapped water infrastructure","category":"drinking_water","osm_type":"node","osm_id":"10869079917"}},{"type":"Feature","geometry":{"type":"Point","coordinates":[-0.78369,53.98794]},"properties":{"name":"Mapped water infrastructure","category":"drinking_water","osm_type":"node","osm_id":"11335573294","operator":"Bishop Wilton Village Hall","wheelchair":"yes"}},{"type":"Feature","geometry":{"type":"Point","coordinates":[-0.78406,53.98849]},"properties":{"name":"Mapped water infrastructure","category":"drinking_water","osm_type":"node","osm_id":"11335573295","wheelchair":"limited"}},{"type":"Feature","geometry":{"type":"Point","coordinates":[-0.25585,53.61279]},"properties":{"name":"Mapped water infrastructure","category":"drinking_water","osm_type":"node","osm_id":"11396316513"}},{"type":"Feature","geometry":{"type":"Point","coordinates":[-0.41485,53.58172]},"properties":{"name":"Mapped water infrastructure","category":"drinking_water","osm_type":"node","osm_id":"11443017343"}},{"type":"Feature","geometry":{"type":"Point","coordinates":[-0.65607,53.98785]},"properties":{"name":"Mapped water infrastructure","category":"drinking_water","osm_type":"node","osm_id":"11469919079","wheelchair":"limited"}},{"type":"Feature","geometry":{"type":"Point","coordinates":[-0.35818,53.53027]},"properties":{"name":"Mapped water infrastructure","category":"drinking_water","osm_type":"node","osm_id":"11755607710"}},{"type":"Feature","geometry":{"type":"Point","coordinates":[-0.46842,53.61321]},"properties":{"name":"Mapped water infrastructure","category":"drinking_water","osm_type":"node","osm_id":"12153929722"}},{"type":"Feature","geometry":{"type":"Point","coordinates":[-0.19457,53.52531]},"properties":{"name":"Mapped water infrastructure","category":"water_well","osm_type":"node","osm_id":"12441462910"}},{"type":"Feature","geometry":{"type":"Point","coordinates":[-0.19416,53.86633]},"properties":{"name":"St Helen's Well","category":"water_well","osm_type":"node","osm_id":"13200391057","ref":"St Helen's Well"}},{"type":"Feature","geometry":{"type":"Point","coordinates":[-0.61032,53.76696]},"properties":{"name":"St Helen's Well","category":"water_well","osm_type":"node","osm_id":"13200416905"}},{"type":"Feature","geometry":{"type":"Point","coordinates":[-0.54321,53.73137]},"properties":{"name":"St Anne's Well","category":"water_well","osm_type":"node","osm_id":"13200431566","ref":"St Anne's Well"}},{"type":"Feature","geometry":{"type":"Point","coordinates":[-0.91077,53.98712]},"properties":{"name":"Furlong Road No","category":"pumping_station","osm_type":"node","osm_id":"13730554589","operator":"Yorkshire Water"}},{"type":"Feature","geometry":{"type":"Point","coordinates":[-0.44154,53.96316]},"properties":{"name":"Mapped water infrastructure","category":"water_point","osm_type":"node","osm_id":"14088449670"}},{"type":"Feature","geometry":{"type":"Point","coordinates":[-0.79239,53.97953]},"properties":{"name":"Bishop Wilton/STW","category":"wastewater_plant","osm_type":"way","osm_id":"4389769","operator":"Yorkshire Water","ref":"SAI00002055"}},{"type":"Feature","geometry":{"type":"Point","coordinates":[-0.93443,53.75818]},"properties":{"name":"Loftsome Bridge Water Treatment Works","category":"water_works","osm_type":"way","osm_id":"46190969"}},{"type":"Feature","geometry":{"type":"Point","coordinates":[-0.39522,53.83915]},"properties":{"name":"Beverley Waterside Pumping Station","category":"pumping_station","osm_type":"way","osm_id":"46711758"}},{"type":"Feature","geometry":{"type":"Point","coordinates":[-0.40432,53.83748]},"properties":{"name":"Beverley Waste Water Treatment Works","category":"wastewater_plant","osm_type":"way","osm_id":"46785196"}},{"type":"Feature","geometry":{"type":"Point","coordinates":[-0.9514,53.69406]},"properties":{"name":"Goole-Rawcliffe Water Treatment Works","category":"wastewater_plant","osm_type":"way","osm_id":"57045780"}},{"type":"Feature","geometry":{"type":"Point","coordinates":[-0.7229,53.64136]},"properties":{"name":"Luddington (STW)","category":"wastewater_plant","osm_type":"way","osm_id":"61431198","operator":"Severn Trent","ref":"11504-ST1"}},{"type":"Feature","geometry":{"type":"Point","coordinates":[-0.43095,53.9978]},"properties":{"name":"Driffield Waste Water Treatment Works","category":"wastewater_plant","osm_type":"way","osm_id":"92877866","operator":"Yorkshire Water"}},{"type":"Feature","geometry":{"type":"Point","coordinates":[-0.74727,53.588]},"properties":{"name":"wims_fid_1254","category":"wastewater_plant","osm_type":"way","osm_id":"114443722","ref":"wims_fid_1254"}},{"type":"Feature","geometry":{"type":"Point","coordinates":[-0.68372,53.54105]},"properties":{"name":"Scunthorpe - Yaddlethorpe (STW)","category":"wastewater_plant","osm_type":"way","osm_id":"117134593","operator":"Severn Trent","ref":"11452-ST1"}},{"type":"Feature","geometry":{"type":"Point","coordinates":[-0.44257,53.78745]},"properties":{"name":"Keldgate 2","category":"reservoir_covered","osm_type":"way","osm_id":"122673096","operator":"Yorkshire Water"}},{"type":"Feature","geometry":{"type":"Point","coordinates":[-0.44363,53.78729]},"properties":{"name":"Keldgate 1","category":"reservoir_covered","osm_type":"way","osm_id":"122673099","operator":"Yorkshire Water"}},{"type":"Feature","geometry":{"type":"Point","coordinates":[-0.23599,53.74639]},"properties":{"name":"Mapped water infrastructure","category":"wastewater_plant","osm_type":"way","osm_id":"153259005"}},{"type":"Feature","geometry":{"type":"Point","coordinates":[-0.9444,53.92234]},"properties":{"name":"Mapped water infrastructure","category":"wastewater_plant","osm_type":"way","osm_id":"185391325"}},{"type":"Feature","geometry":{"type":"Point","coordinates":[-0.13962,53.70721]},"properties":{"name":"Keyingham Treatment Plant","category":"wastewater_plant","osm_type":"way","osm_id":"192076694"}},{"type":"Feature","geometry":{"type":"Point","coordinates":[-0.21751,53.71108]},"properties":{"name":"Thongumbald Pumping Station","category":"pumping_station","osm_type":"way","osm_id":"197789949","operator":"Environment Agency"}},{"type":"Feature","geometry":{"type":"Point","coordinates":[-0.21372,53.71704]},"properties":{"name":"Mapped water infrastructure","category":"wastewater_plant","osm_type":"way","osm_id":"198447144"}},{"type":"Feature","geometry":{"type":"Point","coordinates":[-0.07584,53.69849]},"properties":{"name":"Mapped water infrastructure","category":"wastewater_plant","osm_type":"way","osm_id":"207310099"}},{"type":"Feature","geometry":{"type":"Point","coordinates":[-0.5167,53.58007]},"properties":{"name":"Broughton STW (Humber)","category":"wastewater_plant","osm_type":"way","osm_id":"208456977","operator":"Anglian Water","ref":"BROTST"}},{"type":"Feature","geometry":{"type":"Point","coordinates":[-0.15887,53.54677]},"properties":{"name":"Mapped water infrastructure","category":"wastewater_plant","osm_type":"way","osm_id":"209442626"}},{"type":"Feature","geometry":{"type":"Point","coordinates":[-0.69006,53.64761]},"properties":{"name":"Mapped water infrastructure","category":"wastewater_plant","osm_type":"way","osm_id":"212731086"}},{"type":"Feature","geometry":{"type":"Point","coordinates":[-0.6693,53.68806]},"properties":{"name":"Mapped water infrastructure","category":"wastewater_plant","osm_type":"way","osm_id":"212731087"}},{"type":"Feature","geometry":{"type":"Point","coordinates":[-0.43392,53.6967]},"properties":{"name":"Barton On Humber STW","category":"wastewater_plant","osm_type":"way","osm_id":"213152422","operator":"Anglian Water","ref":"BARTST"}},{"type":"Feature","geometry":{"type":"Point","coordinates":[-0.17443,53.61763]},"properties":{"name":"Immingham New STW","category":"wastewater_plant","osm_type":"way","osm_id":"216545887","operator":"Anglian Water","ref":"IMMIST"}},{"type":"Feature","geometry":{"type":"Point","coordinates":[-0.25315,53.65163]},"properties":{"name":"Mapped water infrastructure","category":"wastewater_plant","osm_type":"way","osm_id":"217194635"}},{"type":"Feature","geometry":{"type":"Point","coordinates":[-0.02057,53.68979]},"properties":{"name":"Mapped water infrastructure","category":"wastewater_plant","osm_type":"way","osm_id":"219652896"}},{"type":"Feature","geometry":{"type":"Point","coordinates":[-0.50218,53.71598]},"properties":{"name":"Water Treatment Works","category":"water_works","osm_type":"way","osm_id":"231388380","operator":"Yorkshire Water"}},{"type":"Feature","geometry":{"type":"Point","coordinates":[-0.04336,53.74653]},"properties":{"name":"Mapped water infrastructure","category":"wastewater_plant","osm_type":"way","osm_id":"233232181"}},{"type":"Feature","geometry":{"type":"Point","coordinates":[-0.1228,53.83094]},"properties":{"name":"Mapped water infrastructure","category":"wastewater_plant","osm_type":"way","osm_id":"237940299"}},{"type":"Feature","geometry":{"type":"Point","coordinates":[-0.11187,53.76704]},"properties":{"name":"Burton Pidsea Sewage Treatment Works","category":"wastewater_plant","osm_type":"way","osm_id":"243047197","operator":"Yorkshire Water","ref":"SAI00285942"}},{"type":"Feature","geometry":{"type":"Point","coordinates":[-0.47443,53.52668]},"properties":{"name":"Cadney Reservoir pump","category":"pumping_station","osm_type":"way","osm_id":"253240349","operator":"Anglian Waater","addr:city":"Cadney"}},{"type":"Feature","geometry":{"type":"Point","coordinates":[-0.84516,53.68573]},"properties":{"name":"Mapped water infrastructure","category":"water_well","osm_type":"way","osm_id":"283768364"}},{"type":"Feature","geometry":{"type":"Point","coordinates":[-0.41208,53.7936]},"properties":{"name":"Mapped water infrastructure","category":"reservoir_covered","osm_type":"way","osm_id":"290390455"}},{"type":"Feature","geometry":{"type":"Point","coordinates":[-0.48024,53.90809]},"properties":{"name":"Liversedge Cemetery/2 STW","category":"wastewater_plant","osm_type":"way","osm_id":"304210527","operator":"Yorkshire Water","ref":"SAI00344390"}},{"type":"Feature","geometry":{"type":"Point","coordinates":[-0.97699,53.623]},"properties":{"name":"Mapped water infrastructure","category":"wastewater_plant","osm_type":"way","osm_id":"304519976"}},{"type":"Feature","geometry":{"type":"Point","coordinates":[-0.9781,53.58414]},"properties":{"name":"Mapped water infrastructure","category":"wastewater_plant","osm_type":"way","osm_id":"305862338"}},{"type":"Feature","geometry":{"type":"Point","coordinates":[-0.7867,53.92046]},"properties":{"name":"Pocklington STW","category":"wastewater_plant","osm_type":"way","osm_id":"306025982","operator":"Yorkshire Water"}},{"type":"Feature","geometry":{"type":"Point","coordinates":[-0.96533,53.56651]},"properties":{"name":"Mapped water infrastructure","category":"wastewater_plant","osm_type":"way","osm_id":"306711076"}},{"type":"Feature","geometry":{"type":"Point","coordinates":[-0.97948,53.55603]},"properties":{"name":"Mapped water infrastructure","category":"wastewater_plant","osm_type":"way","osm_id":"306816951"}},{"type":"Feature","geometry":{"type":"Point","coordinates":[-0.18811,53.60517]},"properties":{"name":"Immingham Pumping Station","category":"pumping_station","osm_type":"way","osm_id":"313453651"}},{"type":"Feature","geometry":{"type":"Point","coordinates":[-0.29933,53.90548]},"properties":{"name":"Brandesburton Sewage Treatment Works","category":"wastewater_plant","osm_type":"way","osm_id":"313732328","operator":"Yorkshire Water"}},{"type":"Feature","geometry":{"type":"Point","coordinates":[-0.06196,53.53305]},"properties":{"name":"Mapped water infrastructure","category":"reservoir_covered","osm_type":"way","osm_id":"314111250"}},{"type":"Feature","geometry":{"type":"Point","coordinates":[-0.08057,53.51636]},"properties":{"name":"Mapped water infrastructure","category":"wastewater_plant","osm_type":"way","osm_id":"314111254"}},{"type":"Feature","geometry":{"type":"Point","coordinates":[-0.64987,53.86586]},"properties":{"name":"Market Weighton Reservoir","category":"reservoir_covered","osm_type":"way","osm_id":"315971474"}},{"type":"Feature","geometry":{"type":"Point","coordinates":[-0.61712,53.86264]},"properties":{"name":"Arras Reservoir","category":"reservoir_covered","osm_type":"way","osm_id":"316131735"}},{"type":"Feature","geometry":{"type":"Point","coordinates":[-0.49202,53.8571]},"properties":{"name":"Cherry Burton Sewage Treatment Works","category":"wastewater_plant","osm_type":"way","osm_id":"317369902","operator":"Yorkshire Water","ref":"SAI00002083"}},{"type":"Feature","geometry":{"type":"Point","coordinates":[-0.6003,53.82022]},"properties":{"name":"Mapped water infrastructure","category":"reservoir_covered","osm_type":"way","osm_id":"317576333"}},{"type":"Feature","geometry":{"type":"Point","coordinates":[-0.56408,53.80344]},"properties":{"name":"Mapped water infrastructure","category":"reservoir_covered","osm_type":"way","osm_id":"317904115"}},{"type":"Feature","geometry":{"type":"Point","coordinates":[-0.58634,53.7749]},"properties":{"name":"Mapped water infrastructure","category":"reservoir_covered","osm_type":"way","osm_id":"320000889"}},{"type":"Feature","geometry":{"type":"Point","coordinates":[-0.72505,53.72703]},"properties":{"name":"Gilberdye & Staddlethorpe","category":"wastewater_plant","osm_type":"way","osm_id":"320366997"}},{"type":"Feature","geometry":{"type":"Point","coordinates":[-0.45705,53.79197]},"properties":{"name":"Skidby STW","category":"wastewater_plant","osm_type":"way","osm_id":"322681909","operator":"Yorkshire Water"}},{"type":"Feature","geometry":{"type":"Point","coordinates":[-0.48985,53.76065]},"properties":{"name":"Mapped water infrastructure","category":"reservoir_covered","osm_type":"way","osm_id":"323694037"}},{"type":"Feature","geometry":{"type":"Point","coordinates":[-0.83834,53.88103]},"properties":{"name":"Melbourne Sewage Treatment Works","category":"wastewater_plant","osm_type":"way","osm_id":"334530203","operator":"Yorkshire Water","ref":"SAI00002211"}},{"type":"Feature","geometry":{"type":"Point","coordinates":[-0.79179,53.82761]},"properties":{"name":"Holme on Spalding Moor Sewage Treatment Works","category":"wastewater_plant","osm_type":"way","osm_id":"335794227","operator":"Yorkshire Water","ref":"SAI00002165"}},{"type":"Feature","geometry":{"type":"Point","coordinates":[-0.89022,53.71841]},"properties":{"name":"Goole Waste Water Treatment Works","category":"wastewater_plant","osm_type":"way","osm_id":"345582878","operator":"Yorkshire Water"}},{"type":"Feature","geometry":{"type":"Point","coordinates":[-0.8452,53.60495]},"properties":{"name":"Mapped water infrastructure","category":"wastewater_plant","osm_type":"way","osm_id":"362625071"}},{"type":"Feature","geometry":{"type":"Point","coordinates":[-0.85358,53.55072]},"properties":{"name":"Mapped water infrastructure","category":"wastewater_plant","osm_type":"way","osm_id":"368349778"}},{"type":"Feature","geometry":{"type":"Point","coordinates":[-0.29907,53.86583]},"properties":{"name":"Long Riston North/STW","category":"wastewater_plant","osm_type":"way","osm_id":"377969303","operator":"Yorkshire Water","ref":"SAI00072975"}},{"type":"Feature","geometry":{"type":"Point","coordinates":[-0.92957,53.92946]},"properties":{"name":"Elvington Water Treatment Works","category":"wastewater_plant","osm_type":"way","osm_id":"397373657"}},{"type":"Feature","geometry":{"type":"Point","coordinates":[-0.49978,53.5565]},"properties":{"name":"Mapped water infrastructure","category":"wastewater_plant","osm_type":"way","osm_id":"403296455"}},{"type":"Feature","geometry":{"type":"Point","coordinates":[-0.05525,53.79776]},"properties":{"name":"Mapped water infrastructure","category":"wastewater_plant","osm_type":"way","osm_id":"416480091"}},{"type":"Feature","geometry":{"type":"Point","coordinates":[-0.98499,53.76338]},"properties":{"name":"Mapped water infrastructure","category":"wastewater_plant","osm_type":"way","osm_id":"419634518"}},{"type":"Feature","geometry":{"type":"Point","coordinates":[-0.43891,53.60839]},"properties":{"name":"Elsham Reservoir","category":"reservoir_covered","osm_type":"way","osm_id":"438270700"}},{"type":"Feature","geometry":{"type":"Point","coordinates":[-0.49235,53.51541]},"properties":{"name":"Mapped water infrastructure","category":"pumping_station","osm_type":"way","osm_id":"438466583"}},{"type":"Feature","geometry":{"type":"Point","coordinates":[-0.49111,53.76071]},"properties":{"name":"Mapped water infrastructure","category":"reservoir_covered","osm_type":"way","osm_id":"456432393"}},{"type":"Feature","geometry":{"type":"Point","coordinates":[-0.15277,53.57247]},"properties":{"name":"Mapped water infrastructure","category":"wastewater_plant","osm_type":"way","osm_id":"464623479"}},{"type":"Feature","geometry":{"type":"Point","coordinates":[-0.33088,53.63052]},"properties":{"name":"Ulceby STW","category":"wastewater_plant","osm_type":"way","osm_id":"489109539","operator":"Anglian Water","ref":"ULCEST"}},{"type":"Feature","geometry":{"type":"Point","coordinates":[-0.18734,53.60267]},"properties":{"name":"Mapped water infrastructure","category":"water_works","osm_type":"way","osm_id":"532075427"}},{"type":"Feature","geometry":{"type":"Point","coordinates":[-0.53499,53.98287]},"properties":{"name":"Thwaite/STW","category":"wastewater_plant","osm_type":"way","osm_id":"533290385","operator":"Yorkshire Water","ref":"SAI00001985"}},{"type":"Feature","geometry":{"type":"Point","coordinates":[-0.47751,53.60953]},"properties":{"name":"Mapped water infrastructure","category":"water_works","osm_type":"way","osm_id":"556347510","operator":"Anglian Water"}},{"type":"Feature","geometry":{"type":"Point","coordinates":[-0.40564,53.54987]},"properties":{"name":"Bigby STW","category":"wastewater_plant","osm_type":"way","osm_id":"585954434","operator":"Anglian Water","ref":"BIGBST"}},{"type":"Feature","geometry":{"type":"Point","coordinates":[-0.37053,53.92058]},"properties":{"name":"Mapped water infrastructure","category":"water_tower","osm_type":"way","osm_id":"591669263","operator":"Yorksire Water"}},{"type":"Feature","geometry":{"type":"Point","coordinates":[-0.36977,53.91963]},"properties":{"name":"Tophill Low Water Treatment Works","category":"wastewater_plant","osm_type":"way","osm_id":"591669266","operator":"Yorkshire Water","ref":"SAI00004842"}},{"type":"Feature","geometry":{"type":"Point","coordinates":[-0.39691,53.82484]},"properties":{"name":"Mapped water infrastructure","category":"pumping_station","osm_type":"way","osm_id":"598424247"}},{"type":"Feature","geometry":{"type":"Point","coordinates":[-0.42189,53.75098]},"properties":{"name":"Springhead Pumping Station","category":"water_works","osm_type":"way","osm_id":"609762697","addr:city":"Hull","addr:postcode":"HU5 5YJ"}},{"type":"Feature","geometry":{"type":"Point","coordinates":[-0.09643,53.58229]},"properties":{"name":"Pyewipe Water Recycling Centre","category":"wastewater_plant","osm_type":"way","osm_id":"618651384","operator":"Angilan Water","ref":"PYEWST","addr:city":"Grimsby","addr:postcode":"DN31 2SY"}},{"type":"Feature","geometry":{"type":"Point","coordinates":[-0.41861,53.63658]},"properties":{"name":"Mapped water infrastructure","category":"reservoir_covered","osm_type":"way","osm_id":"639100504","operator":"Anglian Water"}},{"type":"Feature","geometry":{"type":"Point","coordinates":[-0.50679,53.63984]},"properties":{"name":"Mapped water infrastructure","category":"wastewater_plant","osm_type":"way","osm_id":"639447546"}},{"type":"Feature","geometry":{"type":"Point","coordinates":[-0.36485,53.701]},"properties":{"name":"New Holland Main Drain Pumping Station","category":"pumping_station","osm_type":"way","osm_id":"695658602","operator":"North East Lindsey Drainage Board"}},{"type":"Feature","geometry":{"type":"Point","coordinates":[-0.36508,53.70407]},"properties":{"name":"Middle Drain Outfall Pumping Station","category":"pumping_station","osm_type":"way","osm_id":"695658603","operator":"North East Lindsey Drainage Board"}},{"type":"Feature","geometry":{"type":"Point","coordinates":[-0.95043,53.89315]},"properties":{"name":"Wheldrake Sewage Treatment Works","category":"wastewater_plant","osm_type":"way","osm_id":"695731899","operator":"Yorkshire Water"}},{"type":"Feature","geometry":{"type":"Point","coordinates":[-0.69153,53.99932]},"properties":{"name":"Huggate Wold","category":"reservoir_covered","osm_type":"way","osm_id":"729998834"}},{"type":"Feature","geometry":{"type":"Point","coordinates":[-0.61747,53.97798]},"properties":{"name":"Mapped water infrastructure","category":"reservoir_covered","osm_type":"way","osm_id":"730022839"}},{"type":"Feature","geometry":{"type":"Point","coordinates":[-0.7641,53.93651]},"properties":{"name":"Mapped water infrastructure","category":"reservoir_covered","osm_type":"way","osm_id":"775428588"}},{"type":"Feature","geometry":{"type":"Point","coordinates":[-0.32288,53.88294]},"properties":{"name":"Leven Sewage Treatment Works","category":"wastewater_plant","osm_type":"way","osm_id":"777262002","operator":"Yorkshire Water"}},{"type":"Feature","geometry":{"type":"Point","coordinates":[-0.23581,53.57224]},"properties":{"name":"Sewage Works","category":"wastewater_plant","osm_type":"way","osm_id":"788986196","operator":"Anglian Water"}},{"type":"Feature","geometry":{"type":"Point","coordinates":[-0.23581,53.57224]},"properties":{"name":"Sewage Works","category":"wastewater_plant","osm_type":"way","osm_id":"788986197","operator":"Anglian Water"}},{"type":"Feature","geometry":{"type":"Point","coordinates":[-0.19037,53.58419]},"properties":{"name":"Mapped water infrastructure","category":"wastewater_plant","osm_type":"way","osm_id":"790984195","operator":"Anglian Water"}},{"type":"Feature","geometry":{"type":"Point","coordinates":[-0.716,53.95547]},"properties":{"name":"Mapped water infrastructure","category":"reservoir_covered","osm_type":"way","osm_id":"884186395"}},{"type":"Feature","geometry":{"type":"Point","coordinates":[-0.85851,53.73309]},"properties":{"name":"Asselby Sewage Treatment Works","category":"wastewater_plant","osm_type":"way","osm_id":"887307723","operator":"Yorkshire Water"}},{"type":"Feature","geometry":{"type":"Point","coordinates":[-0.02214,53.7305]},"properties":{"name":"Mapped water infrastructure","category":"water_works","osm_type":"way","osm_id":"892473098"}},{"type":"Feature","geometry":{"type":"Point","coordinates":[-0.15877,53.88023]},"properties":{"name":"Hornsea/STW","category":"wastewater_plant","osm_type":"way","osm_id":"892643548","operator":"Yorkshire Water","ref":"SAI00215751"}},{"type":"Feature","geometry":{"type":"Point","coordinates":[-0.41208,53.7936]},"properties":{"name":"Mapped water infrastructure","category":"water_works","osm_type":"way","osm_id":"892701410"}},{"type":"Feature","geometry":{"type":"Point","coordinates":[-0.36489,53.73248]},"properties":{"name":"Mapped water infrastructure","category":"pumping_station","osm_type":"way","osm_id":"892736937"}},{"type":"Feature","geometry":{"type":"Point","coordinates":[-0.37036,53.70113]},"properties":{"name":"North Ferry STW","category":"wastewater_plant","osm_type":"way","osm_id":"893577636","operator":"Anglian Water","ref":"NFERST"}},{"type":"Feature","geometry":{"type":"Point","coordinates":[-0.66238,53.61247]},"properties":{"name":"Mapped water infrastructure","category":"wastewater_plant","osm_type":"way","osm_id":"893579079"}},{"type":"Feature","geometry":{"type":"Point","coordinates":[-0.19983,53.73496]},"properties":{"name":"Mapped water infrastructure","category":"water_works","osm_type":"way","osm_id":"949759883"}},{"type":"Feature","geometry":{"type":"Point","coordinates":[-0.66504,53.5866]},"properties":{"name":"Mapped water infrastructure","category":"reservoir_covered","osm_type":"way","osm_id":"1010992871"}},{"type":"Feature","geometry":{"type":"Point","coordinates":[-0.53436,53.89226]},"properties":{"name":"South Dalton Sewage Treatment Works","category":"wastewater_plant","osm_type":"way","osm_id":"1030337898","operator":"Yorkshire Water","ref":"SAI00001939"}},{"type":"Feature","geometry":{"type":"Point","coordinates":[-0.70784,53.91954]},"properties":{"name":"Nunburnholme/No 3 STW","category":"wastewater_plant","osm_type":"way","osm_id":"1034840284","operator":"Yorkshire Water","ref":"SAI00209771"}},{"type":"Feature","geometry":{"type":"Point","coordinates":[-0.31995,53.58982]},"properties":{"name":"Kirmington STW","category":"wastewater_plant","osm_type":"way","osm_id":"1036121307","operator":"Anglian Water","ref":"KIRMST"}},{"type":"Feature","geometry":{"type":"Point","coordinates":[-0.56909,53.95398]},"properties":{"name":"North Dalton Sewage Treatment Works","category":"wastewater_plant","osm_type":"way","osm_id":"1038857015","operator":"Yorkshire Water","ref":"SAI00001872"}},{"type":"Feature","geometry":{"type":"Point","coordinates":[-0.19242,53.94012]},"properties":{"name":"Atwick Sewage Treatment Works","category":"wastewater_plant","osm_type":"way","osm_id":"1039555535","operator":"Yorkshire Water","ref":"SAI00002349"}},{"type":"Feature","geometry":{"type":"Point","coordinates":[-0.3339,53.97673]},"properties":{"name":"Foston on the Wolds Sewage Treatment Works","category":"wastewater_plant","osm_type":"way","osm_id":"1039925689","operator":"Yorkshire Water","ref":"SAI00224099"}},{"type":"Feature","geometry":{"type":"Point","coordinates":[-0.22813,53.84502]},"properties":{"name":"New Ellerby Sewage Treatment Works","category":"wastewater_plant","osm_type":"way","osm_id":"1040760385","operator":"Yorkshire Water","ref":"SAI00001864"}},{"type":"Feature","geometry":{"type":"Point","coordinates":[-0.85709,53.82251]},"properties":{"name":"Foggathorpe Sewage Treatment Works","category":"wastewater_plant","osm_type":"way","osm_id":"1040764936","operator":"Yorkshire Water","ref":"SAI00001736"}},{"type":"Feature","geometry":{"type":"Point","coordinates":[-0.42139,53.50853]},"properties":{"name":"Mapped water infrastructure","category":"wastewater_plant","osm_type":"way","osm_id":"1040950879","operator":"Anglian Water"}},{"type":"Feature","geometry":{"type":"Point","coordinates":[-0.42142,53.50855]},"properties":{"name":"Mapped water infrastructure","category":"wastewater_plant","osm_type":"way","osm_id":"1040950880","operator":"Anglian Water"}},{"type":"Feature","geometry":{"type":"Point","coordinates":[-0.42141,53.50877]},"properties":{"name":"North Kelsey STW","category":"wastewater_plant","osm_type":"way","osm_id":"1040950881","operator":"Anglian Water","ref":"NKELST"}},{"type":"Feature","geometry":{"type":"Point","coordinates":[-0.05918,53.79921]},"properties":{"name":"Great Smeaton/No 2 STW","category":"wastewater_plant","osm_type":"way","osm_id":"1040952909","operator":"Yorkshire Water","ref":"SAI00012606"}},{"type":"Feature","geometry":{"type":"Point","coordinates":[-0.1656,53.77731]},"properties":{"name":"Lelly Sewage Treatment Works","category":"wastewater_plant","osm_type":"way","osm_id":"1041546222","operator":"Yorkshire Water","ref":"SAI00001822"}},{"type":"Feature","geometry":{"type":"Point","coordinates":[-0.45605,53.93638]},"properties":{"name":"Watton WPC works","category":"wastewater_plant","osm_type":"way","osm_id":"1083765101","operator":"Yorkshire Water"}},{"type":"Feature","geometry":{"type":"Point","coordinates":[-0.74543,53.55982]},"properties":{"name":"East Butterwick (STW)","category":"wastewater_plant","osm_type":"way","osm_id":"1086682426","operator":"Severn Trent","ref":"11375-ST1"}},{"type":"Feature","geometry":{"type":"Point","coordinates":[-0.20085,53.54386]},"properties":{"name":"Grimsby Reservoir","category":"reservoir_covered","osm_type":"way","osm_id":"1090427756"}},{"type":"Feature","geometry":{"type":"Point","coordinates":[-0.93273,53.52577]},"properties":{"name":"Wroot (STW)","category":"wastewater_plant","osm_type":"way","osm_id":"1103780493","operator":"Severn Trent","ref":"11491-ST1","addr:city":"Doncaster","addr:postcode":"DN9 2DA"}},{"type":"Feature","geometry":{"type":"Point","coordinates":[-0.97748,53.99171]},"properties":{"name":"Warthill/STW","category":"wastewater_plant","osm_type":"way","osm_id":"1113332157","operator":"Yorkshire Water","ref":"SAI00001999"}},{"type":"Feature","geometry":{"type":"Point","coordinates":[-0.97759,53.98086]},"properties":{"name":"Holtby/STW","category":"wastewater_plant","osm_type":"way","osm_id":"1113332486","operator":"Yorkshire Water","ref":"SAI00001776"}},{"type":"Feature","geometry":{"type":"Point","coordinates":[-0.75603,53.90139]},"properties":{"name":"Hayton/STW","category":"wastewater_plant","osm_type":"way","osm_id":"1113578407","operator":"Yorkshire Water","ref":"SAI00246372"}},{"type":"Feature","geometry":{"type":"Point","coordinates":[-0.22558,53.51246]},"properties":{"name":"Swallow STW","category":"wastewater_plant","osm_type":"way","osm_id":"1125582530","operator":"Anglian Water","ref":"SWLWST"}},{"type":"Feature","geometry":{"type":"Point","coordinates":[-0.56769,53.93424]},"properties":{"name":"Middleton Wolds/STW","category":"wastewater_plant","osm_type":"way","osm_id":"1126577612","operator":"Yorkshire Water","ref":"SAI00002215"}},{"type":"Feature","geometry":{"type":"Point","coordinates":[-0.73311,53.60033]},"properties":{"name":"Gunness (STW)","category":"wastewater_plant","osm_type":"way","osm_id":"1126577731","operator":"Severn Trent","ref":"11404-ST1"}},{"type":"Feature","geometry":{"type":"Point","coordinates":[-0.18818,53.5862]},"properties":{"name":"Mapped water infrastructure","category":"pumping_station","osm_type":"way","osm_id":"1184313795","operator":"Anglian Water"}},{"type":"Feature","geometry":{"type":"Point","coordinates":[-0.92126,53.81398]},"properties":{"name":"Bubwith/STW","category":"wastewater_plant","osm_type":"way","osm_id":"1207545509","operator":"Yorkshire Water","ref":"SAI00002067"}},{"type":"Feature","geometry":{"type":"Point","coordinates":[-0.06179,53.57531]},"properties":{"name":"Mapped water infrastructure","category":"water_tower","osm_type":"way","osm_id":"1208274581"}},{"type":"Feature","geometry":{"type":"Point","coordinates":[-0.51706,53.59322]},"properties":{"name":"Mapped water infrastructure","category":"pumping_station","osm_type":"way","osm_id":"1214335148"}},{"type":"Feature","geometry":{"type":"Point","coordinates":[-0.49142,53.51325]},"properties":{"name":"Cadney Pumping Station","category":"pumping_station","osm_type":"way","osm_id":"1235193965","operator":"Anglian Water","addr:city":"Cadney"}},{"type":"Feature","geometry":{"type":"Point","coordinates":[-0.27682,53.58966]},"properties":{"name":"Brocklesby STW","category":"wastewater_plant","osm_type":"way","osm_id":"1242956839","operator":"Anglian Water","ref":"BROBST"}},{"type":"Feature","geometry":{"type":"Point","coordinates":[-0.6368,53.61859]},"properties":{"name":"Dragonby STW","category":"wastewater_plant","osm_type":"way","osm_id":"1242960149","operator":"Anglian Water","ref":"DRAGST"}},{"type":"Feature","geometry":{"type":"Point","coordinates":[-0.38422,53.75031]},"properties":{"name":"Mapped water infrastructure","category":"pumping_station","osm_type":"way","osm_id":"1267654861"}},{"type":"Feature","geometry":{"type":"Point","coordinates":[-0.38765,53.58088]},"properties":{"name":"Melton Ross STW","category":"wastewater_plant","osm_type":"way","osm_id":"1293981194","operator":"Anglian Water","ref":"MELRST"}},{"type":"Feature","geometry":{"type":"Point","coordinates":[-0.30306,53.76563]},"properties":{"name":"Mapped water infrastructure","category":"water_works","osm_type":"way","osm_id":"1308419845"}},{"type":"Feature","geometry":{"type":"Point","coordinates":[-0.11424,53.5422]},"properties":{"name":"Mapped water infrastructure","category":"pumping_station","osm_type":"way","osm_id":"1319067373"}},{"type":"Feature","geometry":{"type":"Point","coordinates":[-0.12301,53.57821]},"properties":{"name":"Mapped water infrastructure","category":"wastewater_plant","osm_type":"way","osm_id":"1334003777"}},{"type":"Feature","geometry":{"type":"Point","coordinates":[-0.13916,53.58465]},"properties":{"name":"Mapped water infrastructure","category":"pumping_station","osm_type":"way","osm_id":"1336284666"}},{"type":"Feature","geometry":{"type":"Point","coordinates":[-0.42724,53.83091]},"properties":{"name":"Mapped water infrastructure","category":"pumping_station","osm_type":"way","osm_id":"1336289590"}},{"type":"Feature","geometry":{"type":"Point","coordinates":[-0.4268,53.82989]},"properties":{"name":"Mapped water infrastructure","category":"pumping_station","osm_type":"way","osm_id":"1336289592"}},{"type":"Feature","geometry":{"type":"Point","coordinates":[-0.17794,53.55097]},"properties":{"name":"Mapped water infrastructure","category":"pumping_station","osm_type":"way","osm_id":"1341325675"}},{"type":"Feature","geometry":{"type":"Point","coordinates":[-0.10859,53.50801]},"properties":{"name":"Mapped water infrastructure","category":"pumping_station","osm_type":"way","osm_id":"1342503223","operator":"Anglian Water"}},{"type":"Feature","geometry":{"type":"Point","coordinates":[-0.42585,53.83427]},"properties":{"name":"Mapped water infrastructure","category":"pumping_station","osm_type":"way","osm_id":"1354176634"}},{"type":"Feature","geometry":{"type":"Point","coordinates":[-0.73055,53.59003]},"properties":{"name":"Mapped water infrastructure","category":"water_works","osm_type":"way","osm_id":"1374365495"}},{"type":"Feature","geometry":{"type":"Point","coordinates":[-0.49116,53.64202]},"properties":{"name":"Mapped water infrastructure","category":"reservoir_covered","osm_type":"way","osm_id":"1377501493"}},{"type":"Feature","geometry":{"type":"Point","coordinates":[-0.61957,53.58778]},"properties":{"name":"Mapped water infrastructure","category":"water_works","osm_type":"way","osm_id":"1381714367"}},{"type":"Feature","geometry":{"type":"Point","coordinates":[-0.61842,53.58858]},"properties":{"name":"Mapped water infrastructure","category":"water_works","osm_type":"way","osm_id":"1381714374"}},{"type":"Feature","geometry":{"type":"Point","coordinates":[-0.3735,53.68202]},"properties":{"name":"Mapped water infrastructure","category":"pumping_station","osm_type":"way","osm_id":"1383046499"}},{"type":"Feature","geometry":{"type":"Point","coordinates":[-0.42655,53.67447]},"properties":{"name":"Mapped water infrastructure","category":"reservoir_covered","osm_type":"way","osm_id":"1383218513"}},{"type":"Feature","geometry":{"type":"Point","coordinates":[-0.36199,53.52396]},"properties":{"name":"Mapped water infrastructure","category":"wastewater_plant","osm_type":"way","osm_id":"1389874011"}},{"type":"Feature","geometry":{"type":"Point","coordinates":[-0.37972,53.84034]},"properties":{"name":"Weaverthorpe/STW","category":"wastewater_plant","osm_type":"way","osm_id":"1393798422","operator":"Yorkshire Water","ref":"SAI00002294"}},{"type":"Feature","geometry":{"type":"Point","coordinates":[-0.22106,53.93447]},"properties":{"name":"Beverley Road Norton/STW","category":"wastewater_plant","osm_type":"way","osm_id":"1395766245","operator":"Yorkshire Water","ref":"SAI00285288"}},{"type":"Feature","geometry":{"type":"Point","coordinates":[-0.45128,53.67645]},"properties":{"name":"Mapped water infrastructure","category":"wastewater_plant","osm_type":"way","osm_id":"1419289424"}},{"type":"Feature","geometry":{"type":"Point","coordinates":[-0.73407,53.6781]},"properties":{"name":"Adlingfleet (STW)","category":"wastewater_plant","osm_type":"way","osm_id":"1420925544","operator":"Severn Trent","ref":"18559-ST1"}},{"type":"Feature","geometry":{"type":"Point","coordinates":[-0.33013,53.6772]},"properties":{"name":"Mapped water infrastructure","category":"pumping_station","osm_type":"way","osm_id":"1421929625"}},{"type":"Feature","geometry":{"type":"Point","coordinates":[-0.93127,53.94882]},"properties":{"name":"Kexby/STW","category":"wastewater_plant","osm_type":"way","osm_id":"1423592639","operator":"Yorkshire Water","ref":"SAI00246319"}},{"type":"Feature","geometry":{"type":"Point","coordinates":[-0.93286,53.8496]},"properties":{"name":"Ellerton/STW","category":"wastewater_plant","osm_type":"way","osm_id":"1423594609","operator":"Yorkshire Water","ref":"SAI00002109"}},{"type":"Feature","geometry":{"type":"Point","coordinates":[-0.95781,53.74755]},"properties":{"name":"Barmby Bankfield/STW","category":"wastewater_plant","osm_type":"way","osm_id":"1423934854","operator":"Yorkshire Water","ref":"SAI00065764"}},{"type":"Feature","geometry":{"type":"Point","coordinates":[-0.96106,53.70211]},"properties":{"name":"Rawcliffe Bankside/STW","category":"wastewater_plant","osm_type":"way","osm_id":"1423934945","operator":"Yorkshire Water","ref":"SAI00270923"}},{"type":"Feature","geometry":{"type":"Point","coordinates":[-0.51636,53.67518]},"properties":{"name":"Mapped water infrastructure","category":"pumping_station","osm_type":"way","osm_id":"1434375094","operator":"Anglian Water"}},{"type":"Feature","geometry":{"type":"Point","coordinates":[-0.42249,53.50451]},"properties":{"name":"Mapped water infrastructure","category":"pumping_station","osm_type":"way","osm_id":"1448239189"}},{"type":"Feature","geometry":{"type":"Point","coordinates":[-0.57917,53.55854]},"properties":{"name":"Mapped water infrastructure","category":"reservoir_covered","osm_type":"way","osm_id":"1454435285"}},{"type":"Feature","geometry":{"type":"Point","coordinates":[-0.57895,53.55953]},"properties":{"name":"Mapped water infrastructure","category":"reservoir_covered","osm_type":"way","osm_id":"1454435286"}},{"type":"Feature","geometry":{"type":"Point","coordinates":[-0.57809,53.55981]},"properties":{"name":"Mapped water infrastructure","category":"reservoir_covered","osm_type":"way","osm_id":"1454435287"}},{"type":"Feature","geometry":{"type":"Point","coordinates":[-0.31033,53.66884]},"properties":{"name":"Mapped water infrastructure","category":"wastewater_plant","osm_type":"way","osm_id":"1539069989"}},{"type":"Feature","geometry":{"type":"Point","coordinates":[-0.94726,53.73497]},"properties":{"name":"Mapped water infrastructure","category":"pumping_station","osm_type":"way","osm_id":"47997525"}},{"type":"Feature","geometry":{"type":"Point","coordinates":[-0.50495,53.73654]},"properties":{"name":"Swanland Water Tower","category":"water_tower","osm_type":"way","osm_id":"54690542","addr:city":"North Ferriby","addr:postcode":"HU14 3PJ"}},{"type":"Feature","geometry":{"type":"Point","coordinates":[-0.49921,53.71632]},"properties":{"name":"Water Treatment Works","category":"wastewater_plant","osm_type":"way","osm_id":"100177802","operator":"Yorkshire Water"}},{"type":"Feature","geometry":{"type":"Point","coordinates":[-0.95934,53.60357]},"properties":{"name":"Mapped water infrastructure","category":"water_tower","osm_type":"way","osm_id":"114438486","addr:city":"Doncaster","addr:postcode":"DN8 5QR"}},{"type":"Feature","geometry":{"type":"Point","coordinates":[-0.44546,53.78667]},"properties":{"name":"Mapped water infrastructure","category":"water_works","osm_type":"way","osm_id":"122673097","operator":"Yorkshire Water","addr:city":"Cottingham","addr:postcode":"HU16 5TA"}},{"type":"Feature","geometry":{"type":"Point","coordinates":[-0.02214,53.73034]},"properties":{"name":"Rimswell Water Tower","category":"water_tower","osm_type":"way","osm_id":"135995925"}},{"type":"Feature","geometry":{"type":"Point","coordinates":[-0.23921,53.74504]},"properties":{"name":"Mapped water infrastructure","category":"pumping_station","osm_type":"way","osm_id":"152884324","addr:city":"Hull","addr:postcode":"HU12 8EY"}},{"type":"Feature","geometry":{"type":"Point","coordinates":[-0.2875,53.74746]},"properties":{"name":"East Hull Pumping Station","category":"pumping_station","osm_type":"way","osm_id":"153261419","operator":"Yorkshire Water","addr:city":"Hull","addr:postcode":"HU9 5PL"}},{"type":"Feature","geometry":{"type":"Point","coordinates":[-0.36754,53.86739]},"properties":{"name":"Ticton Pumping Station","category":"pumping_station","osm_type":"way","osm_id":"194466519","addr:city":"Beverley","addr:postcode":"HU17 9SH"}},{"type":"Feature","geometry":{"type":"Point","coordinates":[-0.36499,53.73207]},"properties":{"name":"West Hull Pumping Station","category":"pumping_station","osm_type":"way","osm_id":"205114650","operator":"Yorkshire Water","addr:city":"Hull","addr:postcode":"HU3 4DL"}},{"type":"Feature","geometry":{"type":"Point","coordinates":[-0.03587,53.56189]},"properties":{"name":"The Old Pumping Station","category":"pumping_station","osm_type":"way","osm_id":"207235602","addr:city":"Cleethorpes","addr:postcode":"DN35 8BL"}},{"type":"Feature","geometry":{"type":"Point","coordinates":[-0.0363,53.56575]},"properties":{"name":"Mapped water infrastructure","category":"water_tower","osm_type":"way","osm_id":"207243685","addr:city":"Cleethorpes","addr:postcode":"DN35 7JT"}},{"type":"Feature","geometry":{"type":"Point","coordinates":[-0.04576,53.50846]},"properties":{"name":"Mapped water infrastructure","category":"wastewater_plant","osm_type":"way","osm_id":"209445138"}},{"type":"Feature","geometry":{"type":"Point","coordinates":[-0.27775,53.60566]},"properties":{"name":"Mapped water infrastructure","category":"pumping_station","osm_type":"way","osm_id":"216534968","operator":"Anglian Water"}},{"type":"Feature","geometry":{"type":"Point","coordinates":[-0.20627,53.58578]},"properties":{"name":"Little London Pumping Station","category":"pumping_station","osm_type":"way","osm_id":"216676422","operator":"Anglian Water"}},{"type":"Feature","geometry":{"type":"Point","coordinates":[-0.29995,53.64548]},"properties":{"name":"Barrow-Thornton Pumping Station","category":"pumping_station","osm_type":"way","osm_id":"217194622","operator":"Anglian Water"}},{"type":"Feature","geometry":{"type":"Point","coordinates":[-0.16886,53.57931]},"properties":{"name":"Mapped water infrastructure","category":"pumping_station","osm_type":"way","osm_id":"218240281","operator":"Anglian Water"}},{"type":"Feature","geometry":{"type":"Point","coordinates":[-0.16091,53.58205]},"properties":{"name":"Mapped water infrastructure","category":"pumping_station","osm_type":"way","osm_id":"218332156","operator":"Anglian Water","addr:city":"Grimsby","addr:postcode":"DN41 7RB"}},{"type":"Feature","geometry":{"type":"Point","coordinates":[-0.69281,53.74792]},"properties":{"name":"Pumping Station","category":"pumping_station","osm_type":"way","osm_id":"232781547","addr:postcode":"HU15 2FZ"}},{"type":"Feature","geometry":{"type":"Point","coordinates":[-0.41187,53.79391]},"properties":{"name":"Cottingham water pumping station","category":"water_works","osm_type":"way","osm_id":"293564481","operator":"Yorkshire Water","addr:city":"Cottingham","addr:postcode":"HU16 4HE"}},{"type":"Feature","geometry":{"type":"Point","coordinates":[-0.31736,53.97246]},"properties":{"name":"Beckwithshaw/STW","category":"wastewater_plant","osm_type":"way","osm_id":"305414491","operator":"Yorkshire Water","ref":"SAI00001645"}},{"type":"Feature","geometry":{"type":"Point","coordinates":[-0.73165,53.90685]},"properties":{"name":"Mapped water infrastructure","category":"pumping_station","osm_type":"way","osm_id":"305548902","addr:city":"York","addr:postcode":"YO42 1RS"}},{"type":"Feature","geometry":{"type":"Point","coordinates":[-0.33454,53.92959]},"properties":{"name":"Hempholme Pumping Station","category":"pumping_station","osm_type":"way","osm_id":"313268664"}},{"type":"Feature","geometry":{"type":"Point","coordinates":[-0.62237,53.75101]},"properties":{"name":"Ellerker WwTW","category":"wastewater_plant","osm_type":"way","osm_id":"320717655","operator":"Yorkshire Water"}},{"type":"Feature","geometry":{"type":"Point","coordinates":[-0.35749,53.93434]},"properties":{"name":"Mapped water infrastructure","category":"pumping_station","osm_type":"way","osm_id":"348724371"}},{"type":"Feature","geometry":{"type":"Point","coordinates":[-0.10936,53.55837]},"properties":{"name":"Mapped water infrastructure","category":"water_tower","osm_type":"way","osm_id":"359668392"}},{"type":"Feature","geometry":{"type":"Point","coordinates":[-0.41735,53.56964]},"properties":{"name":"Barnetby Le Wold STW","category":"wastewater_plant","osm_type":"way","osm_id":"361164368","operator":"Anglian Water","ref":"BABYST"}},{"type":"Feature","geometry":{"type":"Point","coordinates":[-0.31797,53.87489]},"properties":{"name":"Long Riston Pumping Station","category":"pumping_station","osm_type":"way","osm_id":"617977504","addr:city":"Hull","addr:postcode":"HU11 5SB"}},{"type":"Feature","geometry":{"type":"Point","coordinates":[-0.38516,53.90893]},"properties":{"name":"Wilfholme Pumping Station","category":"pumping_station","osm_type":"way","osm_id":"632605737"}},{"type":"Feature","geometry":{"type":"Point","coordinates":[-0.30902,53.80468]},"properties":{"name":"Great Culvert Pumping Station","category":"pumping_station","osm_type":"way","osm_id":"640117570","operator":"Environment Agency"}},{"type":"Feature","geometry":{"type":"Point","coordinates":[-0.69288,53.74647]},"properties":{"name":"Mapped water infrastructure","category":"pumping_station","osm_type":"way","osm_id":"640118321"}},{"type":"Feature","geometry":{"type":"Point","coordinates":[-0.03111,53.69142]},"properties":{"name":"Winestead Booster Pumping Station","category":"pumping_station","osm_type":"way","osm_id":"659174279","operator":"Environment Agency"}},{"type":"Feature","geometry":{"type":"Point","coordinates":[-0.89443,53.72834]},"properties":{"name":"Mapped water infrastructure","category":"pumping_station","osm_type":"way","osm_id":"670043146"}},{"type":"Feature","geometry":{"type":"Point","coordinates":[-0.85274,53.73306]},"properties":{"name":"Howdendyke Pumping Station","category":"pumping_station","osm_type":"way","osm_id":"670518759"}},{"type":"Feature","geometry":{"type":"Point","coordinates":[-0.00809,53.5415]},"properties":{"name":"Little Buck Beck Pumping Station","category":"pumping_station","osm_type":"way","osm_id":"695658599","operator":"North East Lindsey Drainage Board"}},{"type":"Feature","geometry":{"type":"Point","coordinates":[-0.11837,53.5938]},"properties":{"name":"Mawnbridge Pumping Station","category":"pumping_station","osm_type":"way","osm_id":"695658600","operator":"North East Lindsey Drainage Board"}},{"type":"Feature","geometry":{"type":"Point","coordinates":[-0.14397,53.60876]},"properties":{"name":"Middle Drain Pumping Station","category":"pumping_station","osm_type":"way","osm_id":"695658601","operator":"North East Lindsey Drainage Board"}},{"type":"Feature","geometry":{"type":"Point","coordinates":[-0.22067,53.9943]},"properties":{"name":"Mapped water infrastructure","category":"pumping_station","osm_type":"way","osm_id":"794205813"}},{"type":"Feature","geometry":{"type":"Point","coordinates":[-0.73208,53.70804]},"properties":{"name":"Blacktoft Pumping Station","category":"pumping_station","osm_type":"way","osm_id":"832938876","addr:city":"Goole","addr:postcode":"DN14 7YW"}},{"type":"Feature","geometry":{"type":"Point","coordinates":[-0.87839,53.70255]},"properties":{"name":"Mapped water infrastructure","category":"water_tower","osm_type":"way","osm_id":"885339907"}},{"type":"Feature","geometry":{"type":"Point","coordinates":[-0.86927,53.57935]},"properties":{"name":"Dirtness Pumping Station","category":"pumping_station","osm_type":"way","osm_id":"1015892476","operator":"Environment Agency"}},{"type":"Feature","geometry":{"type":"Point","coordinates":[-0.7397,53.59168]},"properties":{"name":"Keadby Pumping Station","category":"pumping_station","osm_type":"way","osm_id":"1015892477","operator":"Environment Agency","addr:city":"Scunthorpe","addr:postcode":"DN17 3BP"}},{"type":"Feature","geometry":{"type":"Point","coordinates":[-0.77276,53.60474]},"properties":{"name":"Bewcarrs Pumping Station","category":"pumping_station","osm_type":"way","osm_id":"1022717752","operator":"Isle of Axholme and North Nottinghamshire Water Level Management Board"}},{"type":"Feature","geometry":{"type":"Point","coordinates":[-0.16044,53.90992]},"properties":{"name":"Mapped water infrastructure","category":"pumping_station","osm_type":"way","osm_id":"1051339198"}},{"type":"Feature","geometry":{"type":"Point","coordinates":[-0.68134,53.85496]},"properties":{"name":"Market Weighton STW","category":"wastewater_plant","osm_type":"way","osm_id":"1083793730","operator":"Yorkshire Water"}},{"type":"Feature","geometry":{"type":"Point","coordinates":[-0.57098,53.68406]},"properties":{"name":"Winteringham STW","category":"wastewater_plant","osm_type":"way","osm_id":"1085318597","operator":"Yorkshire Water","ref":"WINTST"}},{"type":"Feature","geometry":{"type":"Point","coordinates":[-0.52312,53.5302]},"properties":{"name":"Hibaldstow STW","category":"wastewater_plant","osm_type":"way","osm_id":"1085342910"}},{"type":"Feature","geometry":{"type":"Point","coordinates":[-0.22776,53.98374]},"properties":{"name":"Skipsea STW","category":"wastewater_plant","osm_type":"way","osm_id":"1089515560","operator":"Yorkshire Water"}},{"type":"Feature","geometry":{"type":"Point","coordinates":[-0.92411,53.98951]},"properties":{"name":"Stamford Bridge Sewage Treatment Works","category":"wastewater_plant","osm_type":"way","osm_id":"1092040673","operator":"Yorkshire Water"}},{"type":"Feature","geometry":{"type":"Point","coordinates":[-0.89259,53.94478]},"properties":{"name":"Wilberfoss WPC","category":"wastewater_plant","osm_type":"way","osm_id":"1092051311","operator":"Yorkshire Water"}},{"type":"Feature","geometry":{"type":"Point","coordinates":[-0.53422,53.71372]},"properties":{"name":"Melton STW","category":"wastewater_plant","osm_type":"way","osm_id":"1092051312","operator":"Yorkshire Water"}},{"type":"Feature","geometry":{"type":"Point","coordinates":[-0.87843,53.70231]},"properties":{"name":"Mapped water infrastructure","category":"water_tower","osm_type":"way","osm_id":"1112115255"}},{"type":"Feature","geometry":{"type":"Point","coordinates":[-0.06156,53.53269]},"properties":{"name":"Mapped water infrastructure","category":"pumping_station","osm_type":"way","osm_id":"1186911238","addr:city":"Grimsby","addr:postcode":"DN36 4RS"}},{"type":"Feature","geometry":{"type":"Point","coordinates":[-0.1685,53.54831]},"properties":{"name":"Mapped water infrastructure","category":"pumping_station","osm_type":"way","osm_id":"1188508582"}},{"type":"Feature","geometry":{"type":"Point","coordinates":[-0.96516,53.89539]},"properties":{"name":"Mapped water infrastructure","category":"water_tower","osm_type":"way","osm_id":"1303502198"}},{"type":"Feature","geometry":{"type":"Point","coordinates":[-0.16957,53.58117]},"properties":{"name":"Mapped water infrastructure","category":"pumping_station","osm_type":"way","osm_id":"1319270522"}},{"type":"Feature","geometry":{"type":"Point","coordinates":[-0.09565,53.51304]},"properties":{"name":"Mapped water infrastructure","category":"pumping_station","osm_type":"way","osm_id":"1362276009"}},{"type":"Feature","geometry":{"type":"Point","coordinates":[-0.1636,53.54095]},"properties":{"name":"Mapped water infrastructure","category":"pumping_station","osm_type":"way","osm_id":"1362648938","addr:city":"Grimsby","addr:postcode":"DN37 7DA"}},{"type":"Feature","geometry":{"type":"Point","coordinates":[-0.1758,53.54536]},"properties":{"name":"Mapped water infrastructure","category":"pumping_station","osm_type":"way","osm_id":"1362829253","addr:city":"Grimsby","addr:postcode":"DN37 7FD"}},{"type":"Feature","geometry":{"type":"Point","coordinates":[-0.94803,53.51998]},"properties":{"name":"Mapped water infrastructure","category":"pumping_station","osm_type":"way","osm_id":"1364277420"}},{"type":"Feature","geometry":{"type":"Point","coordinates":[-0.88137,53.5629]},"properties":{"name":"Mapped water infrastructure","category":"water_tower","osm_type":"way","osm_id":"1364479783"}},{"type":"Feature","geometry":{"type":"Point","coordinates":[-0.2247,53.61229]},"properties":{"name":"Mapped water infrastructure","category":"pumping_station","osm_type":"way","osm_id":"1368004053","addr:city":"Immingham","addr:postcode":"DN40 2DT"}},{"type":"Feature","geometry":{"type":"Point","coordinates":[-0.82648,53.61093]},"properties":{"name":"Mapped water infrastructure","category":"water_tower","osm_type":"way","osm_id":"1370884041"}},{"type":"Feature","geometry":{"type":"Point","coordinates":[-0.88334,53.52704]},"properties":{"name":"Greenholme Pumping Station","category":"pumping_station","osm_type":"way","osm_id":"1373353748","operator":"Isle of Axholme and North Nottinghamshire Water Level Management Board"}},{"type":"Feature","geometry":{"type":"Point","coordinates":[-0.89319,53.52799]},"properties":{"name":"Mapped water infrastructure","category":"pumping_station","osm_type":"way","osm_id":"1373353752"}},{"type":"Feature","geometry":{"type":"Point","coordinates":[-0.01632,53.53703]},"properties":{"name":"Mapped water infrastructure","category":"pumping_station","osm_type":"way","osm_id":"1422455901","addr:city":"Cleethorpes","addr:postcode":"DN35 0ND"}},{"type":"Feature","geometry":{"type":"Point","coordinates":[-0.76204,53.50154]},"properties":{"name":"Kelfield Pumping Station","category":"pumping_station","osm_type":"way","osm_id":"1425679579","operator":"Isle of Axholme and North Nottinghamshire Water Level Management Board"}},{"type":"Feature","geometry":{"type":"Point","coordinates":[-0.74409,53.53751]},"properties":{"name":"South Field Pumping Station","category":"pumping_station","osm_type":"way","osm_id":"1425679582","operator":"Isle of Axholme and North Nottinghamshire Water Level Management Board"}},{"type":"Feature","geometry":{"type":"Point","coordinates":[-0.74662,53.55463]},"properties":{"name":"Trentside Pumping Station","category":"pumping_station","osm_type":"way","osm_id":"1425679584","operator":"Isle of Axholme and North Nottinghamshire Water Level Management Board"}},{"type":"Feature","geometry":{"type":"Point","coordinates":[-0.75643,53.55461]},"properties":{"name":"Rush Carr Pumping Station","category":"pumping_station","osm_type":"way","osm_id":"1425679587","operator":"Isle of Axholme and North Nottinghamshire Water Level Management Board"}},{"type":"Feature","geometry":{"type":"Point","coordinates":[-0.75126,53.58771]},"properties":{"name":"Althorpe Pumping Station","category":"pumping_station","osm_type":"way","osm_id":"1425679590","operator":"Isle of Axholme and North Nottinghamshire Water Level Management Board"}},{"type":"Feature","geometry":{"type":"Point","coordinates":[-0.71544,53.62794]},"properties":{"name":"Paupers' Pumping Station","category":"pumping_station","osm_type":"way","osm_id":"1425679592","operator":"Isle of Axholme and North Nottinghamshire Water Level Management Board"}},{"type":"Feature","geometry":{"type":"Point","coordinates":[-0.73437,53.67763]},"properties":{"name":"Cow Lane Pumping Station","category":"pumping_station","osm_type":"way","osm_id":"1425679595","operator":"Isle of Axholme and North Nottinghamshire Water Level Management Board"}},{"type":"Feature","geometry":{"type":"Point","coordinates":[-0.81809,53.62364]},"properties":{"name":"Common Carr Pumping Station","category":"pumping_station","osm_type":"way","osm_id":"1425679598","operator":"Isle of Axholme and North Nottinghamshire Water Level Management Board"}},{"type":"Feature","geometry":{"type":"Point","coordinates":[-0.10816,53.53666]},"properties":{"name":"Mapped water infrastructure","category":"pumping_station","osm_type":"way","osm_id":"1493631390"}},{"type":"Feature","geometry":{"type":"Point","coordinates":[-0.11026,53.53769]},"properties":{"name":"Mapped water infrastructure","category":"pumping_station","osm_type":"way","osm_id":"1493631394"}}]}