{"type":"FeatureCollection","features":[{"type":"Feature","geometry":{"type":"Point","coordinates":[-1.49919,55.10968]},"properties":{"name":"Mapped water infrastructure","category":"drinking_water","osm_type":"node","osm_id":"469167550","wheelchair":"yes"}},{"type":"Feature","geometry":{"type":"Point","coordinates":[-1.52024,55.14283]},"properties":{"name":"Mapped water infrastructure","category":"water_tower","osm_type":"node","osm_id":"503634940"}},{"type":"Feature","geometry":{"type":"Point","coordinates":[-1.74754,55.40933]},"properties":{"name":"Mapped water infrastructure","category":"water_well","osm_type":"node","osm_id":"998107875"}},{"type":"Feature","geometry":{"type":"Point","coordinates":[-1.73223,55.43535]},"properties":{"name":"Lady's Well","category":"water_well","osm_type":"node","osm_id":"1022920466"}},{"type":"Feature","geometry":{"type":"Point","coordinates":[-1.5954,55.48941]},"properties":{"name":"Mapped water infrastructure","category":"water_well","osm_type":"node","osm_id":"1285924136"}},{"type":"Feature","geometry":{"type":"Point","coordinates":[-1.62585,55.48679]},"properties":{"name":"Mapped water infrastructure","category":"drinking_water","osm_type":"node","osm_id":"1319860535"}},{"type":"Feature","geometry":{"type":"Point","coordinates":[-1.62817,55.48528]},"properties":{"name":"Mapped water infrastructure","category":"drinking_water","osm_type":"node","osm_id":"1319860617"}},{"type":"Feature","geometry":{"type":"Point","coordinates":[-1.62724,55.48604]},"properties":{"name":"Mapped water infrastructure","category":"drinking_water","osm_type":"node","osm_id":"1319860627"}},{"type":"Feature","geometry":{"type":"Point","coordinates":[-1.612,55.34756]},"properties":{"name":"Mapped water infrastructure","category":"drinking_water","osm_type":"node","osm_id":"2096598935"}},{"type":"Feature","geometry":{"type":"Point","coordinates":[-1.60299,55.36427]},"properties":{"name":"Mapped water infrastructure","category":"drinking_water","osm_type":"node","osm_id":"5198637471"}},{"type":"Feature","geometry":{"type":"Point","coordinates":[-1.79604,55.4396]},"properties":{"name":"Mapped water infrastructure","category":"water_well","osm_type":"node","osm_id":"6122458715"}},{"type":"Feature","geometry":{"type":"Point","coordinates":[-1.50145,55.12243]},"properties":{"name":"Public Water Pump","category":"drinking_water","osm_type":"node","osm_id":"6193021678"}},{"type":"Feature","geometry":{"type":"Point","coordinates":[-1.43054,55.00412]},"properties":{"name":"Mapped water infrastructure","category":"water_well","osm_type":"node","osm_id":"6990308938"}},{"type":"Feature","geometry":{"type":"Point","coordinates":[-1.5542,55.19693]},"properties":{"name":"Stonemasons Well","category":"water_well","osm_type":"node","osm_id":"8326209897","ref":"Stonemasons Well"}},{"type":"Feature","geometry":{"type":"Point","coordinates":[-1.69393,55.37185]},"properties":{"name":"Mapped water infrastructure","category":"water_well","osm_type":"node","osm_id":"11063998632"}},{"type":"Feature","geometry":{"type":"Point","coordinates":[-1.51039,55.18492]},"properties":{"name":"sea-changers","category":"drinking_water","osm_type":"node","osm_id":"11300006524","wheelchair":"yes"}},{"type":"Feature","geometry":{"type":"Point","coordinates":[-1.42103,55.01822]},"properties":{"name":"Mapped water infrastructure","category":"drinking_water","osm_type":"node","osm_id":"11326593521"}},{"type":"Feature","geometry":{"type":"Point","coordinates":[-1.46267,55.04611]},"properties":{"name":"Mapped water infrastructure","category":"drinking_water","osm_type":"node","osm_id":"12304656922"}},{"type":"Feature","geometry":{"type":"Point","coordinates":[-1.45109,55.05363]},"properties":{"name":"Mapped water infrastructure","category":"drinking_water","osm_type":"node","osm_id":"12312461818"}},{"type":"Feature","geometry":{"type":"Point","coordinates":[-1.4592,55.04411]},"properties":{"name":"Mapped water infrastructure","category":"drinking_water","osm_type":"node","osm_id":"12312835665"}},{"type":"Feature","geometry":{"type":"Point","coordinates":[-1.58081,55.11141]},"properties":{"name":"East Hartford WWTW","category":"wastewater_plant","osm_type":"way","osm_id":"89020028"}},{"type":"Feature","geometry":{"type":"Point","coordinates":[-1.60639,55.42685]},"properties":{"name":"Mapped water infrastructure","category":"wastewater_plant","osm_type":"way","osm_id":"89901639"}},{"type":"Feature","geometry":{"type":"Point","coordinates":[-1.54038,55.15646]},"properties":{"name":"Cambois STW","category":"wastewater_plant","osm_type":"way","osm_id":"89990629","operator":"Northumbrian Water","ref":"NNN1005"}},{"type":"Feature","geometry":{"type":"Point","coordinates":[-1.89042,55.30452]},"properties":{"name":"Mapped water infrastructure","category":"wastewater_plant","osm_type":"way","osm_id":"116949304"}},{"type":"Feature","geometry":{"type":"Point","coordinates":[-1.693,55.2055]},"properties":{"name":"Mapped water infrastructure","category":"reservoir_covered","osm_type":"way","osm_id":"127053100"}},{"type":"Feature","geometry":{"type":"Point","coordinates":[-1.6932,55.20688]},"properties":{"name":"Mapped water infrastructure","category":"reservoir_covered","osm_type":"way","osm_id":"127053101"}},{"type":"Feature","geometry":{"type":"Point","coordinates":[-1.80676,55.12191]},"properties":{"name":"Whalton STW","category":"wastewater_plant","osm_type":"way","osm_id":"149862174","operator":"Northumbrian Water","ref":"NST1671"}},{"type":"Feature","geometry":{"type":"Point","coordinates":[-1.63338,55.48938]},"properties":{"name":"Embleton WwTW","category":"wastewater_plant","osm_type":"way","osm_id":"150219264","operator":"Northumbrian Water","ref":"NST1212"}},{"type":"Feature","geometry":{"type":"Point","coordinates":[-1.93538,55.169]},"properties":{"name":"WWTW","category":"wastewater_plant","osm_type":"way","osm_id":"150541827"}},{"type":"Feature","geometry":{"type":"Point","coordinates":[-1.8695,55.04195]},"properties":{"name":"Stamfordham STW","category":"wastewater_plant","osm_type":"way","osm_id":"154476450","operator":"Northumbrian Water","ref":"NST2391"}},{"type":"Feature","geometry":{"type":"Point","coordinates":[-1.66372,55.46265]},"properties":{"name":"Mapped water infrastructure","category":"wastewater_plant","osm_type":"way","osm_id":"158668330"}},{"type":"Feature","geometry":{"type":"Point","coordinates":[-1.75829,55.24372]},"properties":{"name":"Longhorsley STW","category":"wastewater_plant","osm_type":"way","osm_id":"169738490","operator":"Northumbrian Water","ref":"NST1452"}},{"type":"Feature","geometry":{"type":"Point","coordinates":[-1.62426,55.32444]},"properties":{"name":"Mapped water infrastructure","category":"reservoir_covered","osm_type":"way","osm_id":"205796068"}},{"type":"Feature","geometry":{"type":"Point","coordinates":[-1.73657,55.23755]},"properties":{"name":"Mapped water infrastructure","category":"reservoir_covered","osm_type":"way","osm_id":"207488342"}},{"type":"Feature","geometry":{"type":"Point","coordinates":[-1.53056,55.21223]},"properties":{"name":"Lynemouth STW","category":"wastewater_plant","osm_type":"way","osm_id":"209443722","operator":"Northumbrian Water","ref":"NST2342"}},{"type":"Feature","geometry":{"type":"Point","coordinates":[-1.86008,55.44228]},"properties":{"name":"Mapped water infrastructure","category":"reservoir_covered","osm_type":"way","osm_id":"224647486"}},{"type":"Feature","geometry":{"type":"Point","coordinates":[-1.89497,55.41857]},"properties":{"name":"Mapped water infrastructure","category":"wastewater_plant","osm_type":"way","osm_id":"226241493"}},{"type":"Feature","geometry":{"type":"Point","coordinates":[-1.92106,55.23772]},"properties":{"name":"Mapped water infrastructure","category":"water_works","osm_type":"way","osm_id":"239249644","operator":"Northumbrian Water"}},{"type":"Feature","geometry":{"type":"Point","coordinates":[-1.90323,55.44239]},"properties":{"name":"Sewerage Works","category":"wastewater_plant","osm_type":"way","osm_id":"239946367"}},{"type":"Feature","geometry":{"type":"Point","coordinates":[-1.6286,55.34675]},"properties":{"name":"Mapped water infrastructure","category":"reservoir_covered","osm_type":"way","osm_id":"259984493"}},{"type":"Feature","geometry":{"type":"Point","coordinates":[-1.78292,55.24634]},"properties":{"name":"Mapped water infrastructure","category":"reservoir_covered","osm_type":"way","osm_id":"260149122"}},{"type":"Feature","geometry":{"type":"Point","coordinates":[-1.60408,55.47278]},"properties":{"name":"Dunstan STW","category":"wastewater_plant","osm_type":"way","osm_id":"260640752","operator":"Northumbrian Water","ref":"NST3202"}},{"type":"Feature","geometry":{"type":"Point","coordinates":[-1.76068,55.02009]},"properties":{"name":"Birney Hill","category":"reservoir_covered","osm_type":"way","osm_id":"272626264","operator":"Northumbrian Water Ltd","capacity":"78544"}},{"type":"Feature","geometry":{"type":"Point","coordinates":[-1.75996,55.02008]},"properties":{"name":"Mapped water infrastructure","category":"water_works","osm_type":"way","osm_id":"272626345"}},{"type":"Feature","geometry":{"type":"Point","coordinates":[-1.6955,55.20568]},"properties":{"name":"Mapped water infrastructure","category":"reservoir_covered","osm_type":"way","osm_id":"281112693"}},{"type":"Feature","geometry":{"type":"Point","coordinates":[-1.52103,55.02756]},"properties":{"name":"Rain water storage & pumping station (Underground)","category":"pumping_station","osm_type":"way","osm_id":"317452375","operator":"Northumbrian Water"}},{"type":"Feature","geometry":{"type":"Point","coordinates":[-1.46871,55.01831]},"properties":{"name":"Mapped water infrastructure","category":"reservoir_covered","osm_type":"way","osm_id":"399022019"}},{"type":"Feature","geometry":{"type":"Point","coordinates":[-1.44666,55.03557]},"properties":{"name":"Marden Quary Sewerage Pumping Station","category":"pumping_station","osm_type":"way","osm_id":"453676396"}},{"type":"Feature","geometry":{"type":"Point","coordinates":[-1.70397,55.12917]},"properties":{"name":"Mapped water infrastructure","category":"water_works","osm_type":"way","osm_id":"633045026"}},{"type":"Feature","geometry":{"type":"Point","coordinates":[-1.74311,55.31019]},"properties":{"name":"Mapped water infrastructure","category":"reservoir_covered","osm_type":"way","osm_id":"652240617"}},{"type":"Feature","geometry":{"type":"Point","coordinates":[-1.88935,55.40227]},"properties":{"name":"Whittingham STW","category":"wastewater_plant","osm_type":"way","osm_id":"814077035","operator":"Northumbrian Water","ref":"NST1292"}},{"type":"Feature","geometry":{"type":"Point","coordinates":[-1.95088,55.0414]},"properties":{"name":"Matfen Village Sewage Pumping Station","category":"pumping_station","osm_type":"way","osm_id":"1025521464","operator":"Northumbrian Water"}},{"type":"Feature","geometry":{"type":"Point","coordinates":[-1.44617,55.00079]},"properties":{"name":"Mapped water infrastructure","category":"pumping_station","osm_type":"way","osm_id":"1064067780"}},{"type":"Feature","geometry":{"type":"Point","coordinates":[-1.43271,55.00987]},"properties":{"name":"Mapped water infrastructure","category":"pumping_station","osm_type":"way","osm_id":"1064067781"}},{"type":"Feature","geometry":{"type":"Point","coordinates":[-1.43254,55.01114]},"properties":{"name":"Mapped water infrastructure","category":"pumping_station","osm_type":"way","osm_id":"1064068385"}},{"type":"Feature","geometry":{"type":"Point","coordinates":[-1.42924,55.00661]},"properties":{"name":"Mapped water infrastructure","category":"pumping_station","osm_type":"way","osm_id":"1064072690"}},{"type":"Feature","geometry":{"type":"Point","coordinates":[-1.72862,55.07329]},"properties":{"name":"Berwick Hill STW","category":"wastewater_plant","osm_type":"way","osm_id":"1207204845","operator":"Northumbrian Water","ref":"NST1851"}},{"type":"Feature","geometry":{"type":"Point","coordinates":[-1.52976,55.19327]},"properties":{"name":"Woodhorn Church Sewage Pumping Station","category":"pumping_station","osm_type":"way","osm_id":"1270697538","operator":"Northumbrian Water","ref":"NZ 30034 88879"}},{"type":"Feature","geometry":{"type":"Point","coordinates":[-1.50565,55.18572]},"properties":{"name":"Attlee Terrace Sewage Pumping Station","category":"pumping_station","osm_type":"way","osm_id":"1270697589","operator":"Northumbrian Water","ref":"NZ 31570 88054"}},{"type":"Feature","geometry":{"type":"Point","coordinates":[-1.65513,55.19401]},"properties":{"name":"Mapped water infrastructure","category":"pumping_station","osm_type":"way","osm_id":"1293513768","operator":"Northumbrian Water"}},{"type":"Feature","geometry":{"type":"Point","coordinates":[-1.64748,55.19258]},"properties":{"name":"Longhirst Village WwTW","category":"wastewater_plant","osm_type":"way","osm_id":"1293513775","operator":"Northumbrian Water","ref":"NST1532"}},{"type":"Feature","geometry":{"type":"Point","coordinates":[-1.8377,55.10342]},"properties":{"name":"Belsay STW","category":"wastewater_plant","osm_type":"way","osm_id":"1293984052","operator":"Northumbrian Water","ref":"NST1681"}},{"type":"Feature","geometry":{"type":"Point","coordinates":[-1.69591,55.19961]},"properties":{"name":"Hebron STW","category":"wastewater_plant","osm_type":"way","osm_id":"1316728411","operator":"Northumbrian Water","ref":"NST4121"}},{"type":"Feature","geometry":{"type":"Point","coordinates":[-1.821,55.46365]},"properties":{"name":"Eglingham STW","category":"wastewater_plant","osm_type":"way","osm_id":"1421987496","operator":"Northumbrian Water","ref":"NST1242"}},{"type":"Feature","geometry":{"type":"Point","coordinates":[-1.92213,55.23773]},"properties":{"name":"Fontburn STW","category":"wastewater_plant","osm_type":"way","osm_id":"1423350549","operator":"Northumbrian Water","ref":"N0071"}},{"type":"Feature","geometry":{"type":"Point","coordinates":[-1.47728,55.02353]},"properties":{"name":"Mapped water infrastructure","category":"reservoir_covered","osm_type":"way","osm_id":"39179383","operator":"Northumbrian Water"}},{"type":"Feature","geometry":{"type":"Point","coordinates":[-1.66071,55.3702]},"properties":{"name":"WWTW","category":"wastewater_plant","osm_type":"way","osm_id":"89505194"}},{"type":"Feature","geometry":{"type":"Point","coordinates":[-1.62102,55.39633]},"properties":{"name":"Alnmouth WwTW","category":"wastewater_plant","osm_type":"way","osm_id":"89632774","operator":"Northumbrian Water","ref":"NST1282"}},{"type":"Feature","geometry":{"type":"Point","coordinates":[-1.62994,55.08999]},"properties":{"name":"Mapped water infrastructure","category":"reservoir_covered","osm_type":"way","osm_id":"89853052","operator":"Northumbrian Water"}},{"type":"Feature","geometry":{"type":"Point","coordinates":[-1.709,55.1374]},"properties":{"name":"Mapped water infrastructure","category":"water_tower","osm_type":"way","osm_id":"89990461"}},{"type":"Feature","geometry":{"type":"Point","coordinates":[-1.67491,55.1692]},"properties":{"name":"Morpeth STW","category":"wastewater_plant","osm_type":"way","osm_id":"102191612"}},{"type":"Feature","geometry":{"type":"Point","coordinates":[-1.50316,55.1102]},"properties":{"name":"Mapped water infrastructure","category":"pumping_station","osm_type":"way","osm_id":"119384369","operator":"Northumbrian Water"}},{"type":"Feature","geometry":{"type":"Point","coordinates":[-1.64134,55.14832]},"properties":{"name":"Hepscott STW","category":"wastewater_plant","osm_type":"way","osm_id":"128332387","operator":"Northumbrian Water","ref":"NST1602"}},{"type":"Feature","geometry":{"type":"Point","coordinates":[-1.70659,55.13307]},"properties":{"name":"Mapped water infrastructure","category":"water_tower","osm_type":"way","osm_id":"132789316"}},{"type":"Feature","geometry":{"type":"Point","coordinates":[-1.68097,55.41214]},"properties":{"name":"Alnwick STW","category":"wastewater_plant","osm_type":"way","osm_id":"134633633","operator":"Northumbrian Water","ref":"NST1272"}},{"type":"Feature","geometry":{"type":"Point","coordinates":[-1.57608,55.3247]},"properties":{"name":"Amble Sewage Treatment Works","category":"wastewater_plant","osm_type":"way","osm_id":"145171798","operator":"Northumbrian Water"}},{"type":"Feature","geometry":{"type":"Point","coordinates":[-1.78225,55.10277]},"properties":{"name":"WWTW","category":"wastewater_plant","osm_type":"way","osm_id":"149862173"}},{"type":"Feature","geometry":{"type":"Point","coordinates":[-1.65867,55.47606]},"properties":{"name":"Whinny Hill","category":"reservoir_covered","osm_type":"way","osm_id":"150770816"}},{"type":"Feature","geometry":{"type":"Point","coordinates":[-1.65308,55.43434]},"properties":{"name":"Mapped water infrastructure","category":"reservoir_covered","osm_type":"way","osm_id":"158686603"}},{"type":"Feature","geometry":{"type":"Point","coordinates":[-1.7004,55.29931]},"properties":{"name":"Felton STW","category":"wastewater_plant","osm_type":"way","osm_id":"205084451","operator":"Northumbrian Water","ref":"NST8662"}},{"type":"Feature","geometry":{"type":"Point","coordinates":[-1.62578,55.32654]},"properties":{"name":"Mapped water infrastructure","category":"water_tower","osm_type":"way","osm_id":"205084452"}},{"type":"Feature","geometry":{"type":"Point","coordinates":[-1.53968,55.13338]},"properties":{"name":"Mapped water infrastructure","category":"wastewater_plant","osm_type":"way","osm_id":"209349996"}},{"type":"Feature","geometry":{"type":"Point","coordinates":[-1.52177,55.17543]},"properties":{"name":"Newbiggin by the Sea Sewage Pumping Station","category":"pumping_station","osm_type":"way","osm_id":"210239876","operator":"Northumbrian Water"}},{"type":"Feature","geometry":{"type":"Point","coordinates":[-1.6822,55.16883]},"properties":{"name":"Borough of Morpeth Sewage Disposal Works","category":"water_works","osm_type":"way","osm_id":"221872706","operator":"Northumbria Water"}},{"type":"Feature","geometry":{"type":"Point","coordinates":[-1.63561,55.18058]},"properties":{"name":"Pegswood Sewage Works","category":"wastewater_plant","osm_type":"way","osm_id":"222437387"}},{"type":"Feature","geometry":{"type":"Point","coordinates":[-1.70978,55.18779]},"properties":{"name":"Mapped water infrastructure","category":"water_tower","osm_type":"way","osm_id":"258827180"}},{"type":"Feature","geometry":{"type":"Point","coordinates":[-1.68618,55.40246]},"properties":{"name":"Mapped water infrastructure","category":"water_tower","osm_type":"way","osm_id":"312070021"}},{"type":"Feature","geometry":{"type":"Point","coordinates":[-1.61292,55.30614]},"properties":{"name":"Mapped water infrastructure","category":"water_tower","osm_type":"way","osm_id":"397761869","operator":"Northumbrian Water"}},{"type":"Feature","geometry":{"type":"Point","coordinates":[-1.60785,55.30724]},"properties":{"name":"WWTW","category":"wastewater_plant","osm_type":"way","osm_id":"435627855","operator":"Northumbrian Water"}},{"type":"Feature","geometry":{"type":"Point","coordinates":[-1.79969,55.0205]},"properties":{"name":"Mapped water infrastructure","category":"water_tower","osm_type":"way","osm_id":"488401997"}},{"type":"Feature","geometry":{"type":"Point","coordinates":[-1.71264,55.1171]},"properties":{"name":"Mapped water infrastructure","category":"water_works","osm_type":"way","osm_id":"633044982"}},{"type":"Feature","geometry":{"type":"Point","coordinates":[-1.75086,55.33182]},"properties":{"name":"Mapped water infrastructure","category":"reservoir_covered","osm_type":"way","osm_id":"652664562"}},{"type":"Feature","geometry":{"type":"Point","coordinates":[-1.82815,55.42042]},"properties":{"name":"Water pumping station","category":"plot","osm_type":"way","osm_id":"653283283"}},{"type":"Feature","geometry":{"type":"Point","coordinates":[-1.72629,55.3534]},"properties":{"name":"Whittle Colliery STW","category":"wastewater_plant","osm_type":"way","osm_id":"655310114","operator":"Northumbrian Water","ref":"NST8742"}},{"type":"Feature","geometry":{"type":"Point","coordinates":[-1.7298,55.345]},"properties":{"name":"WWTW","category":"wastewater_plant","osm_type":"way","osm_id":"655310175"}},{"type":"Feature","geometry":{"type":"Point","coordinates":[-1.65833,55.38644]},"properties":{"name":"Mapped water infrastructure","category":"reservoir_covered","osm_type":"way","osm_id":"657032440"}},{"type":"Feature","geometry":{"type":"Point","coordinates":[-1.62197,55.49976]},"properties":{"name":"Mapped water infrastructure","category":"pumping_station","osm_type":"way","osm_id":"661367097"}},{"type":"Feature","geometry":{"type":"Point","coordinates":[-1.71049,55.47729]},"properties":{"name":"Mapped water infrastructure","category":"water_tower","osm_type":"way","osm_id":"664081372"}},{"type":"Feature","geometry":{"type":"Point","coordinates":[-1.9326,55.31765]},"properties":{"name":"Mapped water infrastructure","category":"reservoir_covered","osm_type":"way","osm_id":"675943773"}},{"type":"Feature","geometry":{"type":"Point","coordinates":[-1.95512,55.32041]},"properties":{"name":"Snitter (& Thropton) STW","category":"wastewater_plant","osm_type":"way","osm_id":"676735862","operator":"Northumbrian Water","ref":"NST1411"}},{"type":"Feature","geometry":{"type":"Point","coordinates":[-1.91657,55.23801]},"properties":{"name":"Mapped water infrastructure","category":"reservoir_covered","osm_type":"way","osm_id":"689289143"}},{"type":"Feature","geometry":{"type":"Point","coordinates":[-1.89581,55.19709]},"properties":{"name":"Mapped water infrastructure","category":"reservoir_covered","osm_type":"way","osm_id":"690139220"}},{"type":"Feature","geometry":{"type":"Point","coordinates":[-1.97333,55.16847]},"properties":{"name":"Mapped water infrastructure","category":"reservoir_covered","osm_type":"way","osm_id":"691368279"}},{"type":"Feature","geometry":{"type":"Point","coordinates":[-1.98286,55.07759]},"properties":{"name":"Mapped water infrastructure","category":"reservoir_covered","osm_type":"way","osm_id":"743220352"}},{"type":"Feature","geometry":{"type":"Point","coordinates":[-1.94705,55.04151]},"properties":{"name":"Matfen STW","category":"wastewater_plant","osm_type":"way","osm_id":"745618228","operator":"Northumbrian Water","ref":"NST1811"}},{"type":"Feature","geometry":{"type":"Point","coordinates":[-1.98969,55.03204]},"properties":{"name":"Mapped water infrastructure","category":"wastewater_plant","osm_type":"way","osm_id":"745618671"}},{"type":"Feature","geometry":{"type":"Point","coordinates":[-1.88204,55.01216]},"properties":{"name":"Mapped water infrastructure","category":"reservoir_covered","osm_type":"way","osm_id":"746151389"}},{"type":"Feature","geometry":{"type":"Point","coordinates":[-1.85646,55.01777]},"properties":{"name":"Mapped water infrastructure","category":"wastewater_plant","osm_type":"way","osm_id":"746571465"}},{"type":"Feature","geometry":{"type":"Point","coordinates":[-1.70554,55.40522]},"properties":{"name":"Mapped water infrastructure","category":"reservoir_covered","osm_type":"way","osm_id":"812747771"}},{"type":"Feature","geometry":{"type":"Point","coordinates":[-1.53847,55.23546]},"properties":{"name":"Mapped water infrastructure","category":"wastewater_plant","osm_type":"way","osm_id":"848308500","operator":"Northumbrian Water"}},{"type":"Feature","geometry":{"type":"Point","coordinates":[-1.63211,55.22693]},"properties":{"name":"Mapped water infrastructure","category":"wastewater_plant","osm_type":"way","osm_id":"876221315"}},{"type":"Feature","geometry":{"type":"Point","coordinates":[-1.53516,55.03987]},"properties":{"name":"Mapped water infrastructure","category":"pumping_station","osm_type":"way","osm_id":"1003638940"}},{"type":"Feature","geometry":{"type":"Point","coordinates":[-1.58872,55.03375]},"properties":{"name":"Mapped water infrastructure","category":"pumping_station","osm_type":"way","osm_id":"1003921640"}},{"type":"Feature","geometry":{"type":"Point","coordinates":[-1.75742,55.06131]},"properties":{"name":"Mapped water infrastructure","category":"water_tower","osm_type":"way","osm_id":"1055607245"}},{"type":"Feature","geometry":{"type":"Point","coordinates":[-1.6208,55.08235]},"properties":{"name":"Mapped water infrastructure","category":"pumping_station","osm_type":"way","osm_id":"1066847723","operator":"Northumbian Water"}},{"type":"Feature","geometry":{"type":"Point","coordinates":[-1.52148,55.17479]},"properties":{"name":"Newbiggin STW","category":"wastewater_plant","osm_type":"way","osm_id":"1112766878","operator":"Northumbrian Water","ref":"NST8642"}},{"type":"Feature","geometry":{"type":"Point","coordinates":[-1.73009,55.16751]},"properties":{"name":"Mapped water infrastructure","category":"wastewater_plant","osm_type":"way","osm_id":"1211582808"}},{"type":"Feature","geometry":{"type":"Point","coordinates":[-1.60203,55.13134]},"properties":{"name":"Mapped water infrastructure","category":"reservoir_covered","osm_type":"way","osm_id":"1211765156","operator":"Northumbrian Water"}},{"type":"Feature","geometry":{"type":"Point","coordinates":[-1.6703,55.15669]},"properties":{"name":"Mapped water infrastructure","category":"pumping_station","osm_type":"way","osm_id":"1212549721","operator":"Northumbrian Water"}},{"type":"Feature","geometry":{"type":"Point","coordinates":[-1.55259,55.14395]},"properties":{"name":"Mapped water infrastructure","category":"wastewater_plant","osm_type":"way","osm_id":"1231869257","operator":"Northumbria Water"}},{"type":"Feature","geometry":{"type":"Point","coordinates":[-1.72035,55.40256]},"properties":{"name":"Mapped water infrastructure","category":"reservoir_covered","osm_type":"way","osm_id":"1234598031"}},{"type":"Feature","geometry":{"type":"Point","coordinates":[-1.7162,55.01354]},"properties":{"name":"Mapped water infrastructure","category":"pumping_station","osm_type":"way","osm_id":"1271088407","operator":"Northumbrian Water"}},{"type":"Feature","geometry":{"type":"Point","coordinates":[-1.57386,55.32552]},"properties":{"name":"Mapped water infrastructure","category":"pumping_station","osm_type":"way","osm_id":"1280786416"}},{"type":"Feature","geometry":{"type":"Point","coordinates":[-1.67977,55.40977]},"properties":{"name":"Mapped water infrastructure","category":"pumping_station","osm_type":"way","osm_id":"1282745088"}},{"type":"Feature","geometry":{"type":"Point","coordinates":[-1.64412,55.04214]},"properties":{"name":"Mapped water infrastructure","category":"pumping_station","osm_type":"way","osm_id":"1285095751"}},{"type":"Feature","geometry":{"type":"Point","coordinates":[-1.71925,55.14822]},"properties":{"name":"Mapped water infrastructure","category":"reservoir_covered","osm_type":"way","osm_id":"1320053842","operator":"Northumbria Water"}},{"type":"Feature","geometry":{"type":"Point","coordinates":[-1.54847,55.02907]},"properties":{"name":"Mapped water infrastructure","category":"pumping_station","osm_type":"way","osm_id":"1409148534","operator":"Northumbrian Water"}},{"type":"Feature","geometry":{"type":"Point","coordinates":[-1.6179,55.08331]},"properties":{"name":"Mapped water infrastructure","category":"pumping_station","osm_type":"way","osm_id":"1430510105","operator":"Northumbian Water"}},{"type":"Feature","geometry":{"type":"Point","coordinates":[-1.60167,55.08104]},"properties":{"name":"Mapped water infrastructure","category":"pumping_station","osm_type":"way","osm_id":"1462016371","operator":"Northumbian Water"}},{"type":"Feature","geometry":{"type":"Point","coordinates":[-1.516,55.08792]},"properties":{"name":"Mapped water infrastructure","category":"pumping_station","osm_type":"way","osm_id":"1462273503","operator":"Northumbian Water"}},{"type":"Feature","geometry":{"type":"Point","coordinates":[-1.60832,55.07741]},"properties":{"name":"Mapped water infrastructure","category":"pumping_station","osm_type":"way","osm_id":"1488047735","operator":"Northumbian Water"}}]}