{"type":"FeatureCollection","features":[{"type":"Feature","geometry":{"type":"Point","coordinates":[-1.14843,52.23299]},"properties":{"name":"Mapped water infrastructure","category":"well","osm_type":"node","osm_id":"26570958"}},{"type":"Feature","geometry":{"type":"Point","coordinates":[-1.5102,52.41494]},"properties":{"name":"Mapped water infrastructure","category":"water_point","osm_type":"node","osm_id":"275463776"}},{"type":"Feature","geometry":{"type":"Point","coordinates":[-1.7279,52.33718]},"properties":{"name":"Lapworth Lock 19 Water Point","category":"water_point","osm_type":"node","osm_id":"325143724","operator":"Canal and River Trust"}},{"type":"Feature","geometry":{"type":"Point","coordinates":[-1.20535,52.32154]},"properties":{"name":"Mapped water infrastructure","category":"water_tower","osm_type":"node","osm_id":"331284913"}},{"type":"Feature","geometry":{"type":"Point","coordinates":[-1.82596,52.03004]},"properties":{"name":"Mapped water infrastructure","category":"drinking_water","osm_type":"node","osm_id":"354621397"}},{"type":"Feature","geometry":{"type":"Point","coordinates":[-1.05464,52.42278]},"properties":{"name":"Welford Wharf Water Point","category":"water_point","osm_type":"node","osm_id":"385264281","operator":"Canal and River Trust"}},{"type":"Feature","geometry":{"type":"Point","coordinates":[-1.26796,52.02197]},"properties":{"name":"Mapped water infrastructure","category":"water_well","osm_type":"node","osm_id":"385489017"}},{"type":"Feature","geometry":{"type":"Point","coordinates":[-1.33089,52.24312]},"properties":{"name":"Napton Water Point","category":"water_point","osm_type":"node","osm_id":"473148537","operator":"Canal and River Trust"}},{"type":"Feature","geometry":{"type":"Point","coordinates":[-1.81228,52.44151]},"properties":{"name":"Mapped water infrastructure","category":"pumping_station","osm_type":"node","osm_id":"473635453","operator":"Severn Trent Water"}},{"type":"Feature","geometry":{"type":"Point","coordinates":[-1.69377,52.19916]},"properties":{"name":"Mapped water infrastructure","category":"drinking_water","osm_type":"node","osm_id":"512021854"}},{"type":"Feature","geometry":{"type":"Point","coordinates":[-1.2208,52.29023]},"properties":{"name":"Braunston North Water Point","category":"water_point","osm_type":"node","osm_id":"522902114","operator":"Canal and River Trust"}},{"type":"Feature","geometry":{"type":"Point","coordinates":[-1.21281,52.36771]},"properties":{"name":"Hillmorton Water Point","category":"water_point","osm_type":"node","osm_id":"525579156","operator":"Canal and River Trust"}},{"type":"Feature","geometry":{"type":"Point","coordinates":[-1.28433,52.39172]},"properties":{"name":"Newbold Water Point","category":"water_point","osm_type":"node","osm_id":"534140670","operator":"Canal and River Trust"}},{"type":"Feature","geometry":{"type":"Point","coordinates":[-1.21315,52.36792]},"properties":{"name":"Hillmorton Water Point","category":"water_point","osm_type":"node","osm_id":"534187840","operator":"Canal and River Trust"}},{"type":"Feature","geometry":{"type":"Point","coordinates":[-1.37044,52.1757]},"properties":{"name":"Mapped water infrastructure","category":"drinking_water","osm_type":"node","osm_id":"534247553"}},{"type":"Feature","geometry":{"type":"Point","coordinates":[-1.91291,52.48058]},"properties":{"name":"Mapped water infrastructure","category":"drinking_water","osm_type":"node","osm_id":"617765377","operator":"Canal & River Trust"}},{"type":"Feature","geometry":{"type":"Point","coordinates":[-1.21225,52.28839]},"properties":{"name":"Braunston East Water Point","category":"water_point","osm_type":"node","osm_id":"707543585","operator":"Canal and River Trust"}},{"type":"Feature","geometry":{"type":"Point","coordinates":[-1.44154,52.05873]},"properties":{"name":"Mapped water infrastructure","category":"well","osm_type":"node","osm_id":"742556907"}},{"type":"Feature","geometry":{"type":"Point","coordinates":[-1.43865,52.05989]},"properties":{"name":"Mapped water infrastructure","category":"well","osm_type":"node","osm_id":"742556973"}},{"type":"Feature","geometry":{"type":"Point","coordinates":[-1.42912,52.07321]},"properties":{"name":"Mapped water infrastructure","category":"well","osm_type":"node","osm_id":"742557221"}},{"type":"Feature","geometry":{"type":"Point","coordinates":[-1.38901,52.06222]},"properties":{"name":"Mapped water infrastructure","category":"well","osm_type":"node","osm_id":"742557380"}},{"type":"Feature","geometry":{"type":"Point","coordinates":[-1.40624,52.07232]},"properties":{"name":"Mapped water infrastructure","category":"well","osm_type":"node","osm_id":"742557394"}},{"type":"Feature","geometry":{"type":"Point","coordinates":[-1.49469,52.0585]},"properties":{"name":"Mapped water infrastructure","category":"well","osm_type":"node","osm_id":"742609466"}},{"type":"Feature","geometry":{"type":"Point","coordinates":[-1.48536,52.06335]},"properties":{"name":"Mapped water infrastructure","category":"well","osm_type":"node","osm_id":"742609955"}},{"type":"Feature","geometry":{"type":"Point","coordinates":[-1.92182,52.37831]},"properties":{"name":"Mapped water infrastructure","category":"water_tower","osm_type":"node","osm_id":"1251603507"}},{"type":"Feature","geometry":{"type":"Point","coordinates":[-1.05251,52.11348]},"properties":{"name":"Mapped water infrastructure","category":"pump","osm_type":"node","osm_id":"1321456504"}},{"type":"Feature","geometry":{"type":"Point","coordinates":[-1.82129,52.10569]},"properties":{"name":"Mapped water infrastructure","category":"reservoir_covered","osm_type":"node","osm_id":"1430279884"}},{"type":"Feature","geometry":{"type":"Point","coordinates":[-1.94461,52.29234]},"properties":{"name":"Mapped water infrastructure","category":"water_tower","osm_type":"node","osm_id":"1558724168"}},{"type":"Feature","geometry":{"type":"Point","coordinates":[-1.20438,52.28908]},"properties":{"name":"Mapped water infrastructure","category":"drinking_water","osm_type":"node","osm_id":"1797747254"}},{"type":"Feature","geometry":{"type":"Point","coordinates":[-1.21518,52.28878]},"properties":{"name":"Braunston Water Point","category":"water_point","osm_type":"node","osm_id":"1797747255","operator":"Canal and River Trust"}},{"type":"Feature","geometry":{"type":"Point","coordinates":[-1.3164,52.11482]},"properties":{"name":"Mapped water infrastructure","category":"drinking_water","osm_type":"node","osm_id":"1804536144","operator":"BW"}},{"type":"Feature","geometry":{"type":"Point","coordinates":[-1.71806,52.32576]},"properties":{"name":"Turners Green Water Point","category":"water_point","osm_type":"node","osm_id":"1861594650","operator":"Canal and River Trust"}},{"type":"Feature","geometry":{"type":"Point","coordinates":[-1.65128,52.29906]},"properties":{"name":"Hatton Top Lock Water Point","category":"water_point","osm_type":"node","osm_id":"1861597601","operator":"Canal and River Trust"}},{"type":"Feature","geometry":{"type":"Point","coordinates":[-1.5912,52.29248]},"properties":{"name":"Cape Bottom Lock Water Point","category":"water_point","osm_type":"node","osm_id":"1861599631","operator":"Canal and River Trust"}},{"type":"Feature","geometry":{"type":"Point","coordinates":[-1.37672,52.2789]},"properties":{"name":"Stockton Water Point","category":"water_point","osm_type":"node","osm_id":"1861609153","operator":"Canal and River Trust"}},{"type":"Feature","geometry":{"type":"Point","coordinates":[-1.31546,52.2663]},"properties":{"name":"Calcutt Water Point","category":"water_point","osm_type":"node","osm_id":"1861616149","operator":"Canal and River Trust"}},{"type":"Feature","geometry":{"type":"Point","coordinates":[-1.35623,52.4228]},"properties":{"name":"Stretton Arm Junction Water Point","category":"water_point","osm_type":"node","osm_id":"1881381472","operator":"Canal and River Trust"}},{"type":"Feature","geometry":{"type":"Point","coordinates":[-1.05346,52.11365]},"properties":{"name":"Mapped water infrastructure","category":"water_well","osm_type":"node","osm_id":"1907194439"}},{"type":"Feature","geometry":{"type":"Point","coordinates":[-1.32034,52.24706]},"properties":{"name":"Mapped water infrastructure","category":"drinking_water","osm_type":"node","osm_id":"2008062498"}},{"type":"Feature","geometry":{"type":"Point","coordinates":[-1.46823,52.45831]},"properties":{"name":"Hawkesbury Junction Water Point","category":"water_point","osm_type":"node","osm_id":"2028636313","operator":"Canal and River Trust"}},{"type":"Feature","geometry":{"type":"Point","coordinates":[-1.46765,52.45862]},"properties":{"name":"Hawkesbury Junction Water Point","category":"water_point","osm_type":"node","osm_id":"2028636332","operator":"Canal and River Trust"}},{"type":"Feature","geometry":{"type":"Point","coordinates":[-1.87214,52.41616]},"properties":{"name":"Yardley Wood Water Point","category":"water_point","osm_type":"node","osm_id":"2521404363","operator":"Canal and River Trust"}},{"type":"Feature","geometry":{"type":"Point","coordinates":[-1.90809,52.47501]},"properties":{"name":"Gas Street Basin Water Point","category":"water_point","osm_type":"node","osm_id":"2524217452","operator":"Canal and River Trust"}},{"type":"Feature","geometry":{"type":"Point","coordinates":[-1.07886,52.44694]},"properties":{"name":"Mapped water infrastructure","category":"water_point","osm_type":"node","osm_id":"2728589694","operator":"North Kilworth Wharf"}},{"type":"Feature","geometry":{"type":"Point","coordinates":[-1.51033,52.41474]},"properties":{"name":"Mapped water infrastructure","category":"water_point","osm_type":"node","osm_id":"2809646722"}},{"type":"Feature","geometry":{"type":"Point","coordinates":[-1.50298,52.09609]},"properties":{"name":"Mapped water infrastructure","category":"water_well","osm_type":"node","osm_id":"2891081630"}},{"type":"Feature","geometry":{"type":"Point","coordinates":[-1.49883,52.10184]},"properties":{"name":"Mapped water infrastructure","category":"water_well","osm_type":"node","osm_id":"2891430100"}},{"type":"Feature","geometry":{"type":"Point","coordinates":[-1.41688,52.44726]},"properties":{"name":"Mapped water infrastructure","category":"water_point","osm_type":"node","osm_id":"2891827708","operator":"Canal and River Trust"}},{"type":"Feature","geometry":{"type":"Point","coordinates":[-1.13081,52.31205]},"properties":{"name":"Watford Bottom Lock Water Point","category":"water_point","osm_type":"node","osm_id":"2893016265","operator":"Canal and River Trust"}},{"type":"Feature","geometry":{"type":"Point","coordinates":[-1.70413,52.1894]},"properties":{"name":"Mapped water infrastructure","category":"drinking_water","osm_type":"node","osm_id":"2972103293"}},{"type":"Feature","geometry":{"type":"Point","coordinates":[-1.53375,52.28677]},"properties":{"name":"Mapped water infrastructure","category":"drinking_water","osm_type":"node","osm_id":"3409040175"}},{"type":"Feature","geometry":{"type":"Point","coordinates":[-1.01812,52.06254]},"properties":{"name":"Mapped water infrastructure","category":"drinking_water","osm_type":"node","osm_id":"3641447059"}},{"type":"Feature","geometry":{"type":"Point","coordinates":[-1.46737,52.45878]},"properties":{"name":"Hawkesbury Junction Water Point","category":"water_point","osm_type":"node","osm_id":"3662683687","operator":"Canal and River Trust"}},{"type":"Feature","geometry":{"type":"Point","coordinates":[-1.59449,52.2808]},"properties":{"name":"Mapped water infrastructure","category":"water_well","osm_type":"node","osm_id":"3780274989"}},{"type":"Feature","geometry":{"type":"Point","coordinates":[-1.82533,52.44375]},"properties":{"name":"Mapped water infrastructure","category":"water_well","osm_type":"node","osm_id":"4209517079"}},{"type":"Feature","geometry":{"type":"Point","coordinates":[-1.11488,52.28591]},"properties":{"name":"Buckby Wharf Water Point","category":"water_point","osm_type":"node","osm_id":"4619841612","operator":"Canal and River Trust"}},{"type":"Feature","geometry":{"type":"Point","coordinates":[-1.1189,52.28629]},"properties":{"name":"Norton Junction Water Point","category":"water_point","osm_type":"node","osm_id":"4619841613","operator":"Canal and River Trust"}},{"type":"Feature","geometry":{"type":"Point","coordinates":[-1.33092,52.243]},"properties":{"name":"Napton Water Point","category":"water_point","osm_type":"node","osm_id":"4820225828","operator":"Canal and River Trust"}},{"type":"Feature","geometry":{"type":"Point","coordinates":[-1.25293,52.38941]},"properties":{"name":"Boughton Road Water Point","category":"water_point","osm_type":"node","osm_id":"4980494197","operator":"Canal and River Trust"}},{"type":"Feature","geometry":{"type":"Point","coordinates":[-1.55906,52.37987]},"properties":{"name":"Mapped water infrastructure","category":"drinking_water","osm_type":"node","osm_id":"5035765151"}},{"type":"Feature","geometry":{"type":"Point","coordinates":[-1.47048,52.45718]},"properties":{"name":"Hawkesbury Junction Water Point","category":"water_point","osm_type":"node","osm_id":"5072825750","operator":"Canal and River Trust"}},{"type":"Feature","geometry":{"type":"Point","coordinates":[-1.95566,52.37256]},"properties":{"name":"Reddich Road Water Point","category":"water_point","osm_type":"node","osm_id":"5516877880"}},{"type":"Feature","geometry":{"type":"Point","coordinates":[-1.73407,52.45375]},"properties":{"name":"Mapped water infrastructure","category":"drinking_water","osm_type":"node","osm_id":"5591820800"}},{"type":"Feature","geometry":{"type":"Point","coordinates":[-1.52545,52.3958]},"properties":{"name":"Earlsdon Water Fountain","category":"water_point","osm_type":"node","osm_id":"5628889504"}},{"type":"Feature","geometry":{"type":"Point","coordinates":[-1.03425,52.08913]},"properties":{"name":"Mapped water infrastructure","category":"water_well","osm_type":"node","osm_id":"5761056143"}},{"type":"Feature","geometry":{"type":"Point","coordinates":[-1.95122,52.27671]},"properties":{"name":"Mapped water infrastructure","category":"water_tower","osm_type":"node","osm_id":"6008287611"}},{"type":"Feature","geometry":{"type":"Point","coordinates":[-1.57944,52.32988]},"properties":{"name":"Mapped water infrastructure","category":"drinking_water","osm_type":"node","osm_id":"7059569734"}},{"type":"Feature","geometry":{"type":"Point","coordinates":[-1.5345,52.28705]},"properties":{"name":"Mapped water infrastructure","category":"drinking_water","osm_type":"node","osm_id":"7087032936"}},{"type":"Feature","geometry":{"type":"Point","coordinates":[-1.06641,52.22481]},"properties":{"name":"Weedon Bec Water Point","category":"water_point","osm_type":"node","osm_id":"7792285244","operator":"Canal and River Trust"}},{"type":"Feature","geometry":{"type":"Point","coordinates":[-1.40583,52.27353]},"properties":{"name":"Bascote Water Point","category":"water_point","osm_type":"node","osm_id":"7792285245","operator":"Canal and River Trust"}},{"type":"Feature","geometry":{"type":"Point","coordinates":[-1.46619,52.27535]},"properties":{"name":"Fosse Water Point","category":"water_point","osm_type":"node","osm_id":"7792285247","operator":"Canal and River Trust"}},{"type":"Feature","geometry":{"type":"Point","coordinates":[-1.59588,52.29244]},"properties":{"name":"Cape Top Lock Water Point","category":"water_point","osm_type":"node","osm_id":"7792285248","operator":"Canal and River Trust"}},{"type":"Feature","geometry":{"type":"Point","coordinates":[-1.52356,52.26236]},"properties":{"name":"Mapped water infrastructure","category":"pumping_station","osm_type":"node","osm_id":"7909913489"}},{"type":"Feature","geometry":{"type":"Point","coordinates":[-1.32617,52.19946]},"properties":{"name":"Mapped water infrastructure","category":"water_point","osm_type":"node","osm_id":"7931314351"}},{"type":"Feature","geometry":{"type":"Point","coordinates":[-1.02544,52.31003]},"properties":{"name":"Mapped water infrastructure","category":"water_well","osm_type":"node","osm_id":"8348708563"}},{"type":"Feature","geometry":{"type":"Point","coordinates":[-1.1979,52.35939]},"properties":{"name":"Mapped water infrastructure","category":"pumping_station","osm_type":"node","osm_id":"8538680834"}},{"type":"Feature","geometry":{"type":"Point","coordinates":[-1.01328,52.21941]},"properties":{"name":"Mapped water infrastructure","category":"water_well","osm_type":"node","osm_id":"8878406828"}},{"type":"Feature","geometry":{"type":"Point","coordinates":[-1.70682,52.49915]},"properties":{"name":"Mapped water infrastructure","category":"water_well","osm_type":"node","osm_id":"9244650603"}},{"type":"Feature","geometry":{"type":"Point","coordinates":[-1.00281,52.07686]},"properties":{"name":"Mapped water infrastructure","category":"drinking_water","osm_type":"node","osm_id":"9790025398"}},{"type":"Feature","geometry":{"type":"Point","coordinates":[-1.00467,52.07518]},"properties":{"name":"Mapped water infrastructure","category":"drinking_water","osm_type":"node","osm_id":"9790025399"}},{"type":"Feature","geometry":{"type":"Point","coordinates":[-1.1116,52.36981]},"properties":{"name":"Yelvertoft Water Point","category":"water_point","osm_type":"node","osm_id":"9819604257","operator":"Canal and River Trust"}},{"type":"Feature","geometry":{"type":"Point","coordinates":[-1.12709,52.34765]},"properties":{"name":"Crick Water Point","category":"water_point","osm_type":"node","osm_id":"9822389898","operator":"Canal and River Trust"}},{"type":"Feature","geometry":{"type":"Point","coordinates":[-1.81967,52.14397]},"properties":{"name":"Mapped water infrastructure","category":"water_well","osm_type":"node","osm_id":"9966519319"}},{"type":"Feature","geometry":{"type":"Point","coordinates":[-1.5076,52.28166]},"properties":{"name":"Mapped water infrastructure","category":"pumping_station","osm_type":"node","osm_id":"9979971271"}},{"type":"Feature","geometry":{"type":"Point","coordinates":[-1.59237,52.29179]},"properties":{"name":"Mapped water infrastructure","category":"pumping_station","osm_type":"node","osm_id":"10066998486"}},{"type":"Feature","geometry":{"type":"Point","coordinates":[-1.51114,52.41398]},"properties":{"name":"Toilet Pump Out","category":"pumping_station","osm_type":"node","osm_id":"10106775623","operator":"Canal & River Trust","website":"https://canalrivertrust.org.uk/enjoy-the-waterways/canal-and-river-network/coventry-canal"}},{"type":"Feature","geometry":{"type":"Point","coordinates":[-1.37832,52.27904]},"properties":{"name":"Mapped water infrastructure","category":"drinking_water","osm_type":"node","osm_id":"10237716764"}},{"type":"Feature","geometry":{"type":"Point","coordinates":[-1.13141,52.31512]},"properties":{"name":"Watford Top Lock Water Point","category":"water_point","osm_type":"node","osm_id":"10665729377","operator":"Canal and River Trust"}},{"type":"Feature","geometry":{"type":"Point","coordinates":[-1.49906,52.31723]},"properties":{"name":"Mapped water infrastructure","category":"pumping_station","osm_type":"node","osm_id":"10860501193"}},{"type":"Feature","geometry":{"type":"Point","coordinates":[-1.98752,52.47367]},"properties":{"name":"Mapped water infrastructure","category":"pumping_station","osm_type":"node","osm_id":"10886413428"}},{"type":"Feature","geometry":{"type":"Point","coordinates":[-1.31977,52.31935]},"properties":{"name":"Mapped water infrastructure","category":"drinking_water","osm_type":"node","osm_id":"10918328717"}},{"type":"Feature","geometry":{"type":"Point","coordinates":[-1.72789,52.33636]},"properties":{"name":"Mapped water infrastructure","category":"water_point","osm_type":"node","osm_id":"10921054498","operator":"Canal and River Trust"}},{"type":"Feature","geometry":{"type":"Point","coordinates":[-1.50886,52.278]},"properties":{"name":"Mapped water infrastructure","category":"pumping_station","osm_type":"node","osm_id":"10948937629"}},{"type":"Feature","geometry":{"type":"Point","coordinates":[-1.12584,52.37605]},"properties":{"name":"Mapped water infrastructure","category":"water_well","osm_type":"node","osm_id":"11288505328"}},{"type":"Feature","geometry":{"type":"Point","coordinates":[-1.62698,52.1752]},"properties":{"name":"Mapped water infrastructure","category":"water_well","osm_type":"node","osm_id":"11486680380"}},{"type":"Feature","geometry":{"type":"Point","coordinates":[-1.89846,52.4772]},"properties":{"name":"Mapped water infrastructure","category":"drinking_water","osm_type":"node","osm_id":"12005940669","wheelchair":"yes"}},{"type":"Feature","geometry":{"type":"Point","coordinates":[-1.89979,52.47732]},"properties":{"name":"Mapped water infrastructure","category":"drinking_water","osm_type":"node","osm_id":"12219204809","wheelchair":"yes"}},{"type":"Feature","geometry":{"type":"Point","coordinates":[-1.89821,52.4781]},"properties":{"name":"Mapped water infrastructure","category":"drinking_water","osm_type":"node","osm_id":"12219204810","wheelchair":"yes"}},{"type":"Feature","geometry":{"type":"Point","coordinates":[-1.50523,52.20017]},"properties":{"name":"Mapped water infrastructure","category":"water_well","osm_type":"node","osm_id":"12652521112"}},{"type":"Feature","geometry":{"type":"Point","coordinates":[-1.50573,52.20017]},"properties":{"name":"Mapped water infrastructure","category":"water_well","osm_type":"node","osm_id":"12652521117"}},{"type":"Feature","geometry":{"type":"Point","coordinates":[-1.09029,52.35785]},"properties":{"name":"Mapped water infrastructure","category":"water_well","osm_type":"node","osm_id":"13136419596"}},{"type":"Feature","geometry":{"type":"Point","coordinates":[-1.07474,52.29977]},"properties":{"name":"Mapped water infrastructure","category":"pumping_station","osm_type":"node","osm_id":"13718229268"}},{"type":"Feature","geometry":{"type":"Point","coordinates":[-1.08279,52.29388]},"properties":{"name":"Mapped water infrastructure","category":"pumping_station","osm_type":"node","osm_id":"13718229272"}},{"type":"Feature","geometry":{"type":"Point","coordinates":[-1.08895,52.30574]},"properties":{"name":"Mapped water infrastructure","category":"water_well","osm_type":"node","osm_id":"13718378432"}},{"type":"Feature","geometry":{"type":"Point","coordinates":[-1.85124,52.31442]},"properties":{"name":"Mapped water infrastructure","category":"water_well","osm_type":"node","osm_id":"13907888974"}},{"type":"Feature","geometry":{"type":"Point","coordinates":[-1.89914,52.4821]},"properties":{"name":"Grand Hotel Artisanal Well","category":"water_well","osm_type":"node","osm_id":"14002269433","operator":"Grand Hotel","ref":"Grand Hotel Artisanal Well"}},{"type":"Feature","geometry":{"type":"Point","coordinates":[-1.73582,52.4529]},"properties":{"name":"Mapped water infrastructure","category":"drinking_water","osm_type":"node","osm_id":"14087896501"}},{"type":"Feature","geometry":{"type":"Point","coordinates":[-1.90126,52.48047]},"properties":{"name":"Mapped water infrastructure","category":"water_well","osm_type":"node","osm_id":"14121882088","operator":"110 Colmore Row"}},{"type":"Feature","geometry":{"type":"Point","coordinates":[-1.08353,52.14364]},"properties":{"name":"Blakesley Sewage Treatment Works","category":"wastewater_plant","osm_type":"way","osm_id":"4599966","operator":"Anglian Water","ref":"BLAKST"}},{"type":"Feature","geometry":{"type":"Point","coordinates":[-1.93421,52.47574]},"properties":{"name":"Severn Trent Water Edgbaston Water Works","category":"water_works","osm_type":"way","osm_id":"28173116","operator":"Severn Trent Water"}},{"type":"Feature","geometry":{"type":"Point","coordinates":[-1.78248,52.25973]},"properties":{"name":"Wootton Wawen STW","category":"wastewater_plant","osm_type":"way","osm_id":"30340370","operator":"Severn Trent","ref":"10378-ST1"}},{"type":"Feature","geometry":{"type":"Point","coordinates":[-1.41601,52.37059]},"properties":{"name":"Wolston STW","category":"wastewater_plant","osm_type":"way","osm_id":"56190793","operator":"Severn Trent","ref":"10433-ST1"}},{"type":"Feature","geometry":{"type":"Point","coordinates":[-1.95731,52.09965]},"properties":{"name":"Severn Trent","category":"wastewater_plant","osm_type":"way","osm_id":"77525240","operator":"Severn Trent"}},{"type":"Feature","geometry":{"type":"Point","coordinates":[-1.91516,52.13483]},"properties":{"name":"Harvington Works (STW)","category":"wastewater_plant","osm_type":"way","osm_id":"84924478","operator":"Severn Trent","ref":"10161-ST1"}},{"type":"Feature","geometry":{"type":"Point","coordinates":[-1.9985,52.40987]},"properties":{"name":"Northfield","category":"reservoir_covered","osm_type":"way","osm_id":"92874915"}},{"type":"Feature","geometry":{"type":"Point","coordinates":[-1.90287,52.10067]},"properties":{"name":"Blackminster (STW)","category":"wastewater_plant","osm_type":"way","osm_id":"97557539","operator":"Severn Trent","ref":"10027-ST1"}},{"type":"Feature","geometry":{"type":"Point","coordinates":[-1.88333,52.03829]},"properties":{"name":"Broadway STW","category":"wastewater_plant","osm_type":"way","osm_id":"97714419","operator":"Severn Trent","ref":"10287-ST1"}},{"type":"Feature","geometry":{"type":"Point","coordinates":[-1.74339,52.33715]},"properties":{"name":"Mapped water infrastructure","category":"water_tower","osm_type":"way","osm_id":"99011882"}},{"type":"Feature","geometry":{"type":"Point","coordinates":[-1.82425,52.07993]},"properties":{"name":"Honeybourne (STW)","category":"wastewater_plant","osm_type":"way","osm_id":"104025930","operator":"Severn Trent","ref":"10051-ST1"}},{"type":"Feature","geometry":{"type":"Point","coordinates":[-1.97289,52.20529]},"properties":{"name":"Mapped water infrastructure","category":"wastewater_plant","osm_type":"way","osm_id":"110603543","operator":"Severn Trent"}},{"type":"Feature","geometry":{"type":"Point","coordinates":[-1.73546,52.173]},"properties":{"name":"Stratford - Milcote Sewage Treatment Works","category":"wastewater_plant","osm_type":"way","osm_id":"110890305","operator":"Severn Trent","ref":"10348-ST1"}},{"type":"Feature","geometry":{"type":"Point","coordinates":[-1.93631,52.2234]},"properties":{"name":"Mapped water infrastructure","category":"wastewater_plant","osm_type":"way","osm_id":"113080961"}},{"type":"Feature","geometry":{"type":"Point","coordinates":[-1.4577,52.31549]},"properties":{"name":"Weston Under Wetherley Sewage Treatment Works","category":"wastewater_plant","osm_type":"way","osm_id":"121066264","operator":"Severn Trent"}},{"type":"Feature","geometry":{"type":"Point","coordinates":[-1.66246,52.26308]},"properties":{"name":"Norton Lindsey (STW)","category":"wastewater_plant","osm_type":"way","osm_id":"124205830","operator":"Severn Trent","ref":"10342-ST1"}},{"type":"Feature","geometry":{"type":"Point","coordinates":[-1.94477,52.49357]},"properties":{"name":"Mapped water infrastructure","category":"water_tower","osm_type":"way","osm_id":"124764374"}},{"type":"Feature","geometry":{"type":"Point","coordinates":[-1.82507,52.12047]},"properties":{"name":"Pebworth Middlesex (STW)","category":"wastewater_plant","osm_type":"way","osm_id":"129699088","operator":"Severn Trent","ref":"10059-ST1"}},{"type":"Feature","geometry":{"type":"Point","coordinates":[-1.50741,52.36205]},"properties":{"name":"Finham Sewage Works","category":"wastewater_plant","osm_type":"way","osm_id":"132742383","operator":"Severn Trent"}},{"type":"Feature","geometry":{"type":"Point","coordinates":[-1.76486,52.13678]},"properties":{"name":"Long Marston STW","category":"wastewater_plant","osm_type":"way","osm_id":"134430689","operator":"Severn Trent","ref":"10059-ST1"}},{"type":"Feature","geometry":{"type":"Point","coordinates":[-1.99413,52.41741]},"properties":{"name":"Frankley Water Treatment Works","category":"water_works","osm_type":"way","osm_id":"135294609","operator":"Severn Trent Water"}},{"type":"Feature","geometry":{"type":"Point","coordinates":[-1.16792,52.38944]},"properties":{"name":"Lilbourne (STW)","category":"wastewater_plant","osm_type":"way","osm_id":"136627078","operator":"Severn Trent","ref":"10387-ST1"}},{"type":"Feature","geometry":{"type":"Point","coordinates":[-1.61065,52.06644]},"properties":{"name":"Shipston Fell Mill STW","category":"wastewater_plant","osm_type":"way","osm_id":"137647091","operator":"Severn Trent","ref":"10332-ST1"}},{"type":"Feature","geometry":{"type":"Point","coordinates":[-1.8004,52.11749]},"properties":{"name":"Pebworth SPS","category":"pumping_station","osm_type":"way","osm_id":"145748766"}},{"type":"Feature","geometry":{"type":"Point","coordinates":[-1.72682,52.3246]},"properties":{"name":"Rowington (STW)","category":"wastewater_plant","osm_type":"way","osm_id":"148379815","operator":"Severn Trent Water","ref":"10353-ST1"}},{"type":"Feature","geometry":{"type":"Point","coordinates":[-1.54546,52.46243]},"properties":{"name":"Mapped water infrastructure","category":"water_works","osm_type":"way","osm_id":"153211152"}},{"type":"Feature","geometry":{"type":"Point","coordinates":[-1.05443,52.42131]},"properties":{"name":"Welford WWTW","category":"wastewater_plant","osm_type":"way","osm_id":"160640242"}},{"type":"Feature","geometry":{"type":"Point","coordinates":[-1.45685,52.38007]},"properties":{"name":"Mapped water infrastructure","category":"reservoir_covered","osm_type":"way","osm_id":"166620469"}},{"type":"Feature","geometry":{"type":"Point","coordinates":[-1.7361,52.0249]},"properties":{"name":"Blockley (STW)","category":"wastewater_plant","osm_type":"way","osm_id":"168561409","operator":"Severn Trent","ref":"10329-ST1"}},{"type":"Feature","geometry":{"type":"Point","coordinates":[-1.35587,52.2786]},"properties":{"name":"Mapped water infrastructure","category":"water_tower","osm_type":"way","osm_id":"169250295"}},{"type":"Feature","geometry":{"type":"Point","coordinates":[-1.30394,52.40094]},"properties":{"name":"Harborough Magna (STW)","category":"wastewater_plant","osm_type":"way","osm_id":"169863887","operator":"Severn Trent","ref":"10385-ST1"}},{"type":"Feature","geometry":{"type":"Point","coordinates":[-1.94473,52.29245]},"properties":{"name":"Mapped water infrastructure","category":"reservoir_covered","osm_type":"way","osm_id":"173975193"}},{"type":"Feature","geometry":{"type":"Point","coordinates":[-1.94726,52.29394]},"properties":{"name":"STW Headless Cross Nos. 1 and 2","category":"reservoir_covered","osm_type":"way","osm_id":"174198331","operator":"Severn Trent Water"}},{"type":"Feature","geometry":{"type":"Point","coordinates":[-1.72013,52.41934]},"properties":{"name":"Barston (STW)","category":"wastewater_plant","osm_type":"way","osm_id":"185809727","operator":"Severn Trent","ref":"10963-ST1"}},{"type":"Feature","geometry":{"type":"Point","coordinates":[-1.67502,52.39766]},"properties":{"name":"Mapped water infrastructure","category":"wastewater_plant","osm_type":"way","osm_id":"189820574"}},{"type":"Feature","geometry":{"type":"Point","coordinates":[-1.45843,52.48602]},"properties":{"name":"Bedworth - Marston Lane (STW)","category":"wastewater_plant","osm_type":"way","osm_id":"192306283","operator":"Severn Trent","ref":"10454-ST1"}},{"type":"Feature","geometry":{"type":"Point","coordinates":[-1.59722,52.26593]},"properties":{"name":"Warwick STW","category":"wastewater_plant","osm_type":"way","osm_id":"193287358","operator":"Severn Trent"}},{"type":"Feature","geometry":{"type":"Point","coordinates":[-1.31022,52.44158]},"properties":{"name":"Monks Kirby (STW)","category":"wastewater_plant","osm_type":"way","osm_id":"194912947","operator":"Severn Trent","ref":"10466-ST1"}},{"type":"Feature","geometry":{"type":"Point","coordinates":[-1.72851,52.37166]},"properties":{"name":"Norton Green (STW)","category":"wastewater_plant","osm_type":"way","osm_id":"200338939","operator":"Severn Trent","ref":"10981-ST1"}},{"type":"Feature","geometry":{"type":"Point","coordinates":[-1.96752,52.04956]},"properties":{"name":"Sedgeberrow (STW)","category":"wastewater_plant","osm_type":"way","osm_id":"210644060","operator":"Severn Trent","ref":"10022-ST1"}},{"type":"Feature","geometry":{"type":"Point","coordinates":[-1.75288,52.24004]},"properties":{"name":"Bearley (STW)","category":"wastewater_plant","osm_type":"way","osm_id":"217790818","operator":"Severn Trent","ref":"10318-ST1"}},{"type":"Feature","geometry":{"type":"Point","coordinates":[-1.69588,52.27333]},"properties":{"name":"Claverdon (STW)","category":"wastewater_plant","osm_type":"way","osm_id":"218847016","operator":"Severn Trent","ref":"10349-ST1"}},{"type":"Feature","geometry":{"type":"Point","coordinates":[-1.32898,52.24306]},"properties":{"name":"Napton (STW)","category":"wastewater_plant","osm_type":"way","osm_id":"219631011","operator":"Severn Trent","ref":"10393-ST1"}},{"type":"Feature","geometry":{"type":"Point","coordinates":[-1.55579,52.20442]},"properties":{"name":"Moreton Morrell (STW)","category":"wastewater_plant","osm_type":"way","osm_id":"220706183","operator":"Severn Trent","ref":"10390-ST1"}},{"type":"Feature","geometry":{"type":"Point","coordinates":[-1.60433,52.19781]},"properties":{"name":"Wellesbourne - Walton Road (STW)","category":"wastewater_plant","osm_type":"way","osm_id":"223426533","operator":"Severn Trent","ref":"19848-ST1"}},{"type":"Feature","geometry":{"type":"Point","coordinates":[-1.55257,52.38031]},"properties":{"name":"Sewage Treatment Plant","category":"wastewater_plant","osm_type":"way","osm_id":"224003942"}},{"type":"Feature","geometry":{"type":"Point","coordinates":[-1.87664,52.15866]},"properties":{"name":"Bidford-On-Avon (STW)","category":"wastewater_plant","osm_type":"way","osm_id":"227750177","operator":"Severn Trent","ref":"10154-ST1"}},{"type":"Feature","geometry":{"type":"Point","coordinates":[-1.40422,52.26198]},"properties":{"name":"Itchen Bank (STW)","category":"wastewater_plant","osm_type":"way","osm_id":"235460293","operator":"Severn Trent","ref":"10434-ST1"}},{"type":"Feature","geometry":{"type":"Point","coordinates":[-1.55379,52.18338]},"properties":{"name":"Moreton Paddox Sewage Treatment Works","category":"wastewater_plant","osm_type":"way","osm_id":"235504806","operator":"Severn Trent","ref":"10391-ST1"}},{"type":"Feature","geometry":{"type":"Point","coordinates":[-1.86966,52.20788]},"properties":{"name":"Alcester (STW)","category":"wastewater_plant","osm_type":"way","osm_id":"235843648","operator":"Severn Trent","ref":"10151-ST1"}},{"type":"Feature","geometry":{"type":"Point","coordinates":[-1.97933,52.0278]},"properties":{"name":"Dumbleton (STW)","category":"wastewater_plant","osm_type":"way","osm_id":"242089444","operator":"Severn Trent","ref":"10280-ST1"}},{"type":"Feature","geometry":{"type":"Point","coordinates":[-1.62195,52.43612]},"properties":{"name":"Mapped water infrastructure","category":"reservoir_covered","osm_type":"way","osm_id":"243815131"}},{"type":"Feature","geometry":{"type":"Point","coordinates":[-1.6208,52.43594]},"properties":{"name":"Mapped water infrastructure","category":"reservoir_covered","osm_type":"way","osm_id":"243815134"}},{"type":"Feature","geometry":{"type":"Point","coordinates":[-1.61915,52.43503]},"properties":{"name":"Mapped water infrastructure","category":"reservoir_covered","osm_type":"way","osm_id":"243815136"}},{"type":"Feature","geometry":{"type":"Point","coordinates":[-1.58009,52.0298]},"properties":{"name":"Cherington (STW)","category":"wastewater_plant","osm_type":"way","osm_id":"246013797","operator":"Severn Trent","ref":"10350-ST1"}},{"type":"Feature","geometry":{"type":"Point","coordinates":[-1.62791,52.00812]},"properties":{"name":"Nethercote (STW)","category":"wastewater_plant","osm_type":"way","osm_id":"246164611","operator":"Severn Trent","ref":"10343-ST1"}},{"type":"Feature","geometry":{"type":"Point","coordinates":[-1.45999,52.13474]},"properties":{"name":"Radway (STW)","category":"wastewater_plant","osm_type":"way","osm_id":"246329978","operator":"Severn Trent","ref":"10325-ST1"}},{"type":"Feature","geometry":{"type":"Point","coordinates":[-1.51159,52.10391]},"properties":{"name":"Tysoe (STW)","category":"wastewater_plant","osm_type":"way","osm_id":"246332499","operator":"Severn Trent","ref":"10345-ST1"}},{"type":"Feature","geometry":{"type":"Point","coordinates":[-1.52439,52.15445]},"properties":{"name":"Kineton (STW)","category":"wastewater_plant","osm_type":"way","osm_id":"249528994","operator":"Severn Trent Water","ref":"10430-ST1"}},{"type":"Feature","geometry":{"type":"Point","coordinates":[-1.60257,52.13998]},"properties":{"name":"Ettington Works (STW)","category":"wastewater_plant","osm_type":"way","osm_id":"251499502","operator":"Severn Trent","ref":"10321-ST1"}},{"type":"Feature","geometry":{"type":"Point","coordinates":[-1.70181,52.1172]},"properties":{"name":"Admington (STW)","category":"wastewater_plant","osm_type":"way","osm_id":"252598238","operator":"Severn Trent","ref":"10338-ST1"}},{"type":"Feature","geometry":{"type":"Point","coordinates":[-1.69848,52.14404]},"properties":{"name":"Preston on Stour Sewage Treatment Works","category":"wastewater_plant","osm_type":"way","osm_id":"252752520","operator":"Severn Trent","ref":"10324-ST1"}},{"type":"Feature","geometry":{"type":"Point","coordinates":[-1.6281,52.28007]},"properties":{"name":"Budbrooke","category":"wastewater_plant","osm_type":"way","osm_id":"256244126","operator":"Severn Trent"}},{"type":"Feature","geometry":{"type":"Point","coordinates":[-1.21976,52.44123]},"properties":{"name":"Lutterworth (STW)","category":"wastewater_plant","osm_type":"way","osm_id":"256984019","operator":"Severn Trent","ref":"11232-ST1"}},{"type":"Feature","geometry":{"type":"Point","coordinates":[-1.55217,52.35443]},"properties":{"name":"Dalehouse Lane","category":"pumping_station","osm_type":"way","osm_id":"257034556","operator":"Severn Trent"}},{"type":"Feature","geometry":{"type":"Point","coordinates":[-1.64425,52.40882]},"properties":{"name":"Berkswell (STW)","category":"wastewater_plant","osm_type":"way","osm_id":"257997699","operator":"Severn Trent","ref":"10965-ST1"}},{"type":"Feature","geometry":{"type":"Point","coordinates":[-1.28233,52.26109]},"properties":{"name":"Sewage Treatment Works","category":"wastewater_plant","osm_type":"way","osm_id":"270554771","ref":"Site ID 37 448 03"}},{"type":"Feature","geometry":{"type":"Point","coordinates":[-1.99959,52.32966]},"properties":{"name":"Brockhill (STW)","category":"wastewater_plant","osm_type":"way","osm_id":"274683575","operator":"Severn Trent","ref":"17811-ST1"}},{"type":"Feature","geometry":{"type":"Point","coordinates":[-1.82332,52.22009]},"properties":{"name":"37 669 00","category":"wastewater_plant","osm_type":"way","osm_id":"277446686","operator":"Severn Trent Water","ref":"37 669 00"}},{"type":"Feature","geometry":{"type":"Point","coordinates":[-1.97532,52.12288]},"properties":{"name":"Mapped water infrastructure","category":"reservoir_covered","osm_type":"way","osm_id":"278193084"}},{"type":"Feature","geometry":{"type":"Point","coordinates":[-1.58074,52.29037]},"properties":{"name":"Mapped water infrastructure","category":"water_tower","osm_type":"way","osm_id":"286503772"}},{"type":"Feature","geometry":{"type":"Point","coordinates":[-1.44644,52.35704]},"properties":{"name":"Mapped water infrastructure","category":"wastewater_plant","osm_type":"way","osm_id":"304944553"}},{"type":"Feature","geometry":{"type":"Point","coordinates":[-1.329,52.14518]},"properties":{"name":"Claydon WwTW","category":"wastewater_plant","osm_type":"way","osm_id":"315032913","operator":"Thames Water","ref":"CLAYS1ZZ"}},{"type":"Feature","geometry":{"type":"Point","coordinates":[-1.33812,52.329]},"properties":{"name":"Mapped water infrastructure","category":"water_works","osm_type":"way","osm_id":"320396297"}},{"type":"Feature","geometry":{"type":"Point","coordinates":[-1.95509,52.34451]},"properties":{"name":"Alvechurch Sewage Treatment Works","category":"wastewater_plant","osm_type":"way","osm_id":"332060867","operator":"Severn Trent","ref":"10152-ST1"}},{"type":"Feature","geometry":{"type":"Point","coordinates":[-1.12333,52.3778]},"properties":{"name":"Yelvertoft (STW)","category":"wastewater_plant","osm_type":"way","osm_id":"333256914","operator":"Severn Trent","ref":"10432-ST1"}},{"type":"Feature","geometry":{"type":"Point","coordinates":[-1.55985,52.29594]},"properties":{"name":"Mapped water infrastructure","category":"pumping_station","osm_type":"way","osm_id":"339706470","operator":"Severn Trent"}},{"type":"Feature","geometry":{"type":"Point","coordinates":[-1.71339,52.16914]},"properties":{"name":"Mapped water infrastructure","category":"water_works","osm_type":"way","osm_id":"362778800"}},{"type":"Feature","geometry":{"type":"Point","coordinates":[-1.84413,52.3521]},"properties":{"name":"Earlswood - Springbrook (STW)","category":"wastewater_plant","osm_type":"way","osm_id":"364894361","operator":"Severn Trent","ref":"10967-ST1"}},{"type":"Feature","geometry":{"type":"Point","coordinates":[-1.02319,52.21825]},"properties":{"name":"Bugbrooke STW","category":"wastewater_plant","osm_type":"way","osm_id":"367280688","operator":"Anglian Water","ref":"BUGBST"}},{"type":"Feature","geometry":{"type":"Point","coordinates":[-1.90226,52.08874]},"properties":{"name":"Mapped water infrastructure","category":"pumping_station","osm_type":"way","osm_id":"397079315"}},{"type":"Feature","geometry":{"type":"Point","coordinates":[-1.95699,52.4726]},"properties":{"name":"Mapped water infrastructure","category":"reservoir_covered","osm_type":"way","osm_id":"398371993"}},{"type":"Feature","geometry":{"type":"Point","coordinates":[-1.93097,52.34008]},"properties":{"name":"Mapped water infrastructure","category":"pumping_station","osm_type":"way","osm_id":"411381376"}},{"type":"Feature","geometry":{"type":"Point","coordinates":[-1.99165,52.41805]},"properties":{"name":"Mapped water infrastructure","category":"reservoir_covered","osm_type":"way","osm_id":"459873195"}},{"type":"Feature","geometry":{"type":"Point","coordinates":[-1.98966,52.41751]},"properties":{"name":"Mapped water infrastructure","category":"reservoir_covered","osm_type":"way","osm_id":"459873196"}},{"type":"Feature","geometry":{"type":"Point","coordinates":[-1.99165,52.41943]},"properties":{"name":"Mapped water infrastructure","category":"reservoir_covered","osm_type":"way","osm_id":"459873203"}},{"type":"Feature","geometry":{"type":"Point","coordinates":[-1.40686,52.22744]},"properties":{"name":"Mapped water infrastructure","category":"pumping_station","osm_type":"way","osm_id":"463061638"}},{"type":"Feature","geometry":{"type":"Point","coordinates":[-1.0253,52.13397]},"properties":{"name":"Mapped water infrastructure","category":"wastewater_plant","osm_type":"way","osm_id":"467805129"}},{"type":"Feature","geometry":{"type":"Point","coordinates":[-1.10212,52.29656]},"properties":{"name":"Mapped water infrastructure","category":"wastewater_plant","osm_type":"way","osm_id":"472207615"}},{"type":"Feature","geometry":{"type":"Point","coordinates":[-1.06762,52.22482]},"properties":{"name":"Mapped water infrastructure","category":"wastewater_plant","osm_type":"way","osm_id":"472412769"}},{"type":"Feature","geometry":{"type":"Point","coordinates":[-1.09095,52.23995]},"properties":{"name":"Mapped water infrastructure","category":"reservoir_covered","osm_type":"way","osm_id":"472412774"}},{"type":"Feature","geometry":{"type":"Point","coordinates":[-1.14754,52.2281]},"properties":{"name":"Newnham STW (Northants)","category":"wastewater_plant","osm_type":"way","osm_id":"478290458","operator":"Anglian Water","ref":"NEWNST"}},{"type":"Feature","geometry":{"type":"Point","coordinates":[-1.12417,52.3127]},"properties":{"name":"Watford STW","category":"wastewater_plant","osm_type":"way","osm_id":"504727311","operator":"Anglian Water","ref":"WATFST"}},{"type":"Feature","geometry":{"type":"Point","coordinates":[-1.27445,52.38114]},"properties":{"name":"Rugby - Newbold (STW)","category":"wastewater_plant","osm_type":"way","osm_id":"519698756","operator":"Severn Trent","ref":"10429-ST1"}},{"type":"Feature","geometry":{"type":"Point","coordinates":[-1.8751,52.41062]},"properties":{"name":"Mapped water infrastructure","category":"reservoir_covered","osm_type":"way","osm_id":"557682202"}},{"type":"Feature","geometry":{"type":"Point","coordinates":[-1.44023,52.47442]},"properties":{"name":"Mapped water infrastructure","category":"wastewater_plant","osm_type":"way","osm_id":"569030877"}},{"type":"Feature","geometry":{"type":"Point","coordinates":[-1.71157,52.28877]},"properties":{"name":"Mapped water infrastructure","category":"reservoir_covered","osm_type":"way","osm_id":"583134027"}},{"type":"Feature","geometry":{"type":"Point","coordinates":[-1.71188,52.28865]},"properties":{"name":"Mapped water infrastructure","category":"water_tower","osm_type":"way","osm_id":"583134028"}},{"type":"Feature","geometry":{"type":"Point","coordinates":[-1.67754,52.24104]},"properties":{"name":"Snitterfield (STW)","category":"wastewater_plant","osm_type":"way","osm_id":"592385155","operator":"Severn Trent","ref":"10326-ST1"}},{"type":"Feature","geometry":{"type":"Point","coordinates":[-1.94893,52.25685]},"properties":{"name":"Astwood Bank (STW)","category":"wastewater_plant","osm_type":"way","osm_id":"605336996","operator":"Severn Trent Water","ref":"10148-ST1"}},{"type":"Feature","geometry":{"type":"Point","coordinates":[-1.00125,52.01353]},"properties":{"name":"Chackmore STW","category":"wastewater_plant","osm_type":"way","osm_id":"612191044","operator":"Anglian Water","ref":"CHACST"}},{"type":"Feature","geometry":{"type":"Point","coordinates":[-1.02373,52.10364]},"properties":{"name":"Silverstone STW","category":"wastewater_plant","osm_type":"way","osm_id":"614525728","addr:city":"Towcester","addr:postcode":"NN12 8UB"}},{"type":"Feature","geometry":{"type":"Point","coordinates":[-1.43184,52.17337]},"properties":{"name":"Northend Pumping Station","category":"pumping_station","osm_type":"way","osm_id":"615295852","operator":"Severn Trent Water","ref":"10394-ST1"}},{"type":"Feature","geometry":{"type":"Point","coordinates":[-1.67673,52.09446]},"properties":{"name":"Mapped water infrastructure","category":"wastewater_plant","osm_type":"way","osm_id":"620338515"}},{"type":"Feature","geometry":{"type":"Point","coordinates":[-1.23784,52.40483]},"properties":{"name":"Mapped water infrastructure","category":"water_tower","osm_type":"way","osm_id":"626412753"}},{"type":"Feature","geometry":{"type":"Point","coordinates":[-1.23769,52.40482]},"properties":{"name":"Mapped water infrastructure","category":"water_tower","osm_type":"way","osm_id":"626412754"}},{"type":"Feature","geometry":{"type":"Point","coordinates":[-1.97635,52.13246]},"properties":{"name":"Sheriffs Lench","category":"reservoir_covered","osm_type":"way","osm_id":"643440131","operator":"Severn Trent"}},{"type":"Feature","geometry":{"type":"Point","coordinates":[-1.36649,52.32185]},"properties":{"name":"Mapped water infrastructure","category":"wastewater_plant","osm_type":"way","osm_id":"654058148"}},{"type":"Feature","geometry":{"type":"Point","coordinates":[-1.28334,52.11862]},"properties":{"name":"Mapped water infrastructure","category":"wastewater_plant","osm_type":"way","osm_id":"662646825"}},{"type":"Feature","geometry":{"type":"Point","coordinates":[-1.25925,52.3275]},"properties":{"name":"Mapped water infrastructure","category":"wastewater_plant","osm_type":"way","osm_id":"665873226"}},{"type":"Feature","geometry":{"type":"Point","coordinates":[-1.39703,52.27473]},"properties":{"name":"Mapped water infrastructure","category":"wastewater_plant","osm_type":"way","osm_id":"678484237"}},{"type":"Feature","geometry":{"type":"Point","coordinates":[-1.86407,52.21094]},"properties":{"name":"Oversley Green Pumping Station","category":"pumping_station","osm_type":"way","osm_id":"681888468","operator":"Severn Trent Water"}},{"type":"Feature","geometry":{"type":"Point","coordinates":[-1.48837,52.03347]},"properties":{"name":"Sibford Ferris (STW)","category":"wastewater_plant","osm_type":"way","osm_id":"681910568","operator":"Severn Trent","ref":"10327-ST1"}},{"type":"Feature","geometry":{"type":"Point","coordinates":[-1.12597,52.01992]},"properties":{"name":"Brackley STW (New)","category":"wastewater_plant","osm_type":"way","osm_id":"690860140","operator":"Anglian Water","ref":"BRAKST"}},{"type":"Feature","geometry":{"type":"Point","coordinates":[-1.4874,52.34916]},"properties":{"name":"Bubbenhall (STW)","category":"wastewater_plant","osm_type":"way","osm_id":"691658238","operator":"Severn Trent","ref":"10427-ST1"}},{"type":"Feature","geometry":{"type":"Point","coordinates":[-1.93336,52.47585]},"properties":{"name":"Lower Edgbaston Reservoir","category":"reservoir_covered","osm_type":"way","osm_id":"700437552","operator":"Severn Trent Water"}},{"type":"Feature","geometry":{"type":"Point","coordinates":[-1.31621,52.20196]},"properties":{"name":"Priors Hardwick (STW)","category":"wastewater_plant","osm_type":"way","osm_id":"703833224","operator":"Severn Trent","ref":"10395-ST1"}},{"type":"Feature","geometry":{"type":"Point","coordinates":[-1.3273,52.35589]},"properties":{"name":"Mapped water infrastructure","category":"wastewater_plant","osm_type":"way","osm_id":"712034585"}},{"type":"Feature","geometry":{"type":"Point","coordinates":[-1.88606,52.1592]},"properties":{"name":"Salford Priors Sewage Pumping Station","category":"pumping_station","osm_type":"way","osm_id":"719324098","operator":"Severn Trent Water"}},{"type":"Feature","geometry":{"type":"Point","coordinates":[-1.32882,52.06308]},"properties":{"name":"Moorfiled Brook Pumping Station","category":"pumping_station","osm_type":"way","osm_id":"749218593"}},{"type":"Feature","geometry":{"type":"Point","coordinates":[-1.52401,52.25946]},"properties":{"name":"Mapped water infrastructure","category":"pumping_station","osm_type":"way","osm_id":"761175779"}},{"type":"Feature","geometry":{"type":"Point","coordinates":[-1.26914,52.01677]},"properties":{"name":"Kings Sutton WwTW","category":"wastewater_plant","osm_type":"way","osm_id":"762375956","operator":"Thames Water","ref":"KINGS2ZZ"}},{"type":"Feature","geometry":{"type":"Point","coordinates":[-1.22382,52.36751]},"properties":{"name":"Mapped water infrastructure","category":"wastewater_plant","osm_type":"way","osm_id":"785550488"}},{"type":"Feature","geometry":{"type":"Point","coordinates":[-1.44393,52.13189]},"properties":{"name":"Mapped water infrastructure","category":"water_tower","osm_type":"way","osm_id":"785622323"}},{"type":"Feature","geometry":{"type":"Point","coordinates":[-1.18719,52.33656]},"properties":{"name":"Kilsby (STW)","category":"wastewater_plant","osm_type":"way","osm_id":"804265166","operator":"Severn Trent","ref":"10404-ST1"}},{"type":"Feature","geometry":{"type":"Point","coordinates":[-1.37045,52.25073]},"properties":{"name":"Mapped water infrastructure","category":"pumping_station","osm_type":"way","osm_id":"807573344"}},{"type":"Feature","geometry":{"type":"Point","coordinates":[-1.52132,52.2027]},"properties":{"name":"Lighthorne (STW)","category":"wastewater_plant","osm_type":"way","osm_id":"821106476","operator":"Severn Trent","ref":"10388-ST1"}},{"type":"Feature","geometry":{"type":"Point","coordinates":[-1.63761,52.29898]},"properties":{"name":"Mapped water infrastructure","category":"reservoir_covered","osm_type":"way","osm_id":"830302565"}},{"type":"Feature","geometry":{"type":"Point","coordinates":[-1.33128,52.07348]},"properties":{"name":"Mapped water infrastructure","category":"water_works","osm_type":"way","osm_id":"839461326"}},{"type":"Feature","geometry":{"type":"Point","coordinates":[-1.51472,52.29559]},"properties":{"name":"Campion Hills Water Treatment Works","category":"water_works","osm_type":"way","osm_id":"840519268","operator":"Severn Trent"}},{"type":"Feature","geometry":{"type":"Point","coordinates":[-1.51344,52.29603]},"properties":{"name":"Mapped water infrastructure","category":"reservoir_covered","osm_type":"way","osm_id":"840523398"}},{"type":"Feature","geometry":{"type":"Point","coordinates":[-1.51383,52.29638]},"properties":{"name":"Mapped water infrastructure","category":"reservoir_covered","osm_type":"way","osm_id":"840523399"}},{"type":"Feature","geometry":{"type":"Point","coordinates":[-1.53229,52.42201]},"properties":{"name":"Coundon Reservoir","category":"reservoir_covered","osm_type":"way","osm_id":"840900675","operator":"Severn Trent"}},{"type":"Feature","geometry":{"type":"Point","coordinates":[-1.5558,52.16115]},"properties":{"name":"Combrook STW","category":"wastewater_plant","osm_type":"way","osm_id":"862758350","operator":"Severn Trent"}},{"type":"Feature","geometry":{"type":"Point","coordinates":[-1.20121,52.35585]},"properties":{"name":"Mapped water infrastructure","category":"pumping_station","osm_type":"way","osm_id":"872931838"}},{"type":"Feature","geometry":{"type":"Point","coordinates":[-1.65208,52.43289]},"properties":{"name":"Mapped water infrastructure","category":"wastewater_plant","osm_type":"way","osm_id":"886308226"}},{"type":"Feature","geometry":{"type":"Point","coordinates":[-1.81118,52.14555]},"properties":{"name":"Mapped water infrastructure","category":"water_well","osm_type":"way","osm_id":"915396342"}},{"type":"Feature","geometry":{"type":"Point","coordinates":[-1.54892,52.01421]},"properties":{"name":"Whichford (STW)","category":"wastewater_plant","osm_type":"way","osm_id":"929329156","operator":"Severn Trent","ref":"10347-ST1"}},{"type":"Feature","geometry":{"type":"Point","coordinates":[-1.88054,52.26125]},"properties":{"name":"Spernal Ash Sewage Works","category":"wastewater_plant","osm_type":"way","osm_id":"932152841"}},{"type":"Feature","geometry":{"type":"Point","coordinates":[-1.26293,52.06688]},"properties":{"name":"Middleton Cheney WwTW","category":"wastewater_plant","osm_type":"way","osm_id":"933933778","operator":"Thames Water","ref":"MIDDS2ZZ"}},{"type":"Feature","geometry":{"type":"Point","coordinates":[-1.33195,52.07226]},"properties":{"name":"Mapped water infrastructure","category":"pumping_station","osm_type":"way","osm_id":"940732928"}},{"type":"Feature","geometry":{"type":"Point","coordinates":[-1.82275,52.29841]},"properties":{"name":"Ullenhall (STW)","category":"wastewater_plant","osm_type":"way","osm_id":"949478482","operator":"Severn Trent","ref":"10346-ST1"}},{"type":"Feature","geometry":{"type":"Point","coordinates":[-1.216,52.35627]},"properties":{"name":"Mapped water infrastructure","category":"pumping_station","osm_type":"way","osm_id":"966757909"}},{"type":"Feature","geometry":{"type":"Point","coordinates":[-1.4914,52.20346]},"properties":{"name":"Mapped water infrastructure","category":"pumping_station","osm_type":"way","osm_id":"967030192"}},{"type":"Feature","geometry":{"type":"Point","coordinates":[-1.13999,52.05804]},"properties":{"name":"Mapped water infrastructure","category":"wastewater_plant","osm_type":"way","osm_id":"980958699"}},{"type":"Feature","geometry":{"type":"Point","coordinates":[-1.63121,52.14665]},"properties":{"name":"Houndshill Reservoir","category":"reservoir_covered","osm_type":"way","osm_id":"991923071"}},{"type":"Feature","geometry":{"type":"Point","coordinates":[-1.76299,52.05195]},"properties":{"name":"Chipping Campden (STW)","category":"wastewater_plant","osm_type":"way","osm_id":"993574151","operator":"Severn Trent","ref":"10330-ST1"}},{"type":"Feature","geometry":{"type":"Point","coordinates":[-1.68131,52.36164]},"properties":{"name":"Mapped water infrastructure","category":"wastewater_plant","osm_type":"way","osm_id":"1002340280"}},{"type":"Feature","geometry":{"type":"Point","coordinates":[-1.04452,52.21574]},"properties":{"name":"Mapped water infrastructure","category":"pumping_station","osm_type":"way","osm_id":"1017308645"}},{"type":"Feature","geometry":{"type":"Point","coordinates":[-1.08797,52.19056]},"properties":{"name":"Litchborough STW","category":"wastewater_plant","osm_type":"way","osm_id":"1020970139","operator":"Anglian Water","ref":"LITBST"}},{"type":"Feature","geometry":{"type":"Point","coordinates":[-1.41212,52.18691]},"properties":{"name":"Knightcote (STW)","category":"wastewater_plant","osm_type":"way","osm_id":"1022886657","operator":"Severn Trent","ref":"10386-ST1"}},{"type":"Feature","geometry":{"type":"Point","coordinates":[-1.86808,52.21258]},"properties":{"name":"Stratford Road Pumping Station","category":"pumping_station","osm_type":"way","osm_id":"1032669670","operator":"Severn Trent Water"}},{"type":"Feature","geometry":{"type":"Point","coordinates":[-1.26691,52.49566]},"properties":{"name":"Claybrooke Magna (STW)","category":"wastewater_plant","osm_type":"way","osm_id":"1035592095","operator":"Severn Trent Water","ref":"11213-ST1"}},{"type":"Feature","geometry":{"type":"Point","coordinates":[-1.0778,52.07196]},"properties":{"name":"Syresham STW","category":"wastewater_plant","osm_type":"way","osm_id":"1037315559","operator":"Anglian Water","ref":"SYREST"}},{"type":"Feature","geometry":{"type":"Point","coordinates":[-1.25234,52.26924]},"properties":{"name":"Flecknoe (STW)","category":"wastewater_plant","osm_type":"way","osm_id":"1037980042","operator":"Severn Trent","ref":"15134-ST1"}},{"type":"Feature","geometry":{"type":"Point","coordinates":[-1.1595,52.19533]},"properties":{"name":"Preston Capes St WwTW","category":"wastewater_plant","osm_type":"way","osm_id":"1038355867","operator":"Anglian Water","ref":"PRECST"}},{"type":"Feature","geometry":{"type":"Point","coordinates":[-1.93557,52.04041]},"properties":{"name":"Aston Somerville (STW)","category":"wastewater_plant","osm_type":"way","osm_id":"1040149651","operator":"Severn Trent","ref":"10025"}},{"type":"Feature","geometry":{"type":"Point","coordinates":[-1.54361,52.14897]},"properties":{"name":"Butlers Marston (STW)","category":"wastewater_plant","osm_type":"way","osm_id":"1041972695","operator":"Severn Trent","ref":"10319-ST1"}},{"type":"Feature","geometry":{"type":"Point","coordinates":[-1.75346,52.05718]},"properties":{"name":"Ebrington WwTW","category":"wastewater_plant","osm_type":"way","osm_id":"1042391096","operator":"Thames Water","ref":"EBRI01ZZ"}},{"type":"Feature","geometry":{"type":"Point","coordinates":[-1.33117,52.35753]},"properties":{"name":"Lawford Heath (STW)","category":"wastewater_plant","osm_type":"way","osm_id":"1043439135","operator":"Severn Trent","ref":"10424-ST1"}},{"type":"Feature","geometry":{"type":"Point","coordinates":[-1.34172,52.38742]},"properties":{"name":"Church Lawford (STW)","category":"wastewater_plant","osm_type":"way","osm_id":"1043439673","operator":"Severn Trent","ref":"10382-ST1"}},{"type":"Feature","geometry":{"type":"Point","coordinates":[-1.37284,52.41871]},"properties":{"name":"Brinklow (STW)","category":"wastewater_plant","osm_type":"way","osm_id":"1043440899","operator":"Severn Trent","ref":"10405-ST1"}},{"type":"Feature","geometry":{"type":"Point","coordinates":[-1.39744,52.49521]},"properties":{"name":"Bramcote (STW)","category":"wastewater_plant","osm_type":"way","osm_id":"1043445482","operator":"Severn Trent","ref":"10458-ST1"}},{"type":"Feature","geometry":{"type":"Point","coordinates":[-1.54241,52.11577]},"properties":{"name":"Oxhill Works (STW)","category":"wastewater_plant","osm_type":"way","osm_id":"1043445927","operator":"Severn Trent","ref":"10323-ST1"}},{"type":"Feature","geometry":{"type":"Point","coordinates":[-1.9568,52.16293]},"properties":{"name":"Church Lench (STW)","category":"wastewater_plant","osm_type":"way","osm_id":"1043499111","operator":"Severn Trent","ref":"10156-ST1"}},{"type":"Feature","geometry":{"type":"Point","coordinates":[-1.55401,52.21556]},"properties":{"name":"Ashorne (STW)","category":"wastewater_plant","osm_type":"way","osm_id":"1046345182","operator":"Severn Trent","ref":"10380-ST1"}},{"type":"Feature","geometry":{"type":"Point","coordinates":[-1.83705,52.32951]},"properties":{"name":"Tanworth In Arden (STW)","category":"wastewater_plant","osm_type":"way","osm_id":"1046349668","operator":"Severn Trent","ref":"10328-ST1"}},{"type":"Feature","geometry":{"type":"Point","coordinates":[-1.67317,52.04654]},"properties":{"name":"Stretton On Fosse (STW)","category":"wastewater_plant","osm_type":"way","osm_id":"1046351125","operator":"Severn Trent","ref":"10344-ST1"}},{"type":"Feature","geometry":{"type":"Point","coordinates":[-1.46488,52.17721]},"properties":{"name":"Gaydon WRW Sewage Treatment Works","category":"wastewater_plant","osm_type":"way","osm_id":"1046351405","operator":"Severn Trent","ref":"10384-ST1"}},{"type":"Feature","geometry":{"type":"Point","coordinates":[-1.53931,52.47221]},"properties":{"name":"Corley Works (STW)","category":"wastewater_plant","osm_type":"way","osm_id":"1046351677","operator":"Severn Trent","ref":"10461-ST1"}},{"type":"Feature","geometry":{"type":"Point","coordinates":[-1.70732,52.02177]},"properties":{"name":"Aston Magna (STW)","category":"wastewater_plant","osm_type":"way","osm_id":"1046351891","operator":"Severn Trent","ref":"10317-ST1"}},{"type":"Feature","geometry":{"type":"Point","coordinates":[-1.38675,52.17469]},"properties":{"name":"Fenny Compton (STW)","category":"wastewater_plant","osm_type":"way","osm_id":"1063051256","operator":"Severn Trent","ref":"10425-ST1"}},{"type":"Feature","geometry":{"type":"Point","coordinates":[-1.41719,52.23587]},"properties":{"name":"Mapped water infrastructure","category":"wastewater_plant","osm_type":"way","osm_id":"1064110939"}},{"type":"Feature","geometry":{"type":"Point","coordinates":[-1.36083,52.05699]},"properties":{"name":"Mapped water infrastructure","category":"reservoir_covered","osm_type":"way","osm_id":"1086578807"}},{"type":"Feature","geometry":{"type":"Point","coordinates":[-1.3703,52.19787]},"properties":{"name":"Mapped water infrastructure","category":"reservoir_covered","osm_type":"way","osm_id":"1086674414"}},{"type":"Feature","geometry":{"type":"Point","coordinates":[-1.95206,52.00022]},"properties":{"name":"Toddington (STW)","category":"wastewater_plant","osm_type":"way","osm_id":"1086681533","operator":"Severn Trent","ref":"10302-ST1"}},{"type":"Feature","geometry":{"type":"Point","coordinates":[-1.90998,52.00282]},"properties":{"name":"Stanton - (Gloucestershire) (STW)","category":"wastewater_plant","osm_type":"way","osm_id":"1092284538","operator":"Severn Trent","ref":"10315-ST1"}},{"type":"Feature","geometry":{"type":"Point","coordinates":[-1.01475,52.3098]},"properties":{"name":"East Haddon STW","category":"wastewater_plant","osm_type":"way","osm_id":"1107049943","operator":"Anglian Water","ref":"EHADST"}},{"type":"Feature","geometry":{"type":"Point","coordinates":[-1.04002,52.49453]},"properties":{"name":"Mowsley STW","category":"wastewater_plant","osm_type":"way","osm_id":"1112144221","operator":"Anglian Water","ref":"MOWSST"}},{"type":"Feature","geometry":{"type":"Point","coordinates":[-1.01129,52.32329]},"properties":{"name":"Ravensthorpe STW","category":"wastewater_plant","osm_type":"way","osm_id":"1112296332","operator":"Anglian Water","ref":"RAVEST"}},{"type":"Feature","geometry":{"type":"Point","coordinates":[-1.98675,52.18332]},"properties":{"name":"Rous Lench (STW)","category":"wastewater_plant","osm_type":"way","osm_id":"1112749155","operator":"Severn Trent","ref":"10174-ST1"}},{"type":"Feature","geometry":{"type":"Point","coordinates":[-1.07713,52.11045]},"properties":{"name":"Wappenham STW","category":"wastewater_plant","osm_type":"way","osm_id":"1113174131","operator":"Anglian Water","ref":"WAPPST"}},{"type":"Feature","geometry":{"type":"Point","coordinates":[-1.92452,52.094]},"properties":{"name":"Mapped water infrastructure","category":"pumping_station","osm_type":"way","osm_id":"1119130766"}},{"type":"Feature","geometry":{"type":"Point","coordinates":[-1.92442,52.09402]},"properties":{"name":"Mapped water infrastructure","category":"pumping_station","osm_type":"way","osm_id":"1119130767"}},{"type":"Feature","geometry":{"type":"Point","coordinates":[-1.25551,52.41927]},"properties":{"name":"Mapped water infrastructure","category":"wastewater_plant","osm_type":"way","osm_id":"1124309858"}},{"type":"Feature","geometry":{"type":"Point","coordinates":[-1.20657,52.45872]},"properties":{"name":"Mapped water infrastructure","category":"water_tower","osm_type":"way","osm_id":"1178547471"}},{"type":"Feature","geometry":{"type":"Point","coordinates":[-1.23986,52.09461]},"properties":{"name":"Mapped water infrastructure","category":"reservoir_covered","osm_type":"way","osm_id":"1195118385"}},{"type":"Feature","geometry":{"type":"Point","coordinates":[-1.24031,52.09477]},"properties":{"name":"Mapped water infrastructure","category":"reservoir_covered","osm_type":"way","osm_id":"1195118386"}},{"type":"Feature","geometry":{"type":"Point","coordinates":[-1.11545,52.04838]},"properties":{"name":"Mapped water infrastructure","category":"wastewater_plant","osm_type":"way","osm_id":"1196124588"}},{"type":"Feature","geometry":{"type":"Point","coordinates":[-1.67625,52.19151]},"properties":{"name":"Mapped water infrastructure","category":"pumping_station","osm_type":"way","osm_id":"1206147366"}},{"type":"Feature","geometry":{"type":"Point","coordinates":[-1.69788,52.17866]},"properties":{"name":"Mapped water infrastructure","category":"pumping_station","osm_type":"way","osm_id":"1206842435"}},{"type":"Feature","geometry":{"type":"Point","coordinates":[-1.14126,52.00932]},"properties":{"name":"Evenley STW","category":"wastewater_plant","osm_type":"way","osm_id":"1207306931","operator":"Anglian Water","ref":"EVENST"}},{"type":"Feature","geometry":{"type":"Point","coordinates":[-1.12043,52.21507]},"properties":{"name":"Everdon STW","category":"wastewater_plant","osm_type":"way","osm_id":"1207392527","operator":"Anglian Water","ref":"EVERST"}},{"type":"Feature","geometry":{"type":"Point","coordinates":[-1.11801,52.27129]},"properties":{"name":"Norton STW (Northants)","category":"wastewater_plant","osm_type":"way","osm_id":"1207392880","operator":"Anglian Water","ref":"NORNST"}},{"type":"Feature","geometry":{"type":"Point","coordinates":[-1.67104,52.18748]},"properties":{"name":"Mapped water infrastructure","category":"pumping_station","osm_type":"way","osm_id":"1209368729"}},{"type":"Feature","geometry":{"type":"Point","coordinates":[-1.24581,52.41436]},"properties":{"name":"Churchover - Coton Road (STW)","category":"wastewater_plant","osm_type":"way","osm_id":"1209871240","operator":"Severn Trent","ref":"10423-ST1"}},{"type":"Feature","geometry":{"type":"Point","coordinates":[-1.19814,52.41948]},"properties":{"name":"Shawell (STW)","category":"wastewater_plant","osm_type":"way","osm_id":"1209871704","operator":"Severn Trent","ref":"11235-ST1"}},{"type":"Feature","geometry":{"type":"Point","coordinates":[-1.16343,52.40334]},"properties":{"name":"Swinford (STW)","category":"wastewater_plant","osm_type":"way","osm_id":"1209871859","operator":"Severn Trent","ref":"11239-ST1"}},{"type":"Feature","geometry":{"type":"Point","coordinates":[-1.06242,52.42967]},"properties":{"name":"Glebe Farm (STW)","category":"wastewater_plant","osm_type":"way","osm_id":"1209874180","operator":"Severn Trent","ref":"11222-ST1"}},{"type":"Feature","geometry":{"type":"Point","coordinates":[-1.01071,52.43974]},"properties":{"name":"Sibbertoft STW","category":"wastewater_plant","osm_type":"way","osm_id":"1209874607","operator":"Anglian Water","ref":"SIBBST"}},{"type":"Feature","geometry":{"type":"Point","coordinates":[-1.6596,52.48945]},"properties":{"name":"Maxstoke (STW)","category":"wastewater_plant","osm_type":"way","osm_id":"1209881991","operator":"Severn Trent","ref":"10977-ST1"}},{"type":"Feature","geometry":{"type":"Point","coordinates":[-1.02679,52.28512]},"properties":{"name":"Brington STW","category":"wastewater_plant","osm_type":"way","osm_id":"1242953981","operator":"Anglian Water","ref":"BRINST"}},{"type":"Feature","geometry":{"type":"Point","coordinates":[-1.33355,52.06543]},"properties":{"name":"Spiceball Park Oil Interceptor","category":"water_works","osm_type":"way","osm_id":"1252992629"}},{"type":"Feature","geometry":{"type":"Point","coordinates":[-1.52698,52.16123]},"properties":{"name":"Mapped water infrastructure","category":"reservoir_covered","osm_type":"way","osm_id":"1253947371"}},{"type":"Feature","geometry":{"type":"Point","coordinates":[-1.15013,52.08783]},"properties":{"name":"Mapped water infrastructure","category":"wastewater_plant","osm_type":"way","osm_id":"1274952111"}},{"type":"Feature","geometry":{"type":"Point","coordinates":[-1.95204,52.19545]},"properties":{"name":"Abbotts Morton (STW)","category":"wastewater_plant","osm_type":"way","osm_id":"1293984468","operator":"Severn Trent","ref":"10150-ST1"}},{"type":"Feature","geometry":{"type":"Point","coordinates":[-1.11175,52.42661]},"properties":{"name":"South Kilworth (STW)","category":"wastewater_plant","osm_type":"way","osm_id":"1293993112","operator":"Severn Trent","ref":"11248-ST1"}},{"type":"Feature","geometry":{"type":"Point","coordinates":[-1.59544,52.18546]},"properties":{"name":"Mapped water infrastructure","category":"pumping_station","osm_type":"way","osm_id":"1300449270"}},{"type":"Feature","geometry":{"type":"Point","coordinates":[-1.60915,52.18638]},"properties":{"name":"Mapped water infrastructure","category":"pumping_station","osm_type":"way","osm_id":"1303049255"}},{"type":"Feature","geometry":{"type":"Point","coordinates":[-1.64053,52.18055]},"properties":{"name":"Mapped water infrastructure","category":"pumping_station","osm_type":"way","osm_id":"1304897833"}},{"type":"Feature","geometry":{"type":"Point","coordinates":[-1.4062,52.27237]},"properties":{"name":"Bascote (STW)","category":"wastewater_plant","osm_type":"way","osm_id":"1311727152","operator":"Severn Trent","ref":"10381-ST1"}},{"type":"Feature","geometry":{"type":"Point","coordinates":[-1.47568,52.20259]},"properties":{"name":"Mapped water infrastructure","category":"pumping_station","osm_type":"way","osm_id":"1330462765"}},{"type":"Feature","geometry":{"type":"Point","coordinates":[-1.40391,52.34667]},"properties":{"name":"Mapped water infrastructure","category":"pumping_station","osm_type":"way","osm_id":"1360090490"}},{"type":"Feature","geometry":{"type":"Point","coordinates":[-1.17212,52.07557]},"properties":{"name":"Mapped water infrastructure","category":"water_works","osm_type":"way","osm_id":"1383994851"}},{"type":"Feature","geometry":{"type":"Point","coordinates":[-1.96759,52.06292]},"properties":{"name":"Hinton-On-The-Green Wks (STW)","category":"wastewater_plant","osm_type":"way","osm_id":"1388502070","operator":"Severn Trent","ref":"10047-ST1"}},{"type":"Feature","geometry":{"type":"Point","coordinates":[-1.34837,52.18305]},"properties":{"name":"Wormleighton (STW)","category":"wastewater_plant","osm_type":"way","osm_id":"1388503196","operator":"Severn Trent","ref":"10400-ST1"}},{"type":"Feature","geometry":{"type":"Point","coordinates":[-1.37304,52.38992]},"properties":{"name":"Bretford (STW)","category":"wastewater_plant","osm_type":"way","osm_id":"1388504209","operator":"Severn Trent","ref":"10428-ST1"}},{"type":"Feature","geometry":{"type":"Point","coordinates":[-1.99895,52.31467]},"properties":{"name":"Tardebigge - Septic Tank (STW)","category":"wastewater_plant","osm_type":"way","osm_id":"1388734915","operator":"Severn Trent","ref":"18649-ST1"}},{"type":"Feature","geometry":{"type":"Point","coordinates":[-1.90056,52.17503]},"properties":{"name":"Dunnington (STW)","category":"wastewater_plant","osm_type":"way","osm_id":"1388773006","operator":"Severn Trent","ref":"10149-ST1"}},{"type":"Feature","geometry":{"type":"Point","coordinates":[-1.89854,52.02133]},"properties":{"name":"Laverton (STW)","category":"wastewater_plant","osm_type":"way","osm_id":"1388779026","operator":"Severn Trent","ref":"10312-ST1"}},{"type":"Feature","geometry":{"type":"Point","coordinates":[-1.1438,52.46673]},"properties":{"name":"Kimcote (STW)","category":"wastewater_plant","osm_type":"way","osm_id":"1393796212","operator":"Severn Trent","ref":"11229-ST1"}},{"type":"Feature","geometry":{"type":"Point","coordinates":[-1.80495,52.14655]},"properties":{"name":"Dorsington (STW)","category":"wastewater_plant","osm_type":"way","osm_id":"1393853458","operator":"Severn Trent","ref":"10320-ST1"}},{"type":"Feature","geometry":{"type":"Point","coordinates":[-1.94696,52.0261]},"properties":{"name":"Wormington (STW)","category":"wastewater_plant","osm_type":"way","osm_id":"1396832935","operator":"Severn Trent","ref":"10314-ST1"}},{"type":"Feature","geometry":{"type":"Point","coordinates":[-1.21907,52.24927]},"properties":{"name":"Staverton (STW)","category":"wastewater_plant","osm_type":"way","osm_id":"1408772576","operator":"Severn Trent","ref":"10396-ST1"}},{"type":"Feature","geometry":{"type":"Point","coordinates":[-1.05317,52.00375]},"properties":{"name":"Water Stratford STW","category":"wastewater_plant","osm_type":"way","osm_id":"1413516945","operator":"Anglian Water","ref":"WATSST"}},{"type":"Feature","geometry":{"type":"Point","coordinates":[-1.05317,52.00375]},"properties":{"name":"Water Stratford STW","category":"wastewater_plant","osm_type":"way","osm_id":"1413553157","operator":"Anglian Water","ref":"WATSST"}},{"type":"Feature","geometry":{"type":"Point","coordinates":[-1.25245,52.3037]},"properties":{"name":"Willoughby (STW)","category":"wastewater_plant","osm_type":"way","osm_id":"1414723475","operator":"Severn Trent","ref":"10397-ST1"}},{"type":"Feature","geometry":{"type":"Point","coordinates":[-1.13849,52.28646]},"properties":{"name":"Mapped water infrastructure","category":"wastewater_plant","osm_type":"way","osm_id":"1415658645"}},{"type":"Feature","geometry":{"type":"Point","coordinates":[-1.08938,52.01447]},"properties":{"name":"Westbury STW","category":"wastewater_plant","osm_type":"way","osm_id":"1416602301","operator":"Anglian Water","ref":"WESBST"}},{"type":"Feature","geometry":{"type":"Point","coordinates":[-1.69655,52.38304]},"properties":{"name":"Temple Balsall (STW)","category":"wastewater_plant","osm_type":"way","osm_id":"1420165418","operator":"Severn Trent","ref":"10986-ST1"}},{"type":"Feature","geometry":{"type":"Point","coordinates":[-1.27183,52.46166]},"properties":{"name":"Willey (STW)","category":"wastewater_plant","osm_type":"way","osm_id":"1420428185","operator":"Severn Trent","ref":"10477-ST1"}},{"type":"Feature","geometry":{"type":"Point","coordinates":[-1.94665,52.29388]},"properties":{"name":"Mapped water infrastructure","category":"reservoir_covered","osm_type":"way","osm_id":"1421188768","operator":"Severn Trent Water"}},{"type":"Feature","geometry":{"type":"Point","coordinates":[-1.94698,52.29353]},"properties":{"name":"Mapped water infrastructure","category":"reservoir_covered","osm_type":"way","osm_id":"1421188769","operator":"Severn Trent Water"}},{"type":"Feature","geometry":{"type":"Point","coordinates":[-1.08614,52.35727]},"properties":{"name":"Winwick (STW)","category":"wastewater_plant","osm_type":"way","osm_id":"1426046393","operator":"Severn Trent","ref":"10399"}},{"type":"Feature","geometry":{"type":"Point","coordinates":[-1.0224,52.02503]},"properties":{"name":"Stowe STW","category":"wastewater_plant","osm_type":"way","osm_id":"1493539630","operator":"Anglian Water","ref":"STOEST"}},{"type":"Feature","geometry":{"type":"Point","coordinates":[-1.36143,52.05666]},"properties":{"name":"Mapped water infrastructure","category":"water_works","osm_type":"way","osm_id":"1507423686"}},{"type":"Feature","geometry":{"type":"Point","coordinates":[-1.06771,52.34355]},"properties":{"name":"Mapped water infrastructure","category":"pumping_station","osm_type":"way","osm_id":"1509548579"}},{"type":"Feature","geometry":{"type":"Point","coordinates":[-1.86054,52.30837]},"properties":{"name":"Upper Skilts Sewage Plant","category":"wastewater_plant","osm_type":"way","osm_id":"1525875912"}},{"type":"Feature","geometry":{"type":"Point","coordinates":[-1.98784,52.46982]},"properties":{"name":"Warley Water Tower","category":"reservoir_covered","osm_type":"way","osm_id":"1530338463","operator":"Severn Trent"}},{"type":"Feature","geometry":{"type":"Point","coordinates":[-1.54934,52.28565]},"properties":{"name":"Leamington Water Treatment Works","category":"wastewater_plant","osm_type":"relation","osm_id":"1704259","operator":"Severn Trent"}},{"type":"Feature","geometry":{"type":"Point","coordinates":[-1.10554,52.20239]},"properties":{"name":"Mapped water infrastructure","category":"water_tower","osm_type":"way","osm_id":"23473531"}},{"type":"Feature","geometry":{"type":"Point","coordinates":[-1.4472,52.25766]},"properties":{"name":"Ufton Fields","category":"pumping_station","osm_type":"way","osm_id":"60640750"}},{"type":"Feature","geometry":{"type":"Point","coordinates":[-1.40829,52.1413]},"properties":{"name":"Avon Dassett Sewage Treatment Works","category":"wastewater_plant","osm_type":"way","osm_id":"60677402","operator":"Thames Water"}},{"type":"Feature","geometry":{"type":"Point","coordinates":[-1.60255,52.38454]},"properties":{"name":"Cromwell Water Tower","category":"water_tower","osm_type":"way","osm_id":"70926461"}},{"type":"Feature","geometry":{"type":"Point","coordinates":[-1.93349,52.47574]},"properties":{"name":"Mapped water infrastructure","category":"pumping_station","osm_type":"way","osm_id":"79708726","addr:city":"Birmingham","addr:postcode":"B16 9DD"}},{"type":"Feature","geometry":{"type":"Point","coordinates":[-1.0931,52.2803]},"properties":{"name":"Daventry STW","category":"wastewater_plant","osm_type":"way","osm_id":"95563672"}},{"type":"Feature","geometry":{"type":"Point","coordinates":[-1.25712,52.35197]},"properties":{"name":"Mapped water infrastructure","category":"water_tower","osm_type":"way","osm_id":"110155456"}},{"type":"Feature","geometry":{"type":"Point","coordinates":[-1.05258,52.45712]},"properties":{"name":"Husbands Bosworth STW","category":"wastewater_plant","osm_type":"way","osm_id":"158549764","operator":"Anglian Water","ref":"HUSBST"}},{"type":"Feature","geometry":{"type":"Point","coordinates":[-1.63298,52.27746]},"properties":{"name":"Mapped water infrastructure","category":"water_tower","osm_type":"way","osm_id":"159755035"}},{"type":"Feature","geometry":{"type":"Point","coordinates":[-1.22338,52.28745]},"properties":{"name":"Braunston (STW)","category":"wastewater_plant","osm_type":"way","osm_id":"169250293","operator":"Severn Trent Water","ref":"10401-ST1"}},{"type":"Feature","geometry":{"type":"Point","coordinates":[-1.52842,52.38092]},"properties":{"name":"Mapped water infrastructure","category":"pumping_station","osm_type":"way","osm_id":"189088379"}},{"type":"Feature","geometry":{"type":"Point","coordinates":[-1.90053,52.07779]},"properties":{"name":"Mapped water infrastructure","category":"pumping_station","osm_type":"way","osm_id":"228983261"}},{"type":"Feature","geometry":{"type":"Point","coordinates":[-1.28182,52.20582]},"properties":{"name":"Priors Marston Wastewater Treatment Works","category":"wastewater_plant","osm_type":"way","osm_id":"239214751","operator":"Thames Water","ref":"PRIOS1ZZ"}},{"type":"Feature","geometry":{"type":"Point","coordinates":[-1.30785,52.32707]},"properties":{"name":"Dunchurch STW","category":"wastewater_plant","osm_type":"way","osm_id":"242313525"}},{"type":"Feature","geometry":{"type":"Point","coordinates":[-1.5528,52.35417]},"properties":{"name":"Mapped water infrastructure","category":"wastewater_plant","osm_type":"way","osm_id":"272136975"}},{"type":"Feature","geometry":{"type":"Point","coordinates":[-1.31219,52.11281]},"properties":{"name":"Cropredy Wastewater Treatment Works","category":"wastewater_plant","osm_type":"way","osm_id":"299387390","operator":"Thames Water","ref":"CROPS1ZZ"}},{"type":"Feature","geometry":{"type":"Point","coordinates":[-1.27115,52.12962]},"properties":{"name":"Chipping Warden Wastewater Treatment Works","category":"wastewater_plant","osm_type":"way","osm_id":"363279218","operator":"Thames Water"}},{"type":"Feature","geometry":{"type":"Point","coordinates":[-1.31426,52.05801]},"properties":{"name":"Banbury Sewage Treatment Works","category":"wastewater_plant","osm_type":"way","osm_id":"397960830","operator":"Thames Water"}},{"type":"Feature","geometry":{"type":"Point","coordinates":[-1.00043,52.32758]},"properties":{"name":"Ravensthorpe Water Treatment Works","category":"water_works","osm_type":"way","osm_id":"410025988","operator":"Anglian Water"}},{"type":"Feature","geometry":{"type":"Point","coordinates":[-1.40733,52.28446]},"properties":{"name":"Long Itchington Whitewell Farm","category":"water_works","osm_type":"way","osm_id":"475543992","operator":"Severn Trent","ref":"37 447 03"}},{"type":"Feature","geometry":{"type":"Point","coordinates":[-1.2482,52.38312]},"properties":{"name":"Mapped water infrastructure","category":"pumping_station","osm_type":"way","osm_id":"576349234"}},{"type":"Feature","geometry":{"type":"Point","coordinates":[-1.56879,52.31528]},"properties":{"name":"Leek Wootton (STW)","category":"wastewater_plant","osm_type":"way","osm_id":"608250735","operator":"Severn Trent","ref":"10351-ST1"}},{"type":"Feature","geometry":{"type":"Point","coordinates":[-1.3765,52.10831]},"properties":{"name":"Shotteswell Wastewater Treatment Works","category":"wastewater_plant","osm_type":"way","osm_id":"703038587","operator":"Thames Water","ref":"SHOTS1ZZ"}},{"type":"Feature","geometry":{"type":"Point","coordinates":[-1.19951,52.07469]},"properties":{"name":"Greatworth Wastewater Treatment Works","category":"wastewater_plant","osm_type":"way","osm_id":"771252519","operator":"Thames Water"}},{"type":"Feature","geometry":{"type":"Point","coordinates":[-1.43472,52.06446]},"properties":{"name":"Shutford Wastewater Treatment Works","category":"wastewater_plant","osm_type":"way","osm_id":"794407910","operator":"Thames Water","ref":"SHUTS1ZZ"}},{"type":"Feature","geometry":{"type":"Point","coordinates":[-1.38639,52.04789]},"properties":{"name":"Broughton Wastewater Treatment Works","category":"wastewater_plant","osm_type":"way","osm_id":"881299294","operator":"Thames Water"}},{"type":"Feature","geometry":{"type":"Point","coordinates":[-1.37053,52.1223]},"properties":{"name":"Mollington Wastewater Treatment Works","category":"wastewater_plant","osm_type":"way","osm_id":"882766394","operator":"Thames Water"}},{"type":"Feature","geometry":{"type":"Point","coordinates":[-1.38877,52.0871]},"properties":{"name":"Horley (Oxon) Wastewater Treatment Works","category":"wastewater_plant","osm_type":"way","osm_id":"919174276","operator":"Thames Water","ref":"HORLS1ZZ"}},{"type":"Feature","geometry":{"type":"Point","coordinates":[-1.36319,52.01862]},"properties":{"name":"Bloxham Wastewater Treatment Works","category":"wastewater_plant","osm_type":"way","osm_id":"943960325","operator":"Thames Water"}},{"type":"Feature","geometry":{"type":"Point","coordinates":[-1.27857,52.155]},"properties":{"name":"Aston Le Walls Wastewater Treatment Works","category":"wastewater_plant","osm_type":"way","osm_id":"976106771","operator":"Thames Water","ref":"ASTOS1ZZ"}},{"type":"Feature","geometry":{"type":"Point","coordinates":[-1.30907,52.16824]},"properties":{"name":"Boddington Wastewater Treatment Works","category":"wastewater_plant","osm_type":"way","osm_id":"976120506","operator":"Thames Water"}},{"type":"Feature","geometry":{"type":"Point","coordinates":[-1.28164,52.09368]},"properties":{"name":"Chacombe WwTW","category":"wastewater_plant","osm_type":"way","osm_id":"976124564","operator":"Thames Water","ref":"CHACS1ZZ"}},{"type":"Feature","geometry":{"type":"Point","coordinates":[-1.21333,52.19711]},"properties":{"name":"Charwelton Wastewater Treatment Works","category":"wastewater_plant","osm_type":"way","osm_id":"976129956","operator":"Thames Water","ref":"CHARS4ZZ"}},{"type":"Feature","geometry":{"type":"Point","coordinates":[-1.20543,52.11551]},"properties":{"name":"Culworth WwTW","category":"wastewater_plant","osm_type":"way","osm_id":"976227027","operator":"Thames Water","ref":"CULWS1ZZ"}},{"type":"Feature","geometry":{"type":"Point","coordinates":[-1.20541,52.14741]},"properties":{"name":"Eydon Wastewater Treatment Works","category":"wastewater_plant","osm_type":"way","osm_id":"976285509","operator":"Thames Water"}},{"type":"Feature","geometry":{"type":"Point","coordinates":[-1.37556,52.1418]},"properties":{"name":"Farnborough (North) Wastewater Treatment Works","category":"wastewater_plant","osm_type":"way","osm_id":"976285924","operator":"Thames Water","ref":"FARNS1ZZ"}},{"type":"Feature","geometry":{"type":"Point","coordinates":[-1.36236,52.08966]},"properties":{"name":"Hanwell Wastewater Treatment Works","category":"wastewater_plant","osm_type":"way","osm_id":"976413309","operator":"Thames Water","ref":"HANWS1ZZ"}},{"type":"Feature","geometry":{"type":"Point","coordinates":[-1.42245,52.09939]},"properties":{"name":"Hornton Wastewater Treatment Works","category":"wastewater_plant","osm_type":"way","osm_id":"976464260","operator":"Thames Water","ref":"HORNS1ZZ"}},{"type":"Feature","geometry":{"type":"Point","coordinates":[-1.16249,52.14319]},"properties":{"name":"Moreton Pinkney Wastewater Treatment Works","category":"wastewater_plant","osm_type":"way","osm_id":"976582302","operator":"Thames Water"}},{"type":"Feature","geometry":{"type":"Point","coordinates":[-1.44117,52.12199]},"properties":{"name":"Ratley Wastewater Treatment Works","category":"wastewater_plant","osm_type":"way","osm_id":"976634550","operator":"Thames Water","ref":"RATLS1ZZ"}},{"type":"Feature","geometry":{"type":"Point","coordinates":[-1.2183,52.09994]},"properties":{"name":"Thorpe Mandeville Wastewater Treatment Works","category":"wastewater_plant","osm_type":"way","osm_id":"976690685","operator":"Thames Water"}},{"type":"Feature","geometry":{"type":"Point","coordinates":[-1.39501,52.1284]},"properties":{"name":"Warmington Wastewater Treatment Works","category":"wastewater_plant","osm_type":"way","osm_id":"976696578","operator":"Thames Water","ref":"WARMS1ZZ"}},{"type":"Feature","geometry":{"type":"Point","coordinates":[-1.23518,52.16837]},"properties":{"name":"Byfield Wastewater Treatment Works","category":"wastewater_plant","osm_type":"way","osm_id":"976783703","operator":"Thames Water"}},{"type":"Feature","geometry":{"type":"Point","coordinates":[-1.47343,52.20602]},"properties":{"name":"Lighthorne Heath (STW)","category":"wastewater_plant","osm_type":"way","osm_id":"1010510482","operator":"Severn Trent","ref":"10389-ST1"}},{"type":"Feature","geometry":{"type":"Point","coordinates":[-1.0104,52.46507]},"properties":{"name":"Theddingworth STW","category":"wastewater_plant","osm_type":"way","osm_id":"1038855153","operator":"Anglian Water","ref":"THEDST"}},{"type":"Feature","geometry":{"type":"Point","coordinates":[-1.36177,52.05694]},"properties":{"name":"Mapped water infrastructure","category":"water_tower","osm_type":"way","osm_id":"1086578808"}},{"type":"Feature","geometry":{"type":"Point","coordinates":[-1.70114,52.14791]},"properties":{"name":"Mapped water infrastructure","category":"pumping_station","osm_type":"way","osm_id":"1221973437"}},{"type":"Feature","geometry":{"type":"Point","coordinates":[-1.06796,52.49029]},"properties":{"name":"Mapped water infrastructure","category":"reservoir_covered","osm_type":"way","osm_id":"1474853698"}},{"type":"Feature","geometry":{"type":"Point","coordinates":[-1.06862,52.49044]},"properties":{"name":"Mapped water infrastructure","category":"reservoir_covered","osm_type":"way","osm_id":"1474853699"}}]}