{"type":"FeatureCollection","features":[{"type":"Feature","geometry":{"type":"Point","coordinates":[-1.80381,55.66938]},"properties":{"name":"Jenny Bells Well","category":"water_well","osm_type":"node","osm_id":"2374329828"}},{"type":"Feature","geometry":{"type":"Point","coordinates":[-1.89778,55.67436]},"properties":{"name":"Suddow Well","category":"water_well","osm_type":"node","osm_id":"6136805935"}},{"type":"Feature","geometry":{"type":"Point","coordinates":[-1.91349,55.59539]},"properties":{"name":"Milky Well","category":"water_well","osm_type":"node","osm_id":"6534080622"}},{"type":"Feature","geometry":{"type":"Point","coordinates":[-1.71633,55.60764]},"properties":{"name":"Mapped water infrastructure","category":"drinking_water","osm_type":"node","osm_id":"7191747391"}},{"type":"Feature","geometry":{"type":"Point","coordinates":[-1.99756,55.75845]},"properties":{"name":"Mapped water infrastructure","category":"water_point","osm_type":"node","osm_id":"13186278048"}},{"type":"Feature","geometry":{"type":"Point","coordinates":[-1.99694,55.75797]},"properties":{"name":"Mapped water infrastructure","category":"water_point","osm_type":"node","osm_id":"13186278051"}},{"type":"Feature","geometry":{"type":"Point","coordinates":[-1.99746,55.75826]},"properties":{"name":"Mapped water infrastructure","category":"water_point","osm_type":"node","osm_id":"13188401166"}},{"type":"Feature","geometry":{"type":"Point","coordinates":[-1.64719,55.57618]},"properties":{"name":"Mapped water infrastructure","category":"drinking_water","osm_type":"node","osm_id":"14109905319"}},{"type":"Feature","geometry":{"type":"Point","coordinates":[-1.90991,55.55194]},"properties":{"name":"Chatton STW","category":"wastewater_plant","osm_type":"way","osm_id":"101415986","operator":"Northumbrian Water","ref":"NST1191"}},{"type":"Feature","geometry":{"type":"Point","coordinates":[-1.64558,55.57806]},"properties":{"name":"Seahouses STW","category":"wastewater_plant","osm_type":"way","osm_id":"350605296","operator":"Northumbrian Water","ref":"NST2745"}},{"type":"Feature","geometry":{"type":"Point","coordinates":[-1.62998,55.55194]},"properties":{"name":"Beadnell Car Park Sewage Pumping Station","category":"pumping_station","osm_type":"way","osm_id":"631083652"}},{"type":"Feature","geometry":{"type":"Point","coordinates":[-1.81713,55.59793]},"properties":{"name":"Mapped water infrastructure","category":"wastewater_plant","osm_type":"way","osm_id":"666605069"}},{"type":"Feature","geometry":{"type":"Point","coordinates":[-1.70574,55.53682]},"properties":{"name":"Mapped water infrastructure","category":"wastewater_plant","osm_type":"way","osm_id":"1010169575"}},{"type":"Feature","geometry":{"type":"Point","coordinates":[-1.73083,55.52445]},"properties":{"name":"Ellingham STW","category":"wastewater_plant","osm_type":"way","osm_id":"1207196863","operator":"Northumbrian Water","ref":"NST3272"}},{"type":"Feature","geometry":{"type":"Point","coordinates":[-1.62354,55.55087]},"properties":{"name":"Beadnell Harbour Sewage Pumping Station","category":"pumping_station","osm_type":"way","osm_id":"1410132820"}},{"type":"Feature","geometry":{"type":"Point","coordinates":[-1.64872,55.57703]},"properties":{"name":"King Street Seahouses Sewage Pumping Station","category":"pumping_station","osm_type":"way","osm_id":"1410137588"}},{"type":"Feature","geometry":{"type":"Point","coordinates":[-1.79627,55.67097]},"properties":{"name":"Northumbrian Water","category":"pumping_station","osm_type":"way","osm_id":"228710872"}},{"type":"Feature","geometry":{"type":"Point","coordinates":[-1.80298,55.67221]},"properties":{"name":"Mapped water infrastructure","category":"water_tower","osm_type":"way","osm_id":"228756946"}},{"type":"Feature","geometry":{"type":"Point","coordinates":[-1.97114,55.7086]},"properties":{"name":"Mapped water infrastructure","category":"water_tower","osm_type":"way","osm_id":"641142651"}},{"type":"Feature","geometry":{"type":"Point","coordinates":[-1.91375,55.68728]},"properties":{"name":"Mapped water infrastructure","category":"wastewater_plant","osm_type":"way","osm_id":"641483415"}},{"type":"Feature","geometry":{"type":"Point","coordinates":[-1.73308,55.5945]},"properties":{"name":"Mapped water infrastructure","category":"reservoir_covered","osm_type":"way","osm_id":"661097110"}},{"type":"Feature","geometry":{"type":"Point","coordinates":[-1.70366,55.57323]},"properties":{"name":"Mapped water infrastructure","category":"reservoir_covered","osm_type":"way","osm_id":"661676245"}},{"type":"Feature","geometry":{"type":"Point","coordinates":[-1.96121,55.6511]},"properties":{"name":"Mapped water infrastructure","category":"wastewater_plant","osm_type":"way","osm_id":"708493597"}},{"type":"Feature","geometry":{"type":"Point","coordinates":[-1.9319,55.68493]},"properties":{"name":"Mapped water infrastructure","category":"wastewater_plant","osm_type":"way","osm_id":"906736807"}},{"type":"Feature","geometry":{"type":"Point","coordinates":[-1.89271,55.65425]},"properties":{"name":"Mapped water infrastructure","category":"wastewater_plant","osm_type":"way","osm_id":"967170117"}},{"type":"Feature","geometry":{"type":"Point","coordinates":[-1.95902,55.55683]},"properties":{"name":"Mapped water infrastructure","category":"water_works","osm_type":"way","osm_id":"1075125629","operator":"Northumbria Water"}},{"type":"Feature","geometry":{"type":"Point","coordinates":[-1.94392,55.54743]},"properties":{"name":"Fowberry Mains water pumping station","category":"pumping_station","osm_type":"way","osm_id":"1086803897"}}]}