{"type":"FeatureCollection","features":[{"type":"Feature","geometry":{"type":"Point","coordinates":[-1.47963,54.77316]},"properties":{"name":"Mapped water infrastructure","category":"water_tower","osm_type":"node","osm_id":"269523647"}},{"type":"Feature","geometry":{"type":"Point","coordinates":[-1.54362,54.76234]},"properties":{"name":"Mapped water infrastructure","category":"water_well","osm_type":"node","osm_id":"369567070"}},{"type":"Feature","geometry":{"type":"Point","coordinates":[-1.5529,54.74314]},"properties":{"name":"Mapped water infrastructure","category":"water_well","osm_type":"node","osm_id":"371145270"}},{"type":"Feature","geometry":{"type":"Point","coordinates":[-1.49011,54.6643]},"properties":{"name":"Mainsforth Stell","category":"pumping_station","osm_type":"node","osm_id":"693117729"}},{"type":"Feature","geometry":{"type":"Point","coordinates":[-1.88214,54.97648]},"properties":{"name":"Eddybroth Well","category":"water_well","osm_type":"node","osm_id":"1071306177"}},{"type":"Feature","geometry":{"type":"Point","coordinates":[-1.89197,54.57421]},"properties":{"name":"Mapped water infrastructure","category":"water_well","osm_type":"node","osm_id":"3600500821"}},{"type":"Feature","geometry":{"type":"Point","coordinates":[-1.60513,54.60513]},"properties":{"name":"Mapped water infrastructure","category":"water_tower","osm_type":"node","osm_id":"4036463883"}},{"type":"Feature","geometry":{"type":"Point","coordinates":[-1.60234,54.95426]},"properties":{"name":"Mapped water infrastructure","category":"wastewater_plant","osm_type":"node","osm_id":"4397261390"}},{"type":"Feature","geometry":{"type":"Point","coordinates":[-1.57678,54.77234]},"properties":{"name":"Mapped water infrastructure","category":"water_well","osm_type":"node","osm_id":"6502607704"}},{"type":"Feature","geometry":{"type":"Point","coordinates":[-1.36721,54.939]},"properties":{"name":"Mapped water infrastructure","category":"drinking_water","osm_type":"node","osm_id":"6742595302"}},{"type":"Feature","geometry":{"type":"Point","coordinates":[-1.63591,54.80212]},"properties":{"name":"Mapped water infrastructure","category":"drinking_water","osm_type":"node","osm_id":"7557096130"}},{"type":"Feature","geometry":{"type":"Point","coordinates":[-1.64118,54.83622]},"properties":{"name":"Edmondsley Pumping Station","category":"pumping_station","osm_type":"node","osm_id":"7573381139","operator":"Coal Authority"}},{"type":"Feature","geometry":{"type":"Point","coordinates":[-1.70619,54.68734]},"properties":{"name":"Mapped water infrastructure","category":"water_well","osm_type":"node","osm_id":"7623144720"}},{"type":"Feature","geometry":{"type":"Point","coordinates":[-1.88244,54.73588]},"properties":{"name":"Holy Well","category":"water_well","osm_type":"node","osm_id":"7714700355","website":"https://www.megalithic.co.uk/article.php?sid=28311"}},{"type":"Feature","geometry":{"type":"Point","coordinates":[-1.394,54.93876]},"properties":{"name":"Fulwell Pumping Station","category":"pumping_station","osm_type":"node","osm_id":"7745041459"}},{"type":"Feature","geometry":{"type":"Point","coordinates":[-1.72668,54.51382]},"properties":{"name":"Mapped water infrastructure","category":"water_well","osm_type":"node","osm_id":"8365778198"}},{"type":"Feature","geometry":{"type":"Point","coordinates":[-1.85889,54.67626]},"properties":{"name":"Mapped water infrastructure","category":"drinking_water","osm_type":"node","osm_id":"8699037591"}},{"type":"Feature","geometry":{"type":"Point","coordinates":[-1.61683,54.96815]},"properties":{"name":"Mapped water infrastructure","category":"drinking_water","osm_type":"node","osm_id":"9724673417"}},{"type":"Feature","geometry":{"type":"Point","coordinates":[-1.68962,54.59819]},"properties":{"name":"Mapped water infrastructure","category":"drinking_water","osm_type":"node","osm_id":"9978594198"}},{"type":"Feature","geometry":{"type":"Point","coordinates":[-1.33236,54.52509]},"properties":{"name":"Mapped water infrastructure","category":"water_well","osm_type":"node","osm_id":"10583725976"}},{"type":"Feature","geometry":{"type":"Point","coordinates":[-1.61751,54.9686]},"properties":{"name":"Mapped water infrastructure","category":"drinking_water","osm_type":"node","osm_id":"10756135596"}},{"type":"Feature","geometry":{"type":"Point","coordinates":[-1.7276,54.90741]},"properties":{"name":"Mapped water infrastructure","category":"drinking_water","osm_type":"node","osm_id":"10817028224"}},{"type":"Feature","geometry":{"type":"Point","coordinates":[-1.27786,54.57658]},"properties":{"name":"Mapped water infrastructure","category":"water_point","osm_type":"node","osm_id":"11151098030"}},{"type":"Feature","geometry":{"type":"Point","coordinates":[-1.54669,54.52078]},"properties":{"name":"Mapped water infrastructure","category":"water_point","osm_type":"node","osm_id":"11392368462"}},{"type":"Feature","geometry":{"type":"Point","coordinates":[-1.21542,54.60277]},"properties":{"name":"Brine Pumping Station","category":"pumping_station","osm_type":"node","osm_id":"11476883929"}},{"type":"Feature","geometry":{"type":"Point","coordinates":[-1.6547,54.88507]},"properties":{"name":"Mapped water infrastructure","category":"water_well","osm_type":"node","osm_id":"12387052592"}},{"type":"Feature","geometry":{"type":"Point","coordinates":[-1.41183,54.99808]},"properties":{"name":"Mapped water infrastructure","category":"drinking_water","osm_type":"node","osm_id":"13110441691"}},{"type":"Feature","geometry":{"type":"Point","coordinates":[-1.30678,54.52133]},"properties":{"name":"Mapped water infrastructure","category":"pumping_station","osm_type":"node","osm_id":"13624033482"}},{"type":"Feature","geometry":{"type":"Point","coordinates":[-1.22485,54.52147]},"properties":{"name":"Mapped water infrastructure","category":"pumping_station","osm_type":"node","osm_id":"13657132793"}},{"type":"Feature","geometry":{"type":"Point","coordinates":[-1.30673,54.55064]},"properties":{"name":"Mapped water infrastructure","category":"pumping_station","osm_type":"node","osm_id":"13723552540"}},{"type":"Feature","geometry":{"type":"Point","coordinates":[-1.32026,54.53128]},"properties":{"name":"Mapped water infrastructure","category":"pumping_station","osm_type":"node","osm_id":"13724005695","operator":"Northumbrian Water"}},{"type":"Feature","geometry":{"type":"Point","coordinates":[-1.30288,54.50995]},"properties":{"name":"Mapped water infrastructure","category":"pumping_station","osm_type":"node","osm_id":"13724052105"}},{"type":"Feature","geometry":{"type":"Point","coordinates":[-1.33863,54.50639]},"properties":{"name":"Mapped water infrastructure","category":"pumping_station","osm_type":"node","osm_id":"13737224760"}},{"type":"Feature","geometry":{"type":"Point","coordinates":[-1.35718,54.50349]},"properties":{"name":"Mapped water infrastructure","category":"pumping_station","osm_type":"node","osm_id":"13817235090"}},{"type":"Feature","geometry":{"type":"Point","coordinates":[-1.58192,54.77906]},"properties":{"name":"Mapped water infrastructure","category":"drinking_water","osm_type":"node","osm_id":"14183249813"}},{"type":"Feature","geometry":{"type":"Point","coordinates":[-1.66273,54.97718]},"properties":{"name":"Benwell High Reservoir","category":"reservoir_covered","osm_type":"way","osm_id":"28456452"}},{"type":"Feature","geometry":{"type":"Point","coordinates":[-1.56811,54.76338]},"properties":{"name":"Mapped water infrastructure","category":"reservoir_covered","osm_type":"way","osm_id":"31839420"}},{"type":"Feature","geometry":{"type":"Point","coordinates":[-1.59181,54.73263]},"properties":{"name":"Sunderland Bridge STW","category":"wastewater_plant","osm_type":"way","osm_id":"34336489","operator":"Northumbrian Water","ref":"WST1732"}},{"type":"Feature","geometry":{"type":"Point","coordinates":[-1.53197,54.72781]},"properties":{"name":"Bowburn Sewage Treatment Works","category":"wastewater_plant","osm_type":"way","osm_id":"35146886","operator":"Northumbrian Water"}},{"type":"Feature","geometry":{"type":"Point","coordinates":[-1.27813,54.69613]},"properties":{"name":"Mapped water infrastructure","category":"reservoir_covered","osm_type":"way","osm_id":"40755280"}},{"type":"Feature","geometry":{"type":"Point","coordinates":[-1.12649,54.61049]},"properties":{"name":"Bran Sands Sewage Treatment Works","category":"wastewater_plant","osm_type":"way","osm_id":"50825342","operator":"Northumbrian Water"}},{"type":"Feature","geometry":{"type":"Point","coordinates":[-1.1982,54.64159]},"properties":{"name":"Seaton Carew Sewage Treatment Works","category":"wastewater_plant","osm_type":"way","osm_id":"52420047"}},{"type":"Feature","geometry":{"type":"Point","coordinates":[-1.56833,54.7827]},"properties":{"name":"Barkershaugh sewage treatment works","category":"wastewater_plant","osm_type":"way","osm_id":"87599598","operator":"Northumbrian Water","ref":"WST1032"}},{"type":"Feature","geometry":{"type":"Point","coordinates":[-1.07384,54.53693]},"properties":{"name":"Mapped water infrastructure","category":"wastewater_plant","osm_type":"way","osm_id":"90610806","operator":"Northumbrian Water"}},{"type":"Feature","geometry":{"type":"Point","coordinates":[-1.23703,54.63816]},"properties":{"name":"Mapped water infrastructure","category":"wastewater_plant","osm_type":"way","osm_id":"93916811"}},{"type":"Feature","geometry":{"type":"Point","coordinates":[-1.44046,54.5432]},"properties":{"name":"Mapped water infrastructure","category":"reservoir_covered","osm_type":"way","osm_id":"95507461"}},{"type":"Feature","geometry":{"type":"Point","coordinates":[-1.43894,54.54296]},"properties":{"name":"Mapped water infrastructure","category":"water_works","osm_type":"way","osm_id":"95507462"}},{"type":"Feature","geometry":{"type":"Point","coordinates":[-1.4267,54.52158]},"properties":{"name":"Mapped water infrastructure","category":"wastewater_plant","osm_type":"way","osm_id":"100100135"}},{"type":"Feature","geometry":{"type":"Point","coordinates":[-1.3985,54.5436]},"properties":{"name":"Mapped water infrastructure","category":"wastewater_plant","osm_type":"way","osm_id":"100100440"}},{"type":"Feature","geometry":{"type":"Point","coordinates":[-1.4538,54.50179]},"properties":{"name":"Mapped water infrastructure","category":"wastewater_plant","osm_type":"way","osm_id":"100133153","operator":"Northumbrian Water"}},{"type":"Feature","geometry":{"type":"Point","coordinates":[-1.61555,54.78319]},"properties":{"name":"Aldin Grange South STW","category":"wastewater_plant","osm_type":"way","osm_id":"103700773","operator":"Northumbrian Water","ref":"WST1022"}},{"type":"Feature","geometry":{"type":"Point","coordinates":[-1.44306,54.64557]},"properties":{"name":"Mapped water infrastructure","category":"wastewater_plant","osm_type":"way","osm_id":"108127035"}},{"type":"Feature","geometry":{"type":"Point","coordinates":[-1.47899,54.73483]},"properties":{"name":"Mapped water infrastructure","category":"reservoir_covered","osm_type":"way","osm_id":"109657709"}},{"type":"Feature","geometry":{"type":"Point","coordinates":[-1.4687,54.73936]},"properties":{"name":"Cassop Sewage Treatment Works","category":"wastewater_plant","osm_type":"way","osm_id":"109657789","operator":"Northumbrian Water","addr:city":"Durham","addr:postcode":"DH6 4RJ"}},{"type":"Feature","geometry":{"type":"Point","coordinates":[-1.45293,54.74653]},"properties":{"name":"Mapped water infrastructure","category":"reservoir_covered","osm_type":"way","osm_id":"121760225","operator":"Northumbrian Water"}},{"type":"Feature","geometry":{"type":"Point","coordinates":[-1.258,54.62384]},"properties":{"name":"Billingham STW","category":"wastewater_plant","osm_type":"way","osm_id":"123467081"}},{"type":"Feature","geometry":{"type":"Point","coordinates":[-1.80878,54.82892]},"properties":{"name":"Mapped water infrastructure","category":"wastewater_plant","osm_type":"way","osm_id":"131345433"}},{"type":"Feature","geometry":{"type":"Point","coordinates":[-1.17955,54.55196]},"properties":{"name":"Mapped water infrastructure","category":"reservoir_covered","osm_type":"way","osm_id":"136459152"}},{"type":"Feature","geometry":{"type":"Point","coordinates":[-1.73281,54.92549]},"properties":{"name":"Mapped water infrastructure","category":"wastewater_plant","osm_type":"way","osm_id":"150836271"}},{"type":"Feature","geometry":{"type":"Point","coordinates":[-1.50938,54.77037]},"properties":{"name":"Mapped water infrastructure","category":"wastewater_plant","osm_type":"way","osm_id":"157308045"}},{"type":"Feature","geometry":{"type":"Point","coordinates":[-1.84065,54.71678]},"properties":{"name":"Water Treatment Works","category":"wastewater_plant","osm_type":"way","osm_id":"198275937"}},{"type":"Feature","geometry":{"type":"Point","coordinates":[-1.33142,54.517]},"properties":{"name":"Mapped water infrastructure","category":"pumping_station","osm_type":"way","osm_id":"200366183","operator":"Northumbrian Water"}},{"type":"Feature","geometry":{"type":"Point","coordinates":[-1.47006,54.99334]},"properties":{"name":"Mapped water infrastructure","category":"wastewater_plant","osm_type":"way","osm_id":"210492443"}},{"type":"Feature","geometry":{"type":"Point","coordinates":[-1.47678,54.99363]},"properties":{"name":"Newcastle (Howdon) STW","category":"wastewater_plant","osm_type":"way","osm_id":"210497208"}},{"type":"Feature","geometry":{"type":"Point","coordinates":[-1.56519,54.86093]},"properties":{"name":"Chester-le-Street Treatment Works","category":"wastewater_plant","osm_type":"way","osm_id":"215643658","operator":"Northumbrian Water","ref":"WST1152"}},{"type":"Feature","geometry":{"type":"Point","coordinates":[-1.98354,54.55932]},"properties":{"name":"Lartington Water Treatment Waters","category":"water_works","osm_type":"way","osm_id":"217209475","operator":"Northumbrian Water"}},{"type":"Feature","geometry":{"type":"Point","coordinates":[-1.72684,54.6749]},"properties":{"name":"Mapped water infrastructure","category":"wastewater_plant","osm_type":"way","osm_id":"220568400"}},{"type":"Feature","geometry":{"type":"Point","coordinates":[-1.47436,54.55037]},"properties":{"name":"Mapped water infrastructure","category":"wastewater_plant","osm_type":"way","osm_id":"220798125"}},{"type":"Feature","geometry":{"type":"Point","coordinates":[-1.68156,54.67959]},"properties":{"name":"Mapped water infrastructure","category":"wastewater_plant","osm_type":"way","osm_id":"221530996"}},{"type":"Feature","geometry":{"type":"Point","coordinates":[-1.81062,54.94084]},"properties":{"name":"Mapped water infrastructure","category":"reservoir_covered","osm_type":"way","osm_id":"228749896"}},{"type":"Feature","geometry":{"type":"Point","coordinates":[-1.45227,54.93478]},"properties":{"name":"Downhill Reservoir","category":"reservoir_covered","osm_type":"way","osm_id":"229778604"}},{"type":"Feature","geometry":{"type":"Point","coordinates":[-1.61822,54.82372]},"properties":{"name":"Mapped water infrastructure","category":"wastewater_plant","osm_type":"way","osm_id":"231864603"}},{"type":"Feature","geometry":{"type":"Point","coordinates":[-1.63182,54.84261]},"properties":{"name":"Mapped water infrastructure","category":"wastewater_plant","osm_type":"way","osm_id":"231864607"}},{"type":"Feature","geometry":{"type":"Point","coordinates":[-1.593,54.79877]},"properties":{"name":"Mapped water infrastructure","category":"pumping_station","osm_type":"way","osm_id":"256181390"}},{"type":"Feature","geometry":{"type":"Point","coordinates":[-1.31817,54.77581]},"properties":{"name":"Horden and Peterlee STW","category":"wastewater_plant","osm_type":"way","osm_id":"258098871"}},{"type":"Feature","geometry":{"type":"Point","coordinates":[-1.85283,54.98572]},"properties":{"name":"Horsley Water Treatment Works","category":"water_works","osm_type":"way","osm_id":"258944829"}},{"type":"Feature","geometry":{"type":"Point","coordinates":[-1.04109,54.59657]},"properties":{"name":"Marske and Redcar STW","category":"wastewater_plant","osm_type":"way","osm_id":"290244532"}},{"type":"Feature","geometry":{"type":"Point","coordinates":[-1.41735,54.58031]},"properties":{"name":"Gately Moor Reservoir","category":"water_works","osm_type":"way","osm_id":"298349220"}},{"type":"Feature","geometry":{"type":"Point","coordinates":[-1.28706,54.53784]},"properties":{"name":"Mapped water infrastructure","category":"pumping_station","osm_type":"way","osm_id":"328563598"}},{"type":"Feature","geometry":{"type":"Point","coordinates":[-1.37131,54.86572]},"properties":{"name":"Mapped water infrastructure","category":"reservoir_covered","osm_type":"way","osm_id":"330247219","operator":"Northumbrian Water"}},{"type":"Feature","geometry":{"type":"Point","coordinates":[-1.82338,54.74133]},"properties":{"name":"Mapped water infrastructure","category":"wastewater_plant","osm_type":"way","osm_id":"346914469"}},{"type":"Feature","geometry":{"type":"Point","coordinates":[-1.44286,54.58739]},"properties":{"name":"Bishopton STW","category":"wastewater_plant","osm_type":"way","osm_id":"359903019","operator":"Northumbrian Water","ref":"TST1022"}},{"type":"Feature","geometry":{"type":"Point","coordinates":[-1.53306,54.83729]},"properties":{"name":"Lumley Water Treatment Works","category":"wastewater_plant","osm_type":"way","osm_id":"371638214","operator":"Northumbrian Water"}},{"type":"Feature","geometry":{"type":"Point","coordinates":[-1.61346,54.71444]},"properties":{"name":"Tudhoe Mill Sewage Treatment Works","category":"wastewater_plant","osm_type":"way","osm_id":"377708924","addr:city":"Spennymoor","addr:postcode":"DL16 6LQ"}},{"type":"Feature","geometry":{"type":"Point","coordinates":[-1.89909,54.5541]},"properties":{"name":"Mapped water infrastructure","category":"wastewater_plant","osm_type":"way","osm_id":"380054112"}},{"type":"Feature","geometry":{"type":"Point","coordinates":[-1.24535,54.64999]},"properties":{"name":"Mapped water infrastructure","category":"pumping_station","osm_type":"way","osm_id":"386358155"}},{"type":"Feature","geometry":{"type":"Point","coordinates":[-1.36101,54.9]},"properties":{"name":"Hendon STW","category":"wastewater_plant","osm_type":"way","osm_id":"396424061"}},{"type":"Feature","geometry":{"type":"Point","coordinates":[-1.59831,54.90286]},"properties":{"name":"Chester-le-Street Treatment Works","category":"wastewater_plant","osm_type":"way","osm_id":"399974142","operator":"Northumbrian Water","ref":"WIMS_FID_1142"}},{"type":"Feature","geometry":{"type":"Point","coordinates":[-1.30844,54.55214]},"properties":{"name":"Mapped water infrastructure","category":"pumping_station","osm_type":"way","osm_id":"403025539","operator":"Northumbrian Water"}},{"type":"Feature","geometry":{"type":"Point","coordinates":[-1.85271,54.88818]},"properties":{"name":"Consett Sewage Treatment Works","category":"wastewater_plant","osm_type":"way","osm_id":"404362603"}},{"type":"Feature","geometry":{"type":"Point","coordinates":[-1.5773,54.77232]},"properties":{"name":"Conduit House","category":"water_tower","osm_type":"way","osm_id":"416712170"}},{"type":"Feature","geometry":{"type":"Point","coordinates":[-1.59016,54.82101]},"properties":{"name":"Mapped water infrastructure","category":"wastewater_plant","osm_type":"way","osm_id":"420641480"}},{"type":"Feature","geometry":{"type":"Point","coordinates":[-1.60098,54.74267]},"properties":{"name":"Durham (Browney) STW","category":"wastewater_plant","osm_type":"way","osm_id":"420915765","ref":"WIMS_FID_1128"}},{"type":"Feature","geometry":{"type":"Point","coordinates":[-1.59333,54.80759]},"properties":{"name":"Pity Me Sewage Treatment Works","category":"wastewater_plant","osm_type":"way","osm_id":"422444842","operator":"Northumbrian Water","ref":"WST1582"}},{"type":"Feature","geometry":{"type":"Point","coordinates":[-1.53608,54.81382]},"properties":{"name":"Mapped water infrastructure","category":"wastewater_plant","osm_type":"way","osm_id":"425742216"}},{"type":"Feature","geometry":{"type":"Point","coordinates":[-1.73244,54.81427]},"properties":{"name":"Lanchester sewage treatment works","category":"wastewater_plant","osm_type":"way","osm_id":"425833296"}},{"type":"Feature","geometry":{"type":"Point","coordinates":[-1.49115,54.89359]},"properties":{"name":"Washington Sewage Treatment Works","category":"wastewater_plant","osm_type":"way","osm_id":"429461257","operator":"Northumbrian Water","ref":"WST1042"}},{"type":"Feature","geometry":{"type":"Point","coordinates":[-1.59285,54.96934]},"properties":{"name":"Saltmeadows Sewage","category":"wastewater_plant","osm_type":"way","osm_id":"437574866"}},{"type":"Feature","geometry":{"type":"Point","coordinates":[-1.49663,54.85281]},"properties":{"name":"Mapped water infrastructure","category":"wastewater_plant","osm_type":"way","osm_id":"441467592"}},{"type":"Feature","geometry":{"type":"Point","coordinates":[-1.41696,54.70268]},"properties":{"name":"Trimdon Village STW","category":"wastewater_plant","osm_type":"way","osm_id":"444957214","operator":"Northumbrian Water"}},{"type":"Feature","geometry":{"type":"Point","coordinates":[-1.44991,54.67934]},"properties":{"name":"Mapped water infrastructure","category":"wastewater_plant","osm_type":"way","osm_id":"444957235"}},{"type":"Feature","geometry":{"type":"Point","coordinates":[-1.47542,54.71724]},"properties":{"name":"Kelloe wastewater treatment works","category":"wastewater_plant","osm_type":"way","osm_id":"446686702","operator":"Northumbrian Water"}},{"type":"Feature","geometry":{"type":"Point","coordinates":[-1.54911,54.65282]},"properties":{"name":"Windlestone STW","category":"wastewater_plant","osm_type":"way","osm_id":"447000372","operator":"Northumbrian Water","ref":"TST8145"}},{"type":"Feature","geometry":{"type":"Point","coordinates":[-1.80484,54.93116]},"properties":{"name":"Mapped water infrastructure","category":"wastewater_plant","osm_type":"way","osm_id":"449382416"}},{"type":"Feature","geometry":{"type":"Point","coordinates":[-1.88341,54.99903]},"properties":{"name":"Whittle Dene Water Treatment Works","category":"wastewater_plant","osm_type":"way","osm_id":"459594969"}},{"type":"Feature","geometry":{"type":"Point","coordinates":[-1.48474,54.78776]},"properties":{"name":"Mapped water infrastructure","category":"wastewater_plant","osm_type":"way","osm_id":"467453973"}},{"type":"Feature","geometry":{"type":"Point","coordinates":[-1.52812,54.80021]},"properties":{"name":"Mapped water infrastructure","category":"wastewater_plant","osm_type":"way","osm_id":"470818013"}},{"type":"Feature","geometry":{"type":"Point","coordinates":[-1.56295,54.60328]},"properties":{"name":"Mapped water infrastructure","category":"wastewater_plant","osm_type":"way","osm_id":"472164084"}},{"type":"Feature","geometry":{"type":"Point","coordinates":[-1.31557,54.7071]},"properties":{"name":"Sheraton STW","category":"wastewater_plant","osm_type":"way","osm_id":"483981752","operator":"Northumbrian Water","ref":"TST4072"}},{"type":"Feature","geometry":{"type":"Point","coordinates":[-1.70236,54.8391]},"properties":{"name":"Wheatley Hill Reservoirs","category":"reservoir_covered","osm_type":"way","osm_id":"511740523"}},{"type":"Feature","geometry":{"type":"Point","coordinates":[-1.70293,54.83872]},"properties":{"name":"Wheatley Hill Reservoirs","category":"reservoir_covered","osm_type":"way","osm_id":"511740524"}},{"type":"Feature","geometry":{"type":"Point","coordinates":[-1.92087,54.81708]},"properties":{"name":"Honey Hill Treatment Works","category":"water_works","osm_type":"way","osm_id":"530218674","operator":"Northumbrian Water"}},{"type":"Feature","geometry":{"type":"Point","coordinates":[-1.9429,54.52494]},"properties":{"name":"Mapped water infrastructure","category":"wastewater_plant","osm_type":"way","osm_id":"539191850"}},{"type":"Feature","geometry":{"type":"Point","coordinates":[-1.90985,54.53536]},"properties":{"name":"Barnard Castle Sewage Treatment Works","category":"wastewater_plant","osm_type":"way","osm_id":"539197315","operator":"Northumbrian Water"}},{"type":"Feature","geometry":{"type":"Point","coordinates":[-1.65445,54.51607]},"properties":{"name":"Mapped water infrastructure","category":"wastewater_plant","osm_type":"way","osm_id":"542049307"}},{"type":"Feature","geometry":{"type":"Point","coordinates":[-1.97889,54.84294]},"properties":{"name":"Edmundbyers STW","category":"wastewater_plant","osm_type":"way","osm_id":"542599926","operator":"Northumbrian Water","ref":"NST2151"}},{"type":"Feature","geometry":{"type":"Point","coordinates":[-1.99193,54.73698]},"properties":{"name":"Stanhope Sewage Treatment Works","category":"wastewater_plant","osm_type":"way","osm_id":"553838568","operator":"Northumbrian Water","ref":"WST1712"}},{"type":"Feature","geometry":{"type":"Point","coordinates":[-1.66906,54.86102]},"properties":{"name":"Mapped water infrastructure","category":"wastewater_plant","osm_type":"way","osm_id":"666284694"}},{"type":"Feature","geometry":{"type":"Point","coordinates":[-1.25766,54.6225]},"properties":{"name":"Cowpen Bewley Woodland Park Leachate Treatment Plant","category":"wastewater_plant","osm_type":"way","osm_id":"710052185","operator":"Stockton Borough Council"}},{"type":"Feature","geometry":{"type":"Point","coordinates":[-1.48237,54.98934]},"properties":{"name":"Mapped water infrastructure","category":"water_works","osm_type":"way","osm_id":"715617330"}},{"type":"Feature","geometry":{"type":"Point","coordinates":[-1.4792,54.98924]},"properties":{"name":"Howdon STW","category":"wastewater_plant","osm_type":"way","osm_id":"715617331","operator":"Northumbrian Water","ref":"NST450"}},{"type":"Feature","geometry":{"type":"Point","coordinates":[-1.81842,54.97505]},"properties":{"name":"Wylam North Sewage Punping Station","category":"pumping_station","osm_type":"way","osm_id":"721020969"}},{"type":"Feature","geometry":{"type":"Point","coordinates":[-1.90291,54.85077]},"properties":{"name":"Mapped water infrastructure","category":"wastewater_plant","osm_type":"way","osm_id":"721558970"}},{"type":"Feature","geometry":{"type":"Point","coordinates":[-1.90259,54.85074]},"properties":{"name":"Mapped water infrastructure","category":"wastewater_plant","osm_type":"way","osm_id":"721558971"}},{"type":"Feature","geometry":{"type":"Point","coordinates":[-1.40881,54.89085]},"properties":{"name":"Humbledon Reservoir","category":"reservoir_covered","osm_type":"way","osm_id":"732624433"}},{"type":"Feature","geometry":{"type":"Point","coordinates":[-1.39485,54.92809]},"properties":{"name":"Mapped water infrastructure","category":"reservoir_covered","osm_type":"way","osm_id":"732624434"}},{"type":"Feature","geometry":{"type":"Point","coordinates":[-1.29981,54.75666]},"properties":{"name":"Mapped water infrastructure","category":"pumping_station","osm_type":"way","osm_id":"744773166"}},{"type":"Feature","geometry":{"type":"Point","coordinates":[-1.44482,54.95857]},"properties":{"name":"Mapped water infrastructure","category":"pumping_station","osm_type":"way","osm_id":"746992058"}},{"type":"Feature","geometry":{"type":"Point","coordinates":[-1.49238,54.67131]},"properties":{"name":"Bishop Middleham Sewage Treatment Works","category":"wastewater_plant","osm_type":"way","osm_id":"759235538","operator":"Northumbrian Water","ref":"TST8032"}},{"type":"Feature","geometry":{"type":"Point","coordinates":[-1.79187,54.61787]},"properties":{"name":"Mapped water infrastructure","category":"wastewater_plant","osm_type":"way","osm_id":"770063193"}},{"type":"Feature","geometry":{"type":"Point","coordinates":[-1.82166,54.62473]},"properties":{"name":"Butterknowle Sewage Treatment Works","category":"wastewater_plant","osm_type":"way","osm_id":"770063215","operator":"Northumbrian Water"}},{"type":"Feature","geometry":{"type":"Point","coordinates":[-1.44703,54.85745]},"properties":{"name":"Mapped water infrastructure","category":"reservoir_covered","osm_type":"way","osm_id":"775325992"}},{"type":"Feature","geometry":{"type":"Point","coordinates":[-1.4491,54.90847]},"properties":{"name":"South Hylton Pumping Station","category":"pumping_station","osm_type":"way","osm_id":"776172442"}},{"type":"Feature","geometry":{"type":"Point","coordinates":[-1.5242,54.76929]},"properties":{"name":"Mapped water infrastructure","category":"wastewater_plant","osm_type":"way","osm_id":"778087712"}},{"type":"Feature","geometry":{"type":"Point","coordinates":[-1.42716,54.91984]},"properties":{"name":"Castletown Pumping Station","category":"pumping_station","osm_type":"way","osm_id":"780239512"}},{"type":"Feature","geometry":{"type":"Point","coordinates":[-1.90126,54.85054]},"properties":{"name":"Mapped water infrastructure","category":"wastewater_plant","osm_type":"way","osm_id":"792434211"}},{"type":"Feature","geometry":{"type":"Point","coordinates":[-1.55724,54.81116]},"properties":{"name":"Brasside Sewage Treatment Works","category":"wastewater_plant","osm_type":"way","osm_id":"793308524","operator":"Northumbrian Water"}},{"type":"Feature","geometry":{"type":"Point","coordinates":[-1.19047,54.57501]},"properties":{"name":"Mapped water infrastructure","category":"pumping_station","osm_type":"way","osm_id":"793665617"}},{"type":"Feature","geometry":{"type":"Point","coordinates":[-1.93334,54.72748]},"properties":{"name":"Mapped water infrastructure","category":"wastewater_plant","osm_type":"way","osm_id":"819975181"}},{"type":"Feature","geometry":{"type":"Point","coordinates":[-1.92153,54.81755]},"properties":{"name":"Mapped water infrastructure","category":"reservoir_covered","osm_type":"way","osm_id":"821518468"}},{"type":"Feature","geometry":{"type":"Point","coordinates":[-1.97342,54.73699]},"properties":{"name":"Mapped water infrastructure","category":"reservoir_covered","osm_type":"way","osm_id":"875320373"}},{"type":"Feature","geometry":{"type":"Point","coordinates":[-1.92591,54.62211]},"properties":{"name":"Mapped water infrastructure","category":"reservoir_covered","osm_type":"way","osm_id":"876332309"}},{"type":"Feature","geometry":{"type":"Point","coordinates":[-1.86925,54.77378]},"properties":{"name":"Mapped water infrastructure","category":"reservoir_covered","osm_type":"way","osm_id":"883289421"}},{"type":"Feature","geometry":{"type":"Point","coordinates":[-1.86971,54.7738]},"properties":{"name":"Mapped water infrastructure","category":"reservoir_covered","osm_type":"way","osm_id":"883289422"}},{"type":"Feature","geometry":{"type":"Point","coordinates":[-1.96154,54.72487]},"properties":{"name":"Mapped water infrastructure","category":"wastewater_plant","osm_type":"way","osm_id":"889035207"}},{"type":"Feature","geometry":{"type":"Point","coordinates":[-1.64142,54.80058]},"properties":{"name":"Witton Gilbert Sewage Treatment Works","category":"wastewater_plant","osm_type":"way","osm_id":"895054776"}},{"type":"Feature","geometry":{"type":"Point","coordinates":[-1.68218,54.61589]},"properties":{"name":"Mapped water infrastructure","category":"reservoir_covered","osm_type":"way","osm_id":"895996218"}},{"type":"Feature","geometry":{"type":"Point","coordinates":[-1.78069,54.54425]},"properties":{"name":"Mapped water infrastructure","category":"wastewater_plant","osm_type":"way","osm_id":"904574656"}},{"type":"Feature","geometry":{"type":"Point","coordinates":[-1.69034,54.7744]},"properties":{"name":"Esh Winning Sewage Treatment Works","category":"wastewater_plant","osm_type":"way","osm_id":"906287767","operator":"Northumbrian Water"}},{"type":"Feature","geometry":{"type":"Point","coordinates":[-1.82246,54.54364]},"properties":{"name":"Mapped water infrastructure","category":"reservoir_covered","osm_type":"way","osm_id":"907155559"}},{"type":"Feature","geometry":{"type":"Point","coordinates":[-1.59048,54.72418]},"properties":{"name":"Croxdale Sewage Pumping Station","category":"pumping_station","osm_type":"way","osm_id":"915220940","operator":"Northumbrian Water"}},{"type":"Feature","geometry":{"type":"Point","coordinates":[-1.49633,54.79631]},"properties":{"name":"Low Pittington Sewage Pumping Station","category":"pumping_station","osm_type":"way","osm_id":"921084260","operator":"Northumbrian Water"}},{"type":"Feature","geometry":{"type":"Point","coordinates":[-1.28267,54.56601]},"properties":{"name":"Mapped water infrastructure","category":"pumping_station","osm_type":"way","osm_id":"922935311","operator":"Northumbrian Water"}},{"type":"Feature","geometry":{"type":"Point","coordinates":[-1.28268,54.56581]},"properties":{"name":"Mapped water infrastructure","category":"pumping_station","osm_type":"way","osm_id":"922935312"}},{"type":"Feature","geometry":{"type":"Point","coordinates":[-1.52125,54.66729]},"properties":{"name":"Chilton Lane STW","category":"wastewater_plant","osm_type":"way","osm_id":"948396756","operator":"Northumbrian Water","ref":"TST8042"}},{"type":"Feature","geometry":{"type":"Point","coordinates":[-1.66192,54.78031]},"properties":{"name":"Ushaw Moor STW","category":"wastewater_plant","osm_type":"way","osm_id":"949527119","operator":"Northumbrian Water","ref":"WST1792"}},{"type":"Feature","geometry":{"type":"Point","coordinates":[-1.56221,54.56343]},"properties":{"name":"Beaumont Hill","category":"reservoir_covered","osm_type":"way","osm_id":"952680740","operator":"Northumbrian Water","capacity":"43148"}},{"type":"Feature","geometry":{"type":"Point","coordinates":[-1.73283,54.74501]},"properties":{"name":"Mapped water infrastructure","category":"reservoir_covered","osm_type":"way","osm_id":"953013405"}},{"type":"Feature","geometry":{"type":"Point","coordinates":[-1.75473,54.88351]},"properties":{"name":"Dipton Sewage Treatment Works","category":"wastewater_plant","osm_type":"way","osm_id":"956156005","operator":"Northumbrian Water","addr:city":"Stanley","addr:postcode":"DH9 9LD"}},{"type":"Feature","geometry":{"type":"Point","coordinates":[-1.6834,54.89913]},"properties":{"name":"Causey Arch STW","category":"wastewater_plant","osm_type":"way","osm_id":"956166712","operator":"Northumbrian Water","ref":"NST3282"}},{"type":"Feature","geometry":{"type":"Point","coordinates":[-1.73778,54.7323]},"properties":{"name":"Mapped water infrastructure","category":"reservoir_covered","osm_type":"way","osm_id":"958515123"}},{"type":"Feature","geometry":{"type":"Point","coordinates":[-1.57587,54.756]},"properties":{"name":"Durham University Sewage Treatment Works","category":"wastewater_plant","osm_type":"way","osm_id":"967252092"}},{"type":"Feature","geometry":{"type":"Point","coordinates":[-1.36635,54.77759]},"properties":{"name":"Mapped water infrastructure","category":"reservoir_covered","osm_type":"way","osm_id":"974782949"}},{"type":"Feature","geometry":{"type":"Point","coordinates":[-1.3629,54.77533]},"properties":{"name":"Mill Hill","category":"reservoir_covered","osm_type":"way","osm_id":"974782950"}},{"type":"Feature","geometry":{"type":"Point","coordinates":[-1.74139,54.61058]},"properties":{"name":"Evenwood STW","category":"wastewater_plant","osm_type":"way","osm_id":"991565947","operator":"Northumbrian Water"}},{"type":"Feature","geometry":{"type":"Point","coordinates":[-1.84415,54.75839]},"properties":{"name":"Mapped water infrastructure","category":"reservoir_covered","osm_type":"way","osm_id":"994049638"}},{"type":"Feature","geometry":{"type":"Point","coordinates":[-1.33026,54.82295]},"properties":{"name":"Seaham Sewage Treatment Works","category":"wastewater_plant","osm_type":"way","osm_id":"1006158854"}},{"type":"Feature","geometry":{"type":"Point","coordinates":[-1.72809,54.54201]},"properties":{"name":"Mapped water infrastructure","category":"wastewater_plant","osm_type":"way","osm_id":"1009730525"}},{"type":"Feature","geometry":{"type":"Point","coordinates":[-1.63429,54.78238]},"properties":{"name":"Mapped water infrastructure","category":"reservoir_covered","osm_type":"way","osm_id":"1011270346"}},{"type":"Feature","geometry":{"type":"Point","coordinates":[-1.62079,54.81368]},"properties":{"name":"Mapped water infrastructure","category":"reservoir_covered","osm_type":"way","osm_id":"1014418373"}},{"type":"Feature","geometry":{"type":"Point","coordinates":[-1.49283,54.63053]},"properties":{"name":"Mordon STW","category":"wastewater_plant","osm_type":"way","osm_id":"1018629889","operator":"Northumbrian Water"}},{"type":"Feature","geometry":{"type":"Point","coordinates":[-1.75743,54.85922]},"properties":{"name":"Mapped water infrastructure","category":"reservoir_covered","osm_type":"way","osm_id":"1019250285"}},{"type":"Feature","geometry":{"type":"Point","coordinates":[-1.72657,54.68622]},"properties":{"name":"Mapped water infrastructure","category":"reservoir_covered","osm_type":"way","osm_id":"1020117293"}},{"type":"Feature","geometry":{"type":"Point","coordinates":[-1.78135,54.5745]},"properties":{"name":"Staindrop Sewage Treatment Works","category":"wastewater_plant","osm_type":"way","osm_id":"1029418026","operator":"Northumbrian Water","ref":"TST3202"}},{"type":"Feature","geometry":{"type":"Point","coordinates":[-1.76341,54.62807]},"properties":{"name":"Mapped water infrastructure","category":"wastewater_plant","osm_type":"way","osm_id":"1030688074"}},{"type":"Feature","geometry":{"type":"Point","coordinates":[-1.99765,54.75109]},"properties":{"name":"Mapped water infrastructure","category":"reservoir_covered","osm_type":"way","osm_id":"1056097885"}},{"type":"Feature","geometry":{"type":"Point","coordinates":[-1.6803,54.73261]},"properties":{"name":"Stockley Fell Reservoir","category":"reservoir_covered","osm_type":"way","osm_id":"1073667072"}},{"type":"Feature","geometry":{"type":"Point","coordinates":[-1.12366,54.51029]},"properties":{"name":"Newton Under Roseberry STW","category":"wastewater_plant","osm_type":"way","osm_id":"1078746346","operator":"Northumbrian Water","ref":"TST2142"}},{"type":"Feature","geometry":{"type":"Point","coordinates":[-1.58423,54.9426]},"properties":{"name":"Carr Hill Reservoir","category":"reservoir_covered","osm_type":"way","osm_id":"1089910163"}},{"type":"Feature","geometry":{"type":"Point","coordinates":[-1.38429,54.57516]},"properties":{"name":"East View Reservoir","category":"reservoir_covered","osm_type":"way","osm_id":"1090423437"}},{"type":"Feature","geometry":{"type":"Point","coordinates":[-1.26884,54.5025]},"properties":{"name":"Maltby Grange Reservoir","category":"reservoir_covered","osm_type":"way","osm_id":"1099827212"}},{"type":"Feature","geometry":{"type":"Point","coordinates":[-1.7761,54.64742]},"properties":{"name":"Toft Hill Reservoir","category":"reservoir_covered","osm_type":"way","osm_id":"1106628285"}},{"type":"Feature","geometry":{"type":"Point","coordinates":[-1.65889,54.63647]},"properties":{"name":"Mapped water infrastructure","category":"reservoir_covered","osm_type":"way","osm_id":"1110578322"}},{"type":"Feature","geometry":{"type":"Point","coordinates":[-1.65172,54.73207]},"properties":{"name":"Brancepeth STW","category":"wastewater_plant","osm_type":"way","osm_id":"1112699030","operator":"Northumbrian Water","ref":"WST1072"}},{"type":"Feature","geometry":{"type":"Point","coordinates":[-1.5581,54.85201]},"properties":{"name":"Mapped water infrastructure","category":"pumping_station","osm_type":"way","osm_id":"1112699954","operator":"Northumbrian Water Ltd"}},{"type":"Feature","geometry":{"type":"Point","coordinates":[-1.72089,54.51309]},"properties":{"name":"Eppleby STW","category":"wastewater_plant","osm_type":"way","osm_id":"1112768401","operator":"Northumbrian Water","ref":"TST5092"}},{"type":"Feature","geometry":{"type":"Point","coordinates":[-1.69028,54.69595]},"properties":{"name":"Newfield STW","category":"wastewater_plant","osm_type":"way","osm_id":"1112781504","operator":"Northumbrian Water","ref":"WST1522"}},{"type":"Feature","geometry":{"type":"Point","coordinates":[-1.81352,54.67103]},"properties":{"name":"Hamsterley STW","category":"wastewater_plant","osm_type":"way","osm_id":"1112781782","operator":"Northumbrian Water","ref":"WST1282"}},{"type":"Feature","geometry":{"type":"Point","coordinates":[-1.78866,54.7023]},"properties":{"name":"Fir Tree STW","category":"wastewater_plant","osm_type":"way","osm_id":"1112782380","operator":"Northumbrian Water","ref":"WST1272"}},{"type":"Feature","geometry":{"type":"Point","coordinates":[-1.25741,54.69457]},"properties":{"name":"Mapped water infrastructure","category":"reservoir_covered","osm_type":"way","osm_id":"1125944015"}},{"type":"Feature","geometry":{"type":"Point","coordinates":[-1.72825,54.99007]},"properties":{"name":"Mapped water infrastructure","category":"pumping_station","osm_type":"way","osm_id":"1136302516"}},{"type":"Feature","geometry":{"type":"Point","coordinates":[-1.32897,54.52147]},"properties":{"name":"Mapped water infrastructure","category":"pumping_station","osm_type":"way","osm_id":"1138316583"}},{"type":"Feature","geometry":{"type":"Point","coordinates":[-1.30472,54.52804]},"properties":{"name":"Mapped water infrastructure","category":"wastewater_plant","osm_type":"way","osm_id":"1148459282"}},{"type":"Feature","geometry":{"type":"Point","coordinates":[-1.31153,54.55354]},"properties":{"name":"Mapped water infrastructure","category":"pumping_station","osm_type":"way","osm_id":"1153988510"}},{"type":"Feature","geometry":{"type":"Point","coordinates":[-1.2822,54.67664]},"properties":{"name":"Mapped water infrastructure","category":"reservoir_covered","osm_type":"way","osm_id":"1179569732"}},{"type":"Feature","geometry":{"type":"Point","coordinates":[-1.28251,54.67726]},"properties":{"name":"Mapped water infrastructure","category":"reservoir_covered","osm_type":"way","osm_id":"1179569733"}},{"type":"Feature","geometry":{"type":"Point","coordinates":[-1.80596,54.50888]},"properties":{"name":"Hutton Magna STW","category":"wastewater_plant","osm_type":"way","osm_id":"1207198294","operator":"Northumbrian Water","ref":"TST3112"}},{"type":"Feature","geometry":{"type":"Point","coordinates":[-1.60732,54.54894]},"properties":{"name":"Archdeacon Newton STW","category":"wastewater_plant","osm_type":"way","osm_id":"1207199115","operator":"Northumbrian Water","ref":"TST5022"}},{"type":"Feature","geometry":{"type":"Point","coordinates":[-1.74753,54.51205]},"properties":{"name":"Caldwell STW","category":"wastewater_plant","osm_type":"way","osm_id":"1207199657","operator":"Northumbrian Water","ref":"TST5042"}},{"type":"Feature","geometry":{"type":"Point","coordinates":[-1.94498,54.97305]},"properties":{"name":"Newton STW","category":"wastewater_plant","osm_type":"way","osm_id":"1207200633","operator":"Northumbrian Water","ref":"NST2143"}},{"type":"Feature","geometry":{"type":"Point","coordinates":[-1.6874,54.56592]},"properties":{"name":"Summerhouse STW","category":"wastewater_plant","osm_type":"way","osm_id":"1209011068","operator":"Northumbrian Water","ref":"TST5193"}},{"type":"Feature","geometry":{"type":"Point","coordinates":[-1.22179,54.50123]},"properties":{"name":"Newby STW","category":"wastewater_plant","osm_type":"way","osm_id":"1209893497","operator":"Northumbrian Water","ref":"TST2131"}},{"type":"Feature","geometry":{"type":"Point","coordinates":[-1.30471,54.52803]},"properties":{"name":"Mapped water infrastructure","category":"pumping_station","osm_type":"way","osm_id":"1222900311"}},{"type":"Feature","geometry":{"type":"Point","coordinates":[-1.51287,54.73232]},"properties":{"name":"Heugh Hall STW","category":"wastewater_plant","osm_type":"way","osm_id":"1271441755","operator":"Northumbrian Water","ref":"WST1332"}},{"type":"Feature","geometry":{"type":"Point","coordinates":[-1.29779,54.56077]},"properties":{"name":"Mapped water infrastructure","category":"pumping_station","osm_type":"way","osm_id":"1317140757"}},{"type":"Feature","geometry":{"type":"Point","coordinates":[-1.6758,54.90897]},"properties":{"name":"Mapped water infrastructure","category":"water_tower","osm_type":"way","osm_id":"1326343953"}},{"type":"Feature","geometry":{"type":"Point","coordinates":[-1.33251,54.68826]},"properties":{"name":"Coal Lane pumping station","category":"pumping_station","osm_type":"way","osm_id":"1351034926"}},{"type":"Feature","geometry":{"type":"Point","coordinates":[-1.79568,54.53047]},"properties":{"name":"Mapped water infrastructure","category":"water_works","osm_type":"way","osm_id":"1351671237"}},{"type":"Feature","geometry":{"type":"Point","coordinates":[-1.36409,54.52833]},"properties":{"name":"Mapped water infrastructure","category":"pumping_station","osm_type":"way","osm_id":"1353208971"}},{"type":"Feature","geometry":{"type":"Point","coordinates":[-1.54276,54.69942]},"properties":{"name":"East Howle STW","category":"wastewater_plant","osm_type":"way","osm_id":"1388501186","operator":"Northumbrian Water","ref":"WSP204A"}},{"type":"Feature","geometry":{"type":"Point","coordinates":[-1.56396,54.86969]},"properties":{"name":"Picktree STW","category":"wastewater_plant","osm_type":"way","osm_id":"1423594357","operator":"Northumbrian Water","ref":"WST2261"}},{"type":"Feature","geometry":{"type":"Point","coordinates":[-1.74547,54.67947]},"properties":{"name":"Wear Valley Junction STW","category":"wastewater_plant","osm_type":"way","osm_id":"1423874568","operator":"Northumbrian Water","ref":"WST1831"}},{"type":"Feature","geometry":{"type":"Point","coordinates":[-1.8147,54.78918]},"properties":{"name":"Satley STW","category":"wastewater_plant","osm_type":"way","osm_id":"1426367018","operator":"Northumbrian Water","ref":"WST1651"}},{"type":"Feature","geometry":{"type":"Point","coordinates":[-1.80079,54.94321]},"properties":{"name":"Coalburns STW","category":"wastewater_plant","osm_type":"way","osm_id":"1426367601","operator":"Northumbrian Water","ref":"NST3052"}},{"type":"Feature","geometry":{"type":"Point","coordinates":[-1.35271,54.50753]},"properties":{"name":"Mapped water infrastructure","category":"pumping_station","osm_type":"way","osm_id":"1442050283"}},{"type":"Feature","geometry":{"type":"Point","coordinates":[-1.31104,54.535]},"properties":{"name":"Mapped water infrastructure","category":"pumping_station","osm_type":"way","osm_id":"1487762276","operator":"Northumbrian Water"}},{"type":"Feature","geometry":{"type":"Point","coordinates":[-1.30416,54.53115]},"properties":{"name":"Mapped water infrastructure","category":"pumping_station","osm_type":"way","osm_id":"1487762277"}},{"type":"Feature","geometry":{"type":"Point","coordinates":[-1.27569,54.56094]},"properties":{"name":"Mapped water infrastructure","category":"pumping_station","osm_type":"way","osm_id":"1488400322"}},{"type":"Feature","geometry":{"type":"Point","coordinates":[-1.33224,54.54397]},"properties":{"name":"Mapped water infrastructure","category":"pumping_station","osm_type":"way","osm_id":"1489780628"}},{"type":"Feature","geometry":{"type":"Point","coordinates":[-1.34101,54.71924]},"properties":{"name":"Mapped water infrastructure","category":"water_well","osm_type":"way","osm_id":"1509547062"}},{"type":"Feature","geometry":{"type":"Point","coordinates":[-1.42159,54.87919]},"properties":{"name":"North Moor Lane Sewage Pumping Station","category":"wastewater_plant","osm_type":"relation","osm_id":"19161496"}},{"type":"Feature","geometry":{"type":"Point","coordinates":[-1.27158,54.56937]},"properties":{"name":"Northumbrian Water Treatment Compound","category":"wastewater_plant","osm_type":"way","osm_id":"38146447","operator":"Northumbrian Water"}},{"type":"Feature","geometry":{"type":"Point","coordinates":[-1.18337,54.65579]},"properties":{"name":"Sewage Pumping Station","category":"pumping_station","osm_type":"way","osm_id":"69478746"}},{"type":"Feature","geometry":{"type":"Point","coordinates":[-1.54616,54.76627]},"properties":{"name":"Shincliffe Mill Sewage Pumping Station","category":"pumping_station","osm_type":"way","osm_id":"93939588","operator":"Northumbrian Water"}},{"type":"Feature","geometry":{"type":"Point","coordinates":[-1.17879,54.55086]},"properties":{"name":"Mapped water infrastructure","category":"pumping_station","osm_type":"way","osm_id":"136459150"}},{"type":"Feature","geometry":{"type":"Point","coordinates":[-1.67583,54.70582]},"properties":{"name":"Willington Sewage Treatment Works","category":"wastewater_plant","osm_type":"way","osm_id":"198347936"}},{"type":"Feature","geometry":{"type":"Point","coordinates":[-1.86363,54.96678]},"properties":{"name":"Mapped water infrastructure","category":"wastewater_plant","osm_type":"way","osm_id":"415444080"}},{"type":"Feature","geometry":{"type":"Point","coordinates":[-1.69702,54.89326]},"properties":{"name":"Mapped water infrastructure","category":"wastewater_plant","osm_type":"way","osm_id":"421887725"}},{"type":"Feature","geometry":{"type":"Point","coordinates":[-1.58791,54.97106]},"properties":{"name":"Ouseburn East Sewage Pumping Station","category":"pumping_station","osm_type":"way","osm_id":"427992256"}},{"type":"Feature","geometry":{"type":"Point","coordinates":[-1.58929,54.97109]},"properties":{"name":"Ouseburn West Sewage Pumping Station","category":"pumping_station","osm_type":"way","osm_id":"427992259"}},{"type":"Feature","geometry":{"type":"Point","coordinates":[-1.95792,54.9521]},"properties":{"name":"Broomhaugh STW","category":"wastewater_plant","osm_type":"way","osm_id":"459587160"}},{"type":"Feature","geometry":{"type":"Point","coordinates":[-1.76278,54.99596]},"properties":{"name":"Mapped water infrastructure","category":"pumping_station","osm_type":"way","osm_id":"485281022","operator":"Northumbia Water"}},{"type":"Feature","geometry":{"type":"Point","coordinates":[-1.76223,54.53087]},"properties":{"name":"Mapped water infrastructure","category":"reservoir_covered","osm_type":"way","osm_id":"541319454"}},{"type":"Feature","geometry":{"type":"Point","coordinates":[-1.93317,54.72724]},"properties":{"name":"Mapped water infrastructure","category":"wastewater_plant","osm_type":"way","osm_id":"699286278"}},{"type":"Feature","geometry":{"type":"Point","coordinates":[-1.93641,54.9847]},"properties":{"name":"Mapped water infrastructure","category":"reservoir_covered","osm_type":"way","osm_id":"748926112"}},{"type":"Feature","geometry":{"type":"Point","coordinates":[-1.78784,54.98879]},"properties":{"name":"Heddon-on-the-Wall STW","category":"wastewater_plant","osm_type":"way","osm_id":"753208241","operator":"Northumbrian Water"}},{"type":"Feature","geometry":{"type":"Point","coordinates":[-1.9933,54.95273]},"properties":{"name":"Mapped water infrastructure","category":"reservoir_covered","osm_type":"way","osm_id":"786451896"}},{"type":"Feature","geometry":{"type":"Point","coordinates":[-1.96111,54.95012]},"properties":{"name":"Riding Mill Pumping Station","category":"water_works","osm_type":"way","osm_id":"787056729"}},{"type":"Feature","geometry":{"type":"Point","coordinates":[-1.95553,54.9333]},"properties":{"name":"Mapped water infrastructure","category":"reservoir_covered","osm_type":"way","osm_id":"787863336"}},{"type":"Feature","geometry":{"type":"Point","coordinates":[-1.87237,54.94451]},"properties":{"name":"Mapped water infrastructure","category":"reservoir_covered","osm_type":"way","osm_id":"788769669"}},{"type":"Feature","geometry":{"type":"Point","coordinates":[-1.93113,54.8918]},"properties":{"name":"Mapped water infrastructure","category":"reservoir_covered","osm_type":"way","osm_id":"791640384"}},{"type":"Feature","geometry":{"type":"Point","coordinates":[-1.64107,54.71614]},"properties":{"name":"Mapped water infrastructure","category":"pumping_station","osm_type":"way","osm_id":"887670258"}},{"type":"Feature","geometry":{"type":"Point","coordinates":[-1.56692,54.86442]},"properties":{"name":"Shields Road Sewage Pumping Station","category":"pumping_station","osm_type":"way","osm_id":"908724141","operator":"Northumbrian Water"}},{"type":"Feature","geometry":{"type":"Point","coordinates":[-1.55813,54.85218]},"properties":{"name":"Lumley Sewage Pumping Station","category":"pumping_station","osm_type":"way","osm_id":"917597798"}},{"type":"Feature","geometry":{"type":"Point","coordinates":[-1.57671,54.87377]},"properties":{"name":"Kingsmere Sewage Pumping Station","category":"pumping_station","osm_type":"way","osm_id":"927261648","operator":"Northumbrian Water"}},{"type":"Feature","geometry":{"type":"Point","coordinates":[-1.56891,54.8761]},"properties":{"name":"Caxton Way Sewage Pumping Station","category":"pumping_station","osm_type":"way","osm_id":"929280229","operator":"Northumbrian Water"}},{"type":"Feature","geometry":{"type":"Point","coordinates":[-1.33768,54.80356]},"properties":{"name":"Mapped water infrastructure","category":"wastewater_plant","osm_type":"way","osm_id":"974136471"}},{"type":"Feature","geometry":{"type":"Point","coordinates":[-1.75666,54.85788]},"properties":{"name":"Loud Reservoir","category":"reservoir_covered","osm_type":"way","osm_id":"975611859"}},{"type":"Feature","geometry":{"type":"Point","coordinates":[-1.70385,54.7689]},"properties":{"name":"Station Avenue Esh Winning Sewage Pumping Station","category":"pumping_station","osm_type":"way","osm_id":"1000924438","operator":"Northumbrian Water"}},{"type":"Feature","geometry":{"type":"Point","coordinates":[-1.44985,54.85931]},"properties":{"name":"Stoneygate Pumping Station","category":"pumping_station","osm_type":"way","osm_id":"1053151539","operator":"Northumbrian Water","addr:city":"Houghton-le-Spring","addr:postcode":"DH4 4NN"}},{"type":"Feature","geometry":{"type":"Point","coordinates":[-1.40476,54.59272]},"properties":{"name":"WIMS FID 1148","category":"wastewater_plant","osm_type":"way","osm_id":"1085028113","ref":"WIMS FID 1148"}},{"type":"Feature","geometry":{"type":"Point","coordinates":[-1.80704,54.8492]},"properties":{"name":"Crookhall STW","category":"wastewater_plant","osm_type":"way","osm_id":"1085075683","ref":"WIMS_FID_1137"}},{"type":"Feature","geometry":{"type":"Point","coordinates":[-1.49037,54.83514]},"properties":{"name":"Rainton Bridge Industrial Estate Pumping Station","category":"pumping_station","osm_type":"way","osm_id":"1091654450"}},{"type":"Feature","geometry":{"type":"Point","coordinates":[-1.63344,54.62562]},"properties":{"name":"Mapped water infrastructure","category":"pumping_station","osm_type":"way","osm_id":"1100716067"}},{"type":"Feature","geometry":{"type":"Point","coordinates":[-1.67837,54.87276]},"properties":{"name":"Mapped water infrastructure","category":"reservoir_covered","osm_type":"way","osm_id":"1105169324"}},{"type":"Feature","geometry":{"type":"Point","coordinates":[-1.28156,54.67846]},"properties":{"name":"Dalton Piercy Water Treatment Works","category":"water_works","osm_type":"way","osm_id":"1123339669"}},{"type":"Feature","geometry":{"type":"Point","coordinates":[-1.69849,54.88883]},"properties":{"name":"East Tanfield STW","category":"wastewater_plant","osm_type":"way","osm_id":"1154350494","operator":"Northumbrian Water","ref":"NST2292"}},{"type":"Feature","geometry":{"type":"Point","coordinates":[-1.69296,54.9322]},"properties":{"name":"Mapped water infrastructure","category":"reservoir_covered","osm_type":"way","osm_id":"1247771570"}},{"type":"Feature","geometry":{"type":"Point","coordinates":[-1.69807,54.91475]},"properties":{"name":"Mapped water infrastructure","category":"reservoir_covered","osm_type":"way","osm_id":"1248046802"}},{"type":"Feature","geometry":{"type":"Point","coordinates":[-1.74843,54.90731]},"properties":{"name":"Mapped water infrastructure","category":"reservoir_covered","osm_type":"way","osm_id":"1251927528"}},{"type":"Feature","geometry":{"type":"Point","coordinates":[-1.74274,54.88561]},"properties":{"name":"Mapped water infrastructure","category":"reservoir_covered","osm_type":"way","osm_id":"1254530772"}},{"type":"Feature","geometry":{"type":"Point","coordinates":[-1.82278,54.89703]},"properties":{"name":"Mapped water infrastructure","category":"reservoir_covered","osm_type":"way","osm_id":"1257360756"}},{"type":"Feature","geometry":{"type":"Point","coordinates":[-1.76886,54.78314]},"properties":{"name":"Mapped water infrastructure","category":"wastewater_plant","osm_type":"way","osm_id":"1305808459"}},{"type":"Feature","geometry":{"type":"Point","coordinates":[-1.28877,54.55145]},"properties":{"name":"Mapped water infrastructure","category":"pumping_station","osm_type":"way","osm_id":"1487757311","operator":"Northumbrian Water"}},{"type":"Feature","geometry":{"type":"Point","coordinates":[-1.87182,54.83382]},"properties":{"name":"Mapped water infrastructure","category":"reservoir_covered","osm_type":"way","osm_id":"1539119894"}}]}