{"type":"FeatureCollection","features":[{"type":"Feature","geometry":{"type":"Point","coordinates":[-1.36134,53.39137]},"properties":{"name":"Catcliffe Treeton Lane","category":"wastewater_plant","osm_type":"node","osm_id":"275438104"}},{"type":"Feature","geometry":{"type":"Point","coordinates":[-1.43625,53.42232]},"properties":{"name":"Mapped water infrastructure","category":"drinking_water","osm_type":"node","osm_id":"299857515"}},{"type":"Feature","geometry":{"type":"Point","coordinates":[-1.43503,53.42224]},"properties":{"name":"Mapped water infrastructure","category":"drinking_water","osm_type":"node","osm_id":"299857523"}},{"type":"Feature","geometry":{"type":"Point","coordinates":[-1.43401,53.42218]},"properties":{"name":"Mapped water infrastructure","category":"drinking_water","osm_type":"node","osm_id":"299857524"}},{"type":"Feature","geometry":{"type":"Point","coordinates":[-1.37151,53.15042]},"properties":{"name":"Mapped water infrastructure","category":"wastewater_plant","osm_type":"node","osm_id":"330362273"}},{"type":"Feature","geometry":{"type":"Point","coordinates":[-1.78284,53.17084]},"properties":{"name":"Mapped water infrastructure","category":"drinking_water","osm_type":"node","osm_id":"360856441"}},{"type":"Feature","geometry":{"type":"Point","coordinates":[-1.46918,53.34872]},"properties":{"name":"Norton Warminster Road","category":"pumping_station","osm_type":"node","osm_id":"361249221"}},{"type":"Feature","geometry":{"type":"Point","coordinates":[-1.68662,53.17523]},"properties":{"name":"Conduit Head","category":"water_tower","osm_type":"node","osm_id":"447270892"}},{"type":"Feature","geometry":{"type":"Point","coordinates":[-1.50437,53.47006]},"properties":{"name":"Potter Hill","category":"water_tower","osm_type":"node","osm_id":"1065403770"}},{"type":"Feature","geometry":{"type":"Point","coordinates":[-1.54154,53.31304]},"properties":{"name":"Mapped water infrastructure","category":"drinking_water","osm_type":"node","osm_id":"1177050576"}},{"type":"Feature","geometry":{"type":"Point","coordinates":[-1.53694,53.32616]},"properties":{"name":"Dore Well","category":"water_well","osm_type":"node","osm_id":"1188155713"}},{"type":"Feature","geometry":{"type":"Point","coordinates":[-1.53951,53.32653]},"properties":{"name":"Mapped water infrastructure","category":"drinking_water","osm_type":"node","osm_id":"1222024976"}},{"type":"Feature","geometry":{"type":"Point","coordinates":[-1.91457,53.25857]},"properties":{"name":"St Ann's Well","category":"drinking_water","osm_type":"node","osm_id":"1504407936"}},{"type":"Feature","geometry":{"type":"Point","coordinates":[-1.73939,53.06784]},"properties":{"name":"Hall Well","category":"water_well","osm_type":"node","osm_id":"1874926899"}},{"type":"Feature","geometry":{"type":"Point","coordinates":[-1.80809,53.09854]},"properties":{"name":"Green Well","category":"water_well","osm_type":"node","osm_id":"2090172145"}},{"type":"Feature","geometry":{"type":"Point","coordinates":[-1.91386,53.26264]},"properties":{"name":"Mapped water infrastructure","category":"drinking_water","osm_type":"node","osm_id":"2154534792"}},{"type":"Feature","geometry":{"type":"Point","coordinates":[-1.96234,53.33348]},"properties":{"name":"Mapped water infrastructure","category":"water_well","osm_type":"node","osm_id":"3048896507"}},{"type":"Feature","geometry":{"type":"Point","coordinates":[-1.67093,53.0321]},"properties":{"name":"Mapped water infrastructure","category":"water_well","osm_type":"node","osm_id":"3371459281"}},{"type":"Feature","geometry":{"type":"Point","coordinates":[-1.20335,53.48915]},"properties":{"name":"Mapped water infrastructure","category":"water_tower","osm_type":"node","osm_id":"3454651422"}},{"type":"Feature","geometry":{"type":"Point","coordinates":[-1.76593,53.19481]},"properties":{"name":"Mapped water infrastructure","category":"wastewater_plant","osm_type":"node","osm_id":"3879078736"}},{"type":"Feature","geometry":{"type":"Point","coordinates":[-1.76533,53.35598]},"properties":{"name":"Mapped water infrastructure","category":"reservoir_covered","osm_type":"node","osm_id":"4369985648"}},{"type":"Feature","geometry":{"type":"Point","coordinates":[-1.74135,53.06938]},"properties":{"name":"Hands Well","category":"water_well","osm_type":"node","osm_id":"4587881104"}},{"type":"Feature","geometry":{"type":"Point","coordinates":[-1.73665,53.06682]},"properties":{"name":"Town Well","category":"water_well","osm_type":"node","osm_id":"4587885404"}},{"type":"Feature","geometry":{"type":"Point","coordinates":[-1.64115,53.06087]},"properties":{"name":"Mapped water infrastructure","category":"drinking_water","osm_type":"node","osm_id":"5062694334"}},{"type":"Feature","geometry":{"type":"Point","coordinates":[-1.64429,53.49316]},"properties":{"name":"Potters Well","category":"water_well","osm_type":"node","osm_id":"5366091538"}},{"type":"Feature","geometry":{"type":"Point","coordinates":[-1.60394,53.42269]},"properties":{"name":"Mapped water infrastructure","category":"water_well","osm_type":"node","osm_id":"5654225660"}},{"type":"Feature","geometry":{"type":"Point","coordinates":[-1.59802,53.4294]},"properties":{"name":"Mapped water infrastructure","category":"water_well","osm_type":"node","osm_id":"5677939724"}},{"type":"Feature","geometry":{"type":"Point","coordinates":[-1.51518,53.38695]},"properties":{"name":"Mapped water infrastructure","category":"water_well","osm_type":"node","osm_id":"5765695770"}},{"type":"Feature","geometry":{"type":"Point","coordinates":[-1.00169,53.22583]},"properties":{"name":"Mapped water infrastructure","category":"drinking_water","osm_type":"node","osm_id":"6284829838"}},{"type":"Feature","geometry":{"type":"Point","coordinates":[-1.00152,53.22689]},"properties":{"name":"Mapped water infrastructure","category":"drinking_water","osm_type":"node","osm_id":"6284829841"}},{"type":"Feature","geometry":{"type":"Point","coordinates":[-1.65345,53.33066]},"properties":{"name":"Mapped water infrastructure","category":"drinking_water","osm_type":"node","osm_id":"6657094204"}},{"type":"Feature","geometry":{"type":"Point","coordinates":[-1.46235,53.38235]},"properties":{"name":"Mapped water infrastructure","category":"drinking_water","osm_type":"node","osm_id":"7080284624"}},{"type":"Feature","geometry":{"type":"Point","coordinates":[-1.69879,53.36257]},"properties":{"name":"Mapped water infrastructure","category":"drinking_water","osm_type":"node","osm_id":"7775719706"}},{"type":"Feature","geometry":{"type":"Point","coordinates":[-1.97176,53.20191]},"properties":{"name":"Mapped water infrastructure","category":"water_well","osm_type":"node","osm_id":"7840444185"}},{"type":"Feature","geometry":{"type":"Point","coordinates":[-1.91996,53.48329]},"properties":{"name":"Torside Booster Station","category":"pumping_station","osm_type":"node","osm_id":"7864544981"}},{"type":"Feature","geometry":{"type":"Point","coordinates":[-1.74213,53.40102]},"properties":{"name":"Mapped water infrastructure","category":"drinking_water","osm_type":"node","osm_id":"7946097579"}},{"type":"Feature","geometry":{"type":"Point","coordinates":[-1.44985,53.26996]},"properties":{"name":"Fender Mine Water Treatment Scheme","category":"wastewater_plant","osm_type":"node","osm_id":"8007463652"}},{"type":"Feature","geometry":{"type":"Point","coordinates":[-1.99297,53.08351]},"properties":{"name":"Egg Well","category":"water_well","osm_type":"node","osm_id":"8038725898","operator":"Natural England","ref":"1038222"}},{"type":"Feature","geometry":{"type":"Point","coordinates":[-1.92977,53.3219]},"properties":{"name":"Mapped water infrastructure","category":"reservoir_covered","osm_type":"node","osm_id":"8120726921"}},{"type":"Feature","geometry":{"type":"Point","coordinates":[-1.4289,53.23559]},"properties":{"name":"Chesterfield Town Pump","category":"water_well","osm_type":"node","osm_id":"8234501458"}},{"type":"Feature","geometry":{"type":"Point","coordinates":[-1.25945,53.07678]},"properties":{"name":"Mapped water infrastructure","category":"water_works","osm_type":"node","osm_id":"8403231358"}},{"type":"Feature","geometry":{"type":"Point","coordinates":[-1.23428,53.0961]},"properties":{"name":"Diamond Avenue Water Works","category":"water_works","osm_type":"node","osm_id":"8403349104","operator":"Severn Trent"}},{"type":"Feature","geometry":{"type":"Point","coordinates":[-1.19622,53.09424]},"properties":{"name":"Normans Hollow","category":"pumping_station","osm_type":"node","osm_id":"8403351278"}},{"type":"Feature","geometry":{"type":"Point","coordinates":[-1.2783,53.46669]},"properties":{"name":"Mapped water infrastructure","category":"wastewater_plant","osm_type":"node","osm_id":"8749757716"}},{"type":"Feature","geometry":{"type":"Point","coordinates":[-1.79393,53.08916]},"properties":{"name":"Mapped water infrastructure","category":"drinking_water","osm_type":"node","osm_id":"8923517329"}},{"type":"Feature","geometry":{"type":"Point","coordinates":[-1.583,53.14258]},"properties":{"name":"Snitterton Sewage Pumping Station","category":"wastewater_plant","osm_type":"node","osm_id":"9044850635"}},{"type":"Feature","geometry":{"type":"Point","coordinates":[-1.58734,53.14629]},"properties":{"name":"Grace's Well","category":"water_well","osm_type":"node","osm_id":"9044850636"}},{"type":"Feature","geometry":{"type":"Point","coordinates":[-1.59761,53.15603]},"properties":{"name":"Mapped water infrastructure","category":"water_point","osm_type":"node","osm_id":"9044850637"}},{"type":"Feature","geometry":{"type":"Point","coordinates":[-1.79032,53.20525]},"properties":{"name":"Mapped water infrastructure","category":"drinking_water","osm_type":"node","osm_id":"9056047904"}},{"type":"Feature","geometry":{"type":"Point","coordinates":[-1.79266,53.20677]},"properties":{"name":"Mapped water infrastructure","category":"drinking_water","osm_type":"node","osm_id":"9056048176"}},{"type":"Feature","geometry":{"type":"Point","coordinates":[-1.79108,53.20584]},"properties":{"name":"Mapped water infrastructure","category":"drinking_water","osm_type":"node","osm_id":"9056057263"}},{"type":"Feature","geometry":{"type":"Point","coordinates":[-1.09475,53.16206]},"properties":{"name":"Mapped water infrastructure","category":"water_point","osm_type":"node","osm_id":"9077630205"}},{"type":"Feature","geometry":{"type":"Point","coordinates":[-1.48432,53.26761]},"properties":{"name":"Mapped water infrastructure","category":"water_well","osm_type":"node","osm_id":"9193118853"}},{"type":"Feature","geometry":{"type":"Point","coordinates":[-1.98363,53.3321]},"properties":{"name":"Whaley Bridge Water Point","category":"water_point","osm_type":"node","osm_id":"9374458871","operator":"Canal and River Trust","opening_hours":"24/7"}},{"type":"Feature","geometry":{"type":"Point","coordinates":[-1.97274,53.33585]},"properties":{"name":"Bugsworth Basin Water Point","category":"water_point","osm_type":"node","osm_id":"9374458882","operator":"Canal and River Trust"}},{"type":"Feature","geometry":{"type":"Point","coordinates":[-1.96222,53.02645]},"properties":{"name":"Froghall Junction Water Point","category":"water_point","osm_type":"node","osm_id":"9377088262","operator":"Canal and River Trust"}},{"type":"Feature","geometry":{"type":"Point","coordinates":[-1.58517,53.09325]},"properties":{"name":"Mapped water infrastructure","category":"water_point","osm_type":"node","osm_id":"9469912241"}},{"type":"Feature","geometry":{"type":"Point","coordinates":[-1.62478,53.0775]},"properties":{"name":"Mapped water infrastructure","category":"water_point","osm_type":"node","osm_id":"9470071230"}},{"type":"Feature","geometry":{"type":"Point","coordinates":[-1.82888,53.20369]},"properties":{"name":"Mapped water infrastructure","category":"drinking_water","osm_type":"node","osm_id":"9921417733"}},{"type":"Feature","geometry":{"type":"Point","coordinates":[-1.82857,53.20338]},"properties":{"name":"Mapped water infrastructure","category":"drinking_water","osm_type":"node","osm_id":"9921417734"}},{"type":"Feature","geometry":{"type":"Point","coordinates":[-1.82889,53.20377]},"properties":{"name":"Mapped water infrastructure","category":"drinking_water","osm_type":"node","osm_id":"9921417738"}},{"type":"Feature","geometry":{"type":"Point","coordinates":[-1.55168,53.13545]},"properties":{"name":"Mapped water infrastructure","category":"drinking_water","osm_type":"node","osm_id":"9983889331"}},{"type":"Feature","geometry":{"type":"Point","coordinates":[-1.69212,53.19414]},"properties":{"name":"Mapped water infrastructure","category":"water_well","osm_type":"node","osm_id":"10030113507"}},{"type":"Feature","geometry":{"type":"Point","coordinates":[-1.69738,53.36881]},"properties":{"name":"Mapped water infrastructure","category":"drinking_water","osm_type":"node","osm_id":"10554420276"}},{"type":"Feature","geometry":{"type":"Point","coordinates":[-1.90317,53.46475]},"properties":{"name":"Mapped water infrastructure","category":"water_well","osm_type":"node","osm_id":"10656723123"}},{"type":"Feature","geometry":{"type":"Point","coordinates":[-1.32456,53.02014]},"properties":{"name":"Langley Mill Water Point","category":"water_point","osm_type":"node","osm_id":"10665825807","operator":"Canal and River Trust"}},{"type":"Feature","geometry":{"type":"Point","coordinates":[-1.74055,53.32668]},"properties":{"name":"Mapped water infrastructure","category":"drinking_water","osm_type":"node","osm_id":"10908355252","opening_hours":"24/7"}},{"type":"Feature","geometry":{"type":"Point","coordinates":[-1.80854,53.19568]},"properties":{"name":"Mapped water infrastructure","category":"water_point","osm_type":"node","osm_id":"10933460840","operator":"The Bull I' Th' Thorn Pub & Pizzeria"}},{"type":"Feature","geometry":{"type":"Point","coordinates":[-1.80925,53.19587]},"properties":{"name":"Mapped water infrastructure","category":"drinking_water","osm_type":"node","osm_id":"10933460878","operator":"The Bull I' Th' Thorn Pub & Pizzeria"}},{"type":"Feature","geometry":{"type":"Point","coordinates":[-1.80921,53.19584]},"properties":{"name":"Mapped water infrastructure","category":"drinking_water","osm_type":"node","osm_id":"10933460887","operator":"The Bull I' Th' Thorn Pub & Pizzeria"}},{"type":"Feature","geometry":{"type":"Point","coordinates":[-1.80881,53.19595]},"properties":{"name":"Mapped water infrastructure","category":"water_point","osm_type":"node","osm_id":"10933540590","operator":"The Bull I' Th' Thorn Pub & Pizzeria"}},{"type":"Feature","geometry":{"type":"Point","coordinates":[-1.5116,53.08417]},"properties":{"name":"Mapped water infrastructure","category":"drinking_water","osm_type":"node","osm_id":"10949940165"}},{"type":"Feature","geometry":{"type":"Point","coordinates":[-1.39647,53.07487]},"properties":{"name":"Mapped water infrastructure","category":"water_well","osm_type":"node","osm_id":"10984476827"}},{"type":"Feature","geometry":{"type":"Point","coordinates":[-1.71017,53.22456]},"properties":{"name":"Mapped water infrastructure","category":"drinking_water","osm_type":"node","osm_id":"11089021975"}},{"type":"Feature","geometry":{"type":"Point","coordinates":[-1.47005,53.38042]},"properties":{"name":"Mapped water infrastructure","category":"drinking_water","osm_type":"node","osm_id":"11161018866","operator":"Sheffield City Council","wheelchair":"yes"}},{"type":"Feature","geometry":{"type":"Point","coordinates":[-1.46869,53.38929]},"properties":{"name":"Mapped water infrastructure","category":"drinking_water","osm_type":"node","osm_id":"11161018867","operator":"True North Brew Co","website":"https://www.riversidesheffield.co.uk/","opening_hours":"Mo-Th 11:30-23:00; Fr 11:30-00:00; Sa 00:00-01:00,11:30-00:00; Su 00:00-01:00,11:30-23:00","wheelchair":"yes"}},{"type":"Feature","geometry":{"type":"Point","coordinates":[-1.74676,53.02478]},"properties":{"name":"Mapped water infrastructure","category":"water_point","osm_type":"node","osm_id":"11215883409"}},{"type":"Feature","geometry":{"type":"Point","coordinates":[-1.74674,53.02485]},"properties":{"name":"Mapped water infrastructure","category":"water_point","osm_type":"node","osm_id":"11215883410"}},{"type":"Feature","geometry":{"type":"Point","coordinates":[-1.81527,53.24567]},"properties":{"name":"Mapped water infrastructure","category":"water_point","osm_type":"node","osm_id":"11215890365"}},{"type":"Feature","geometry":{"type":"Point","coordinates":[-1.81544,53.24594]},"properties":{"name":"Mapped water infrastructure","category":"water_point","osm_type":"node","osm_id":"11215890366"}},{"type":"Feature","geometry":{"type":"Point","coordinates":[-1.81556,53.24638]},"properties":{"name":"Mapped water infrastructure","category":"water_point","osm_type":"node","osm_id":"11215890367"}},{"type":"Feature","geometry":{"type":"Point","coordinates":[-1.53395,53.09578]},"properties":{"name":"Mapped water infrastructure","category":"water_point","osm_type":"node","osm_id":"11215915831"}},{"type":"Feature","geometry":{"type":"Point","coordinates":[-1.80911,53.19511]},"properties":{"name":"Mapped water infrastructure","category":"water_point","osm_type":"node","osm_id":"11215923432"}},{"type":"Feature","geometry":{"type":"Point","coordinates":[-1.73652,53.19237]},"properties":{"name":"Mapped water infrastructure","category":"water_point","osm_type":"node","osm_id":"11215923433"}},{"type":"Feature","geometry":{"type":"Point","coordinates":[-1.29901,53.36387]},"properties":{"name":"Mapped water infrastructure","category":"drinking_water","osm_type":"node","osm_id":"11831555346","opening_hours":"24/7"}},{"type":"Feature","geometry":{"type":"Point","coordinates":[-1.20755,53.02441]},"properties":{"name":"Mapped water infrastructure","category":"water_well","osm_type":"node","osm_id":"11990909705"}},{"type":"Feature","geometry":{"type":"Point","coordinates":[-1.00197,53.22757]},"properties":{"name":"Mapped water infrastructure","category":"drinking_water","osm_type":"node","osm_id":"12016646299"}},{"type":"Feature","geometry":{"type":"Point","coordinates":[-1.0018,53.22936]},"properties":{"name":"Mapped water infrastructure","category":"drinking_water","osm_type":"node","osm_id":"12016646311"}},{"type":"Feature","geometry":{"type":"Point","coordinates":[-1.00101,53.23095]},"properties":{"name":"Mapped water infrastructure","category":"drinking_water","osm_type":"node","osm_id":"12016646312"}},{"type":"Feature","geometry":{"type":"Point","coordinates":[-1.00275,53.23089]},"properties":{"name":"Mapped water infrastructure","category":"drinking_water","osm_type":"node","osm_id":"12016646313"}},{"type":"Feature","geometry":{"type":"Point","coordinates":[-1.00209,53.23164]},"properties":{"name":"Mapped water infrastructure","category":"drinking_water","osm_type":"node","osm_id":"12016646314"}},{"type":"Feature","geometry":{"type":"Point","coordinates":[-1.00279,53.23177]},"properties":{"name":"Mapped water infrastructure","category":"drinking_water","osm_type":"node","osm_id":"12016646315"}},{"type":"Feature","geometry":{"type":"Point","coordinates":[-1.00309,53.23333]},"properties":{"name":"Mapped water infrastructure","category":"drinking_water","osm_type":"node","osm_id":"12016646316"}},{"type":"Feature","geometry":{"type":"Point","coordinates":[-1.00384,53.23489]},"properties":{"name":"Mapped water infrastructure","category":"drinking_water","osm_type":"node","osm_id":"12016646317"}},{"type":"Feature","geometry":{"type":"Point","coordinates":[-1.00514,53.23558]},"properties":{"name":"Mapped water infrastructure","category":"drinking_water","osm_type":"node","osm_id":"12016646318"}},{"type":"Feature","geometry":{"type":"Point","coordinates":[-1.00177,53.22583]},"properties":{"name":"Mapped water infrastructure","category":"drinking_water","osm_type":"node","osm_id":"12016646326"}},{"type":"Feature","geometry":{"type":"Point","coordinates":[-1.59029,53.09302]},"properties":{"name":"Mapped water infrastructure","category":"drinking_water","osm_type":"node","osm_id":"12058956993"}},{"type":"Feature","geometry":{"type":"Point","coordinates":[-1.61527,53.07575]},"properties":{"name":"Mapped water infrastructure","category":"water_well","osm_type":"node","osm_id":"12072026741"}},{"type":"Feature","geometry":{"type":"Point","coordinates":[-1.79119,53.3758]},"properties":{"name":"Mapped water infrastructure","category":"drinking_water","osm_type":"node","osm_id":"12073439074"}},{"type":"Feature","geometry":{"type":"Point","coordinates":[-1.60473,53.31549]},"properties":{"name":"Mapped water infrastructure","category":"drinking_water","osm_type":"node","osm_id":"12227418790"}},{"type":"Feature","geometry":{"type":"Point","coordinates":[-1.70091,53.24358]},"properties":{"name":"Mapped water infrastructure","category":"water_point","osm_type":"node","osm_id":"12743355252"}},{"type":"Feature","geometry":{"type":"Point","coordinates":[-1.92217,53.33699]},"properties":{"name":"Mapped water infrastructure","category":"water_point","osm_type":"node","osm_id":"12743372561"}},{"type":"Feature","geometry":{"type":"Point","coordinates":[-1.73828,53.19111]},"properties":{"name":"Mapped water infrastructure","category":"drinking_water","osm_type":"node","osm_id":"12743381408"}},{"type":"Feature","geometry":{"type":"Point","coordinates":[-1.7374,53.19089]},"properties":{"name":"Mapped water infrastructure","category":"drinking_water","osm_type":"node","osm_id":"12743381409"}},{"type":"Feature","geometry":{"type":"Point","coordinates":[-1.58958,53.48295]},"properties":{"name":"Mapped water infrastructure","category":"drinking_water","osm_type":"node","osm_id":"12812300001","wheelchair":"yes"}},{"type":"Feature","geometry":{"type":"Point","coordinates":[-1.47277,53.37393]},"properties":{"name":"Mapped water infrastructure","category":"drinking_water","osm_type":"node","osm_id":"12862274332","operator":"Decathlon","opening_hours":"Mo-Fr 09:00-20:00; Sa 09:00-19:00; Su 10:30-16:30","wheelchair":"yes"}},{"type":"Feature","geometry":{"type":"Point","coordinates":[-1.47037,53.38102]},"properties":{"name":"Mapped water infrastructure","category":"drinking_water","osm_type":"node","osm_id":"12874781077","operator":"Sheffield City Council","opening_hours":"24/7","capacity":"1"}},{"type":"Feature","geometry":{"type":"Point","coordinates":[-1.65957,53.1129]},"properties":{"name":"Mapped water infrastructure","category":"water_well","osm_type":"node","osm_id":"13060704095"}},{"type":"Feature","geometry":{"type":"Point","coordinates":[-1.92886,53.24581]},"properties":{"name":"Mapped water infrastructure","category":"water_point","osm_type":"node","osm_id":"13140461802"}},{"type":"Feature","geometry":{"type":"Point","coordinates":[-1.92729,53.24519]},"properties":{"name":"Mapped water infrastructure","category":"water_point","osm_type":"node","osm_id":"13140461806"}},{"type":"Feature","geometry":{"type":"Point","coordinates":[-1.47444,53.37915]},"properties":{"name":"Mapped water infrastructure","category":"water_well","osm_type":"node","osm_id":"13158474645"}},{"type":"Feature","geometry":{"type":"Point","coordinates":[-1.47869,53.37928]},"properties":{"name":"Mapped water infrastructure","category":"drinking_water","osm_type":"node","osm_id":"13411135043","opening_hours":"24/7"}},{"type":"Feature","geometry":{"type":"Point","coordinates":[-1.77784,53.14649]},"properties":{"name":"Mapped water infrastructure","category":"drinking_water","osm_type":"node","osm_id":"13884832281"}},{"type":"Feature","geometry":{"type":"Point","coordinates":[-1.48632,53.22806]},"properties":{"name":"Mapped water infrastructure","category":"water_well","osm_type":"node","osm_id":"13898576112"}},{"type":"Feature","geometry":{"type":"Point","coordinates":[-1.73937,53.06679]},"properties":{"name":"Yew Tree Well","category":"water_well","osm_type":"node","osm_id":"14105207872"}},{"type":"Feature","geometry":{"type":"Point","coordinates":[-1.56689,53.09741]},"properties":{"name":"Mapped water infrastructure","category":"drinking_water","osm_type":"node","osm_id":"14177987442"}},{"type":"Feature","geometry":{"type":"Point","coordinates":[-1.5173,53.40764]},"properties":{"name":"Hallowmoor Reservoir","category":"reservoir_covered","osm_type":"way","osm_id":"19854939"}},{"type":"Feature","geometry":{"type":"Point","coordinates":[-1.52782,53.41112]},"properties":{"name":"Wadsley Common Service Reservoir","category":"reservoir_covered","osm_type":"way","osm_id":"23501223"}},{"type":"Feature","geometry":{"type":"Point","coordinates":[-1.47691,53.41398]},"properties":{"name":"Moonshine Reservoir","category":"reservoir_covered","osm_type":"way","osm_id":"24326540"}},{"type":"Feature","geometry":{"type":"Point","coordinates":[-1.32038,53.14119]},"properties":{"name":"Whiteborough","category":"reservoir_covered","osm_type":"way","osm_id":"31559707"}},{"type":"Feature","geometry":{"type":"Point","coordinates":[-1.46341,53.16818]},"properties":{"name":"Mapped water infrastructure","category":"reservoir_covered","osm_type":"way","osm_id":"34107695"}},{"type":"Feature","geometry":{"type":"Point","coordinates":[-1.45866,53.36408]},"properties":{"name":"Sheffield East Road Pumping Station","category":"water_works","osm_type":"way","osm_id":"94214599","operator":"Yorkshire Water","addr:city":"Sheffield"}},{"type":"Feature","geometry":{"type":"Point","coordinates":[-1.2598,53.14821]},"properties":{"name":"Skegby (STW)","category":"wastewater_plant","osm_type":"way","osm_id":"95811504","operator":"Severn Trent","ref":"11316-ST1"}},{"type":"Feature","geometry":{"type":"Point","coordinates":[-1.23778,53.12928]},"properties":{"name":"Sutton in Ashfield Water Treatment Works","category":"wastewater_plant","osm_type":"way","osm_id":"95817330"}},{"type":"Feature","geometry":{"type":"Point","coordinates":[-1.58009,53.37915]},"properties":{"name":"Mapped water infrastructure","category":"reservoir_covered","osm_type":"way","osm_id":"105308716"}},{"type":"Feature","geometry":{"type":"Point","coordinates":[-1.55667,53.39117]},"properties":{"name":"Stannington Reservoir (Covered)","category":"reservoir_covered","osm_type":"way","osm_id":"108477465"}},{"type":"Feature","geometry":{"type":"Point","coordinates":[-1.09417,53.43609]},"properties":{"name":"Mapped water infrastructure","category":"wastewater_plant","osm_type":"way","osm_id":"108937734"}},{"type":"Feature","geometry":{"type":"Point","coordinates":[-1.1347,53.47036]},"properties":{"name":"Mapped water infrastructure","category":"wastewater_plant","osm_type":"way","osm_id":"108937772"}},{"type":"Feature","geometry":{"type":"Point","coordinates":[-1.32124,53.01418]},"properties":{"name":"Milnhay - Heanor (STW)","category":"wastewater_plant","osm_type":"way","osm_id":"110304473","operator":"Severn Trent","ref":"11293-ST1"}},{"type":"Feature","geometry":{"type":"Point","coordinates":[-1.72607,53.23957]},"properties":{"name":"Mapped water infrastructure","category":"reservoir_covered","osm_type":"way","osm_id":"114322429"}},{"type":"Feature","geometry":{"type":"Point","coordinates":[-1.331,53.11378]},"properties":{"name":"Mapped water infrastructure","category":"wastewater_plant","osm_type":"way","osm_id":"118554999"}},{"type":"Feature","geometry":{"type":"Point","coordinates":[-1.96421,53.02126]},"properties":{"name":"Mapped water infrastructure","category":"water_tower","osm_type":"way","osm_id":"119053247"}},{"type":"Feature","geometry":{"type":"Point","coordinates":[-1.41934,53.13249]},"properties":{"name":"Mapped water infrastructure","category":"reservoir_covered","osm_type":"way","osm_id":"121950815","operator":"Severn Trent Water"}},{"type":"Feature","geometry":{"type":"Point","coordinates":[-1.75273,53.01186]},"properties":{"name":"Ashboune Waste Water Treatment Works","category":"wastewater_plant","osm_type":"way","osm_id":"125223465"}},{"type":"Feature","geometry":{"type":"Point","coordinates":[-1.24236,53.19766]},"properties":{"name":"Mapped water infrastructure","category":"reservoir_covered","osm_type":"way","osm_id":"133285217"}},{"type":"Feature","geometry":{"type":"Point","coordinates":[-1.24212,53.19734]},"properties":{"name":"Mapped water infrastructure","category":"reservoir_covered","osm_type":"way","osm_id":"133285218"}},{"type":"Feature","geometry":{"type":"Point","coordinates":[-1.28822,53.17769]},"properties":{"name":"Rowthorne Sewage Treatment Works","category":"wastewater_plant","osm_type":"way","osm_id":"133334363","operator":"Severn Trent"}},{"type":"Feature","geometry":{"type":"Point","coordinates":[-1.40766,53.02871]},"properties":{"name":"Marehay (STW)","category":"wastewater_plant","osm_type":"way","osm_id":"133398706","operator":"Severn Trent","ref":"11654-ST1"}},{"type":"Feature","geometry":{"type":"Point","coordinates":[-1.51329,53.38004]},"properties":{"name":"Lydgate Reservoir","category":"reservoir_covered","osm_type":"way","osm_id":"133978829"}},{"type":"Feature","geometry":{"type":"Point","coordinates":[-1.9837,53.34729]},"properties":{"name":"Whaley Bridge Waste Treatment Works","category":"wastewater_plant","osm_type":"way","osm_id":"143367353","addr:city":"High Peak","addr:postcode":"SK23 7EE"}},{"type":"Feature","geometry":{"type":"Point","coordinates":[-1.90093,53.25289]},"properties":{"name":"Buxton Sewage treatment works","category":"wastewater_plant","osm_type":"way","osm_id":"143539391","operator":"Seven Trent"}},{"type":"Feature","geometry":{"type":"Point","coordinates":[-1.53132,53.09954]},"properties":{"name":"Mapped water infrastructure","category":"wastewater_plant","osm_type":"way","osm_id":"143545621"}},{"type":"Feature","geometry":{"type":"Point","coordinates":[-1.90009,53.25238]},"properties":{"name":"Buxton (Duke's Drive) Sewage treatment works","category":"wastewater_plant","osm_type":"way","osm_id":"146469235","operator":"Seven Trent PLC"}},{"type":"Feature","geometry":{"type":"Point","coordinates":[-1.57436,53.37765]},"properties":{"name":"Rivelin Water Treatment Works","category":"water_works","osm_type":"way","osm_id":"149871286","operator":"Yorkshire Water"}},{"type":"Feature","geometry":{"type":"Point","coordinates":[-1.57398,53.40584]},"properties":{"name":"Dungworth/STW","category":"wastewater_plant","osm_type":"way","osm_id":"152479526","operator":"Yorkshire Water","ref":"SAI00002423"}},{"type":"Feature","geometry":{"type":"Point","coordinates":[-1.49979,53.01434]},"properties":{"name":"Mapped water infrastructure","category":"reservoir_covered","osm_type":"way","osm_id":"183730468"}},{"type":"Feature","geometry":{"type":"Point","coordinates":[-1.68354,53.06005]},"properties":{"name":"Mapped water infrastructure","category":"reservoir_covered","osm_type":"way","osm_id":"188395232"}},{"type":"Feature","geometry":{"type":"Point","coordinates":[-1.33897,53.17116]},"properties":{"name":"Asselby/STW","category":"wastewater_plant","osm_type":"way","osm_id":"190817726","operator":"Yorkshire Water","ref":"SAI00002041"}},{"type":"Feature","geometry":{"type":"Point","coordinates":[-1.36931,53.20462]},"properties":{"name":"Mapped water infrastructure","category":"wastewater_plant","osm_type":"way","osm_id":"199394818"}},{"type":"Feature","geometry":{"type":"Point","coordinates":[-1.80008,53.23508]},"properties":{"name":"Sough Top","category":"reservoir_covered","osm_type":"way","osm_id":"201661308"}},{"type":"Feature","geometry":{"type":"Point","coordinates":[-1.50885,53.44324]},"properties":{"name":"Grenoside Service Reservoir","category":"reservoir_covered","osm_type":"way","osm_id":"201937578"}},{"type":"Feature","geometry":{"type":"Point","coordinates":[-1.99631,53.4485]},"properties":{"name":"Glossop Wastewater Treatment Works","category":"wastewater_plant","osm_type":"way","osm_id":"203253204","operator":"United Utilities"}},{"type":"Feature","geometry":{"type":"Point","coordinates":[-1.87332,53.11916]},"properties":{"name":"Warslow (STW)","category":"wastewater_plant","osm_type":"way","osm_id":"215473288","operator":"Severn Trent","ref":"11581-ST1"}},{"type":"Feature","geometry":{"type":"Point","coordinates":[-1.42543,53.11932]},"properties":{"name":"Mapped water infrastructure","category":"pumping_station","osm_type":"way","osm_id":"220139709","operator":"Severn Trent"}},{"type":"Feature","geometry":{"type":"Point","coordinates":[-1.81541,53.36366]},"properties":{"name":"Edale (STW)","category":"wastewater_plant","osm_type":"way","osm_id":"222923138","operator":"Severn Trent","ref":"11602-ST1"}},{"type":"Feature","geometry":{"type":"Point","coordinates":[-1.62274,53.2429]},"properties":{"name":"Baslow (STW)","category":"wastewater_plant","osm_type":"way","osm_id":"226061578","operator":"Severn Trent","ref":"11593-ST1","addr:city":"Bakewell","addr:postcode":"DE45 1PG"}},{"type":"Feature","geometry":{"type":"Point","coordinates":[-1.55635,53.07835]},"properties":{"name":"Mapped water infrastructure","category":"reservoir_covered","osm_type":"way","osm_id":"228318202"}},{"type":"Feature","geometry":{"type":"Point","coordinates":[-1.32461,53.44781]},"properties":{"name":"Mapped water infrastructure","category":"water_tower","osm_type":"way","osm_id":"231230508"}},{"type":"Feature","geometry":{"type":"Point","coordinates":[-1.328,53.44982]},"properties":{"name":"Mapped water infrastructure","category":"water_tower","osm_type":"way","osm_id":"231230509"}},{"type":"Feature","geometry":{"type":"Point","coordinates":[-1.41358,53.26448]},"properties":{"name":"Mapped water infrastructure","category":"wastewater_plant","osm_type":"way","osm_id":"240398946"}},{"type":"Feature","geometry":{"type":"Point","coordinates":[-1.41879,53.06031]},"properties":{"name":"Ripley STW","category":"wastewater_plant","osm_type":"way","osm_id":"241736280","operator":"Severn Trent"}},{"type":"Feature","geometry":{"type":"Point","coordinates":[-1.72291,53.01031]},"properties":{"name":"Mapped water infrastructure","category":"reservoir_covered","osm_type":"way","osm_id":"253311572"}},{"type":"Feature","geometry":{"type":"Point","coordinates":[-1.72371,53.01001]},"properties":{"name":"Mapped water infrastructure","category":"reservoir_covered","osm_type":"way","osm_id":"253311574"}},{"type":"Feature","geometry":{"type":"Point","coordinates":[-1.6596,53.09423]},"properties":{"name":"Longcliffe","category":"reservoir_covered","osm_type":"way","osm_id":"254083173","operator":"Severn Trent Water"}},{"type":"Feature","geometry":{"type":"Point","coordinates":[-1.13857,53.21399]},"properties":{"name":"Burns Lane","category":"wastewater_plant","osm_type":"way","osm_id":"254153381","operator":"Severn Trent"}},{"type":"Feature","geometry":{"type":"Point","coordinates":[-1.1278,53.214]},"properties":{"name":"Sewage Treatment Works","category":"wastewater_plant","osm_type":"way","osm_id":"254154107"}},{"type":"Feature","geometry":{"type":"Point","coordinates":[-1.39427,53.16082]},"properties":{"name":"Danesmoor Sewage Works","category":"wastewater_plant","osm_type":"way","osm_id":"255381461"}},{"type":"Feature","geometry":{"type":"Point","coordinates":[-1.21324,53.25246]},"properties":{"name":"Creswell (STW)","category":"wastewater_plant","osm_type":"way","osm_id":"262144049","operator":"Severn Trent","ref":"17554-ST1"}},{"type":"Feature","geometry":{"type":"Point","coordinates":[-1.56309,53.47554]},"properties":{"name":"Mapped water infrastructure","category":"wastewater_plant","osm_type":"way","osm_id":"270645416"}},{"type":"Feature","geometry":{"type":"Point","coordinates":[-1.59639,53.15897]},"properties":{"name":"Four Lane Ends","category":"pumping_station","osm_type":"way","osm_id":"271930867","operator":"Severn Trent"}},{"type":"Feature","geometry":{"type":"Point","coordinates":[-1.64721,53.32206]},"properties":{"name":"Hathersage STW","category":"wastewater_plant","osm_type":"way","osm_id":"272984913","ref":"11607-ST1"}},{"type":"Feature","geometry":{"type":"Point","coordinates":[-1.17111,53.49286]},"properties":{"name":"Mapped water infrastructure","category":"wastewater_plant","osm_type":"way","osm_id":"273293638"}},{"type":"Feature","geometry":{"type":"Point","coordinates":[-1.6448,53.49464]},"properties":{"name":"Mapped water infrastructure","category":"pumping_station","osm_type":"way","osm_id":"276037157"}},{"type":"Feature","geometry":{"type":"Point","coordinates":[-1.40414,53.23555]},"properties":{"name":"Mapped water infrastructure","category":"reservoir_covered","osm_type":"way","osm_id":"279157720"}},{"type":"Feature","geometry":{"type":"Point","coordinates":[-1.35929,53.12295]},"properties":{"name":"Gloves Lane Sewage Pumping Station","category":"pumping_station","osm_type":"way","osm_id":"279477476","operator":"Severn Trent","addr:city":"Alfreton","addr:postcode":"DE55 5JJ"}},{"type":"Feature","geometry":{"type":"Point","coordinates":[-1.35528,53.19373]},"properties":{"name":"Mapped water infrastructure","category":"wastewater_plant","osm_type":"way","osm_id":"280981534"}},{"type":"Feature","geometry":{"type":"Point","coordinates":[-1.38317,53.1046]},"properties":{"name":"Alfreton Sewage Treatment Works","category":"wastewater_plant","osm_type":"way","osm_id":"281221599"}},{"type":"Feature","geometry":{"type":"Point","coordinates":[-1.426,53.19228]},"properties":{"name":"Nethermoor Road","category":"wastewater_plant","osm_type":"way","osm_id":"282691630","operator":"Severn Trent"}},{"type":"Feature","geometry":{"type":"Point","coordinates":[-1.54978,53.4473]},"properties":{"name":"Wharncliffe Side/STW","category":"wastewater_plant","osm_type":"way","osm_id":"283389956","operator":"Yorkshire Water","ref":"SAI00002616"}},{"type":"Feature","geometry":{"type":"Point","coordinates":[-1.55236,53.45611]},"properties":{"name":"Ewden Water Treatment Works","category":"water_works","osm_type":"way","osm_id":"283503104"}},{"type":"Feature","geometry":{"type":"Point","coordinates":[-1.55303,53.45864]},"properties":{"name":"Mapped water infrastructure","category":"wastewater_plant","osm_type":"way","osm_id":"283503106"}},{"type":"Feature","geometry":{"type":"Point","coordinates":[-1.03909,53.14537]},"properties":{"name":"Mapped water infrastructure","category":"wastewater_plant","osm_type":"way","osm_id":"286064653"}},{"type":"Feature","geometry":{"type":"Point","coordinates":[-1.01402,53.08471]},"properties":{"name":"Mapped water infrastructure","category":"reservoir_covered","osm_type":"way","osm_id":"286524903"}},{"type":"Feature","geometry":{"type":"Point","coordinates":[-1.30192,53.11889]},"properties":{"name":"Mapped water infrastructure","category":"wastewater_plant","osm_type":"way","osm_id":"286809107","operator":"Severn Trent Water"}},{"type":"Feature","geometry":{"type":"Point","coordinates":[-1.34583,53.07006]},"properties":{"name":"Pye Bridge Sewage Treatment Works","category":"wastewater_plant","osm_type":"way","osm_id":"286811193","operator":"Severn Trent","ref":"11310-ST1","addr:city":"Alfreton","addr:postcode":"DE55 4NZ"}},{"type":"Feature","geometry":{"type":"Point","coordinates":[-1.55992,53.45162]},"properties":{"name":"Mapped water infrastructure","category":"reservoir_covered","osm_type":"way","osm_id":"288458362"}},{"type":"Feature","geometry":{"type":"Point","coordinates":[-1.71522,53.0836]},"properties":{"name":"Parwich (STW)","category":"wastewater_plant","osm_type":"way","osm_id":"295391507","operator":"Severn Trent","ref":"11576-ST1"}},{"type":"Feature","geometry":{"type":"Point","coordinates":[-1.59644,53.15447]},"properties":{"name":"Darley Bridge Sewage Pumping Station","category":"pumping_station","osm_type":"way","osm_id":"297011139"}},{"type":"Feature","geometry":{"type":"Point","coordinates":[-1.19399,53.40917]},"properties":{"name":"Maltby Sewage Treatment Works","category":"wastewater_plant","osm_type":"way","osm_id":"301179188"}},{"type":"Feature","geometry":{"type":"Point","coordinates":[-1.44114,53.48052]},"properties":{"name":"Harley/STW","category":"wastewater_plant","osm_type":"way","osm_id":"301225436"}},{"type":"Feature","geometry":{"type":"Point","coordinates":[-1.18327,53.15285]},"properties":{"name":"Mapped water infrastructure","category":"wastewater_plant","osm_type":"way","osm_id":"301683351"}},{"type":"Feature","geometry":{"type":"Point","coordinates":[-1.43045,53.48517]},"properties":{"name":"Mapped water infrastructure","category":"wastewater_plant","osm_type":"way","osm_id":"301795214"}},{"type":"Feature","geometry":{"type":"Point","coordinates":[-1.29413,53.48713]},"properties":{"name":"Mapped water infrastructure","category":"wastewater_plant","osm_type":"way","osm_id":"302050834"}},{"type":"Feature","geometry":{"type":"Point","coordinates":[-1.27815,53.46652]},"properties":{"name":"Hooton Pagnell/STW","category":"wastewater_plant","osm_type":"way","osm_id":"302064331","operator":"Yorkshire Water","ref":"SAI00002467"}},{"type":"Feature","geometry":{"type":"Point","coordinates":[-1.21256,53.3936]},"properties":{"name":"Slade Hooton Sewage Treatment Works","category":"wastewater_plant","osm_type":"way","osm_id":"302458916"}},{"type":"Feature","geometry":{"type":"Point","coordinates":[-1.15861,53.3448]},"properties":{"name":"Mapped water infrastructure","category":"wastewater_plant","osm_type":"way","osm_id":"302566661"}},{"type":"Feature","geometry":{"type":"Point","coordinates":[-1.20668,53.32715]},"properties":{"name":"Mapped water infrastructure","category":"wastewater_plant","osm_type":"way","osm_id":"302618819"}},{"type":"Feature","geometry":{"type":"Point","coordinates":[-1.25843,53.31249]},"properties":{"name":"Harthill Service Reservoir","category":"reservoir_covered","osm_type":"way","osm_id":"302634059","operator":"Yorkshire Water"}},{"type":"Feature","geometry":{"type":"Point","coordinates":[-1.28468,53.31935]},"properties":{"name":"Mapped water infrastructure","category":"wastewater_plant","osm_type":"way","osm_id":"302780225"}},{"type":"Feature","geometry":{"type":"Point","coordinates":[-1.32559,53.37195]},"properties":{"name":"Mapped water infrastructure","category":"reservoir_covered","osm_type":"way","osm_id":"302823117"}},{"type":"Feature","geometry":{"type":"Point","coordinates":[-1.34952,53.36701]},"properties":{"name":"Mapped water infrastructure","category":"wastewater_plant","osm_type":"way","osm_id":"302887692"}},{"type":"Feature","geometry":{"type":"Point","coordinates":[-1.3394,53.39498]},"properties":{"name":"Mapped water infrastructure","category":"wastewater_plant","osm_type":"way","osm_id":"302895293"}},{"type":"Feature","geometry":{"type":"Point","coordinates":[-1.3511,53.41741]},"properties":{"name":"Mapped water infrastructure","category":"reservoir_covered","osm_type":"way","osm_id":"303040604"}},{"type":"Feature","geometry":{"type":"Point","coordinates":[-1.32812,53.44451]},"properties":{"name":"Mapped water infrastructure","category":"wastewater_plant","osm_type":"way","osm_id":"303048480"}},{"type":"Feature","geometry":{"type":"Point","coordinates":[-1.23659,53.1474]},"properties":{"name":"Mapped water infrastructure","category":"reservoir_covered","osm_type":"way","osm_id":"303737381"}},{"type":"Feature","geometry":{"type":"Point","coordinates":[-1.23644,53.14684]},"properties":{"name":"Mapped water infrastructure","category":"reservoir_covered","osm_type":"way","osm_id":"303737383"}},{"type":"Feature","geometry":{"type":"Point","coordinates":[-1.22391,53.46579]},"properties":{"name":"Clayton/STW","category":"wastewater_plant","osm_type":"way","osm_id":"303943558","operator":"Yorkshire Water","ref":"SAI00002393"}},{"type":"Feature","geometry":{"type":"Point","coordinates":[-1.25979,53.49225]},"properties":{"name":"Denaby WPC works","category":"wastewater_plant","osm_type":"way","osm_id":"304442655","operator":"Yorkshire Water","ref":"SAI00329473"}},{"type":"Feature","geometry":{"type":"Point","coordinates":[-1.18475,53.4938]},"properties":{"name":"Mapped water infrastructure","category":"reservoir_covered","osm_type":"way","osm_id":"304514456"}},{"type":"Feature","geometry":{"type":"Point","coordinates":[-1.24311,53.19676]},"properties":{"name":"Mapped water infrastructure","category":"water_works","osm_type":"way","osm_id":"304797605"}},{"type":"Feature","geometry":{"type":"Point","coordinates":[-1.18743,53.44529]},"properties":{"name":"Braithwell (STW)","category":"wastewater_plant","osm_type":"way","osm_id":"305541642","operator":"Severn Trent","ref":"11366-ST1"}},{"type":"Feature","geometry":{"type":"Point","coordinates":[-1.54136,53.48912]},"properties":{"name":"Mapped water infrastructure","category":"wastewater_plant","osm_type":"way","osm_id":"307469059"}},{"type":"Feature","geometry":{"type":"Point","coordinates":[-1.40147,53.0678]},"properties":{"name":"Mapped water infrastructure","category":"wastewater_plant","osm_type":"way","osm_id":"309138484"}},{"type":"Feature","geometry":{"type":"Point","coordinates":[-1.71225,53.28785]},"properties":{"name":"Foolow (STW)","category":"wastewater_plant","osm_type":"way","osm_id":"313296432","operator":"Severn Trent","ref":"11605-ST1"}},{"type":"Feature","geometry":{"type":"Point","coordinates":[-1.50955,53.2968]},"properties":{"name":"Mapped water infrastructure","category":"wastewater_plant","osm_type":"way","osm_id":"313588289"}},{"type":"Feature","geometry":{"type":"Point","coordinates":[-1.00446,53.49119]},"properties":{"name":"Mapped water infrastructure","category":"wastewater_plant","osm_type":"way","osm_id":"315164920"}},{"type":"Feature","geometry":{"type":"Point","coordinates":[-1.04003,53.49966]},"properties":{"name":"Branton (STW)","category":"wastewater_plant","osm_type":"way","osm_id":"315328037","operator":"Severn Trent","ref":"11367-ST1"}},{"type":"Feature","geometry":{"type":"Point","coordinates":[-1.86754,53.17868]},"properties":{"name":"Longnor South (STW)","category":"wastewater_plant","osm_type":"way","osm_id":"318262341","operator":"Severn Trent","ref":"18595-ST1"}},{"type":"Feature","geometry":{"type":"Point","coordinates":[-1.74138,53.0459]},"properties":{"name":"Mapped water infrastructure","category":"wastewater_plant","osm_type":"way","osm_id":"325763223"}},{"type":"Feature","geometry":{"type":"Point","coordinates":[-1.07993,53.42286]},"properties":{"name":"Harworth Sewage Works","category":"wastewater_plant","osm_type":"way","osm_id":"330524906","operator":"Severn Trent","ref":"11408-ST1"}},{"type":"Feature","geometry":{"type":"Point","coordinates":[-1.10232,53.37229]},"properties":{"name":"Hodsock (STW)","category":"wastewater_plant","osm_type":"way","osm_id":"332150234","operator":"Severn Trent","ref":"11509-ST1"}},{"type":"Feature","geometry":{"type":"Point","coordinates":[-1.45123,53.29666]},"properties":{"name":"Mapped water infrastructure","category":"wastewater_plant","osm_type":"way","osm_id":"334434482"}},{"type":"Feature","geometry":{"type":"Point","coordinates":[-1.4282,53.04368]},"properties":{"name":"Ripley - Street Lane North","category":"pumping_station","osm_type":"way","osm_id":"334624697"}},{"type":"Feature","geometry":{"type":"Point","coordinates":[-1.32941,53.299]},"properties":{"name":"Mapped water infrastructure","category":"wastewater_plant","osm_type":"way","osm_id":"334934384"}},{"type":"Feature","geometry":{"type":"Point","coordinates":[-1.97531,53.46867]},"properties":{"name":"Mapped water infrastructure","category":"wastewater_plant","osm_type":"way","osm_id":"335533008"}},{"type":"Feature","geometry":{"type":"Point","coordinates":[-1.98622,53.4718]},"properties":{"name":"Mapped water infrastructure","category":"water_works","osm_type":"way","osm_id":"335536634"}},{"type":"Feature","geometry":{"type":"Point","coordinates":[-1.9804,53.4695]},"properties":{"name":"Mapped water infrastructure","category":"water_works","osm_type":"way","osm_id":"335537275"}},{"type":"Feature","geometry":{"type":"Point","coordinates":[-1.08759,53.30579]},"properties":{"name":"Worksop - Manton (STW)","category":"wastewater_plant","osm_type":"way","osm_id":"335753712","operator":"Severn Trent","ref":"11488-ST1"}},{"type":"Feature","geometry":{"type":"Point","coordinates":[-1.49318,53.27701]},"properties":{"name":"Mapped water infrastructure","category":"wastewater_plant","osm_type":"way","osm_id":"337193987"}},{"type":"Feature","geometry":{"type":"Point","coordinates":[-1.14957,53.14304]},"properties":{"name":"Mapped water infrastructure","category":"wastewater_plant","osm_type":"way","osm_id":"340015094"}},{"type":"Feature","geometry":{"type":"Point","coordinates":[-1.5565,53.078]},"properties":{"name":"Mapped water infrastructure","category":"water_works","osm_type":"way","osm_id":"342560231"}},{"type":"Feature","geometry":{"type":"Point","coordinates":[-1.06523,53.05276]},"properties":{"name":"Mapped water infrastructure","category":"wastewater_plant","osm_type":"way","osm_id":"353630480"}},{"type":"Feature","geometry":{"type":"Point","coordinates":[-1.30067,53.04569]},"properties":{"name":"Selston Pumping Station","category":"pumping_station","osm_type":"way","osm_id":"367109935","operator":"Severn Trent"}},{"type":"Feature","geometry":{"type":"Point","coordinates":[-1.14414,53.06369]},"properties":{"name":"Mapped water infrastructure","category":"reservoir_covered","osm_type":"way","osm_id":"368447056","operator":"Severn Trent Water"}},{"type":"Feature","geometry":{"type":"Point","coordinates":[-1.48603,53.11467]},"properties":{"name":"Mapped water infrastructure","category":"reservoir_covered","osm_type":"way","osm_id":"368702812"}},{"type":"Feature","geometry":{"type":"Point","coordinates":[-1.48674,53.11427]},"properties":{"name":"Mapped water infrastructure","category":"reservoir_covered","osm_type":"way","osm_id":"368702817"}},{"type":"Feature","geometry":{"type":"Point","coordinates":[-1.48645,53.11434]},"properties":{"name":"Mapped water infrastructure","category":"reservoir_covered","osm_type":"way","osm_id":"368702819"}},{"type":"Feature","geometry":{"type":"Point","coordinates":[-1.7531,53.30384]},"properties":{"name":"Little Hucklow (STW)","category":"wastewater_plant","osm_type":"way","osm_id":"368753999","operator":"Severn Trent","ref":"11627-ST1"}},{"type":"Feature","geometry":{"type":"Point","coordinates":[-1.46858,53.03797]},"properties":{"name":"Mapped water infrastructure","category":"reservoir_covered","osm_type":"way","osm_id":"369395076","operator":"Severn Trent Water"}},{"type":"Feature","geometry":{"type":"Point","coordinates":[-1.40565,53.27048]},"properties":{"name":"New Whittington Waste Water Pumping Station","category":"pumping_station","osm_type":"way","osm_id":"376520285"}},{"type":"Feature","geometry":{"type":"Point","coordinates":[-1.46278,53.06872]},"properties":{"name":"Fritchley (STW)","category":"wastewater_plant","osm_type":"way","osm_id":"388284704","operator":"Severn Trent","ref":"11638-ST1"}},{"type":"Feature","geometry":{"type":"Point","coordinates":[-1.67761,53.25071]},"properties":{"name":"Rowland","category":"reservoir_covered","osm_type":"way","osm_id":"388761816"}},{"type":"Feature","geometry":{"type":"Point","coordinates":[-1.57734,53.06705]},"properties":{"name":"Wirksworth (STW)","category":"wastewater_plant","osm_type":"way","osm_id":"392150887","operator":"Severn Trent","ref":"11584-ST1"}},{"type":"Feature","geometry":{"type":"Point","coordinates":[-1.73462,53.21675]},"properties":{"name":"Sheldon","category":"wastewater_plant","osm_type":"way","osm_id":"402000526"}},{"type":"Feature","geometry":{"type":"Point","coordinates":[-1.61842,53.16194]},"properties":{"name":"Mapped water infrastructure","category":"wastewater_plant","osm_type":"way","osm_id":"412321203"}},{"type":"Feature","geometry":{"type":"Point","coordinates":[-1.50871,53.22044]},"properties":{"name":"Whispering Well","category":"reservoir_covered","osm_type":"way","osm_id":"419889710"}},{"type":"Feature","geometry":{"type":"Point","coordinates":[-1.34952,53.36701]},"properties":{"name":"Woodhouse Mill No 2 Sewage Treatment Works","category":"wastewater_plant","osm_type":"way","osm_id":"419932659","operator":"Yorkshire Water","ref":"SAI00522087"}},{"type":"Feature","geometry":{"type":"Point","coordinates":[-1.12709,53.2216]},"properties":{"name":"Mapped water infrastructure","category":"pumping_station","osm_type":"way","osm_id":"421793710"}},{"type":"Feature","geometry":{"type":"Point","coordinates":[-1.961,53.38146]},"properties":{"name":"Hayfield Wastewater Treatment Works","category":"wastewater_plant","osm_type":"way","osm_id":"422234732","operator":"United Utilities"}},{"type":"Feature","geometry":{"type":"Point","coordinates":[-1.53734,53.4941]},"properties":{"name":"Mapped water infrastructure","category":"reservoir_covered","osm_type":"way","osm_id":"431875076"}},{"type":"Feature","geometry":{"type":"Point","coordinates":[-1.32474,53.18261]},"properties":{"name":"Sproxton/STW","category":"wastewater_plant","osm_type":"way","osm_id":"438306145","operator":"Yorkshire Water","ref":"SAI00002271"}},{"type":"Feature","geometry":{"type":"Point","coordinates":[-1.81989,53.23805]},"properties":{"name":"Mapped water infrastructure","category":"wastewater_plant","osm_type":"way","osm_id":"439920219"}},{"type":"Feature","geometry":{"type":"Point","coordinates":[-1.64005,53.1824]},"properties":{"name":"Mapped water infrastructure","category":"wastewater_plant","osm_type":"way","osm_id":"455713332"}},{"type":"Feature","geometry":{"type":"Point","coordinates":[-1.1107,53.12668]},"properties":{"name":"Mapped water infrastructure","category":"wastewater_plant","osm_type":"way","osm_id":"464508244"}},{"type":"Feature","geometry":{"type":"Point","coordinates":[-1.78216,53.13218]},"properties":{"name":"Biggin (STW)","category":"wastewater_plant","osm_type":"way","osm_id":"487989132","operator":"Severn Trent","ref":"11564-ST1"}},{"type":"Feature","geometry":{"type":"Point","coordinates":[-1.02844,53.23367]},"properties":{"name":"Perlethorpe (STW)","category":"wastewater_plant","osm_type":"way","osm_id":"489649058","operator":"Severn Trent","ref":"11307-ST1"}},{"type":"Feature","geometry":{"type":"Point","coordinates":[-1.32974,53.08074]},"properties":{"name":"Pinxton Sewage Treatment Works","category":"wastewater_plant","osm_type":"way","osm_id":"503886011","operator":"Severn Trent","ref":"11309-ST1"}},{"type":"Feature","geometry":{"type":"Point","coordinates":[-1.47301,53.06041]},"properties":{"name":"Ambergate (STW)","category":"wastewater_plant","osm_type":"way","osm_id":"504766074","operator":"Severn Trent","ref":"11631-ST1"}},{"type":"Feature","geometry":{"type":"Point","coordinates":[-1.5023,53.08278]},"properties":{"name":"Whatstandwell (STW)","category":"wastewater_plant","osm_type":"way","osm_id":"519116939","operator":"Severn Trent","ref":"11650-ST1"}},{"type":"Feature","geometry":{"type":"Point","coordinates":[-1.30821,53.11937]},"properties":{"name":"Mapped water infrastructure","category":"wastewater_plant","osm_type":"way","osm_id":"520780785"}},{"type":"Feature","geometry":{"type":"Point","coordinates":[-1.33055,53.05436]},"properties":{"name":"Mapped water infrastructure","category":"wastewater_plant","osm_type":"way","osm_id":"527017884"}},{"type":"Feature","geometry":{"type":"Point","coordinates":[-1.62988,53.01648]},"properties":{"name":"Hulland Ward SPS","category":"pumping_station","osm_type":"way","osm_id":"531346539","operator":"Severn Trent"}},{"type":"Feature","geometry":{"type":"Point","coordinates":[-1.59844,53.3664]},"properties":{"name":"Mapped water infrastructure","category":"water_works","osm_type":"way","osm_id":"535135453"}},{"type":"Feature","geometry":{"type":"Point","coordinates":[-1.14058,53.09219]},"properties":{"name":"Fishpool","category":"pumping_station","osm_type":"way","osm_id":"542837369","operator":"Severn Trent Water"}},{"type":"Feature","geometry":{"type":"Point","coordinates":[-1.48608,53.08509]},"properties":{"name":"Mapped water infrastructure","category":"reservoir_covered","osm_type":"way","osm_id":"575027167"}},{"type":"Feature","geometry":{"type":"Point","coordinates":[-1.56143,53.41015]},"properties":{"name":"Mapped water infrastructure","category":"reservoir_covered","osm_type":"way","osm_id":"577712428"}},{"type":"Feature","geometry":{"type":"Point","coordinates":[-1.03447,53.05953]},"properties":{"name":"Mapped water infrastructure","category":"reservoir_covered","osm_type":"way","osm_id":"582525944"}},{"type":"Feature","geometry":{"type":"Point","coordinates":[-1.15008,53.37589]},"properties":{"name":"Letwell Sewage Treatment Works","category":"wastewater_plant","osm_type":"way","osm_id":"584294958"}},{"type":"Feature","geometry":{"type":"Point","coordinates":[-1.59501,53.43042]},"properties":{"name":"Mapped water infrastructure","category":"reservoir_covered","osm_type":"way","osm_id":"595205497"}},{"type":"Feature","geometry":{"type":"Point","coordinates":[-1.58436,53.43254]},"properties":{"name":"Mapped water infrastructure","category":"reservoir_covered","osm_type":"way","osm_id":"595789993"}},{"type":"Feature","geometry":{"type":"Point","coordinates":[-1.58441,53.43234]},"properties":{"name":"Mapped water infrastructure","category":"reservoir_covered","osm_type":"way","osm_id":"595789995"}},{"type":"Feature","geometry":{"type":"Point","coordinates":[-1.41692,53.44773]},"properties":{"name":"Keppels","category":"reservoir_covered","osm_type":"way","osm_id":"666545924"}},{"type":"Feature","geometry":{"type":"Point","coordinates":[-1.57918,53.12986]},"properties":{"name":"Mapped water infrastructure","category":"reservoir_covered","osm_type":"way","osm_id":"675853257"}},{"type":"Feature","geometry":{"type":"Point","coordinates":[-1.67937,53.34501]},"properties":{"name":"Bamford Water Treatment Works","category":"water_works","osm_type":"way","osm_id":"687816799","operator":"Severn Trent Water"}},{"type":"Feature","geometry":{"type":"Point","coordinates":[-1.2061,53.025]},"properties":{"name":"Mapped water infrastructure","category":"pumping_station","osm_type":"way","osm_id":"697159851"}},{"type":"Feature","geometry":{"type":"Point","coordinates":[-1.13423,53.49373]},"properties":{"name":"Mapped water infrastructure","category":"pumping_station","osm_type":"way","osm_id":"701021101"}},{"type":"Feature","geometry":{"type":"Point","coordinates":[-1.07808,53.4746]},"properties":{"name":"Mapped water infrastructure","category":"water_tower","osm_type":"way","osm_id":"701341719"}},{"type":"Feature","geometry":{"type":"Point","coordinates":[-1.99583,53.48758]},"properties":{"name":"Mapped water infrastructure","category":"pumping_station","osm_type":"way","osm_id":"779355146"}},{"type":"Feature","geometry":{"type":"Point","coordinates":[-1.35413,53.4684]},"properties":{"name":"Monkwood Service Reservoir","category":"reservoir_covered","osm_type":"way","osm_id":"782678383"}},{"type":"Feature","geometry":{"type":"Point","coordinates":[-1.4046,53.19227]},"properties":{"name":"Tupton Sewage Treatment Works","category":"wastewater_plant","osm_type":"way","osm_id":"788032287","operator":"Yorkshire Water"}},{"type":"Feature","geometry":{"type":"Point","coordinates":[-1.54401,53.35271]},"properties":{"name":"Ringinglow Service Reservior","category":"reservoir_covered","osm_type":"way","osm_id":"803452505","operator":"Yorkshire Water"}},{"type":"Feature","geometry":{"type":"Point","coordinates":[-1.61239,53.46934]},"properties":{"name":"Stocksbridge Hunger Hill Service Reservoir","category":"reservoir_covered","osm_type":"way","osm_id":"804352546"}},{"type":"Feature","geometry":{"type":"Point","coordinates":[-1.54709,53.42236]},"properties":{"name":"Mapped water infrastructure","category":"reservoir_covered","osm_type":"way","osm_id":"807331111"}},{"type":"Feature","geometry":{"type":"Point","coordinates":[-1.0004,53.49133]},"properties":{"name":"Ex Raf Finningley STW","category":"wastewater_plant","osm_type":"way","osm_id":"815289746","operator":"Anglian Water","ref":"FRAFST"}},{"type":"Feature","geometry":{"type":"Point","coordinates":[-1.11761,53.0859]},"properties":{"name":"Mapped water infrastructure","category":"pumping_station","osm_type":"way","osm_id":"838936751"}},{"type":"Feature","geometry":{"type":"Point","coordinates":[-1.50392,53.46967]},"properties":{"name":"Mapped water infrastructure","category":"reservoir_covered","osm_type":"way","osm_id":"881958310"}},{"type":"Feature","geometry":{"type":"Point","coordinates":[-1.32623,53.37252]},"properties":{"name":"Mapped water infrastructure","category":"reservoir_covered","osm_type":"way","osm_id":"893173203"}},{"type":"Feature","geometry":{"type":"Point","coordinates":[-1.94252,53.24205]},"properties":{"name":"Mapped water infrastructure","category":"reservoir_covered","osm_type":"way","osm_id":"903019159"}},{"type":"Feature","geometry":{"type":"Point","coordinates":[-1.24203,53.07907]},"properties":{"name":"Annesley Sewage Puming Station","category":"wastewater_plant","osm_type":"way","osm_id":"905965431"}},{"type":"Feature","geometry":{"type":"Point","coordinates":[-1.65723,53.05777]},"properties":{"name":"Mapped water infrastructure","category":"reservoir_covered","osm_type":"way","osm_id":"907747223"}},{"type":"Feature","geometry":{"type":"Point","coordinates":[-1.51749,53.40712]},"properties":{"name":"Mapped water infrastructure","category":"reservoir_covered","osm_type":"way","osm_id":"908474454"}},{"type":"Feature","geometry":{"type":"Point","coordinates":[-1.51682,53.40781]},"properties":{"name":"Mapped water infrastructure","category":"reservoir_covered","osm_type":"way","osm_id":"908474455"}},{"type":"Feature","geometry":{"type":"Point","coordinates":[-1.35178,53.41758]},"properties":{"name":"Mapped water infrastructure","category":"reservoir_covered","osm_type":"way","osm_id":"910476066"}},{"type":"Feature","geometry":{"type":"Point","coordinates":[-1.35041,53.41758]},"properties":{"name":"Mapped water infrastructure","category":"reservoir_covered","osm_type":"way","osm_id":"910476068"}},{"type":"Feature","geometry":{"type":"Point","coordinates":[-1.4326,53.3059]},"properties":{"name":"Bentley","category":"reservoir_covered","osm_type":"way","osm_id":"910944621","operator":"Severn Trent"}},{"type":"Feature","geometry":{"type":"Point","coordinates":[-1.12335,53.1208]},"properties":{"name":"Rainworth Pumping Station","category":"pumping_station","osm_type":"way","osm_id":"911517976"}},{"type":"Feature","geometry":{"type":"Point","coordinates":[-1.06212,53.03485]},"properties":{"name":"Mapped water infrastructure","category":"wastewater_plant","osm_type":"way","osm_id":"931180853"}},{"type":"Feature","geometry":{"type":"Point","coordinates":[-1.13351,53.01664]},"properties":{"name":"Redhill Reservoir","category":"reservoir_covered","osm_type":"way","osm_id":"935566259","operator":"Severn Trent Water"}},{"type":"Feature","geometry":{"type":"Point","coordinates":[-1.47108,53.01447]},"properties":{"name":"Mapped water infrastructure","category":"reservoir_covered","osm_type":"way","osm_id":"943927821"}},{"type":"Feature","geometry":{"type":"Point","coordinates":[-1.21977,53.45636]},"properties":{"name":"Clifton SRE","category":"reservoir_covered","osm_type":"way","osm_id":"951734636"}},{"type":"Feature","geometry":{"type":"Point","coordinates":[-1.22113,53.48749]},"properties":{"name":"Burcroft Sewage Pumping Station","category":"pumping_station","osm_type":"way","osm_id":"958211153","operator":"Yorkshire Water"}},{"type":"Feature","geometry":{"type":"Point","coordinates":[-1.2296,53.49759]},"properties":{"name":"Cadeby WWTW","category":"wastewater_plant","osm_type":"way","osm_id":"958253618"}},{"type":"Feature","geometry":{"type":"Point","coordinates":[-1.93884,53.43466]},"properties":{"name":"Mapped water infrastructure","category":"reservoir_covered","osm_type":"way","osm_id":"962298527"}},{"type":"Feature","geometry":{"type":"Point","coordinates":[-1.20391,53.48926]},"properties":{"name":"Mapped water infrastructure","category":"reservoir_covered","osm_type":"way","osm_id":"963563635"}},{"type":"Feature","geometry":{"type":"Point","coordinates":[-1.40992,53.06006]},"properties":{"name":"Mapped water infrastructure","category":"pumping_station","osm_type":"way","osm_id":"977556132"}},{"type":"Feature","geometry":{"type":"Point","coordinates":[-1.43205,53.09313]},"properties":{"name":"South Wingfield STW","category":"wastewater_plant","osm_type":"way","osm_id":"979785931","operator":"Severn Trent","ref":"11644-ST1"}},{"type":"Feature","geometry":{"type":"Point","coordinates":[-1.4145,53.0463]},"properties":{"name":"Mapped water infrastructure","category":"pumping_station","osm_type":"way","osm_id":"981349149"}},{"type":"Feature","geometry":{"type":"Point","coordinates":[-1.97409,53.47587]},"properties":{"name":"Mapped water infrastructure","category":"reservoir_covered","osm_type":"way","osm_id":"984754291"}},{"type":"Feature","geometry":{"type":"Point","coordinates":[-1.70885,53.35269]},"properties":{"name":"Mapped water infrastructure","category":"reservoir_covered","osm_type":"way","osm_id":"984862678"}},{"type":"Feature","geometry":{"type":"Point","coordinates":[-1.44632,53.03717]},"properties":{"name":"Mapped water infrastructure","category":"pumping_station","osm_type":"way","osm_id":"989201578"}},{"type":"Feature","geometry":{"type":"Point","coordinates":[-1.22784,53.36651]},"properties":{"name":"Mapped water infrastructure","category":"pumping_station","osm_type":"way","osm_id":"993324856"}},{"type":"Feature","geometry":{"type":"Point","coordinates":[-1.22868,53.36876]},"properties":{"name":"Dinnington (STW)","category":"wastewater_plant","osm_type":"way","osm_id":"993324857","operator":"Severn Trent","ref":"11373-ST1"}},{"type":"Feature","geometry":{"type":"Point","coordinates":[-1.45606,53.04933]},"properties":{"name":"Heage (STW)","category":"wastewater_plant","osm_type":"way","osm_id":"995403825","operator":"Severn Trent","ref":"11640-ST1"}},{"type":"Feature","geometry":{"type":"Point","coordinates":[-1.48313,53.16241]},"properties":{"name":"Ashover (STW)","category":"wastewater_plant","osm_type":"way","osm_id":"1005021221","operator":"Severn Trent","ref":"11633-ST1"}},{"type":"Feature","geometry":{"type":"Point","coordinates":[-1.77429,53.23539]},"properties":{"name":"Taddington (STW)","category":"wastewater_plant","osm_type":"way","osm_id":"1007432720","operator":"Severn Trent","ref":"11612-ST1"}},{"type":"Feature","geometry":{"type":"Point","coordinates":[-1.73153,53.3367]},"properties":{"name":"Bradwell (STW)","category":"wastewater_plant","osm_type":"way","osm_id":"1015254694","operator":"Severn Trent Water","ref":"11594-ST1"}},{"type":"Feature","geometry":{"type":"Point","coordinates":[-1.90552,53.00775]},"properties":{"name":"Cotton (STW)","category":"wastewater_plant","osm_type":"way","osm_id":"1032386625","operator":"Severn Trent","ref":"10484-ST1"}},{"type":"Feature","geometry":{"type":"Point","coordinates":[-1.80688,53.28612]},"properties":{"name":"Wheston (STW)","category":"wastewater_plant","osm_type":"way","osm_id":"1032498102","operator":"Severn Trent Water","ref":"11614-ST1"}},{"type":"Feature","geometry":{"type":"Point","coordinates":[-1.73507,53.29432]},"properties":{"name":"Great Hucklow (STW)","category":"wastewater_plant","osm_type":"way","osm_id":"1032502911","operator":"Severn Trent Water","ref":"11606-ST1"}},{"type":"Feature","geometry":{"type":"Point","coordinates":[-1.59917,53.04533]},"properties":{"name":"Kirk Ireton (STW)","category":"wastewater_plant","osm_type":"way","osm_id":"1035014147","operator":"Severn Trent Water","ref":"11621-ST1"}},{"type":"Feature","geometry":{"type":"Point","coordinates":[-1.65881,53.08076]},"properties":{"name":"Brassington (STW)","category":"wastewater_plant","osm_type":"way","osm_id":"1039558117","operator":"Severn Trent","ref":"11566-ST1"}},{"type":"Feature","geometry":{"type":"Point","coordinates":[-1.49066,53.02829]},"properties":{"name":"Mapped water infrastructure","category":"pumping_station","osm_type":"way","osm_id":"1040256296","operator":"Severn Trent"}},{"type":"Feature","geometry":{"type":"Point","coordinates":[-1.54891,53.01539]},"properties":{"name":"Turnditch (STW)","category":"wastewater_plant","osm_type":"way","osm_id":"1046104307","operator":"Severn Trent","ref":"11647-ST1"}},{"type":"Feature","geometry":{"type":"Point","coordinates":[-1.56874,53.03373]},"properties":{"name":"Idridgehay (STW)","category":"wastewater_plant","osm_type":"way","osm_id":"1046206201","operator":"Severn Trent","ref":"11619-ST1"}},{"type":"Feature","geometry":{"type":"Point","coordinates":[-1.64783,53.0464]},"properties":{"name":"Hognaston (STW)","category":"wastewater_plant","osm_type":"way","osm_id":"1046207173","operator":"Severn Trent","ref":"11618-ST1"}},{"type":"Feature","geometry":{"type":"Point","coordinates":[-1.69235,53.04054]},"properties":{"name":"Kniveton (STW)","category":"wastewater_plant","osm_type":"way","osm_id":"1046207684","operator":"Severn Trent","ref":"11625-ST1"}},{"type":"Feature","geometry":{"type":"Point","coordinates":[-1.14162,53.23871]},"properties":{"name":"Norton (STW)","category":"wastewater_plant","osm_type":"way","osm_id":"1046690013","operator":"Severn Trent","ref":"11306-ST1"}},{"type":"Feature","geometry":{"type":"Point","coordinates":[-1.20145,53.20131]},"properties":{"name":"Shirebrook (STW)","category":"wastewater_plant","osm_type":"way","osm_id":"1046690895","operator":"Severn Trent","ref":"11315-ST1"}},{"type":"Feature","geometry":{"type":"Point","coordinates":[-1.18478,53.22662]},"properties":{"name":"Nether Langwith (STW)","category":"wastewater_plant","osm_type":"way","osm_id":"1046691683","operator":"Severn Trent","ref":"11326-ST1"}},{"type":"Feature","geometry":{"type":"Point","coordinates":[-1.00648,53.27615]},"properties":{"name":"Elkesley STW","category":"wastewater_plant","osm_type":"way","osm_id":"1046799957","operator":"Anglian Water","ref":"ELKEST"}},{"type":"Feature","geometry":{"type":"Point","coordinates":[-1.25355,53.21199]},"properties":{"name":"Scarcliffe (STW)","category":"wastewater_plant","osm_type":"way","osm_id":"1046801454","operator":"Severn Trent","ref":"11314-ST1"}},{"type":"Feature","geometry":{"type":"Point","coordinates":[-1.17793,53.28421]},"properties":{"name":"Hodthorpe (STW)","category":"wastewater_plant","osm_type":"way","osm_id":"1046835060","operator":"Severn Trent","ref":"11324-ST1"}},{"type":"Feature","geometry":{"type":"Point","coordinates":[-1.19549,53.27542]},"properties":{"name":"Whitwell (STW)","category":"wastewater_plant","osm_type":"way","osm_id":"1046835283","operator":"Severn Trent","ref":"18196-ST1"}},{"type":"Feature","geometry":{"type":"Point","coordinates":[-1.31374,53.291]},"properties":{"name":"Stave Low Common/STW","category":"wastewater_plant","osm_type":"way","osm_id":"1046852719","operator":"Yorkshire Water","ref":"SAI00002493"}},{"type":"Feature","geometry":{"type":"Point","coordinates":[-1.3752,53.13293]},"properties":{"name":"Westwood Brook (STW)","category":"wastewater_plant","osm_type":"way","osm_id":"1049153192","operator":"Severn Trent","ref":"11649-ST1"}},{"type":"Feature","geometry":{"type":"Point","coordinates":[-1.42147,53.15622]},"properties":{"name":"Clay Cross (STW)","category":"wastewater_plant","osm_type":"way","osm_id":"1049153929","operator":"Severn Trent","ref":"11636-ST1"}},{"type":"Feature","geometry":{"type":"Point","coordinates":[-1.72803,53.30008]},"properties":{"name":"Mapped water infrastructure","category":"reservoir_covered","osm_type":"way","osm_id":"1076616751"}},{"type":"Feature","geometry":{"type":"Point","coordinates":[-1.99581,53.37145]},"properties":{"name":"Mapped water infrastructure","category":"wastewater_plant","osm_type":"way","osm_id":"1078581438"}},{"type":"Feature","geometry":{"type":"Point","coordinates":[-1.38265,53.48284]},"properties":{"name":"Hoober Reservoir","category":"reservoir_covered","osm_type":"way","osm_id":"1090431067"}},{"type":"Feature","geometry":{"type":"Point","coordinates":[-1.61619,53.02619]},"properties":{"name":"Hulland Ward (STW)","category":"wastewater_plant","osm_type":"way","osm_id":"1103636435","operator":"Severn Trent","ref":"11617-ST1"}},{"type":"Feature","geometry":{"type":"Point","coordinates":[-1.88898,53.02922]},"properties":{"name":"Mapped water infrastructure","category":"reservoir_covered","osm_type":"way","osm_id":"1106837362"}},{"type":"Feature","geometry":{"type":"Point","coordinates":[-1.52941,53.49389]},"properties":{"name":"Wortley East/STW","category":"wastewater_plant","osm_type":"way","osm_id":"1107061907","operator":"Yorkshire Water","ref":"SAI00002633"}},{"type":"Feature","geometry":{"type":"Point","coordinates":[-1.83385,53.09544]},"properties":{"name":"Wetton (STW)","category":"wastewater_plant","osm_type":"way","osm_id":"1112153341","operator":"Severn Trent","ref":"11583-ST1"}},{"type":"Feature","geometry":{"type":"Point","coordinates":[-1.80156,53.21177]},"properties":{"name":"Flagg (STW)","category":"wastewater_plant","osm_type":"way","osm_id":"1112154043","operator":"Seven Trent","ref":"11604-ST1"}},{"type":"Feature","geometry":{"type":"Point","coordinates":[-1.0056,53.09628]},"properties":{"name":"Mapped water infrastructure","category":"pumping_station","osm_type":"way","osm_id":"1126457776"}},{"type":"Feature","geometry":{"type":"Point","coordinates":[-1.60012,53.36794]},"properties":{"name":"Mapped water infrastructure","category":"reservoir_covered","osm_type":"way","osm_id":"1155615729","operator":"Yorkshire Water"}},{"type":"Feature","geometry":{"type":"Point","coordinates":[-1.45504,53.338]},"properties":{"name":"Mapped water infrastructure","category":"reservoir_covered","osm_type":"way","osm_id":"1158800576"}},{"type":"Feature","geometry":{"type":"Point","coordinates":[-1.81016,53.09932]},"properties":{"name":"Alstonfield (STW)","category":"wastewater_plant","osm_type":"way","osm_id":"1207538773","operator":"Severn Trent","ref":"11561-ST1"}},{"type":"Feature","geometry":{"type":"Point","coordinates":[-1.10497,53.3046]},"properties":{"name":"Disused Sewage Works","category":"pumping_station","osm_type":"way","osm_id":"1211352390"}},{"type":"Feature","geometry":{"type":"Point","coordinates":[-1.52593,53.23388]},"properties":{"name":"Upsall/STW","category":"wastewater_plant","osm_type":"way","osm_id":"1217598560","operator":"Yorkshire Water","ref":"SAI00001995"}},{"type":"Feature","geometry":{"type":"Point","coordinates":[-1.25859,53.0062]},"properties":{"name":"Watnall Reservoir","category":"reservoir_covered","osm_type":"way","osm_id":"1267378187","operator":"Severn Trent Water"}},{"type":"Feature","geometry":{"type":"Point","coordinates":[-1.0332,53.0596]},"properties":{"name":"Mapped water infrastructure","category":"reservoir_covered","osm_type":"way","osm_id":"1283920263"}},{"type":"Feature","geometry":{"type":"Point","coordinates":[-1.39622,53.04007]},"properties":{"name":"Mapped water infrastructure","category":"pumping_station","osm_type":"way","osm_id":"1291544610","operator":"Severn Trent"}},{"type":"Feature","geometry":{"type":"Point","coordinates":[-1.28389,53.22383]},"properties":{"name":"Mapped water infrastructure","category":"water_tower","osm_type":"way","osm_id":"1293036853"}},{"type":"Feature","geometry":{"type":"Point","coordinates":[-1.48201,53.15429]},"properties":{"name":"Ashover - Overton Hall (STW)","category":"wastewater_plant","osm_type":"way","osm_id":"1294484007","operator":"Severn Trent","ref":"11642-ST1"}},{"type":"Feature","geometry":{"type":"Point","coordinates":[-1.49758,53.16718]},"properties":{"name":"Kelstedge (STW)","category":"wastewater_plant","osm_type":"way","osm_id":"1294484110","operator":"Severn Trent","ref":"11652-ST1"}},{"type":"Feature","geometry":{"type":"Point","coordinates":[-1.3401,53.48842]},"properties":{"name":"Wath Wood Reservoir","category":"reservoir_covered","osm_type":"way","osm_id":"1338283667","operator":"Yorkshire Water"}},{"type":"Feature","geometry":{"type":"Point","coordinates":[-1.00138,53.0062]},"properties":{"name":"Mapped water infrastructure","category":"pumping_station","osm_type":"way","osm_id":"1366060657"}},{"type":"Feature","geometry":{"type":"Point","coordinates":[-1.04201,53.47718]},"properties":{"name":"Mapped water infrastructure","category":"water_tower","osm_type":"way","osm_id":"1368484122"}},{"type":"Feature","geometry":{"type":"Point","coordinates":[-1.38479,53.49042]},"properties":{"name":"Lastingham/STW","category":"wastewater_plant","osm_type":"way","osm_id":"1388788884","operator":"Yorkshire Water","ref":"SAI00002187"}},{"type":"Feature","geometry":{"type":"Point","coordinates":[-1.40573,53.29029]},"properties":{"name":"West Haddlesey/STW","category":"wastewater_plant","osm_type":"way","osm_id":"1393854380","operator":"Yorkshire Water","ref":"SAI00194930"}},{"type":"Feature","geometry":{"type":"Point","coordinates":[-1.88914,53.10314]},"properties":{"name":"Butterton (STW)","category":"wastewater_plant","osm_type":"way","osm_id":"1409218082","operator":"Severn Trent","ref":"17788-ST1"}},{"type":"Feature","geometry":{"type":"Point","coordinates":[-1.24619,53.25742]},"properties":{"name":"Elmton (STW)","category":"wastewater_plant","osm_type":"way","osm_id":"1413861447","operator":"Severn Trent","ref":"11305-ST1"}},{"type":"Feature","geometry":{"type":"Point","coordinates":[-1.23369,53.40932]},"properties":{"name":"Carr (STW)","category":"wastewater_plant","osm_type":"way","osm_id":"1414723835","operator":"Severn Trent","ref":"14953-ST2"}},{"type":"Feature","geometry":{"type":"Point","coordinates":[-1.84774,53.22838]},"properties":{"name":"Chelmorton (STW)","category":"wastewater_plant","osm_type":"way","osm_id":"1415863765","operator":"Severn Trent","ref":"11597-ST1"}},{"type":"Feature","geometry":{"type":"Point","coordinates":[-1.68005,53.24659]},"properties":{"name":"Rowland (STW)","category":"wastewater_plant","osm_type":"way","osm_id":"1416527675","operator":"Severn Trent","ref":"11609-ST1"}},{"type":"Feature","geometry":{"type":"Point","coordinates":[-1.73824,53.40023]},"properties":{"name":"Jubilee Cottages (STW)","category":"wastewater_plant","osm_type":"way","osm_id":"1420950884","operator":"Severn Trent","ref":"14695-ST1"}},{"type":"Feature","geometry":{"type":"Point","coordinates":[-1.30862,53.24377]},"properties":{"name":"Chesterfield Rd/STW","category":"wastewater_plant","osm_type":"way","osm_id":"1426350647","operator":"Yorkshire Water","ref":"SAI00002389"}},{"type":"Feature","geometry":{"type":"Point","coordinates":[-1.64402,53.49344]},"properties":{"name":"Old Cottages/STW","category":"wastewater_plant","osm_type":"way","osm_id":"1428945244","operator":"Yorkshire Water","ref":"SAI00002519"}},{"type":"Feature","geometry":{"type":"Point","coordinates":[-1.96033,53.01799]},"properties":{"name":"Mapped water infrastructure","category":"pumping_station","osm_type":"way","osm_id":"1435843987","operator":"Severn Trent"}},{"type":"Feature","geometry":{"type":"Point","coordinates":[-1.11279,53.02888]},"properties":{"name":"Mapped water infrastructure","category":"reservoir_covered","osm_type":"way","osm_id":"1464459920"}},{"type":"Feature","geometry":{"type":"Point","coordinates":[-1.11243,53.02968]},"properties":{"name":"Mapped water infrastructure","category":"reservoir_covered","osm_type":"way","osm_id":"1464459921"}},{"type":"Feature","geometry":{"type":"Point","coordinates":[-1.76541,53.35592]},"properties":{"name":"Mapped water infrastructure","category":"reservoir_covered","osm_type":"way","osm_id":"1474267414"}},{"type":"Feature","geometry":{"type":"Point","coordinates":[-1.3575,53.38092]},"properties":{"name":"Mapped water infrastructure","category":"pumping_station","osm_type":"way","osm_id":"1487700670"}},{"type":"Feature","geometry":{"type":"Point","coordinates":[-1.43455,53.3552]},"properties":{"name":"Mapped water infrastructure","category":"reservoir_covered","osm_type":"way","osm_id":"1490089981"}},{"type":"Feature","geometry":{"type":"Point","coordinates":[-1.24012,53.4866]},"properties":{"name":"Denaby Reservoir","category":"reservoir_covered","osm_type":"way","osm_id":"1499454230"}},{"type":"Feature","geometry":{"type":"Point","coordinates":[-1.50294,53.38256]},"properties":{"name":"Hadfield Reservoir","category":"reservoir_covered","osm_type":"relation","osm_id":"11916837"}},{"type":"Feature","geometry":{"type":"Point","coordinates":[-1.40117,53.42158]},"properties":{"name":"Blackburn Meadows Wastewater Treatment Works","category":"wastewater_plant","osm_type":"way","osm_id":"23322748","operator":"Yorkshire Water","ref":"SAI00518711"}},{"type":"Feature","geometry":{"type":"Point","coordinates":[-1.45374,53.33834]},"properties":{"name":"Norton Water Tower","category":"water_tower","osm_type":"way","osm_id":"70387923"}},{"type":"Feature","geometry":{"type":"Point","coordinates":[-1.5712,53.1438]},"properties":{"name":"Sewage Pumping Station","category":"pumping_station","osm_type":"way","osm_id":"80537957","operator":"Severn Trent Water","addr:city":"Matlock","addr:postcode":"DE4 3AZ"}},{"type":"Feature","geometry":{"type":"Point","coordinates":[-1.87029,53.20273]},"properties":{"name":"Earl Sterndale Sewage Treatment Plant","category":"wastewater_plant","osm_type":"way","osm_id":"87918780","operator":"Severn Trent","ref":"11601-ST1"}},{"type":"Feature","geometry":{"type":"Point","coordinates":[-1.59033,53.35716]},"properties":{"name":"Mapped water infrastructure","category":"water_tower","osm_type":"way","osm_id":"89961668"}},{"type":"Feature","geometry":{"type":"Point","coordinates":[-1.50932,53.39812]},"properties":{"name":"Rivelin Bank Pumping Station","category":"pumping_station","osm_type":"way","osm_id":"96899514","addr:city":"Sheffield","addr:postcode":"S6 5FD"}},{"type":"Feature","geometry":{"type":"Point","coordinates":[-1.10443,53.49651]},"properties":{"name":"Balby Carr Pumping Station No 2","category":"pumping_station","osm_type":"way","osm_id":"98524754"}},{"type":"Feature","geometry":{"type":"Point","coordinates":[-1.57351,53.378]},"properties":{"name":"Mapped water infrastructure","category":"water_works","osm_type":"way","osm_id":"100506696","operator":"Yorkshire Water"}},{"type":"Feature","geometry":{"type":"Point","coordinates":[-1.57359,53.3776]},"properties":{"name":"Mapped water infrastructure","category":"water_works","osm_type":"way","osm_id":"100506698","operator":"Yorkshire Water"}},{"type":"Feature","geometry":{"type":"Point","coordinates":[-1.57257,53.37771]},"properties":{"name":"Mapped water infrastructure","category":"water_works","osm_type":"way","osm_id":"100506710","operator":"Yorkshire Water"}},{"type":"Feature","geometry":{"type":"Point","coordinates":[-1.57198,53.37826]},"properties":{"name":"Yorkshire Water Rivelin WTW","category":"water_works","osm_type":"way","osm_id":"100506717","operator":"Yorkshire Water"}},{"type":"Feature","geometry":{"type":"Point","coordinates":[-1.39786,53.4223]},"properties":{"name":"Mapped water infrastructure","category":"wastewater_plant","osm_type":"way","osm_id":"114430133"}},{"type":"Feature","geometry":{"type":"Point","coordinates":[-1.96362,53.02001]},"properties":{"name":"Froghall Sewage Treatment Works","category":"wastewater_plant","osm_type":"way","osm_id":"131964942","operator":"Severn Trent","ref":"10486-ST1"}},{"type":"Feature","geometry":{"type":"Point","coordinates":[-1.32945,53.44429]},"properties":{"name":"Mapped water infrastructure","category":"water_works","osm_type":"way","osm_id":"227964796"}},{"type":"Feature","geometry":{"type":"Point","coordinates":[-1.55231,53.13527]},"properties":{"name":"Bentley Brook Pumping Station","category":"pumping_station","osm_type":"way","osm_id":"229267189"}},{"type":"Feature","geometry":{"type":"Point","coordinates":[-1.32511,53.44842]},"properties":{"name":"Mapped water infrastructure","category":"water_works","osm_type":"way","osm_id":"231230503"}},{"type":"Feature","geometry":{"type":"Point","coordinates":[-1.48696,53.01543]},"properties":{"name":"Belper Sewage Treatment Works","category":"wastewater_plant","osm_type":"way","osm_id":"232451969","operator":"Severn Trent"}},{"type":"Feature","geometry":{"type":"Point","coordinates":[-1.81873,53.14072]},"properties":{"name":"Hartington WWTW","category":"wastewater_plant","osm_type":"way","osm_id":"252356426","operator":"Severn Trent","ref":"11574-ST1"}},{"type":"Feature","geometry":{"type":"Point","coordinates":[-1.55122,53.40233]},"properties":{"name":"Mapped water infrastructure","category":"water_works","osm_type":"way","osm_id":"281806784"}},{"type":"Feature","geometry":{"type":"Point","coordinates":[-1.27945,53.08941]},"properties":{"name":"Kirkby In Ashfield (STW)","category":"wastewater_plant","osm_type":"way","osm_id":"285422733","operator":"Severn Trent","ref":"14931-ST1"}},{"type":"Feature","geometry":{"type":"Point","coordinates":[-1.24717,53.27391]},"properties":{"name":"Clowne (STW)","category":"wastewater_plant","osm_type":"way","osm_id":"288799848","operator":"Severn Trent","ref":"11301-ST1"}},{"type":"Feature","geometry":{"type":"Point","coordinates":[-1.04047,53.18323]},"properties":{"name":"Amen Corner Groundwater Abstraction Pumping Station","category":"water_works","osm_type":"way","osm_id":"293292067","operator":"Severn-Trent Water"}},{"type":"Feature","geometry":{"type":"Point","coordinates":[-1.86082,53.04985]},"properties":{"name":"Waterhouses WWTW","category":"wastewater_plant","osm_type":"way","osm_id":"298390552","operator":"Severn Trent","ref":"11582-ST1"}},{"type":"Feature","geometry":{"type":"Point","coordinates":[-1.2114,53.34885]},"properties":{"name":"Mapped water infrastructure","category":"wastewater_plant","osm_type":"way","osm_id":"302572492"}},{"type":"Feature","geometry":{"type":"Point","coordinates":[-1.77076,53.26704]},"properties":{"name":"Tideswell WWTW","category":"wastewater_plant","osm_type":"way","osm_id":"313736161","operator":"Severn Trent"}},{"type":"Feature","geometry":{"type":"Point","coordinates":[-1.04291,53.19503]},"properties":{"name":"Edwinstowe (STW)","category":"wastewater_plant","osm_type":"way","osm_id":"317006485","operator":"Severn Trent","ref":"11304-ST1"}},{"type":"Feature","geometry":{"type":"Point","coordinates":[-1.59716,53.48286]},"properties":{"name":"Stocksbridge Hole House Lane Pumping Station","category":"pumping_station","osm_type":"way","osm_id":"320196618","addr:city":"Sheffield","addr:postcode":"S36 1BP"}},{"type":"Feature","geometry":{"type":"Point","coordinates":[-1.33721,53.28445]},"properties":{"name":"WWTW","category":"wastewater_plant","osm_type":"way","osm_id":"335099921"}},{"type":"Feature","geometry":{"type":"Point","coordinates":[-1.14566,53.06404]},"properties":{"name":"Mapped water infrastructure","category":"reservoir_covered","osm_type":"way","osm_id":"368447055"}},{"type":"Feature","geometry":{"type":"Point","coordinates":[-1.01635,53.09917]},"properties":{"name":"Farnsfield (STW)","category":"wastewater_plant","osm_type":"way","osm_id":"389117787","operator":"Severn Trent","ref":"11271-ST1"}},{"type":"Feature","geometry":{"type":"Point","coordinates":[-1.36529,53.37296]},"properties":{"name":"Mapped water infrastructure","category":"wastewater_plant","osm_type":"way","osm_id":"419931559"}},{"type":"Feature","geometry":{"type":"Point","coordinates":[-1.36466,53.3875]},"properties":{"name":"Mapped water infrastructure","category":"wastewater_plant","osm_type":"way","osm_id":"419932658"}},{"type":"Feature","geometry":{"type":"Point","coordinates":[-1.69643,53.34124]},"properties":{"name":"Mapped water infrastructure","category":"pumping_station","osm_type":"way","osm_id":"448363557"}},{"type":"Feature","geometry":{"type":"Point","coordinates":[-1.02251,53.10417]},"properties":{"name":"Mapped water infrastructure","category":"pumping_station","osm_type":"way","osm_id":"567781949"}},{"type":"Feature","geometry":{"type":"Point","coordinates":[-1.24708,53.39135]},"properties":{"name":"Hedgerows Pumping Station","category":"pumping_station","osm_type":"way","osm_id":"601151958"}},{"type":"Feature","geometry":{"type":"Point","coordinates":[-1.53122,53.09872]},"properties":{"name":"Mapped water infrastructure","category":"wastewater_plant","osm_type":"way","osm_id":"625995546"}},{"type":"Feature","geometry":{"type":"Point","coordinates":[-1.30086,53.04557]},"properties":{"name":"Mapped water infrastructure","category":"pumping_station","osm_type":"way","osm_id":"717589239"}},{"type":"Feature","geometry":{"type":"Point","coordinates":[-1.17764,53.09011]},"properties":{"name":"Mapped water infrastructure","category":"water_tower","osm_type":"way","osm_id":"828190637"}},{"type":"Feature","geometry":{"type":"Point","coordinates":[-1.099,53.17275]},"properties":{"name":"Mapped water infrastructure","category":"pumping_station","osm_type":"way","osm_id":"834816197","operator":"Severn Trent"}},{"type":"Feature","geometry":{"type":"Point","coordinates":[-1.49062,53.39866]},"properties":{"name":"Old Spa Well","category":"water_well","osm_type":"way","osm_id":"983131099"}},{"type":"Feature","geometry":{"type":"Point","coordinates":[-1.69197,53.33981]},"properties":{"name":"Mapped water infrastructure","category":"pumping_station","osm_type":"way","osm_id":"984829067"}},{"type":"Feature","geometry":{"type":"Point","coordinates":[-1.92777,53.33365]},"properties":{"name":"Chapel-en-le-Frith Wastewater Treatment Works","category":"wastewater_plant","osm_type":"way","osm_id":"1085105056","operator":"United Utilities","ref":"WIMS_FID_1104","addr:city":"High Peak","addr:postcode":"SK23 6DY"}},{"type":"Feature","geometry":{"type":"Point","coordinates":[-1.3123,53.22625]},"properties":{"name":"Bolsover/STW","category":"wastewater_plant","osm_type":"way","osm_id":"1085349157","operator":"Yorkshire Water","ref":"SAI00002365"}},{"type":"Feature","geometry":{"type":"Point","coordinates":[-1.31288,53.20634]},"properties":{"name":"WIMS-FID_1119","category":"wastewater_plant","osm_type":"way","osm_id":"1085351051","ref":"WIMS-FID_1119"}},{"type":"Feature","geometry":{"type":"Point","coordinates":[-1.95264,53.23933]},"properties":{"name":"Mapped water infrastructure","category":"pumping_station","osm_type":"way","osm_id":"1148322344"}},{"type":"Feature","geometry":{"type":"Point","coordinates":[-1.03394,53.05992]},"properties":{"name":"Mapped water infrastructure","category":"pumping_station","osm_type":"way","osm_id":"1283920351"}},{"type":"Feature","geometry":{"type":"Point","coordinates":[-1.68998,53.01447]},"properties":{"name":"Mapped water infrastructure","category":"pumping_station","osm_type":"way","osm_id":"1395953474"}},{"type":"Feature","geometry":{"type":"Point","coordinates":[-1.61019,53.07585]},"properties":{"name":"Mapped water infrastructure","category":"pumping_station","osm_type":"way","osm_id":"1530641562","operator":"Seven Trent Water"}}]}