{"type":"FeatureCollection","features":[{"type":"Feature","geometry":{"type":"Point","coordinates":[-1.1861,51.29361]},"properties":{"name":"Mapped water infrastructure","category":"water_tower","osm_type":"node","osm_id":"262420594"}},{"type":"Feature","geometry":{"type":"Point","coordinates":[-1.15794,51.29248]},"properties":{"name":"Woodgarston Treatment Works","category":"wastewater_plant","osm_type":"node","osm_id":"273466904"}},{"type":"Feature","geometry":{"type":"Point","coordinates":[-1.11838,51.28163]},"properties":{"name":"Mapped water infrastructure","category":"water_tower","osm_type":"node","osm_id":"304143812"}},{"type":"Feature","geometry":{"type":"Point","coordinates":[-1.34904,51.38034]},"properties":{"name":"Mapped water infrastructure","category":"water_tower","osm_type":"node","osm_id":"309253915"}},{"type":"Feature","geometry":{"type":"Point","coordinates":[-1.04486,51.3214]},"properties":{"name":"Mapped water infrastructure","category":"water_tower","osm_type":"node","osm_id":"385550498"}},{"type":"Feature","geometry":{"type":"Point","coordinates":[-1.14957,51.32129]},"properties":{"name":"Mapped water infrastructure","category":"wastewater_plant","osm_type":"node","osm_id":"442752883"}},{"type":"Feature","geometry":{"type":"Point","coordinates":[-1.18766,51.27108]},"properties":{"name":"Mapped water infrastructure","category":"water_tower","osm_type":"node","osm_id":"443289745"}},{"type":"Feature","geometry":{"type":"Point","coordinates":[-1.17555,51.24161]},"properties":{"name":"Mapped water infrastructure","category":"wastewater_plant","osm_type":"node","osm_id":"447585285"}},{"type":"Feature","geometry":{"type":"Point","coordinates":[-1.27884,51.24872]},"properties":{"name":"Mapped water infrastructure","category":"wastewater_plant","osm_type":"node","osm_id":"495306040","operator":"Southern Water"}},{"type":"Feature","geometry":{"type":"Point","coordinates":[-1.24934,51.40699]},"properties":{"name":"Thatcham Water Pumping Station","category":"pumping_station","osm_type":"node","osm_id":"529122223"}},{"type":"Feature","geometry":{"type":"Point","coordinates":[-1.15826,51.0722]},"properties":{"name":"Mapped water infrastructure","category":"wastewater_plant","osm_type":"node","osm_id":"710844403"}},{"type":"Feature","geometry":{"type":"Point","coordinates":[-1.11752,51.20444]},"properties":{"name":"Mapped water infrastructure","category":"water_tower","osm_type":"node","osm_id":"890197098"}},{"type":"Feature","geometry":{"type":"Point","coordinates":[-1.33589,51.00898]},"properties":{"name":"Mapped water infrastructure","category":"water_works","osm_type":"node","osm_id":"1142907731"}},{"type":"Feature","geometry":{"type":"Point","coordinates":[-1.21685,51.03237]},"properties":{"name":"Mapped water infrastructure","category":"reservoir_covered","osm_type":"node","osm_id":"1259952540"}},{"type":"Feature","geometry":{"type":"Point","coordinates":[-1.34354,51.1134]},"properties":{"name":"Mapped water infrastructure","category":"water_tower","osm_type":"node","osm_id":"1693087163"}},{"type":"Feature","geometry":{"type":"Point","coordinates":[-1.71777,51.364]},"properties":{"name":"Mapped water infrastructure","category":"water_point","osm_type":"node","osm_id":"2629152758"}},{"type":"Feature","geometry":{"type":"Point","coordinates":[-1.7168,51.36469]},"properties":{"name":"Mapped water infrastructure","category":"water_point","osm_type":"node","osm_id":"2629152769"}},{"type":"Feature","geometry":{"type":"Point","coordinates":[-1.71564,51.36539]},"properties":{"name":"Mapped water infrastructure","category":"water_point","osm_type":"node","osm_id":"2629152787"}},{"type":"Feature","geometry":{"type":"Point","coordinates":[-1.71498,51.36572]},"properties":{"name":"Mapped water infrastructure","category":"water_point","osm_type":"node","osm_id":"2629152788"}},{"type":"Feature","geometry":{"type":"Point","coordinates":[-1.15873,51.00989]},"properties":{"name":"Mapped water infrastructure","category":"drinking_water","osm_type":"node","osm_id":"3150718177"}},{"type":"Feature","geometry":{"type":"Point","coordinates":[-1.22805,51.29559]},"properties":{"name":"Mapped water infrastructure","category":"water_well","osm_type":"node","osm_id":"3273832659"}},{"type":"Feature","geometry":{"type":"Point","coordinates":[-1.35733,51.06599]},"properties":{"name":"Mapped water infrastructure","category":"drinking_water","osm_type":"node","osm_id":"3356334769"}},{"type":"Feature","geometry":{"type":"Point","coordinates":[-1.35632,51.06589]},"properties":{"name":"Mapped water infrastructure","category":"drinking_water","osm_type":"node","osm_id":"4059593847"}},{"type":"Feature","geometry":{"type":"Point","coordinates":[-1.42563,51.14325]},"properties":{"name":"Mapped water infrastructure","category":"water_tower","osm_type":"node","osm_id":"4071849509"}},{"type":"Feature","geometry":{"type":"Point","coordinates":[-1.15873,51.02092]},"properties":{"name":"Mapped water infrastructure","category":"drinking_water","osm_type":"node","osm_id":"4386982324"}},{"type":"Feature","geometry":{"type":"Point","coordinates":[-1.23505,51.0569]},"properties":{"name":"Mapped water infrastructure","category":"drinking_water","osm_type":"node","osm_id":"4907707325"}},{"type":"Feature","geometry":{"type":"Point","coordinates":[-1.58592,51.21707]},"properties":{"name":"Mapped water infrastructure","category":"pumping_station","osm_type":"node","osm_id":"4970204403"}},{"type":"Feature","geometry":{"type":"Point","coordinates":[-1.2005,51.03792]},"properties":{"name":"Mapped water infrastructure","category":"drinking_water","osm_type":"node","osm_id":"5931583785"}},{"type":"Feature","geometry":{"type":"Point","coordinates":[-1.06496,51.15282]},"properties":{"name":"Mapped water infrastructure","category":"water_well","osm_type":"node","osm_id":"5938939468"}},{"type":"Feature","geometry":{"type":"Point","coordinates":[-1.05153,51.15375]},"properties":{"name":"Mapped water infrastructure","category":"water_well","osm_type":"node","osm_id":"5938939481"}},{"type":"Feature","geometry":{"type":"Point","coordinates":[-1.03288,51.15796]},"properties":{"name":"Down Well","category":"water_well","osm_type":"node","osm_id":"5938942100"}},{"type":"Feature","geometry":{"type":"Point","coordinates":[-1.96133,51.42674]},"properties":{"name":"Mapped water infrastructure","category":"drinking_water","osm_type":"node","osm_id":"6687897032","operator":"Gate Farm"}},{"type":"Feature","geometry":{"type":"Point","coordinates":[-1.71588,51.45924]},"properties":{"name":"Privater Wasserhahn","category":"drinking_water","osm_type":"node","osm_id":"6755499283"}},{"type":"Feature","geometry":{"type":"Point","coordinates":[-1.10858,51.16422]},"properties":{"name":"Mapped water infrastructure","category":"water_well","osm_type":"node","osm_id":"6996240578"}},{"type":"Feature","geometry":{"type":"Point","coordinates":[-1.3094,51.06107]},"properties":{"name":"Mapped water infrastructure","category":"drinking_water","osm_type":"node","osm_id":"7300236401","operator":"Winchester City Council.","wheelchair":"yes"}},{"type":"Feature","geometry":{"type":"Point","coordinates":[-1.23798,51.09162]},"properties":{"name":"Mapped water infrastructure","category":"drinking_water","osm_type":"node","osm_id":"7301855494"}},{"type":"Feature","geometry":{"type":"Point","coordinates":[-1.34697,51.40943]},"properties":{"name":"The Lady Well","category":"water_well","osm_type":"node","osm_id":"7502793351"}},{"type":"Feature","geometry":{"type":"Point","coordinates":[-1.22391,51.29674]},"properties":{"name":"Mapped water infrastructure","category":"drinking_water","osm_type":"node","osm_id":"7866317137"}},{"type":"Feature","geometry":{"type":"Point","coordinates":[-1.2957,51.40386]},"properties":{"name":"Mapped water infrastructure","category":"pumping_station","osm_type":"node","osm_id":"7995800895"}},{"type":"Feature","geometry":{"type":"Point","coordinates":[-1.99434,51.35531]},"properties":{"name":"Mapped water infrastructure","category":"drinking_water","osm_type":"node","osm_id":"8075864942","operator":"Canal and River Trust"}},{"type":"Feature","geometry":{"type":"Point","coordinates":[-1.40112,51.03634]},"properties":{"name":"Merdon Well","category":"water_well","osm_type":"node","osm_id":"8272205831","operator":"Home Farm Estate"}},{"type":"Feature","geometry":{"type":"Point","coordinates":[-1.41509,51.00799]},"properties":{"name":"Mapped water infrastructure","category":"water_well","osm_type":"node","osm_id":"8322431243"}},{"type":"Feature","geometry":{"type":"Point","coordinates":[-1.4359,51.0824]},"properties":{"name":"Mapped water infrastructure","category":"water_well","osm_type":"node","osm_id":"8435846454"}},{"type":"Feature","geometry":{"type":"Point","coordinates":[-1.50025,51.00188]},"properties":{"name":"Mapped water infrastructure","category":"water_well","osm_type":"node","osm_id":"8473376038"}},{"type":"Feature","geometry":{"type":"Point","coordinates":[-1.45026,51.05526]},"properties":{"name":"Mapped water infrastructure","category":"water_well","osm_type":"node","osm_id":"8476886673"}},{"type":"Feature","geometry":{"type":"Point","coordinates":[-1.4344,51.04543]},"properties":{"name":"Mapped water infrastructure","category":"water_well","osm_type":"node","osm_id":"8476926917"}},{"type":"Feature","geometry":{"type":"Point","coordinates":[-1.54205,51.07328]},"properties":{"name":"Mapped water infrastructure","category":"water_well","osm_type":"node","osm_id":"8476927567"}},{"type":"Feature","geometry":{"type":"Point","coordinates":[-1.49828,51.03581]},"properties":{"name":"Mapped water infrastructure","category":"water_well","osm_type":"node","osm_id":"8494661379"}},{"type":"Feature","geometry":{"type":"Point","coordinates":[-1.45975,51.13031]},"properties":{"name":"Mapped water infrastructure","category":"water_well","osm_type":"node","osm_id":"8546862654"}},{"type":"Feature","geometry":{"type":"Point","coordinates":[-1.45903,51.13014]},"properties":{"name":"Mapped water infrastructure","category":"water_well","osm_type":"node","osm_id":"8546862655"}},{"type":"Feature","geometry":{"type":"Point","coordinates":[-1.37929,51.00826]},"properties":{"name":"Mapped water infrastructure","category":"water_well","osm_type":"node","osm_id":"8551697510"}},{"type":"Feature","geometry":{"type":"Point","coordinates":[-1.43491,51.18276]},"properties":{"name":"Mapped water infrastructure","category":"water_well","osm_type":"node","osm_id":"8566706369"}},{"type":"Feature","geometry":{"type":"Point","coordinates":[-1.43805,51.00093]},"properties":{"name":"Mapped water infrastructure","category":"water_well","osm_type":"node","osm_id":"8567938385"}},{"type":"Feature","geometry":{"type":"Point","coordinates":[-1.43339,51.00264]},"properties":{"name":"Mapped water infrastructure","category":"water_well","osm_type":"node","osm_id":"8567938386"}},{"type":"Feature","geometry":{"type":"Point","coordinates":[-1.59648,51.05405]},"properties":{"name":"Mapped water infrastructure","category":"water_well","osm_type":"node","osm_id":"8568995438"}},{"type":"Feature","geometry":{"type":"Point","coordinates":[-1.45566,51.0015]},"properties":{"name":"Mapped water infrastructure","category":"water_well","osm_type":"node","osm_id":"8569995358"}},{"type":"Feature","geometry":{"type":"Point","coordinates":[-1.45528,51.00958]},"properties":{"name":"Mapped water infrastructure","category":"water_well","osm_type":"node","osm_id":"8569995359"}},{"type":"Feature","geometry":{"type":"Point","coordinates":[-1.45829,51.00996]},"properties":{"name":"Mapped water infrastructure","category":"water_well","osm_type":"node","osm_id":"8569995360"}},{"type":"Feature","geometry":{"type":"Point","coordinates":[-1.4298,51.01043]},"properties":{"name":"Mapped water infrastructure","category":"water_well","osm_type":"node","osm_id":"8569995397"}},{"type":"Feature","geometry":{"type":"Point","coordinates":[-1.43465,51.00971]},"properties":{"name":"Mapped water infrastructure","category":"water_well","osm_type":"node","osm_id":"8569995398"}},{"type":"Feature","geometry":{"type":"Point","coordinates":[-1.46868,51.02647]},"properties":{"name":"Mapped water infrastructure","category":"water_well","osm_type":"node","osm_id":"8569995409"}},{"type":"Feature","geometry":{"type":"Point","coordinates":[-1.41305,51.02845]},"properties":{"name":"Mapped water infrastructure","category":"water_well","osm_type":"node","osm_id":"8569995410"}},{"type":"Feature","geometry":{"type":"Point","coordinates":[-1.41298,51.02699]},"properties":{"name":"Mapped water infrastructure","category":"water_well","osm_type":"node","osm_id":"8569995411"}},{"type":"Feature","geometry":{"type":"Point","coordinates":[-1.41161,51.02759]},"properties":{"name":"Mapped water infrastructure","category":"water_well","osm_type":"node","osm_id":"8569995412"}},{"type":"Feature","geometry":{"type":"Point","coordinates":[-1.41057,51.02649]},"properties":{"name":"Mapped water infrastructure","category":"water_well","osm_type":"node","osm_id":"8569995413"}},{"type":"Feature","geometry":{"type":"Point","coordinates":[-1.40818,51.02808]},"properties":{"name":"Mapped water infrastructure","category":"water_well","osm_type":"node","osm_id":"8569995414"}},{"type":"Feature","geometry":{"type":"Point","coordinates":[-1.45281,51.02199]},"properties":{"name":"Mapped water infrastructure","category":"water_well","osm_type":"node","osm_id":"8570004368"}},{"type":"Feature","geometry":{"type":"Point","coordinates":[-1.60874,51.04021]},"properties":{"name":"Mapped water infrastructure","category":"water_well","osm_type":"node","osm_id":"8570004370"}},{"type":"Feature","geometry":{"type":"Point","coordinates":[-1.48448,51.00477]},"properties":{"name":"Mapped water infrastructure","category":"water_well","osm_type":"node","osm_id":"8575945092"}},{"type":"Feature","geometry":{"type":"Point","coordinates":[-1.41397,51.04449]},"properties":{"name":"Mapped water infrastructure","category":"water_well","osm_type":"node","osm_id":"8583000647"}},{"type":"Feature","geometry":{"type":"Point","coordinates":[-1.53287,51.02163]},"properties":{"name":"Mapped water infrastructure","category":"water_well","osm_type":"node","osm_id":"8586910584"}},{"type":"Feature","geometry":{"type":"Point","coordinates":[-1.2243,51.19774]},"properties":{"name":"Fir Well","category":"water_well","osm_type":"node","osm_id":"8597939661"}},{"type":"Feature","geometry":{"type":"Point","coordinates":[-1.41845,51.21296]},"properties":{"name":"Folly Well","category":"water_well","osm_type":"node","osm_id":"8608374891"}},{"type":"Feature","geometry":{"type":"Point","coordinates":[-1.42283,51.0147]},"properties":{"name":"Mapped water infrastructure","category":"water_well","osm_type":"node","osm_id":"8614225378"}},{"type":"Feature","geometry":{"type":"Point","coordinates":[-1.56175,51.09571]},"properties":{"name":"Mapped water infrastructure","category":"water_well","osm_type":"node","osm_id":"8640881836"}},{"type":"Feature","geometry":{"type":"Point","coordinates":[-1.4419,51.33881]},"properties":{"name":"Mapped water infrastructure","category":"water_well","osm_type":"node","osm_id":"8663022075"}},{"type":"Feature","geometry":{"type":"Point","coordinates":[-1.46274,51.34692]},"properties":{"name":"Mapped water infrastructure","category":"water_well","osm_type":"node","osm_id":"8663022143"}},{"type":"Feature","geometry":{"type":"Point","coordinates":[-1.15524,51.39329]},"properties":{"name":"Mapped water infrastructure","category":"water_point","osm_type":"node","osm_id":"8951559292"}},{"type":"Feature","geometry":{"type":"Point","coordinates":[-1.15505,51.39322]},"properties":{"name":"Mapped water infrastructure","category":"water_point","osm_type":"node","osm_id":"8951559293"}},{"type":"Feature","geometry":{"type":"Point","coordinates":[-1.15488,51.39316]},"properties":{"name":"Mapped water infrastructure","category":"water_point","osm_type":"node","osm_id":"8951559294"}},{"type":"Feature","geometry":{"type":"Point","coordinates":[-1.15532,51.39323]},"properties":{"name":"Mapped water infrastructure","category":"water_point","osm_type":"node","osm_id":"8951559295"}},{"type":"Feature","geometry":{"type":"Point","coordinates":[-1.15513,51.39316]},"properties":{"name":"Mapped water infrastructure","category":"water_point","osm_type":"node","osm_id":"8951559296"}},{"type":"Feature","geometry":{"type":"Point","coordinates":[-1.15496,51.3931]},"properties":{"name":"Mapped water infrastructure","category":"water_point","osm_type":"node","osm_id":"8951559297"}},{"type":"Feature","geometry":{"type":"Point","coordinates":[-1.1557,51.39283]},"properties":{"name":"Mapped water infrastructure","category":"water_point","osm_type":"node","osm_id":"8951559298"}},{"type":"Feature","geometry":{"type":"Point","coordinates":[-1.15551,51.39276]},"properties":{"name":"Mapped water infrastructure","category":"water_point","osm_type":"node","osm_id":"8951559299"}},{"type":"Feature","geometry":{"type":"Point","coordinates":[-1.15534,51.3927]},"properties":{"name":"Mapped water infrastructure","category":"water_point","osm_type":"node","osm_id":"8951559300"}},{"type":"Feature","geometry":{"type":"Point","coordinates":[-1.15565,51.3929]},"properties":{"name":"Mapped water infrastructure","category":"water_point","osm_type":"node","osm_id":"8951559301"}},{"type":"Feature","geometry":{"type":"Point","coordinates":[-1.15546,51.39283]},"properties":{"name":"Mapped water infrastructure","category":"water_point","osm_type":"node","osm_id":"8951559302"}},{"type":"Feature","geometry":{"type":"Point","coordinates":[-1.15529,51.39277]},"properties":{"name":"Mapped water infrastructure","category":"water_point","osm_type":"node","osm_id":"8951559303"}},{"type":"Feature","geometry":{"type":"Point","coordinates":[-1.15557,51.39296]},"properties":{"name":"Mapped water infrastructure","category":"water_point","osm_type":"node","osm_id":"8951559304"}},{"type":"Feature","geometry":{"type":"Point","coordinates":[-1.15538,51.3929]},"properties":{"name":"Mapped water infrastructure","category":"water_point","osm_type":"node","osm_id":"8951559305"}},{"type":"Feature","geometry":{"type":"Point","coordinates":[-1.15521,51.39283]},"properties":{"name":"Mapped water infrastructure","category":"water_point","osm_type":"node","osm_id":"8951559306"}},{"type":"Feature","geometry":{"type":"Point","coordinates":[-1.15552,51.39304]},"properties":{"name":"Mapped water infrastructure","category":"water_point","osm_type":"node","osm_id":"8951559307"}},{"type":"Feature","geometry":{"type":"Point","coordinates":[-1.15533,51.39297]},"properties":{"name":"Mapped water infrastructure","category":"water_point","osm_type":"node","osm_id":"8951559308"}},{"type":"Feature","geometry":{"type":"Point","coordinates":[-1.15516,51.3929]},"properties":{"name":"Mapped water infrastructure","category":"water_point","osm_type":"node","osm_id":"8951559309"}},{"type":"Feature","geometry":{"type":"Point","coordinates":[-1.15546,51.3931]},"properties":{"name":"Mapped water infrastructure","category":"water_point","osm_type":"node","osm_id":"8951559310"}},{"type":"Feature","geometry":{"type":"Point","coordinates":[-1.15527,51.39303]},"properties":{"name":"Mapped water infrastructure","category":"water_point","osm_type":"node","osm_id":"8951559311"}},{"type":"Feature","geometry":{"type":"Point","coordinates":[-1.1551,51.39297]},"properties":{"name":"Mapped water infrastructure","category":"water_point","osm_type":"node","osm_id":"8951559312"}},{"type":"Feature","geometry":{"type":"Point","coordinates":[-1.15502,51.39303]},"properties":{"name":"Mapped water infrastructure","category":"water_point","osm_type":"node","osm_id":"8951559313"}},{"type":"Feature","geometry":{"type":"Point","coordinates":[-1.15519,51.39309]},"properties":{"name":"Mapped water infrastructure","category":"water_point","osm_type":"node","osm_id":"8951559314"}},{"type":"Feature","geometry":{"type":"Point","coordinates":[-1.15538,51.39316]},"properties":{"name":"Mapped water infrastructure","category":"water_point","osm_type":"node","osm_id":"8951559315"}},{"type":"Feature","geometry":{"type":"Point","coordinates":[-1.15471,51.3932]},"properties":{"name":"Mapped water infrastructure","category":"water_point","osm_type":"node","osm_id":"8959380518"}},{"type":"Feature","geometry":{"type":"Point","coordinates":[-1.53834,51.03873]},"properties":{"name":"Mapped water infrastructure","category":"water_well","osm_type":"node","osm_id":"8984183100"}},{"type":"Feature","geometry":{"type":"Point","coordinates":[-1.15562,51.39354]},"properties":{"name":"Mapped water infrastructure","category":"water_point","osm_type":"node","osm_id":"9004729945"}},{"type":"Feature","geometry":{"type":"Point","coordinates":[-1.15514,51.39336]},"properties":{"name":"Mapped water infrastructure","category":"water_point","osm_type":"node","osm_id":"9004729948"}},{"type":"Feature","geometry":{"type":"Point","coordinates":[-1.74096,51.01085]},"properties":{"name":"Mapped water infrastructure","category":"water_well","osm_type":"node","osm_id":"9064646311"}},{"type":"Feature","geometry":{"type":"Point","coordinates":[-1.55213,51.07572]},"properties":{"name":"Mapped water infrastructure","category":"water_well","osm_type":"node","osm_id":"9100757954","operator":"Hildon Water"}},{"type":"Feature","geometry":{"type":"Point","coordinates":[-1.5473,51.07438]},"properties":{"name":"Mapped water infrastructure","category":"water_well","osm_type":"node","osm_id":"9100757955","operator":"Hildon Water"}},{"type":"Feature","geometry":{"type":"Point","coordinates":[-1.31272,51.06186]},"properties":{"name":"Mapped water infrastructure","category":"drinking_water","osm_type":"node","osm_id":"9138953399","wheelchair":"yes"}},{"type":"Feature","geometry":{"type":"Point","coordinates":[-1.95045,51.13096]},"properties":{"name":"Mapped water infrastructure","category":"drinking_water","osm_type":"node","osm_id":"9146577785"}},{"type":"Feature","geometry":{"type":"Point","coordinates":[-1.64535,51.1846]},"properties":{"name":"Mapped water infrastructure","category":"water_tower","osm_type":"node","osm_id":"9202309888"}},{"type":"Feature","geometry":{"type":"Point","coordinates":[-1.02625,51.15095]},"properties":{"name":"Mapped water infrastructure","category":"water_well","osm_type":"node","osm_id":"9297305296"}},{"type":"Feature","geometry":{"type":"Point","coordinates":[-1.04151,51.14893]},"properties":{"name":"Mapped water infrastructure","category":"water_well","osm_type":"node","osm_id":"9518139282"}},{"type":"Feature","geometry":{"type":"Point","coordinates":[-1.063,51.13849]},"properties":{"name":"Mapped water infrastructure","category":"water_well","osm_type":"node","osm_id":"9518149001"}},{"type":"Feature","geometry":{"type":"Point","coordinates":[-1.65581,51.10213]},"properties":{"name":"Mapped water infrastructure","category":"water_tower","osm_type":"node","osm_id":"9574637204"}},{"type":"Feature","geometry":{"type":"Point","coordinates":[-1.59248,51.38658]},"properties":{"name":"Mapped water infrastructure","category":"reservoir_covered","osm_type":"node","osm_id":"9664402266"}},{"type":"Feature","geometry":{"type":"Point","coordinates":[-1.5928,51.38701]},"properties":{"name":"Mapped water infrastructure","category":"reservoir_covered","osm_type":"node","osm_id":"9664402267"}},{"type":"Feature","geometry":{"type":"Point","coordinates":[-1.48992,51.02844]},"properties":{"name":"Mapped water infrastructure","category":"water_well","osm_type":"node","osm_id":"10186616942"}},{"type":"Feature","geometry":{"type":"Point","coordinates":[-1.02459,51.15976]},"properties":{"name":"Mapped water infrastructure","category":"water_well","osm_type":"node","osm_id":"10197908371"}},{"type":"Feature","geometry":{"type":"Point","coordinates":[-1.02485,51.15896]},"properties":{"name":"Mapped water infrastructure","category":"water_well","osm_type":"node","osm_id":"10197908372"}},{"type":"Feature","geometry":{"type":"Point","coordinates":[-1.05413,51.15705]},"properties":{"name":"Mapped water infrastructure","category":"water_well","osm_type":"node","osm_id":"10197908373"}},{"type":"Feature","geometry":{"type":"Point","coordinates":[-1.06009,51.15357]},"properties":{"name":"Mapped water infrastructure","category":"water_well","osm_type":"node","osm_id":"10197908374"}},{"type":"Feature","geometry":{"type":"Point","coordinates":[-1.05985,51.14597]},"properties":{"name":"Mapped water infrastructure","category":"water_well","osm_type":"node","osm_id":"10197908376"}},{"type":"Feature","geometry":{"type":"Point","coordinates":[-1.0681,51.13039]},"properties":{"name":"Mapped water infrastructure","category":"water_well","osm_type":"node","osm_id":"10197908377"}},{"type":"Feature","geometry":{"type":"Point","coordinates":[-1.05893,51.12831]},"properties":{"name":"Mapped water infrastructure","category":"water_well","osm_type":"node","osm_id":"10197908378"}},{"type":"Feature","geometry":{"type":"Point","coordinates":[-1.04008,51.13361]},"properties":{"name":"Mapped water infrastructure","category":"water_well","osm_type":"node","osm_id":"10197908379"}},{"type":"Feature","geometry":{"type":"Point","coordinates":[-1.79737,51.06785]},"properties":{"name":"Mapped water infrastructure","category":"drinking_water","osm_type":"node","osm_id":"10244724110"}},{"type":"Feature","geometry":{"type":"Point","coordinates":[-1.85748,51.18456]},"properties":{"name":"Mapped water infrastructure","category":"drinking_water","osm_type":"node","osm_id":"10244812172"}},{"type":"Feature","geometry":{"type":"Point","coordinates":[-1.08896,51.01299]},"properties":{"name":"Mapped water infrastructure","category":"drinking_water","osm_type":"node","osm_id":"10562966487"}},{"type":"Feature","geometry":{"type":"Point","coordinates":[-1.27457,51.08741]},"properties":{"name":"Mapped water infrastructure","category":"drinking_water","osm_type":"node","osm_id":"10563042960"}},{"type":"Feature","geometry":{"type":"Point","coordinates":[-1.15477,51.3935]},"properties":{"name":"Mapped water infrastructure","category":"water_point","osm_type":"node","osm_id":"10583976172"}},{"type":"Feature","geometry":{"type":"Point","coordinates":[-1.1546,51.39344]},"properties":{"name":"Mapped water infrastructure","category":"water_point","osm_type":"node","osm_id":"10583976173"}},{"type":"Feature","geometry":{"type":"Point","coordinates":[-1.1543,51.39395]},"properties":{"name":"Mapped water infrastructure","category":"water_point","osm_type":"node","osm_id":"10599916393"}},{"type":"Feature","geometry":{"type":"Point","coordinates":[-1.15413,51.39389]},"properties":{"name":"Mapped water infrastructure","category":"water_point","osm_type":"node","osm_id":"10599916394"}},{"type":"Feature","geometry":{"type":"Point","coordinates":[-1.15437,51.39389]},"properties":{"name":"Mapped water infrastructure","category":"water_point","osm_type":"node","osm_id":"10599916395"}},{"type":"Feature","geometry":{"type":"Point","coordinates":[-1.1542,51.39382]},"properties":{"name":"Mapped water infrastructure","category":"water_point","osm_type":"node","osm_id":"10599916396"}},{"type":"Feature","geometry":{"type":"Point","coordinates":[-1.15444,51.39382]},"properties":{"name":"Mapped water infrastructure","category":"water_point","osm_type":"node","osm_id":"10599916397"}},{"type":"Feature","geometry":{"type":"Point","coordinates":[-1.15427,51.39376]},"properties":{"name":"Mapped water infrastructure","category":"water_point","osm_type":"node","osm_id":"10599916398"}},{"type":"Feature","geometry":{"type":"Point","coordinates":[-1.15451,51.39376]},"properties":{"name":"Mapped water infrastructure","category":"water_point","osm_type":"node","osm_id":"10599916399"}},{"type":"Feature","geometry":{"type":"Point","coordinates":[-1.15434,51.39369]},"properties":{"name":"Mapped water infrastructure","category":"water_point","osm_type":"node","osm_id":"10599916400"}},{"type":"Feature","geometry":{"type":"Point","coordinates":[-1.15457,51.3937]},"properties":{"name":"Mapped water infrastructure","category":"water_point","osm_type":"node","osm_id":"10599916401"}},{"type":"Feature","geometry":{"type":"Point","coordinates":[-1.1544,51.39364]},"properties":{"name":"Mapped water infrastructure","category":"water_point","osm_type":"node","osm_id":"10599916402"}},{"type":"Feature","geometry":{"type":"Point","coordinates":[-1.15463,51.39363]},"properties":{"name":"Mapped water infrastructure","category":"water_point","osm_type":"node","osm_id":"10599916403"}},{"type":"Feature","geometry":{"type":"Point","coordinates":[-1.15446,51.39357]},"properties":{"name":"Mapped water infrastructure","category":"water_point","osm_type":"node","osm_id":"10599916404"}},{"type":"Feature","geometry":{"type":"Point","coordinates":[-1.1547,51.39357]},"properties":{"name":"Mapped water infrastructure","category":"water_point","osm_type":"node","osm_id":"10599920705"}},{"type":"Feature","geometry":{"type":"Point","coordinates":[-1.15453,51.39351]},"properties":{"name":"Mapped water infrastructure","category":"water_point","osm_type":"node","osm_id":"10599920706"}},{"type":"Feature","geometry":{"type":"Point","coordinates":[-1.51914,51.29672]},"properties":{"name":"Mapped water infrastructure","category":"water_tower","osm_type":"node","osm_id":"10728499209"}},{"type":"Feature","geometry":{"type":"Point","coordinates":[-1.49191,51.02052]},"properties":{"name":"Mapped water infrastructure","category":"water_well","osm_type":"node","osm_id":"10751041915"}},{"type":"Feature","geometry":{"type":"Point","coordinates":[-1.26726,51.00769]},"properties":{"name":"Mapped water infrastructure","category":"drinking_water","osm_type":"node","osm_id":"10801358047","wheelchair":"yes"}},{"type":"Feature","geometry":{"type":"Point","coordinates":[-1.73683,51.41872]},"properties":{"name":"Mapped water infrastructure","category":"drinking_water","osm_type":"node","osm_id":"11148957940"}},{"type":"Feature","geometry":{"type":"Point","coordinates":[-1.46776,51.01605]},"properties":{"name":"Mapped water infrastructure","category":"water_well","osm_type":"node","osm_id":"11169609120"}},{"type":"Feature","geometry":{"type":"Point","coordinates":[-1.82551,51.02615]},"properties":{"name":"Mapped water infrastructure","category":"water_tower","osm_type":"node","osm_id":"11414740376"}},{"type":"Feature","geometry":{"type":"Point","coordinates":[-1.86002,51.42847]},"properties":{"name":"Mapped water infrastructure","category":"water_well","osm_type":"node","osm_id":"11879761824"}},{"type":"Feature","geometry":{"type":"Point","coordinates":[-1.47344,51.36561]},"properties":{"name":"Inkpen Reservior","category":"reservoir_covered","osm_type":"node","osm_id":"11905124615","operator":"Thames Water"}},{"type":"Feature","geometry":{"type":"Point","coordinates":[-1.52979,51.41427]},"properties":{"name":"Mapped water infrastructure","category":"pumping_station","osm_type":"node","osm_id":"12085250418"}},{"type":"Feature","geometry":{"type":"Point","coordinates":[-1.4556,51.07801]},"properties":{"name":"Ashley Village Well","category":"water_well","osm_type":"node","osm_id":"12386109655"}},{"type":"Feature","geometry":{"type":"Point","coordinates":[-1.34195,51.26096]},"properties":{"name":"Mapped water infrastructure","category":"water_well","osm_type":"node","osm_id":"12529877556"}},{"type":"Feature","geometry":{"type":"Point","coordinates":[-1.41418,51.03367]},"properties":{"name":"Mapped water infrastructure","category":"water_well","osm_type":"node","osm_id":"12554877822"}},{"type":"Feature","geometry":{"type":"Point","coordinates":[-1.43483,51.06889]},"properties":{"name":"Mapped water infrastructure","category":"water_well","osm_type":"node","osm_id":"12554877829"}},{"type":"Feature","geometry":{"type":"Point","coordinates":[-1.48008,51.04637]},"properties":{"name":"Mapped water infrastructure","category":"water_well","osm_type":"node","osm_id":"12554877830"}},{"type":"Feature","geometry":{"type":"Point","coordinates":[-1.05174,51.26873]},"properties":{"name":"Mapped water infrastructure","category":"water_well","osm_type":"node","osm_id":"12769095006"}},{"type":"Feature","geometry":{"type":"Point","coordinates":[-1.0516,51.2687]},"properties":{"name":"Mapped water infrastructure","category":"water_well","osm_type":"node","osm_id":"12769095007"}},{"type":"Feature","geometry":{"type":"Point","coordinates":[-1.05085,51.26911]},"properties":{"name":"Mapped water infrastructure","category":"water_well","osm_type":"node","osm_id":"12769095008"}},{"type":"Feature","geometry":{"type":"Point","coordinates":[-1.32883,51.0068]},"properties":{"name":"Mapped water infrastructure","category":"water_well","osm_type":"node","osm_id":"12908234987"}},{"type":"Feature","geometry":{"type":"Point","coordinates":[-1.32822,51.0068]},"properties":{"name":"Mapped water infrastructure","category":"water_well","osm_type":"node","osm_id":"12908234988"}},{"type":"Feature","geometry":{"type":"Point","coordinates":[-1.32556,51.0072]},"properties":{"name":"Mapped water infrastructure","category":"water_well","osm_type":"node","osm_id":"12908234989"}},{"type":"Feature","geometry":{"type":"Point","coordinates":[-1.32427,51.00635]},"properties":{"name":"Mapped water infrastructure","category":"water_well","osm_type":"node","osm_id":"12908234998"}},{"type":"Feature","geometry":{"type":"Point","coordinates":[-1.32322,51.00515]},"properties":{"name":"Mapped water infrastructure","category":"water_well","osm_type":"node","osm_id":"12908246922"}},{"type":"Feature","geometry":{"type":"Point","coordinates":[-1.32185,51.00446]},"properties":{"name":"Mapped water infrastructure","category":"water_well","osm_type":"node","osm_id":"12908246923"}},{"type":"Feature","geometry":{"type":"Point","coordinates":[-1.08634,51.26447]},"properties":{"name":"Mapped water infrastructure","category":"drinking_water","osm_type":"node","osm_id":"13173850247"}},{"type":"Feature","geometry":{"type":"Point","coordinates":[-1.03054,51.14058]},"properties":{"name":"Mapped water infrastructure","category":"water_well","osm_type":"node","osm_id":"13379506974"}},{"type":"Feature","geometry":{"type":"Point","coordinates":[-1.10612,51.41019]},"properties":{"name":"Mapped water infrastructure","category":"pumping_station","osm_type":"node","osm_id":"13482818066"}},{"type":"Feature","geometry":{"type":"Point","coordinates":[-1.61697,51.1383]},"properties":{"name":"Mapped water infrastructure","category":"water_tower","osm_type":"node","osm_id":"13841192176"}},{"type":"Feature","geometry":{"type":"Point","coordinates":[-1.2843,51.38222]},"properties":{"name":"Mapped water infrastructure","category":"drinking_water","osm_type":"node","osm_id":"14044207326"}},{"type":"Feature","geometry":{"type":"Point","coordinates":[-1.77304,51.05897]},"properties":{"name":"Salisbury Wastewater Plant","category":"wastewater_plant","osm_type":"way","osm_id":"22973957","operator":"Wessex Water","addr:city":"Salisbury"}},{"type":"Feature","geometry":{"type":"Point","coordinates":[-1.09252,51.27367]},"properties":{"name":"Southview Reservoir","category":"reservoir_covered","osm_type":"way","osm_id":"26225175"}},{"type":"Feature","geometry":{"type":"Point","coordinates":[-1.76351,51.10307]},"properties":{"name":"Hurdcott STW","category":"wastewater_plant","osm_type":"way","osm_id":"28164376","operator":"Wessex Water"}},{"type":"Feature","geometry":{"type":"Point","coordinates":[-1.8785,51.10286]},"properties":{"name":"Wishford","category":"wastewater_plant","osm_type":"way","osm_id":"28232921","operator":"Wessex Water","ref":"13353","addr:city":"Salisbury","addr:postcode":"SP2 0BJ"}},{"type":"Feature","geometry":{"type":"Point","coordinates":[-1.10541,51.34173]},"properties":{"name":"Silchester-Scotsmangreen Pumping Station","category":"pumping_station","osm_type":"way","osm_id":"40641715"}},{"type":"Feature","geometry":{"type":"Point","coordinates":[-1.055,51.32867]},"properties":{"name":"Mapped water infrastructure","category":"pumping_station","osm_type":"way","osm_id":"103311098","operator":"Thames Water"}},{"type":"Feature","geometry":{"type":"Point","coordinates":[-1.29773,51.0214]},"properties":{"name":"Twyford Waterworks","category":"water_works","osm_type":"way","osm_id":"104190762","website":"https://www.twyfordwaterworks.co.uk/"}},{"type":"Feature","geometry":{"type":"Point","coordinates":[-1.35339,51.03454]},"properties":{"name":"Yew Hill WSR West","category":"water_works","osm_type":"way","osm_id":"113813760","operator":"Southern Water"}},{"type":"Feature","geometry":{"type":"Point","coordinates":[-1.3307,51.08944]},"properties":{"name":"Harestock WTW","category":"wastewater_plant","osm_type":"way","osm_id":"114407255","operator":"Southern Water","ref":"101718"}},{"type":"Feature","geometry":{"type":"Point","coordinates":[-1.447,51.1508]},"properties":{"name":"Chilbolton Wastewater Plant","category":"wastewater_plant","osm_type":"way","osm_id":"114946662","operator":"Southern Water"}},{"type":"Feature","geometry":{"type":"Point","coordinates":[-1.47381,51.17015]},"properties":{"name":"Fullerton Wastewater Treatment Plant","category":"wastewater_plant","osm_type":"way","osm_id":"114947383","operator":"Southern Water","ref":"101246"}},{"type":"Feature","geometry":{"type":"Point","coordinates":[-1.35503,51.00032]},"properties":{"name":"Otterbourne Hill Reservoir","category":"reservoir_covered","osm_type":"way","osm_id":"129054211","operator":"Southern Water"}},{"type":"Feature","geometry":{"type":"Point","coordinates":[-1.7818,51.16755]},"properties":{"name":"Amesbury Wastewater Treatment Works","category":"wastewater_plant","osm_type":"way","osm_id":"149818682","operator":"Wessex Water"}},{"type":"Feature","geometry":{"type":"Point","coordinates":[-1.24355,51.19288]},"properties":{"name":"Mapped water infrastructure","category":"reservoir_covered","osm_type":"way","osm_id":"159483512"}},{"type":"Feature","geometry":{"type":"Point","coordinates":[-1.24382,51.19299]},"properties":{"name":"Mapped water infrastructure","category":"water_tower","osm_type":"way","osm_id":"159483513"}},{"type":"Feature","geometry":{"type":"Point","coordinates":[-1.29945,51.01416]},"properties":{"name":"Mapped water infrastructure","category":"water_works","osm_type":"way","osm_id":"161703314","operator":"Southern Water"}},{"type":"Feature","geometry":{"type":"Point","coordinates":[-1.16807,51.12426]},"properties":{"name":"Mapped water infrastructure","category":"reservoir_covered","osm_type":"way","osm_id":"183471461"}},{"type":"Feature","geometry":{"type":"Point","coordinates":[-1.18643,51.13893]},"properties":{"name":"Totford Pumping Station","category":"water_works","osm_type":"way","osm_id":"183751987","operator":"Southern Water"}},{"type":"Feature","geometry":{"type":"Point","coordinates":[-1.26735,51.01162]},"properties":{"name":"Mapped water infrastructure","category":"wastewater_plant","osm_type":"way","osm_id":"201028791","operator":"Southern Water","addr:city":"Winchester"}},{"type":"Feature","geometry":{"type":"Point","coordinates":[-1.49103,51.1085]},"properties":{"name":"Stockbridge Wastewater Plant","category":"wastewater_plant","osm_type":"way","osm_id":"203556080"}},{"type":"Feature","geometry":{"type":"Point","coordinates":[-1.26365,51.15067]},"properties":{"name":"Mapped water infrastructure","category":"wastewater_plant","osm_type":"way","osm_id":"237523396"}},{"type":"Feature","geometry":{"type":"Point","coordinates":[-1.81726,51.18866]},"properties":{"name":"Mapped water infrastructure","category":"wastewater_plant","osm_type":"way","osm_id":"238179421"}},{"type":"Feature","geometry":{"type":"Point","coordinates":[-1.33304,51.2181]},"properties":{"name":"Whitchurch WTW","category":"wastewater_plant","osm_type":"way","osm_id":"258377843","operator":"Southern Water","ref":"102274"}},{"type":"Feature","geometry":{"type":"Point","coordinates":[-1.93982,51.22873]},"properties":{"name":"Tilshead WwTW","category":"wastewater_plant","osm_type":"way","osm_id":"258582686","operator":"Wessex Water","ref":"13311"}},{"type":"Feature","geometry":{"type":"Point","coordinates":[-1.25667,51.25292]},"properties":{"name":"Effluent Treatment Plant","category":"wastewater_plant","osm_type":"way","osm_id":"260862433","operator":"Portals Paper"}},{"type":"Feature","geometry":{"type":"Point","coordinates":[-1.17501,51.08082]},"properties":{"name":"Mapped water infrastructure","category":"pumping_station","osm_type":"way","osm_id":"264387169"}},{"type":"Feature","geometry":{"type":"Point","coordinates":[-1.71257,51.42177]},"properties":{"name":"Marlborough STW","category":"wastewater_plant","osm_type":"way","osm_id":"269306841","operator":"Thames Water"}},{"type":"Feature","geometry":{"type":"Point","coordinates":[-1.27927,51.39976]},"properties":{"name":"Newbury Sewage Treatment Works (STW)","category":"wastewater_plant","osm_type":"way","osm_id":"270211906","operator":"Thames Water"}},{"type":"Feature","geometry":{"type":"Point","coordinates":[-1.43338,51.4018]},"properties":{"name":"Kintbury WWTW","category":"wastewater_plant","osm_type":"way","osm_id":"270212686","operator":"Thames Water","ref":"KINTS1ZZ"}},{"type":"Feature","geometry":{"type":"Point","coordinates":[-1.96414,51.49912]},"properties":{"name":"RAF Lyneham STW","category":"wastewater_plant","osm_type":"way","osm_id":"317055525","operator":"Wessex Water"}},{"type":"Feature","geometry":{"type":"Point","coordinates":[-1.9689,51.28134]},"properties":{"name":"Mapped water infrastructure","category":"water_works","osm_type":"way","osm_id":"369296375"}},{"type":"Feature","geometry":{"type":"Point","coordinates":[-1.82025,51.18873]},"properties":{"name":"Mapped water infrastructure","category":"wastewater_plant","osm_type":"way","osm_id":"377391101"}},{"type":"Feature","geometry":{"type":"Point","coordinates":[-1.19063,51.25553]},"properties":{"name":"Ivy Down Lane Oakley WTW","category":"wastewater_plant","osm_type":"way","osm_id":"379014003","operator":"Southern Water","ref":"103121"}},{"type":"Feature","geometry":{"type":"Point","coordinates":[-1.42556,51.14346]},"properties":{"name":"Chilbolton Water Treatment Works","category":"water_works","osm_type":"way","osm_id":"404939952","operator":"Southern Water"}},{"type":"Feature","geometry":{"type":"Point","coordinates":[-1.10211,51.30043]},"properties":{"name":"Sherborne St John WwTW","category":"wastewater_plant","osm_type":"way","osm_id":"407455741","operator":"Thames Water","ref":"SHERS2ZZ"}},{"type":"Feature","geometry":{"type":"Point","coordinates":[-1.77435,51.1842]},"properties":{"name":"Ratfyn WwTW","category":"wastewater_plant","osm_type":"way","osm_id":"422721459","operator":"Wessex Water","ref":"13253"}},{"type":"Feature","geometry":{"type":"Point","coordinates":[-1.10651,51.35963]},"properties":{"name":"Mapped water infrastructure","category":"water_tower","osm_type":"way","osm_id":"454683649"}},{"type":"Feature","geometry":{"type":"Point","coordinates":[-1.14274,51.37694]},"properties":{"name":"Mapped water infrastructure","category":"water_tower","osm_type":"way","osm_id":"468713985"}},{"type":"Feature","geometry":{"type":"Point","coordinates":[-1.37744,51.1763]},"properties":{"name":"Barton Stacey Water Treatment Works","category":"wastewater_plant","osm_type":"way","osm_id":"473438578","operator":"Southern Water","ref":"103056","addr:city":"Winchester","addr:postcode":"SO21 3NP"}},{"type":"Feature","geometry":{"type":"Point","coordinates":[-1.25809,51.39448]},"properties":{"name":"Mapped water infrastructure","category":"pumping_station","osm_type":"way","osm_id":"475490347"}},{"type":"Feature","geometry":{"type":"Point","coordinates":[-1.29013,51.40367]},"properties":{"name":"Mapped water infrastructure","category":"pumping_station","osm_type":"way","osm_id":"475780225"}},{"type":"Feature","geometry":{"type":"Point","coordinates":[-1.29117,51.40402]},"properties":{"name":"Mapped water infrastructure","category":"water_works","osm_type":"way","osm_id":"478287611"}},{"type":"Feature","geometry":{"type":"Point","coordinates":[-1.07283,51.38804]},"properties":{"name":"Mapped water infrastructure","category":"water_tower","osm_type":"way","osm_id":"509934625"}},{"type":"Feature","geometry":{"type":"Point","coordinates":[-1.51391,51.06019]},"properties":{"name":"Brook Wastewater Plant","category":"wastewater_plant","osm_type":"way","osm_id":"556576320"}},{"type":"Feature","geometry":{"type":"Point","coordinates":[-1.77636,51.33336]},"properties":{"name":"Pewsey STW","category":"wastewater_plant","osm_type":"way","osm_id":"574022038"}},{"type":"Feature","geometry":{"type":"Point","coordinates":[-1.80531,51.28653]},"properties":{"name":"Upavon WwTW","category":"wastewater_plant","osm_type":"way","osm_id":"574022088","operator":"Wessex Water","ref":"13320"}},{"type":"Feature","geometry":{"type":"Point","coordinates":[-1.44166,51.20493]},"properties":{"name":"Mapped water infrastructure","category":"pumping_station","osm_type":"way","osm_id":"585450049"}},{"type":"Feature","geometry":{"type":"Point","coordinates":[-1.83503,51.40844]},"properties":{"name":"Mapped water infrastructure","category":"pumping_station","osm_type":"way","osm_id":"587935102"}},{"type":"Feature","geometry":{"type":"Point","coordinates":[-1.30016,51.3863]},"properties":{"name":"Mapped water infrastructure","category":"water_tower","osm_type":"way","osm_id":"611883958"}},{"type":"Feature","geometry":{"type":"Point","coordinates":[-1.02312,51.16442]},"properties":{"name":"Bentworth Subplant","category":"water_works","osm_type":"way","osm_id":"616324311"}},{"type":"Feature","geometry":{"type":"Point","coordinates":[-1.58724,51.49902]},"properties":{"name":"Mapped water infrastructure","category":"water_tower","osm_type":"way","osm_id":"617412086"}},{"type":"Feature","geometry":{"type":"Point","coordinates":[-1.03937,51.11959]},"properties":{"name":"Mapped water infrastructure","category":"water_tower","osm_type":"way","osm_id":"627396517"}},{"type":"Feature","geometry":{"type":"Point","coordinates":[-1.0398,51.11973]},"properties":{"name":"Mapped water infrastructure","category":"water_tower","osm_type":"way","osm_id":"627396518"}},{"type":"Feature","geometry":{"type":"Point","coordinates":[-1.04009,51.11961]},"properties":{"name":"Mapped water infrastructure","category":"water_tower","osm_type":"way","osm_id":"627396519"}},{"type":"Feature","geometry":{"type":"Point","coordinates":[-1.0229,51.16413]},"properties":{"name":"Mapped water infrastructure","category":"water_works","osm_type":"way","osm_id":"629029924"}},{"type":"Feature","geometry":{"type":"Point","coordinates":[-1.04446,51.16147]},"properties":{"name":"Mapped water infrastructure","category":"wastewater_plant","osm_type":"way","osm_id":"642893688"}},{"type":"Feature","geometry":{"type":"Point","coordinates":[-1.64934,51.27358]},"properties":{"name":"Collingbourne Ducis WwTW","category":"wastewater_plant","osm_type":"way","osm_id":"663766640","operator":"Wessex Water","ref":"13071"}},{"type":"Feature","geometry":{"type":"Point","coordinates":[-1.00228,51.14656]},"properties":{"name":"Pumping Station","category":"water_works","osm_type":"way","osm_id":"684025614"}},{"type":"Feature","geometry":{"type":"Point","coordinates":[-1.02503,51.16684]},"properties":{"name":"Mapped water infrastructure","category":"water_works","osm_type":"way","osm_id":"692078124"}},{"type":"Feature","geometry":{"type":"Point","coordinates":[-1.02538,51.16698]},"properties":{"name":"Mapped water infrastructure","category":"water_works","osm_type":"way","osm_id":"692078125"}},{"type":"Feature","geometry":{"type":"Point","coordinates":[-1.02538,51.16727]},"properties":{"name":"Mapped water infrastructure","category":"pumping_station","osm_type":"way","osm_id":"693105827"}},{"type":"Feature","geometry":{"type":"Point","coordinates":[-1.67295,51.04786]},"properties":{"name":"Mapped water infrastructure","category":"wastewater_plant","osm_type":"way","osm_id":"693965486"}},{"type":"Feature","geometry":{"type":"Point","coordinates":[-1.8076,51.10046]},"properties":{"name":"Mapped water infrastructure","category":"water_works","osm_type":"way","osm_id":"708326935","operator":"Wessex Water"}},{"type":"Feature","geometry":{"type":"Point","coordinates":[-1.81139,51.07645]},"properties":{"name":"Mapped water infrastructure","category":"reservoir_covered","osm_type":"way","osm_id":"718492430"}},{"type":"Feature","geometry":{"type":"Point","coordinates":[-1.81126,51.07664]},"properties":{"name":"Mapped water infrastructure","category":"water_works","osm_type":"way","osm_id":"718492431","operator":"Wessex Water"}},{"type":"Feature","geometry":{"type":"Point","coordinates":[-1.71198,51.48601]},"properties":{"name":"Whitefield Hill B Reservoir","category":"reservoir_covered","osm_type":"way","osm_id":"718884284","operator":"Thames Water"}},{"type":"Feature","geometry":{"type":"Point","coordinates":[-1.1471,51.37432]},"properties":{"name":"Mapped water infrastructure","category":"water_works","osm_type":"way","osm_id":"742676189"}},{"type":"Feature","geometry":{"type":"Point","coordinates":[-1.98734,51.35785]},"properties":{"name":"Mapped water infrastructure","category":"pumping_station","osm_type":"way","osm_id":"809705082"}},{"type":"Feature","geometry":{"type":"Point","coordinates":[-1.60467,51.44683]},"properties":{"name":"Ramsbury Pumping Station","category":"pumping_station","osm_type":"way","osm_id":"813833575","operator":"Thames Water","addr:city":"Marlborough","addr:postcode":"SN8 2PH"}},{"type":"Feature","geometry":{"type":"Point","coordinates":[-1.60372,51.45554]},"properties":{"name":"Mapped water infrastructure","category":"reservoir_covered","osm_type":"way","osm_id":"816453831"}},{"type":"Feature","geometry":{"type":"Point","coordinates":[-1.33416,51.23701]},"properties":{"name":"Mapped water infrastructure","category":"water_tower","osm_type":"way","osm_id":"824309377"}},{"type":"Feature","geometry":{"type":"Point","coordinates":[-1.58603,51.44478]},"properties":{"name":"Ramsbury STW","category":"wastewater_plant","osm_type":"way","osm_id":"828196077","operator":"Thames Water"}},{"type":"Feature","geometry":{"type":"Point","coordinates":[-1.71979,51.46862]},"properties":{"name":"Mapped water infrastructure","category":"pumping_station","osm_type":"way","osm_id":"830284100","operator":"Thames Water"}},{"type":"Feature","geometry":{"type":"Point","coordinates":[-1.95142,51.17221]},"properties":{"name":"Castle Barn Reservoir","category":"reservoir_covered","osm_type":"way","osm_id":"836223281"}},{"type":"Feature","geometry":{"type":"Point","coordinates":[-1.91849,51.1854]},"properties":{"name":"Shrewton Reservoir","category":"reservoir_covered","osm_type":"way","osm_id":"836225145"}},{"type":"Feature","geometry":{"type":"Point","coordinates":[-1.91344,51.19032]},"properties":{"name":"Shrewton Pumping Station","category":"pumping_station","osm_type":"way","osm_id":"836225146"}},{"type":"Feature","geometry":{"type":"Point","coordinates":[-1.11515,51.14293]},"properties":{"name":"Mapped water infrastructure","category":"pumping_station","osm_type":"way","osm_id":"875340978"}},{"type":"Feature","geometry":{"type":"Point","coordinates":[-1.3008,51.04857]},"properties":{"name":"Morestead Road Winchester WTW","category":"wastewater_plant","osm_type":"way","osm_id":"884236155","operator":"Southern Water","ref":"100665"}},{"type":"Feature","geometry":{"type":"Point","coordinates":[-1.84169,51.10346]},"properties":{"name":"Mapped water infrastructure","category":"reservoir_covered","osm_type":"way","osm_id":"886310989"}},{"type":"Feature","geometry":{"type":"Point","coordinates":[-1.84238,51.10294]},"properties":{"name":"Mapped water infrastructure","category":"reservoir_covered","osm_type":"way","osm_id":"886310990"}},{"type":"Feature","geometry":{"type":"Point","coordinates":[-1.84119,51.10281]},"properties":{"name":"Camp Hill Reservoir","category":"water_works","osm_type":"way","osm_id":"886310992","operator":"Wessex Water"}},{"type":"Feature","geometry":{"type":"Point","coordinates":[-1.59305,51.44222]},"properties":{"name":"Newtown (Ramsbury) SPS","category":"pumping_station","osm_type":"way","osm_id":"895071983","operator":"Thames Water","ref":"RAMSPIZZ"}},{"type":"Feature","geometry":{"type":"Point","coordinates":[-1.96404,51.36268]},"properties":{"name":"Mapped water infrastructure","category":"pumping_station","osm_type":"way","osm_id":"898529971"}},{"type":"Feature","geometry":{"type":"Point","coordinates":[-1.53736,51.43107]},"properties":{"name":"Mapped water infrastructure","category":"pumping_station","osm_type":"way","osm_id":"899563414","operator":"Thames Water"}},{"type":"Feature","geometry":{"type":"Point","coordinates":[-1.35328,51.03499]},"properties":{"name":"Yew Hill Reservoir","category":"reservoir_covered","osm_type":"way","osm_id":"900728999"}},{"type":"Feature","geometry":{"type":"Point","coordinates":[-1.42521,51.00738]},"properties":{"name":"Ampfield Wastewater Treatment Plant","category":"wastewater_plant","osm_type":"way","osm_id":"906331387","operator":"Southern Water","addr:postcode":"SO51 9BS"}},{"type":"Feature","geometry":{"type":"Point","coordinates":[-1.929,51.35827]},"properties":{"name":"Mapped water infrastructure","category":"wastewater_plant","osm_type":"way","osm_id":"907323388"}},{"type":"Feature","geometry":{"type":"Point","coordinates":[-1.6303,51.0388]},"properties":{"name":"Mapped water infrastructure","category":"wastewater_plant","osm_type":"way","osm_id":"912159735"}},{"type":"Feature","geometry":{"type":"Point","coordinates":[-1.37568,51.07608]},"properties":{"name":"Sparsholt Wastewater Treatment Plant","category":"wastewater_plant","osm_type":"way","osm_id":"913967509","operator":"Southern Water"}},{"type":"Feature","geometry":{"type":"Point","coordinates":[-1.9461,51.38831]},"properties":{"name":"Mapped water infrastructure","category":"reservoir_covered","osm_type":"way","osm_id":"915073745"}},{"type":"Feature","geometry":{"type":"Point","coordinates":[-1.57243,51.03351]},"properties":{"name":"Housing Sewage Treatment Works-Oval Road/Butler's Close","category":"wastewater_plant","osm_type":"way","osm_id":"918197440","operator":"Aster Properties Ltd.","addr:city":"Lockerley"}},{"type":"Feature","geometry":{"type":"Point","coordinates":[-1.58593,51.21705]},"properties":{"name":"Mapped water infrastructure","category":"pumping_station","osm_type":"way","osm_id":"918694306"}},{"type":"Feature","geometry":{"type":"Point","coordinates":[-1.79408,51.442]},"properties":{"name":"Clatford Down Reservoir","category":"reservoir_covered","osm_type":"way","osm_id":"924068985","operator":"Thames Water"}},{"type":"Feature","geometry":{"type":"Point","coordinates":[-1.65865,51.00172]},"properties":{"name":"Mapped water infrastructure","category":"wastewater_plant","osm_type":"way","osm_id":"925813709","operator":"Southern Water"}},{"type":"Feature","geometry":{"type":"Point","coordinates":[-1.78351,51.41351]},"properties":{"name":"Fyfield Wastewater Treatment Works","category":"wastewater_plant","osm_type":"way","osm_id":"926895293","operator":"Thames Water","ref":"FYFIS1ZZ","addr:postcode":"SN8 1PY"}},{"type":"Feature","geometry":{"type":"Point","coordinates":[-1.35169,51.07098]},"properties":{"name":"Mapped water infrastructure","category":"reservoir_covered","osm_type":"way","osm_id":"932391176"}},{"type":"Feature","geometry":{"type":"Point","coordinates":[-1.02864,51.3231]},"properties":{"name":"Sherfield on Loddon WWTW","category":"wastewater_plant","osm_type":"way","osm_id":"943009044","operator":"Thames Water"}},{"type":"Feature","geometry":{"type":"Point","coordinates":[-1.56848,51.40934]},"properties":{"name":"Froxfield Wastewater Treatment Works","category":"wastewater_plant","osm_type":"way","osm_id":"953966955","operator":"Thames Water","ref":"FROXS1ZZ"}},{"type":"Feature","geometry":{"type":"Point","coordinates":[-1.60243,51.14577]},"properties":{"name":"Mapped water infrastructure","category":"wastewater_plant","osm_type":"way","osm_id":"955802466"}},{"type":"Feature","geometry":{"type":"Point","coordinates":[-1.70216,51.46198]},"properties":{"name":"Mapped water infrastructure","category":"reservoir_covered","osm_type":"way","osm_id":"958800001"}},{"type":"Feature","geometry":{"type":"Point","coordinates":[-1.55879,51.14233]},"properties":{"name":"Mapped water infrastructure","category":"wastewater_plant","osm_type":"way","osm_id":"969464135","operator":"Southern Water"}},{"type":"Feature","geometry":{"type":"Point","coordinates":[-1.70649,51.0171]},"properties":{"name":"Mapped water infrastructure","category":"reservoir_covered","osm_type":"way","osm_id":"980082595"}},{"type":"Feature","geometry":{"type":"Point","coordinates":[-1.98929,51.35796]},"properties":{"name":"Mapped water infrastructure","category":"pumping_station","osm_type":"way","osm_id":"981853985"}},{"type":"Feature","geometry":{"type":"Point","coordinates":[-1.4256,51.14332]},"properties":{"name":"Mapped water infrastructure","category":"water_tower","osm_type":"way","osm_id":"988553903"}},{"type":"Feature","geometry":{"type":"Point","coordinates":[-1.50977,51.07214]},"properties":{"name":"Horsebridge Water Works","category":"water_works","osm_type":"way","osm_id":"1009671823","operator":"Southern Water"}},{"type":"Feature","geometry":{"type":"Point","coordinates":[-1.61289,51.24579]},"properties":{"name":"Ludgershall Wastewater Treatment Plant","category":"wastewater_plant","osm_type":"way","osm_id":"1010337883","operator":"Southern Water","ref":"101055"}},{"type":"Feature","geometry":{"type":"Point","coordinates":[-1.97715,51.43129]},"properties":{"name":"Mapped water infrastructure","category":"wastewater_plant","osm_type":"way","osm_id":"1020633272"}},{"type":"Feature","geometry":{"type":"Point","coordinates":[-1.98009,51.47981]},"properties":{"name":"Hilmarton WwTW","category":"wastewater_plant","osm_type":"way","osm_id":"1020642851","operator":"Wessex Water","ref":"13148"}},{"type":"Feature","geometry":{"type":"Point","coordinates":[-1.33804,51.15513]},"properties":{"name":"Saddlers Close Sutton Scotney WTW","category":"wastewater_plant","osm_type":"way","osm_id":"1025496371","operator":"Southern Water"}},{"type":"Feature","geometry":{"type":"Point","coordinates":[-1.66062,51.20611]},"properties":{"name":"Shipton Bellinger WTW","category":"wastewater_plant","osm_type":"way","osm_id":"1025502507","operator":"Southern Water"}},{"type":"Feature","geometry":{"type":"Point","coordinates":[-1.19783,51.21873]},"properties":{"name":"North Waltham WTW","category":"wastewater_plant","osm_type":"way","osm_id":"1025503387","operator":"Southern Water"}},{"type":"Feature","geometry":{"type":"Point","coordinates":[-1.40605,51.31581]},"properties":{"name":"Barn Close Ashmansworth WTW","category":"wastewater_plant","osm_type":"way","osm_id":"1025505238","operator":"Southern Water"}},{"type":"Feature","geometry":{"type":"Point","coordinates":[-1.44165,51.46303]},"properties":{"name":"East Shefford WWTW","category":"wastewater_plant","osm_type":"way","osm_id":"1026073061","operator":"Thames Water"}},{"type":"Feature","geometry":{"type":"Point","coordinates":[-1.72532,51.41297]},"properties":{"name":"Mapped water infrastructure","category":"pumping_station","osm_type":"way","osm_id":"1026866083"}},{"type":"Feature","geometry":{"type":"Point","coordinates":[-1.72371,51.41437]},"properties":{"name":"Mapped water infrastructure","category":"pumping_station","osm_type":"way","osm_id":"1026866084","operator":"Thames Water"}},{"type":"Feature","geometry":{"type":"Point","coordinates":[-1.39449,51.08833]},"properties":{"name":"Mapped water infrastructure","category":"wastewater_plant","osm_type":"way","osm_id":"1029848116"}},{"type":"Feature","geometry":{"type":"Point","coordinates":[-1.33614,51.00955]},"properties":{"name":"Mapped water infrastructure","category":"wastewater_plant","osm_type":"way","osm_id":"1030659097"}},{"type":"Feature","geometry":{"type":"Point","coordinates":[-1.78233,51.23325]},"properties":{"name":"Netheravon WwTW","category":"wastewater_plant","osm_type":"way","osm_id":"1039282363","operator":"Wessex Water","ref":"13220"}},{"type":"Feature","geometry":{"type":"Point","coordinates":[-1.71337,51.27641]},"properties":{"name":"Everleigh WwTW","category":"wastewater_plant","osm_type":"way","osm_id":"1040002335","operator":"Wessex Water","ref":"13119"}},{"type":"Feature","geometry":{"type":"Point","coordinates":[-1.87082,51.31867]},"properties":{"name":"Marden WwTW","category":"wastewater_plant","osm_type":"way","osm_id":"1040555058","operator":"Wessex Water","ref":"13196"}},{"type":"Feature","geometry":{"type":"Point","coordinates":[-1.15919,51.07186]},"properties":{"name":"New Alresford STW","category":"wastewater_plant","osm_type":"way","osm_id":"1042623089","operator":"Southern Water","ref":"101574"}},{"type":"Feature","geometry":{"type":"Point","coordinates":[-1.59693,51.00049]},"properties":{"name":"Graemar Cottages Sherfield English WTW","category":"wastewater_plant","osm_type":"way","osm_id":"1045879748","operator":"Southern Water","ref":"111161"}},{"type":"Feature","geometry":{"type":"Point","coordinates":[-1.59556,51.38576]},"properties":{"name":"Great Bedwyn Water Treatment Works","category":"water_works","osm_type":"way","osm_id":"1051669316"}},{"type":"Feature","geometry":{"type":"Point","coordinates":[-1.72619,51.42866]},"properties":{"name":"Mapped water infrastructure","category":"pumping_station","osm_type":"way","osm_id":"1059392450"}},{"type":"Feature","geometry":{"type":"Point","coordinates":[-1.34547,51.11798]},"properties":{"name":"Mapped water infrastructure","category":"water_tower","osm_type":"way","osm_id":"1060109232"}},{"type":"Feature","geometry":{"type":"Point","coordinates":[-1.89718,51.10991]},"properties":{"name":"Mapped water infrastructure","category":"reservoir_covered","osm_type":"way","osm_id":"1071115076"}},{"type":"Feature","geometry":{"type":"Point","coordinates":[-1.51339,51.03782]},"properties":{"name":"101853","category":"pumping_station","osm_type":"way","osm_id":"1075983977","operator":"Southern Water","ref":"101853"}},{"type":"Feature","geometry":{"type":"Point","coordinates":[-1.87481,51.35877]},"properties":{"name":"Stanton St Bernard WwTW","category":"wastewater_plant","osm_type":"way","osm_id":"1103783389","operator":"Wessex Water","ref":"13287","addr:city":"Stanton St Bernard","addr:postcode":"SN8 4LJ"}},{"type":"Feature","geometry":{"type":"Point","coordinates":[-1.71164,51.46672]},"properties":{"name":"Mapped water infrastructure","category":"pumping_station","osm_type":"way","osm_id":"1108410165","operator":"Thames Water"}},{"type":"Feature","geometry":{"type":"Point","coordinates":[-1.33148,51.00683]},"properties":{"name":"Mapped water infrastructure","category":"water_works","osm_type":"way","osm_id":"1110599938","operator":"Southern Water"}},{"type":"Feature","geometry":{"type":"Point","coordinates":[-1.2989,51.01381]},"properties":{"name":"Mapped water infrastructure","category":"reservoir_covered","osm_type":"way","osm_id":"1110708198","operator":"Southern Water"}},{"type":"Feature","geometry":{"type":"Point","coordinates":[-1.94487,51.31674]},"properties":{"name":"Urchfont WwTW","category":"wastewater_plant","osm_type":"way","osm_id":"1112792914","operator":"Wessex Water","ref":"18714"}},{"type":"Feature","geometry":{"type":"Point","coordinates":[-1.91501,51.07757]},"properties":{"name":"Barford St Martin WwTW","category":"wastewater_plant","osm_type":"way","osm_id":"1112797477","operator":"Wessex Water","ref":"13015"}},{"type":"Feature","geometry":{"type":"Point","coordinates":[-1.33348,51.1537]},"properties":{"name":"Gratton Close Sutton Scotney WTW","category":"wastewater_plant","osm_type":"way","osm_id":"1113389029","operator":"Southern Water","ref":"108031"}},{"type":"Feature","geometry":{"type":"Point","coordinates":[-1.54705,51.0322]},"properties":{"name":"Dunbridge Wastewater Treatment Works","category":"wastewater_plant","osm_type":"way","osm_id":"1113470904","operator":"Southern Water","ref":"101116"}},{"type":"Feature","geometry":{"type":"Point","coordinates":[-1.39143,51.02312]},"properties":{"name":"Hursley Pumping Station","category":"pumping_station","osm_type":"way","osm_id":"1115460617","operator":"Southern Water","addr:city":"Winchester","addr:postcode":"SO21 2JA"}},{"type":"Feature","geometry":{"type":"Point","coordinates":[-1.07619,51.014]},"properties":{"name":"West Meon pumping station","category":"pumping_station","osm_type":"way","osm_id":"1134356650"}},{"type":"Feature","geometry":{"type":"Point","coordinates":[-1.07542,51.02098]},"properties":{"name":"Mapped water infrastructure","category":"reservoir_covered","osm_type":"way","osm_id":"1134357359"}},{"type":"Feature","geometry":{"type":"Point","coordinates":[-1.07554,51.02073]},"properties":{"name":"Mapped water infrastructure","category":"reservoir_covered","osm_type":"way","osm_id":"1134357360"}},{"type":"Feature","geometry":{"type":"Point","coordinates":[-1.9161,51.49789]},"properties":{"name":"Bushton WwTW","category":"wastewater_plant","osm_type":"way","osm_id":"1160482046","operator":"Wessex Water","ref":"19509"}},{"type":"Feature","geometry":{"type":"Point","coordinates":[-1.77303,51.41979]},"properties":{"name":"Clatford Pumping Station","category":"pumping_station","osm_type":"way","osm_id":"1184329184","operator":"Thames Water"}},{"type":"Feature","geometry":{"type":"Point","coordinates":[-1.65453,51.40862]},"properties":{"name":"Mapped water infrastructure","category":"pumping_station","osm_type":"way","osm_id":"1192595352"}},{"type":"Feature","geometry":{"type":"Point","coordinates":[-1.34906,51.38029]},"properties":{"name":"Mapped water infrastructure","category":"water_tower","osm_type":"way","osm_id":"1193854479"}},{"type":"Feature","geometry":{"type":"Point","coordinates":[-1.35449,51.37513]},"properties":{"name":"Mapped water infrastructure","category":"reservoir_covered","osm_type":"way","osm_id":"1211767631","operator":"Thames Water"}},{"type":"Feature","geometry":{"type":"Point","coordinates":[-1.04668,51.45231]},"properties":{"name":"Mapped water infrastructure","category":"reservoir_covered","osm_type":"way","osm_id":"1223913661"}},{"type":"Feature","geometry":{"type":"Point","coordinates":[-1.73211,51.47055]},"properties":{"name":"Mapped water infrastructure","category":"reservoir_covered","osm_type":"way","osm_id":"1230380902"}},{"type":"Feature","geometry":{"type":"Point","coordinates":[-1.82666,51.41218]},"properties":{"name":"Mapped water infrastructure","category":"pumping_station","osm_type":"way","osm_id":"1239918682"}},{"type":"Feature","geometry":{"type":"Point","coordinates":[-1.92342,51.42691]},"properties":{"name":"Yatesbury Calne","category":"reservoir_covered","osm_type":"way","osm_id":"1241105009"}},{"type":"Feature","geometry":{"type":"Point","coordinates":[-1.96123,51.4386]},"properties":{"name":"Mapped water infrastructure","category":"reservoir_covered","osm_type":"way","osm_id":"1241126900"}},{"type":"Feature","geometry":{"type":"Point","coordinates":[-1.69503,51.48695]},"properties":{"name":"Whitefield Hill Reservoir","category":"reservoir_covered","osm_type":"way","osm_id":"1243516044"}},{"type":"Feature","geometry":{"type":"Point","coordinates":[-1.82418,51.28826]},"properties":{"name":"Mapped water infrastructure","category":"reservoir_covered","osm_type":"way","osm_id":"1265642230"}},{"type":"Feature","geometry":{"type":"Point","coordinates":[-1.82532,51.49064]},"properties":{"name":"Mapped water infrastructure","category":"reservoir_covered","osm_type":"way","osm_id":"1270627794"}},{"type":"Feature","geometry":{"type":"Point","coordinates":[-1.61851,51.48893]},"properties":{"name":"Mapped water infrastructure","category":"pumping_station","osm_type":"way","osm_id":"1303322139","operator":"Thames Water"}},{"type":"Feature","geometry":{"type":"Point","coordinates":[-1.52351,51.41018]},"properties":{"name":"Mapped water infrastructure","category":"reservoir_covered","osm_type":"way","osm_id":"1304336761","operator":"Thames Water"}},{"type":"Feature","geometry":{"type":"Point","coordinates":[-1.52556,51.41304]},"properties":{"name":"Mapped water infrastructure","category":"pumping_station","osm_type":"way","osm_id":"1305062435"}},{"type":"Feature","geometry":{"type":"Point","coordinates":[-1.51139,51.41609]},"properties":{"name":"Mapped water infrastructure","category":"pumping_station","osm_type":"way","osm_id":"1308834074"}},{"type":"Feature","geometry":{"type":"Point","coordinates":[-1.2844,51.44447]},"properties":{"name":"Mapped water infrastructure","category":"pumping_station","osm_type":"way","osm_id":"1314672354","operator":"Thames Water"}},{"type":"Feature","geometry":{"type":"Point","coordinates":[-1.37327,51.36028]},"properties":{"name":"Mapped water infrastructure","category":"pumping_station","osm_type":"way","osm_id":"1333180755","operator":"Thames Water"}},{"type":"Feature","geometry":{"type":"Point","coordinates":[-1.28549,51.08659]},"properties":{"name":"Mapped water infrastructure","category":"wastewater_plant","osm_type":"way","osm_id":"1333297348"}},{"type":"Feature","geometry":{"type":"Point","coordinates":[-1.61142,51.07878]},"properties":{"name":"Mapped water infrastructure","category":"water_works","osm_type":"way","osm_id":"1337515835"}},{"type":"Feature","geometry":{"type":"Point","coordinates":[-1.08455,51.42003]},"properties":{"name":"Mapped water infrastructure","category":"water_works","osm_type":"way","osm_id":"1356160642"}},{"type":"Feature","geometry":{"type":"Point","coordinates":[-1.4814,51.2094]},"properties":{"name":"Mapped water infrastructure","category":"pumping_station","osm_type":"way","osm_id":"1372039762"}},{"type":"Feature","geometry":{"type":"Point","coordinates":[-1.9138,51.32045]},"properties":{"name":"Mapped water infrastructure","category":"wastewater_plant","osm_type":"way","osm_id":"1381167913"}},{"type":"Feature","geometry":{"type":"Point","coordinates":[-1.71032,51.48583]},"properties":{"name":"Whitefield Hill A Reservoir","category":"reservoir_covered","osm_type":"way","osm_id":"1385891727","operator":"Thames Water"}},{"type":"Feature","geometry":{"type":"Point","coordinates":[-1.11493,51.49761]},"properties":{"name":"Basildon Park WwTW","category":"wastewater_plant","osm_type":"way","osm_id":"1390779987","operator":"Thames Water","ref":"BASIS2ZZ"}},{"type":"Feature","geometry":{"type":"Point","coordinates":[-1.32807,51.00692]},"properties":{"name":"Mapped water infrastructure","category":"water_works","osm_type":"way","osm_id":"1394406322"}},{"type":"Feature","geometry":{"type":"Point","coordinates":[-1.3289,51.00687]},"properties":{"name":"Mapped water infrastructure","category":"water_works","osm_type":"way","osm_id":"1394406323"}},{"type":"Feature","geometry":{"type":"Point","coordinates":[-1.32551,51.00733]},"properties":{"name":"Mapped water infrastructure","category":"water_works","osm_type":"way","osm_id":"1394406324"}},{"type":"Feature","geometry":{"type":"Point","coordinates":[-1.32452,51.00643]},"properties":{"name":"Mapped water infrastructure","category":"water_works","osm_type":"way","osm_id":"1394406325"}},{"type":"Feature","geometry":{"type":"Point","coordinates":[-1.32171,51.0043]},"properties":{"name":"Mapped water infrastructure","category":"water_works","osm_type":"way","osm_id":"1394406327"}},{"type":"Feature","geometry":{"type":"Point","coordinates":[-1.32336,51.00521]},"properties":{"name":"Mapped water infrastructure","category":"water_works","osm_type":"way","osm_id":"1394406328"}},{"type":"Feature","geometry":{"type":"Point","coordinates":[-1.90108,51.14778]},"properties":{"name":"Berwick St James WwTW","category":"wastewater_plant","osm_type":"way","osm_id":"1408836343","operator":"Wessex Water","ref":"13019"}},{"type":"Feature","geometry":{"type":"Point","coordinates":[-1.58478,51.44859]},"properties":{"name":"Whittonditch (Ramsbury) SPS","category":"pumping_station","osm_type":"way","osm_id":"1410132309","operator":"Thames Water","ref":"RAMSP2ZZ"}},{"type":"Feature","geometry":{"type":"Point","coordinates":[-1.04824,51.45167]},"properties":{"name":"Mapped water infrastructure","category":"reservoir_covered","osm_type":"way","osm_id":"1411352014"}},{"type":"Feature","geometry":{"type":"Point","coordinates":[-1.04825,51.45206]},"properties":{"name":"Mapped water infrastructure","category":"reservoir_covered","osm_type":"way","osm_id":"1411352015"}},{"type":"Feature","geometry":{"type":"Point","coordinates":[-1.04918,51.45205]},"properties":{"name":"Mapped water infrastructure","category":"reservoir_covered","osm_type":"way","osm_id":"1411352016"}},{"type":"Feature","geometry":{"type":"Point","coordinates":[-1.05054,51.45204]},"properties":{"name":"Mapped water infrastructure","category":"reservoir_covered","osm_type":"way","osm_id":"1411352017"}},{"type":"Feature","geometry":{"type":"Point","coordinates":[-1.05054,51.45166]},"properties":{"name":"Mapped water infrastructure","category":"reservoir_covered","osm_type":"way","osm_id":"1411352018"}},{"type":"Feature","geometry":{"type":"Point","coordinates":[-1.04918,51.45205]},"properties":{"name":"Mapped water infrastructure","category":"reservoir_covered","osm_type":"way","osm_id":"1411352019"}},{"type":"Feature","geometry":{"type":"Point","coordinates":[-1.0492,51.45245]},"properties":{"name":"Mapped water infrastructure","category":"reservoir_covered","osm_type":"way","osm_id":"1411352020"}},{"type":"Feature","geometry":{"type":"Point","coordinates":[-1.71524,51.4829]},"properties":{"name":"Whitefield Farm Septic Tank","category":"wastewater_plant","osm_type":"way","osm_id":"1413002978","operator":"Thames Water"}},{"type":"Feature","geometry":{"type":"Point","coordinates":[-1.78361,51.29088]},"properties":{"name":"Mapped water infrastructure","category":"wastewater_plant","osm_type":"way","osm_id":"1418708548"}},{"type":"Feature","geometry":{"type":"Point","coordinates":[-1.26077,51.2277]},"properties":{"name":"Mapped water infrastructure","category":"water_works","osm_type":"way","osm_id":"1422827484"}},{"type":"Feature","geometry":{"type":"Point","coordinates":[-1.95058,51.00642]},"properties":{"name":"Mapped water infrastructure","category":"reservoir_covered","osm_type":"way","osm_id":"1428428430"}},{"type":"Feature","geometry":{"type":"Point","coordinates":[-1.90056,51.14924]},"properties":{"name":"Berwick St James Sewage Pumping Station","category":"wastewater_plant","osm_type":"way","osm_id":"1466061823","operator":"Wessex Water","ref":"14336"}},{"type":"Feature","geometry":{"type":"Point","coordinates":[-1.90501,51.13749]},"properties":{"name":"Overstreet Sewage Pumping Station","category":"wastewater_plant","osm_type":"way","osm_id":"1466061824","operator":"Wessex Water","ref":"14313"}},{"type":"Feature","geometry":{"type":"Point","coordinates":[-1.90202,51.13151]},"properties":{"name":"Pelican Inn Sewage Pumping Station","category":"wastewater_plant","osm_type":"way","osm_id":"1466061825","operator":"Wessex Water"}},{"type":"Feature","geometry":{"type":"Point","coordinates":[-1.69855,51.15579]},"properties":{"name":"Mapped water infrastructure","category":"pumping_station","osm_type":"way","osm_id":"1468356143"}},{"type":"Feature","geometry":{"type":"Point","coordinates":[-1.10596,51.40991]},"properties":{"name":"Mapped water infrastructure","category":"reservoir_covered","osm_type":"way","osm_id":"1470149016","capacity":"200"}},{"type":"Feature","geometry":{"type":"Point","coordinates":[-1.42551,51.441]},"properties":{"name":"Mapped water infrastructure","category":"reservoir_covered","osm_type":"way","osm_id":"1534004993"}},{"type":"Feature","geometry":{"type":"Point","coordinates":[-1.16592,51.36115]},"properties":{"name":"Mapped water infrastructure","category":"water_tower","osm_type":"way","osm_id":"77112748"}},{"type":"Feature","geometry":{"type":"Point","coordinates":[-1.04706,51.45158]},"properties":{"name":"Tilehurst Water Tower","category":"water_tower","osm_type":"way","osm_id":"126185343","addr:city":"Reading"}},{"type":"Feature","geometry":{"type":"Point","coordinates":[-1.07478,51.48535]},"properties":{"name":"Pangbourne Sewage Treatment Works","category":"wastewater_plant","osm_type":"way","osm_id":"135374070","operator":"Thames Water"}},{"type":"Feature","geometry":{"type":"Point","coordinates":[-1.7578,51.08183]},"properties":{"name":"Mapped water infrastructure","category":"reservoir_covered","osm_type":"way","osm_id":"142891932"}},{"type":"Feature","geometry":{"type":"Point","coordinates":[-1.17551,51.39259]},"properties":{"name":"Woolhampton Sewage Treatment Works","category":"wastewater_plant","osm_type":"way","osm_id":"166895758","operator":"Thames Water"}},{"type":"Feature","geometry":{"type":"Point","coordinates":[-1.05366,51.41278]},"properties":{"name":"Burghfield Sewage Treatment Works","category":"wastewater_plant","osm_type":"way","osm_id":"195217924","operator":"Thames Water"}},{"type":"Feature","geometry":{"type":"Point","coordinates":[-1.03413,51.37633]},"properties":{"name":"Stratfield Mortimer Sewage Treatment Works","category":"wastewater_plant","osm_type":"way","osm_id":"217729746","operator":"Thames Water"}},{"type":"Feature","geometry":{"type":"Point","coordinates":[-1.39059,51.47723]},"properties":{"name":"Welford Wastewater Treatment Works","category":"wastewater_plant","osm_type":"way","osm_id":"257357787","operator":"Thames Water","ref":"WELFS1ZZ"}},{"type":"Feature","geometry":{"type":"Point","coordinates":[-1.32633,51.4621]},"properties":{"name":"Chieveley Wastewater Treatment Works","category":"wastewater_plant","osm_type":"way","osm_id":"257542532","operator":"Thames Water","ref":"CHIES1ZZ"}},{"type":"Feature","geometry":{"type":"Point","coordinates":[-1.33121,51.00691]},"properties":{"name":"Mapped water infrastructure","category":"pumping_station","osm_type":"way","osm_id":"299884012"}},{"type":"Feature","geometry":{"type":"Point","coordinates":[-1.049,51.45188]},"properties":{"name":"Mapped water infrastructure","category":"water_works","osm_type":"way","osm_id":"345768095"}},{"type":"Feature","geometry":{"type":"Point","coordinates":[-1.09279,51.49109]},"properties":{"name":"Whitchurch Sewage Treatment Works","category":"wastewater_plant","osm_type":"way","osm_id":"388705953","operator":"Thames Water","ref":"WHITS1ZZ"}},{"type":"Feature","geometry":{"type":"Point","coordinates":[-1.62587,51.35892]},"properties":{"name":"Crofton Pumping Station","category":"pumping_station","osm_type":"way","osm_id":"412344104","website":"https://www.croftonbeamengines.org/"}},{"type":"Feature","geometry":{"type":"Point","coordinates":[-1.7323,51.47066]},"properties":{"name":"Mapped water infrastructure","category":"pumping_station","osm_type":"way","osm_id":"439914258","operator":"Thames Water"}},{"type":"Feature","geometry":{"type":"Point","coordinates":[-1.15172,51.38527]},"properties":{"name":"Aldermaston Sewage Treatment Works","category":"wastewater_plant","osm_type":"way","osm_id":"468713983","operator":"Thames Water"}},{"type":"Feature","geometry":{"type":"Point","coordinates":[-1.24673,51.37804]},"properties":{"name":"Mapped water infrastructure","category":"reservoir_covered","osm_type":"way","osm_id":"475265182"}},{"type":"Feature","geometry":{"type":"Point","coordinates":[-1.2785,51.36772]},"properties":{"name":"Greenham Common WwTW","category":"wastewater_plant","osm_type":"way","osm_id":"520650440","operator":"Thames Water","ref":"GREES1ZZ"}},{"type":"Feature","geometry":{"type":"Point","coordinates":[-1.23989,51.3451]},"properties":{"name":"Kingsclere Sewage Treatment Works","category":"wastewater_plant","osm_type":"way","osm_id":"553528719","operator":"Thames Water","ref":"KINGS1ZZ"}},{"type":"Feature","geometry":{"type":"Point","coordinates":[-1.32464,51.06256]},"properties":{"name":"Mapped water infrastructure","category":"water_tower","osm_type":"way","osm_id":"556399866"}},{"type":"Feature","geometry":{"type":"Point","coordinates":[-1.85535,51.43458]},"properties":{"name":"Mapped water infrastructure","category":"pumping_station","osm_type":"way","osm_id":"587935101"}},{"type":"Feature","geometry":{"type":"Point","coordinates":[-1.58904,51.49577]},"properties":{"name":"Baydon Wastewater Treatment Works","category":"wastewater_plant","osm_type":"way","osm_id":"617415916","operator":"Thames Water","ref":"BAYDS1ZZ","addr:city":"Baydon","addr:postcode":"SN8 2TD"}},{"type":"Feature","geometry":{"type":"Point","coordinates":[-1.70044,51.48671]},"properties":{"name":"Whitefield Hill Reservoir","category":"reservoir_covered","osm_type":"way","osm_id":"621230197"}},{"type":"Feature","geometry":{"type":"Point","coordinates":[-1.34817,51.36065]},"properties":{"name":"Wash Water WWTW","category":"wastewater_plant","osm_type":"way","osm_id":"626520980","operator":"Thames Water","ref":"WASHS1ZZ"}},{"type":"Feature","geometry":{"type":"Point","coordinates":[-1.23495,51.47862]},"properties":{"name":"Hampstead Norreys Wastewater Treatment Works","category":"wastewater_plant","osm_type":"way","osm_id":"685492073","operator":"Thames Water","ref":"HAMPS2ZZ"}},{"type":"Feature","geometry":{"type":"Point","coordinates":[-1.03283,51.29222]},"properties":{"name":"Basingstoke Sewage Treatment Works","category":"wastewater_plant","osm_type":"way","osm_id":"689356313","operator":"Thames Water"}},{"type":"Feature","geometry":{"type":"Point","coordinates":[-1.39149,51.02316]},"properties":{"name":"Mapped water infrastructure","category":"pumping_station","osm_type":"way","osm_id":"706233614"}},{"type":"Feature","geometry":{"type":"Point","coordinates":[-1.49326,51.41133]},"properties":{"name":"Hungerford WwTW","category":"wastewater_plant","osm_type":"way","osm_id":"822652229","operator":"Thames Water","ref":"HUNGS1ZZ"}},{"type":"Feature","geometry":{"type":"Point","coordinates":[-1.42553,51.44675]},"properties":{"name":"Wickham Wastewater Treatment Works","category":"wastewater_plant","osm_type":"way","osm_id":"853443902","operator":"Thames Water","ref":"WICKS1ZZ"}},{"type":"Feature","geometry":{"type":"Point","coordinates":[-1.59368,51.38192]},"properties":{"name":"Great Bedwyn Wastewater Treatment Works","category":"wastewater_plant","osm_type":"way","osm_id":"857892311","operator":"Thames Water"}},{"type":"Feature","geometry":{"type":"Point","coordinates":[-1.10945,51.34607]},"properties":{"name":"Silchester Sewage Treatment Works","category":"wastewater_plant","osm_type":"way","osm_id":"871722452","operator":"Thames Water"}},{"type":"Feature","geometry":{"type":"Point","coordinates":[-1.64724,51.43738]},"properties":{"name":"Axford Pumping Station","category":"pumping_station","osm_type":"way","osm_id":"888076785","operator":"Thames Water"}},{"type":"Feature","geometry":{"type":"Point","coordinates":[-1.61981,51.35378]},"properties":{"name":"Wilton Wastewater Treatment Works","category":"wastewater_plant","osm_type":"way","osm_id":"888076787","operator":"Thames Water"}},{"type":"Feature","geometry":{"type":"Point","coordinates":[-1.53931,51.42646]},"properties":{"name":"Chilton Foliat WwTW","category":"wastewater_plant","osm_type":"way","osm_id":"897605791","operator":"Thames Water","ref":"CHILS1ZZ"}},{"type":"Feature","geometry":{"type":"Point","coordinates":[-1.4554,51.00591]},"properties":{"name":"Mapped water infrastructure","category":"pumping_station","osm_type":"way","osm_id":"904584345"}},{"type":"Feature","geometry":{"type":"Point","coordinates":[-1.10609,51.2667]},"properties":{"name":"Westham Pumping Station","category":"pumping_station","osm_type":"way","osm_id":"910164705","operator":"South East Water"}},{"type":"Feature","geometry":{"type":"Point","coordinates":[-1.04138,51.34823]},"properties":{"name":"Stratfield Saye Wastewater Treatment Works","category":"wastewater_plant","osm_type":"way","osm_id":"914768613","operator":"Thames Water"}},{"type":"Feature","geometry":{"type":"Point","coordinates":[-1.49119,51.12804]},"properties":{"name":"Mapped water infrastructure","category":"pumping_station","osm_type":"way","osm_id":"917988355"}},{"type":"Feature","geometry":{"type":"Point","coordinates":[-1.47412,51.17146]},"properties":{"name":"Mapped water infrastructure","category":"pumping_station","osm_type":"way","osm_id":"925617557"}},{"type":"Feature","geometry":{"type":"Point","coordinates":[-1.4767,51.17047]},"properties":{"name":"Mapped water infrastructure","category":"pumping_station","osm_type":"way","osm_id":"925617558"}},{"type":"Feature","geometry":{"type":"Point","coordinates":[-1.14839,51.41983]},"properties":{"name":"Beenham Wastewater Treatment Works","category":"wastewater_plant","osm_type":"way","osm_id":"927592426","operator":"Thames Water"}},{"type":"Feature","geometry":{"type":"Point","coordinates":[-1.1755,51.42049]},"properties":{"name":"Chapel Row Wastewater Treatment Works","category":"wastewater_plant","osm_type":"way","osm_id":"930768326","operator":"Thames Water"}},{"type":"Feature","geometry":{"type":"Point","coordinates":[-1.41184,51.34758]},"properties":{"name":"Mapped water infrastructure","category":"pumping_station","osm_type":"way","osm_id":"934798541"}},{"type":"Feature","geometry":{"type":"Point","coordinates":[-1.20229,51.35056]},"properties":{"name":"Ashford Hill Sewage Treatment Works","category":"wastewater_plant","osm_type":"way","osm_id":"976106773","operator":"Thames Water"}},{"type":"Feature","geometry":{"type":"Point","coordinates":[-1.38199,51.44479]},"properties":{"name":"Boxford Wastewater Treatment Works","category":"wastewater_plant","osm_type":"way","osm_id":"976121658","operator":"Thames Water"}},{"type":"Feature","geometry":{"type":"Point","coordinates":[-1.8337,51.49134]},"properties":{"name":"Broad Hinton Wastewater Treatment Works","category":"wastewater_plant","osm_type":"way","osm_id":"976123300","operator":"Thames Water","ref":"BROAS1ZZ"}},{"type":"Feature","geometry":{"type":"Point","coordinates":[-1.21467,51.42529]},"properties":{"name":"Bucklebury (Upper Common) Wastewater Treatment Works","category":"wastewater_plant","osm_type":"way","osm_id":"976123969","operator":"Thames Water"}},{"type":"Feature","geometry":{"type":"Point","coordinates":[-1.62879,51.34654]},"properties":{"name":"East Grafton WwTW","category":"wastewater_plant","osm_type":"way","osm_id":"976250030","operator":"Thames Water","ref":"EGRAS1ZZ"}},{"type":"Feature","geometry":{"type":"Point","coordinates":[-1.31229,51.36131]},"properties":{"name":"Adbury Holt Wastewater Treatment Works","category":"wastewater_plant","osm_type":"way","osm_id":"976408041","operator":"Thames Water","ref":"GABLS1ZZ"}},{"type":"Feature","geometry":{"type":"Point","coordinates":[-1.40116,51.38426]},"properties":{"name":"Hamstead Marshall Wastewater Treatment Works","category":"wastewater_plant","osm_type":"way","osm_id":"976410533","operator":"Thames Water"}},{"type":"Feature","geometry":{"type":"Point","coordinates":[-1.22745,51.29044]},"properties":{"name":"Hannington (Hants) Wastewater Treatment Works","category":"wastewater_plant","osm_type":"way","osm_id":"976412770","operator":"Southern Water","ref":"100902"}},{"type":"Feature","geometry":{"type":"Point","coordinates":[-1.36107,51.48032]},"properties":{"name":"Leckhampstead Wastewater Treatment Works","category":"wastewater_plant","osm_type":"way","osm_id":"976481068","operator":"Thames Water","ref":"LECKS1ZZ"}},{"type":"Feature","geometry":{"type":"Point","coordinates":[-1.20167,51.40282]},"properties":{"name":"Midgham Sewage Treatment Works","category":"wastewater_plant","osm_type":"way","osm_id":"976580872","operator":"Thames Water"}},{"type":"Feature","geometry":{"type":"Point","coordinates":[-1.54566,51.37199]},"properties":{"name":"Shalbourne Wastewater Treatment Works","category":"wastewater_plant","osm_type":"way","osm_id":"976665769","operator":"Thames Water"}},{"type":"Feature","geometry":{"type":"Point","coordinates":[-1.17485,51.48601]},"properties":{"name":"Ashampstead Stubbles Wastewater Treatment Works","category":"wastewater_plant","osm_type":"way","osm_id":"976674953","operator":"Thames Water"}},{"type":"Feature","geometry":{"type":"Point","coordinates":[-1.22706,51.43342]},"properties":{"name":"Tylers Lane Wastewater Treatment Works","category":"wastewater_plant","osm_type":"way","osm_id":"976693674","operator":"Thames Water"}},{"type":"Feature","geometry":{"type":"Point","coordinates":[-1.34561,51.44586]},"properties":{"name":"Winterbourne Wastewater Treatment Works","category":"wastewater_plant","osm_type":"way","osm_id":"976699975","operator":"Thames Water"}},{"type":"Feature","geometry":{"type":"Point","coordinates":[-1.19263,51.32598]},"properties":{"name":"Wolverton Townsend Sewage Treatment Works","category":"wastewater_plant","osm_type":"way","osm_id":"976700638","operator":"Thames Water"}},{"type":"Feature","geometry":{"type":"Point","coordinates":[-1.20002,51.46565]},"properties":{"name":"Yattendon Wastewater Treatment Works","category":"wastewater_plant","osm_type":"way","osm_id":"976701498","operator":"Thames Water"}},{"type":"Feature","geometry":{"type":"Point","coordinates":[-1.44726,51.14713]},"properties":{"name":"Mapped water infrastructure","category":"pumping_station","osm_type":"way","osm_id":"1000245485"}},{"type":"Feature","geometry":{"type":"Point","coordinates":[-1.44461,51.39481]},"properties":{"name":"Mapped water infrastructure","category":"pumping_station","osm_type":"way","osm_id":"1040962225"}},{"type":"Feature","geometry":{"type":"Point","coordinates":[-1.89144,51.01804]},"properties":{"name":"Mapped water infrastructure","category":"reservoir_covered","osm_type":"way","osm_id":"1042405846"}},{"type":"Feature","geometry":{"type":"Point","coordinates":[-1.10576,51.26686]},"properties":{"name":"West Ham Depot and Pumping Station","category":"water_works","osm_type":"way","osm_id":"1088240464","operator":"South East Water","addr:postcode":"RG21 6YR"}},{"type":"Feature","geometry":{"type":"Point","coordinates":[-1.89611,51.18288]},"properties":{"name":"Shrewton STW","category":"wastewater_plant","osm_type":"way","osm_id":"1088429331","operator":"Wessex Water","ref":"13294"}},{"type":"Feature","geometry":{"type":"Point","coordinates":[-1.67046,51.22081]},"properties":{"name":"Tidworth Garrison STW","category":"wastewater_plant","osm_type":"way","osm_id":"1088459548","operator":"Veolia Water Projects"}},{"type":"Feature","geometry":{"type":"Point","coordinates":[-1.27849,51.24709]},"properties":{"name":"Overton Wastewater Treatment Plant","category":"wastewater_plant","osm_type":"way","osm_id":"1088459549","operator":"Southern Water","ref":"103102"}},{"type":"Feature","geometry":{"type":"Point","coordinates":[-1.58509,51.29821]},"properties":{"name":"Mapped water infrastructure","category":"reservoir_covered","osm_type":"way","osm_id":"1110379306"}},{"type":"Feature","geometry":{"type":"Point","coordinates":[-1.73917,51.07514]},"properties":{"name":"Mapped water infrastructure","category":"pumping_station","osm_type":"way","osm_id":"1125922540"}},{"type":"Feature","geometry":{"type":"Point","coordinates":[-1.50859,51.0169]},"properties":{"name":"Mapped water infrastructure","category":"pumping_station","osm_type":"way","osm_id":"1168330090"}},{"type":"Feature","geometry":{"type":"Point","coordinates":[-1.72555,51.48483]},"properties":{"name":"Lower Herdswick Pumping Station","category":"water_works","osm_type":"way","osm_id":"1239249639"}},{"type":"Feature","geometry":{"type":"Point","coordinates":[-1.73222,51.43796]},"properties":{"name":"Bay Bridge Pumping Station","category":"pumping_station","osm_type":"way","osm_id":"1239288388","operator":"Thames Water"}},{"type":"Feature","geometry":{"type":"Point","coordinates":[-1.94686,51.4612]},"properties":{"name":"Mapped water infrastructure","category":"reservoir_covered","osm_type":"way","osm_id":"1287472506"}},{"type":"Feature","geometry":{"type":"Point","coordinates":[-1.19602,51.33589]},"properties":{"name":"Wolverton Common Sewage Treatment Works","category":"wastewater_plant","osm_type":"way","osm_id":"1311058837","operator":"Thames Water","ref":"WOLVS1ZZ"}},{"type":"Feature","geometry":{"type":"Point","coordinates":[-1.61979,51.47897]},"properties":{"name":"Mapped water infrastructure","category":"water_well","osm_type":"way","osm_id":"1311790795"}},{"type":"Feature","geometry":{"type":"Point","coordinates":[-1.56359,51.15737]},"properties":{"name":"Mapped water infrastructure","category":"water_tower","osm_type":"way","osm_id":"1312637631","operator":"Ministry of Defence"}},{"type":"Feature","geometry":{"type":"Point","coordinates":[-1.56366,51.15731]},"properties":{"name":"Mapped water infrastructure","category":"water_tower","osm_type":"way","osm_id":"1312637633","operator":"Ministry of Defence"}},{"type":"Feature","geometry":{"type":"Point","coordinates":[-1.10616,51.40997]},"properties":{"name":"Ufton Nervet Water Treatment Works","category":"water_works","osm_type":"way","osm_id":"1468039533","operator":"Thames Water"}}]}