{"type":"FeatureCollection","features":[{"type":"Feature","geometry":{"type":"Point","coordinates":[-1.20375,51.91904]},"properties":{"name":"Trow Pool Water Tower","category":"water_tower","osm_type":"node","osm_id":"26314567"}},{"type":"Feature","geometry":{"type":"Point","coordinates":[-1.12203,51.9302]},"properties":{"name":"Mapped water infrastructure","category":"water_tower","osm_type":"node","osm_id":"29276869"}},{"type":"Feature","geometry":{"type":"Point","coordinates":[-1.22491,51.85955]},"properties":{"name":"Mapped water infrastructure","category":"drinking_water","osm_type":"node","osm_id":"34034190"}},{"type":"Feature","geometry":{"type":"Point","coordinates":[-1.23579,51.95499]},"properties":{"name":"Mapped water infrastructure","category":"wastewater_plant","osm_type":"node","osm_id":"253787391"}},{"type":"Feature","geometry":{"type":"Point","coordinates":[-1.30642,51.95714]},"properties":{"name":"Mapped water infrastructure","category":"drinking_water","osm_type":"node","osm_id":"264151708"}},{"type":"Feature","geometry":{"type":"Point","coordinates":[-1.44543,51.81324]},"properties":{"name":"Mapped water infrastructure","category":"reservoir_covered","osm_type":"node","osm_id":"281582989"}},{"type":"Feature","geometry":{"type":"Point","coordinates":[-1.44848,51.81749]},"properties":{"name":"Village pump","category":"water_well","osm_type":"node","osm_id":"282754903"}},{"type":"Feature","geometry":{"type":"Point","coordinates":[-1.30146,51.83174]},"properties":{"name":"Mapped water infrastructure","category":"drinking_water","osm_type":"node","osm_id":"289521056"}},{"type":"Feature","geometry":{"type":"Point","coordinates":[-1.26756,51.67051]},"properties":{"name":"Mapped water infrastructure","category":"drinking_water","osm_type":"node","osm_id":"390023534"}},{"type":"Feature","geometry":{"type":"Point","coordinates":[-1.22821,51.713]},"properties":{"name":"Mapped water infrastructure","category":"pumping_station","osm_type":"node","osm_id":"390849071"}},{"type":"Feature","geometry":{"type":"Point","coordinates":[-1.35817,51.77456]},"properties":{"name":"Mapped water infrastructure","category":"drinking_water","osm_type":"node","osm_id":"410941481"}},{"type":"Feature","geometry":{"type":"Point","coordinates":[-1.2729,51.77379]},"properties":{"name":"Mapped water infrastructure","category":"water_point","osm_type":"node","osm_id":"434039653"}},{"type":"Feature","geometry":{"type":"Point","coordinates":[-1.27398,51.82177]},"properties":{"name":"Mapped water infrastructure","category":"water_works","osm_type":"node","osm_id":"434379134"}},{"type":"Feature","geometry":{"type":"Point","coordinates":[-1.4585,51.83009]},"properties":{"name":"L:adywell","category":"water_well","osm_type":"node","osm_id":"469989595"}},{"type":"Feature","geometry":{"type":"Point","coordinates":[-1.78078,51.91698]},"properties":{"name":"Miltons Well","category":"water_well","osm_type":"node","osm_id":"633064994"}},{"type":"Feature","geometry":{"type":"Point","coordinates":[-1.80623,51.95028]},"properties":{"name":"Mapped water infrastructure","category":"water_well","osm_type":"node","osm_id":"633086906"}},{"type":"Feature","geometry":{"type":"Point","coordinates":[-1.8269,51.95091]},"properties":{"name":"Mapped water infrastructure","category":"water_well","osm_type":"node","osm_id":"633086907"}},{"type":"Feature","geometry":{"type":"Point","coordinates":[-1.83293,51.96295]},"properties":{"name":"Mapped water infrastructure","category":"water_well","osm_type":"node","osm_id":"633086911"}},{"type":"Feature","geometry":{"type":"Point","coordinates":[-1.83185,51.9633]},"properties":{"name":"Mapped water infrastructure","category":"water_well","osm_type":"node","osm_id":"633086912"}},{"type":"Feature","geometry":{"type":"Point","coordinates":[-1.91675,51.74769]},"properties":{"name":"Mapped water infrastructure","category":"water_well","osm_type":"node","osm_id":"652970400"}},{"type":"Feature","geometry":{"type":"Point","coordinates":[-1.17167,51.79224]},"properties":{"name":"Woodperry Road SPS","category":"water_works","osm_type":"node","osm_id":"676363602","operator":"Thames Water","ref":"WOODPJZZ"}},{"type":"Feature","geometry":{"type":"Point","coordinates":[-1.29989,51.78042]},"properties":{"name":"Mapped water infrastructure","category":"water_well","osm_type":"node","osm_id":"745747202"}},{"type":"Feature","geometry":{"type":"Point","coordinates":[-1.93318,51.73062]},"properties":{"name":"Mapped water infrastructure","category":"drinking_water","osm_type":"node","osm_id":"1412825029"}},{"type":"Feature","geometry":{"type":"Point","coordinates":[-1.71859,51.93344]},"properties":{"name":"St. Edward's Well","category":"water_well","osm_type":"node","osm_id":"1466729198"}},{"type":"Feature","geometry":{"type":"Point","coordinates":[-1.6214,51.55029]},"properties":{"name":"Mapped water infrastructure","category":"drinking_water","osm_type":"node","osm_id":"1675035266"}},{"type":"Feature","geometry":{"type":"Point","coordinates":[-1.47783,51.89535]},"properties":{"name":"fount","category":"drinking_water","osm_type":"node","osm_id":"1681467192"}},{"type":"Feature","geometry":{"type":"Point","coordinates":[-1.73348,51.5737]},"properties":{"name":"Wanborough Road Storm Tank","category":"water_works","osm_type":"node","osm_id":"1833905940","ref":"WANBZOZZ"}},{"type":"Feature","geometry":{"type":"Point","coordinates":[-1.74794,51.57126]},"properties":{"name":"Weedon Road Storm Tank","category":"water_works","osm_type":"node","osm_id":"1833905949","ref":"WEEDZOZZ"}},{"type":"Feature","geometry":{"type":"Point","coordinates":[-1.42603,51.7221]},"properties":{"name":"Mapped water infrastructure","category":"drinking_water","osm_type":"node","osm_id":"2390497461"}},{"type":"Feature","geometry":{"type":"Point","coordinates":[-1.42693,51.72216]},"properties":{"name":"Mapped water infrastructure","category":"drinking_water","osm_type":"node","osm_id":"2390497467"}},{"type":"Feature","geometry":{"type":"Point","coordinates":[-1.42639,51.72236]},"properties":{"name":"Mapped water infrastructure","category":"drinking_water","osm_type":"node","osm_id":"2390497491"}},{"type":"Feature","geometry":{"type":"Point","coordinates":[-1.4271,51.72236]},"properties":{"name":"Mapped water infrastructure","category":"drinking_water","osm_type":"node","osm_id":"2390497492"}},{"type":"Feature","geometry":{"type":"Point","coordinates":[-1.42515,51.72248]},"properties":{"name":"Mapped water infrastructure","category":"drinking_water","osm_type":"node","osm_id":"2390497517"}},{"type":"Feature","geometry":{"type":"Point","coordinates":[-1.42688,51.72279]},"properties":{"name":"Mapped water infrastructure","category":"drinking_water","osm_type":"node","osm_id":"2390497575"}},{"type":"Feature","geometry":{"type":"Point","coordinates":[-1.4274,51.72295]},"properties":{"name":"Mapped water infrastructure","category":"drinking_water","osm_type":"node","osm_id":"2390497606"}},{"type":"Feature","geometry":{"type":"Point","coordinates":[-1.42702,51.72311]},"properties":{"name":"Mapped water infrastructure","category":"drinking_water","osm_type":"node","osm_id":"2390497629"}},{"type":"Feature","geometry":{"type":"Point","coordinates":[-1.42656,51.72317]},"properties":{"name":"Mapped water infrastructure","category":"drinking_water","osm_type":"node","osm_id":"2390497635"}},{"type":"Feature","geometry":{"type":"Point","coordinates":[-1.74568,51.56278]},"properties":{"name":"Park North SPS","category":"wastewater_plant","osm_type":"node","osm_id":"2392913443","ref":"PARKP7ZZ"}},{"type":"Feature","geometry":{"type":"Point","coordinates":[-1.3704,51.53533]},"properties":{"name":"Farnborough Tower","category":"water_tower","osm_type":"node","osm_id":"2427203181","operator":"Thames Water"}},{"type":"Feature","geometry":{"type":"Point","coordinates":[-1.51353,51.56733]},"properties":{"name":"Mapped water infrastructure","category":"drinking_water","osm_type":"node","osm_id":"3554081402"}},{"type":"Feature","geometry":{"type":"Point","coordinates":[-1.2463,51.61509]},"properties":{"name":"Bodmin Water Tank","category":"water_tower","osm_type":"node","osm_id":"3859688666"}},{"type":"Feature","geometry":{"type":"Point","coordinates":[-1.25529,51.75423]},"properties":{"name":"Mapped water infrastructure","category":"water_point","osm_type":"node","osm_id":"4117376830"}},{"type":"Feature","geometry":{"type":"Point","coordinates":[-1.26597,51.75426]},"properties":{"name":"Mapped water infrastructure","category":"water_point","osm_type":"node","osm_id":"4792102738"}},{"type":"Feature","geometry":{"type":"Point","coordinates":[-1.3632,51.76135]},"properties":{"name":"Mapped water infrastructure","category":"drinking_water","osm_type":"node","osm_id":"4940641376"}},{"type":"Feature","geometry":{"type":"Point","coordinates":[-1.5343,51.69867]},"properties":{"name":"Mapped water infrastructure","category":"drinking_water","osm_type":"node","osm_id":"4940641377"}},{"type":"Feature","geometry":{"type":"Point","coordinates":[-1.04863,51.5796]},"properties":{"name":"Mapped water infrastructure","category":"drinking_water","osm_type":"node","osm_id":"5183852618"}},{"type":"Feature","geometry":{"type":"Point","coordinates":[-1.6096,51.69109]},"properties":{"name":"Mapped water infrastructure","category":"drinking_water","osm_type":"node","osm_id":"5598639124"}},{"type":"Feature","geometry":{"type":"Point","coordinates":[-1.57364,51.70005]},"properties":{"name":"Mapped water infrastructure","category":"drinking_water","osm_type":"node","osm_id":"5598780922"}},{"type":"Feature","geometry":{"type":"Point","coordinates":[-1.3772,51.71625]},"properties":{"name":"Mapped water infrastructure","category":"drinking_water","osm_type":"node","osm_id":"5600021423"}},{"type":"Feature","geometry":{"type":"Point","coordinates":[-1.92443,51.64527]},"properties":{"name":"Mapped water infrastructure","category":"drinking_water","osm_type":"node","osm_id":"5601756422"}},{"type":"Feature","geometry":{"type":"Point","coordinates":[-1.27958,51.93035]},"properties":{"name":"Mapped water infrastructure","category":"drinking_water","osm_type":"node","osm_id":"6071088848"}},{"type":"Feature","geometry":{"type":"Point","coordinates":[-1.03793,51.58107]},"properties":{"name":"Mapped water infrastructure","category":"drinking_water","osm_type":"node","osm_id":"6222429201"}},{"type":"Feature","geometry":{"type":"Point","coordinates":[-1.29903,51.77999]},"properties":{"name":"Mapped water infrastructure","category":"drinking_water","osm_type":"node","osm_id":"6721177758","wheelchair":"yes"}},{"type":"Feature","geometry":{"type":"Point","coordinates":[-1.69524,51.53918]},"properties":{"name":"Mapped water infrastructure","category":"pumping_station","osm_type":"node","osm_id":"6890083759"}},{"type":"Feature","geometry":{"type":"Point","coordinates":[-1.62529,51.81789]},"properties":{"name":"Mapped water infrastructure","category":"water_well","osm_type":"node","osm_id":"8641638706"}},{"type":"Feature","geometry":{"type":"Point","coordinates":[-1.25366,51.64768]},"properties":{"name":"Sutton Courtenay Pumping Station","category":"water_works","osm_type":"node","osm_id":"8665209823"}},{"type":"Feature","geometry":{"type":"Point","coordinates":[-1.13767,51.54798]},"properties":{"name":"Water tap on right side of Church","category":"drinking_water","osm_type":"node","osm_id":"8807378017"}},{"type":"Feature","geometry":{"type":"Point","coordinates":[-1.39852,51.75666]},"properties":{"name":"Sutton Lane pumping station","category":"pumping_station","osm_type":"node","osm_id":"8851350641","operator":"Thames Water","ref":"STANP9ZZ"}},{"type":"Feature","geometry":{"type":"Point","coordinates":[-1.41418,51.94815]},"properties":{"name":"Mapped water infrastructure","category":"water_well","osm_type":"node","osm_id":"8882470832"}},{"type":"Feature","geometry":{"type":"Point","coordinates":[-1.40435,51.74941]},"properties":{"name":"STANP8ZZ","category":"pumping_station","osm_type":"node","osm_id":"8914194510","operator":"Thames Water","ref":"STANP8ZZ"}},{"type":"Feature","geometry":{"type":"Point","coordinates":[-1.69616,51.69487]},"properties":{"name":"Mapped water infrastructure","category":"water_well","osm_type":"node","osm_id":"9244365167"}},{"type":"Feature","geometry":{"type":"Point","coordinates":[-1.2095,51.76071]},"properties":{"name":"Mapped water infrastructure","category":"drinking_water","osm_type":"node","osm_id":"9431450262"}},{"type":"Feature","geometry":{"type":"Point","coordinates":[-1.27159,51.85484]},"properties":{"name":"Mapped water infrastructure","category":"water_well","osm_type":"node","osm_id":"9483642623"}},{"type":"Feature","geometry":{"type":"Point","coordinates":[-1.59239,51.59793]},"properties":{"name":"Mapped water infrastructure","category":"water_tower","osm_type":"node","osm_id":"9507493301"}},{"type":"Feature","geometry":{"type":"Point","coordinates":[-1.53003,51.58688]},"properties":{"name":"Mapped water infrastructure","category":"water_works","osm_type":"node","osm_id":"9609663218","operator":"Thames Water"}},{"type":"Feature","geometry":{"type":"Point","coordinates":[-1.28077,51.67009]},"properties":{"name":"Mapped water infrastructure","category":"drinking_water","osm_type":"node","osm_id":"9794637025"}},{"type":"Feature","geometry":{"type":"Point","coordinates":[-1.96594,51.71342]},"properties":{"name":"Bowly's Pump","category":"water_well","osm_type":"node","osm_id":"9904780465","ref":"IOE01/04545/05"}},{"type":"Feature","geometry":{"type":"Point","coordinates":[-1.26236,51.75365]},"properties":{"name":"Mapped water infrastructure","category":"drinking_water","osm_type":"node","osm_id":"10102912517"}},{"type":"Feature","geometry":{"type":"Point","coordinates":[-1.14391,51.52304]},"properties":{"name":"Mapped water infrastructure","category":"drinking_water","osm_type":"node","osm_id":"10282067239"}},{"type":"Feature","geometry":{"type":"Point","coordinates":[-1.36112,51.6863]},"properties":{"name":"Mapped water infrastructure","category":"water_works","osm_type":"node","osm_id":"10601660437"}},{"type":"Feature","geometry":{"type":"Point","coordinates":[-1.22275,51.73586]},"properties":{"name":"Mapped water infrastructure","category":"drinking_water","osm_type":"node","osm_id":"10969405420","wheelchair":"yes"}},{"type":"Feature","geometry":{"type":"Point","coordinates":[-1.25393,51.76944]},"properties":{"name":"Mapped water infrastructure","category":"drinking_water","osm_type":"node","osm_id":"11034071037"}},{"type":"Feature","geometry":{"type":"Point","coordinates":[-1.96486,51.95321]},"properties":{"name":"Mapped water infrastructure","category":"drinking_water","osm_type":"node","osm_id":"11078310753"}},{"type":"Feature","geometry":{"type":"Point","coordinates":[-1.30668,51.81377]},"properties":{"name":"Broadfield Road (Yarnton) Pumping Station","category":"pumping_station","osm_type":"node","osm_id":"11559735401","operator":"Thames Water","ref":"BROAPBZZ"}},{"type":"Feature","geometry":{"type":"Point","coordinates":[-1.03521,51.73653]},"properties":{"name":"Mapped water infrastructure","category":"drinking_water","osm_type":"node","osm_id":"11872260324"}},{"type":"Feature","geometry":{"type":"Point","coordinates":[-1.21926,51.78385]},"properties":{"name":"Marston Road Elsfield SPS","category":"pumping_station","osm_type":"node","osm_id":"11872773689","operator":"Thames Water","ref":"MARSPBZZ"}},{"type":"Feature","geometry":{"type":"Point","coordinates":[-1.83755,51.93616]},"properties":{"name":"Mapped water infrastructure","category":"drinking_water","osm_type":"node","osm_id":"11956682578"}},{"type":"Feature","geometry":{"type":"Point","coordinates":[-1.83813,51.93686]},"properties":{"name":"Mapped water infrastructure","category":"drinking_water","osm_type":"node","osm_id":"11956682580"}},{"type":"Feature","geometry":{"type":"Point","coordinates":[-1.13032,51.75899]},"properties":{"name":"Pond Farm (Holton) SPS","category":"pumping_station","osm_type":"node","osm_id":"11967466972","operator":"Thames Water","ref":"PONDP1ZZ"}},{"type":"Feature","geometry":{"type":"Point","coordinates":[-1.12752,51.75355]},"properties":{"name":"Church View (Holton) SPS","category":"pumping_station","osm_type":"node","osm_id":"11967541419","operator":"Thames Water","ref":"CHURPKZZ"}},{"type":"Feature","geometry":{"type":"Point","coordinates":[-1.67854,51.69007]},"properties":{"name":"Mapped water infrastructure","category":"water_well","osm_type":"node","osm_id":"12103011112"}},{"type":"Feature","geometry":{"type":"Point","coordinates":[-1.97493,51.71886]},"properties":{"name":"Mapped water infrastructure","category":"water_well","osm_type":"node","osm_id":"12405671762","operator":"Cirencester Open Air Swimming Pool"}},{"type":"Feature","geometry":{"type":"Point","coordinates":[-1.87247,51.78921]},"properties":{"name":"Mapped water infrastructure","category":"water_well","osm_type":"node","osm_id":"12656809720"}},{"type":"Feature","geometry":{"type":"Point","coordinates":[-1.58373,51.65829]},"properties":{"name":"Mapped water infrastructure","category":"drinking_water","osm_type":"node","osm_id":"12809320143"}},{"type":"Feature","geometry":{"type":"Point","coordinates":[-1.30247,51.83056]},"properties":{"name":"Mapped water infrastructure","category":"drinking_water","osm_type":"node","osm_id":"13070547745"}},{"type":"Feature","geometry":{"type":"Point","coordinates":[-1.2857,51.78492]},"properties":{"name":"Mapped water infrastructure","category":"water_point","osm_type":"node","osm_id":"13086737944"}},{"type":"Feature","geometry":{"type":"Point","coordinates":[-1.26372,51.73194]},"properties":{"name":"Mapped water infrastructure","category":"water_well","osm_type":"node","osm_id":"13100841052"}},{"type":"Feature","geometry":{"type":"Point","coordinates":[-1.9786,51.76717]},"properties":{"name":"Mapped water infrastructure","category":"drinking_water","osm_type":"node","osm_id":"13519520711"}},{"type":"Feature","geometry":{"type":"Point","coordinates":[-1.02125,51.55148]},"properties":{"name":"Mapped water infrastructure","category":"water_well","osm_type":"node","osm_id":"13633760440"}},{"type":"Feature","geometry":{"type":"Point","coordinates":[-1.92919,51.98684]},"properties":{"name":"Mapped water infrastructure","category":"water_tower","osm_type":"node","osm_id":"13812027654"}},{"type":"Feature","geometry":{"type":"Point","coordinates":[-1.42422,51.58764]},"properties":{"name":"Mapped water infrastructure","category":"water_well","osm_type":"node","osm_id":"14024047897"}},{"type":"Feature","geometry":{"type":"Point","coordinates":[-1.22754,51.75454]},"properties":{"name":"Headington New Reservoir","category":"reservoir_covered","osm_type":"way","osm_id":"20797260"}},{"type":"Feature","geometry":{"type":"Point","coordinates":[-1.22805,51.75496]},"properties":{"name":"Headington Reservoir","category":"reservoir_covered","osm_type":"way","osm_id":"20797302"}},{"type":"Feature","geometry":{"type":"Point","coordinates":[-1.11541,51.95639]},"properties":{"name":"Fringford STW","category":"wastewater_plant","osm_type":"way","osm_id":"28155359","operator":"Anglian Water"}},{"type":"Feature","geometry":{"type":"Point","coordinates":[-1.16794,51.7478]},"properties":{"name":"Horspath Reservoir","category":"water_works","osm_type":"way","osm_id":"31787131"}},{"type":"Feature","geometry":{"type":"Point","coordinates":[-1.8279,51.76488]},"properties":{"name":"Mapped water infrastructure","category":"water_works","osm_type":"way","osm_id":"47439408"}},{"type":"Feature","geometry":{"type":"Point","coordinates":[-1.30902,51.71236]},"properties":{"name":"Mapped water infrastructure","category":"reservoir_covered","osm_type":"way","osm_id":"51878438"}},{"type":"Feature","geometry":{"type":"Point","coordinates":[-1.30855,51.71281]},"properties":{"name":"Mapped water infrastructure","category":"reservoir_covered","osm_type":"way","osm_id":"51878441"}},{"type":"Feature","geometry":{"type":"Point","coordinates":[-1.30925,51.71258]},"properties":{"name":"Mapped water infrastructure","category":"water_works","osm_type":"way","osm_id":"51878453"}},{"type":"Feature","geometry":{"type":"Point","coordinates":[-1.30135,51.72315]},"properties":{"name":"Boars Hill Reservoir","category":"reservoir_covered","osm_type":"way","osm_id":"55788525"}},{"type":"Feature","geometry":{"type":"Point","coordinates":[-1.81977,51.58982]},"properties":{"name":"Woodhall Park Sewage Pumping Station","category":"pumping_station","osm_type":"way","osm_id":"86544786"}},{"type":"Feature","geometry":{"type":"Point","coordinates":[-1.56598,51.60457]},"properties":{"name":"Uffington WwTW","category":"wastewater_plant","osm_type":"way","osm_id":"87722746","operator":"Thames Water","ref":"UFFIS1ZZ"}},{"type":"Feature","geometry":{"type":"Point","coordinates":[-1.57284,51.65897]},"properties":{"name":"Mapped water infrastructure","category":"reservoir_covered","osm_type":"way","osm_id":"89435981"}},{"type":"Feature","geometry":{"type":"Point","coordinates":[-1.22117,51.6571]},"properties":{"name":"Culham WWTW","category":"wastewater_plant","osm_type":"way","osm_id":"115542710","operator":"Thames Water","ref":"CULHS1ZZ","addr:city":"Culham","addr:postcode":"OX14 3DD"}},{"type":"Feature","geometry":{"type":"Point","coordinates":[-1.30338,51.6367]},"properties":{"name":"Drayton WWTW","category":"wastewater_plant","osm_type":"way","osm_id":"115914964","operator":"Thames Water"}},{"type":"Feature","geometry":{"type":"Point","coordinates":[-1.68569,51.92735]},"properties":{"name":"Oddington Reservoir","category":"reservoir_covered","osm_type":"way","osm_id":"118377500"}},{"type":"Feature","geometry":{"type":"Point","coordinates":[-1.16144,51.63868]},"properties":{"name":"Dorchester WwTW","category":"wastewater_plant","osm_type":"way","osm_id":"128885906","operator":"Thames Water","ref":"DORCS1ZZ"}},{"type":"Feature","geometry":{"type":"Point","coordinates":[-1.89521,51.53195]},"properties":{"name":"Wootton Bassett STW","category":"wastewater_plant","osm_type":"way","osm_id":"133499575"}},{"type":"Feature","geometry":{"type":"Point","coordinates":[-1.19382,51.75133]},"properties":{"name":"Brasenose Reservoir","category":"reservoir_covered","osm_type":"way","osm_id":"140813228"}},{"type":"Feature","geometry":{"type":"Point","coordinates":[-1.56301,51.79208]},"properties":{"name":"Mapped water infrastructure","category":"reservoir_covered","osm_type":"way","osm_id":"163499761"}},{"type":"Feature","geometry":{"type":"Point","coordinates":[-1.35486,51.77334]},"properties":{"name":"Swinford Water Treatment Works","category":"water_works","osm_type":"way","osm_id":"173939707","operator":"Thames Water"}},{"type":"Feature","geometry":{"type":"Point","coordinates":[-1.42009,51.62092]},"properties":{"name":"Wantage Sewage Works","category":"wastewater_plant","osm_type":"way","osm_id":"200021243","operator":"Thames Water","addr:city":"Grove","addr:postcode":"OX12 0DL"}},{"type":"Feature","geometry":{"type":"Point","coordinates":[-1.06539,51.89708]},"properties":{"name":"Marsh Gibbon WwTW","category":"wastewater_plant","osm_type":"way","osm_id":"205274811","operator":"Thames Water","ref":"MARSS1ZZ"}},{"type":"Feature","geometry":{"type":"Point","coordinates":[-1.28673,51.81494]},"properties":{"name":"The Dog (Kidlington) SPS","category":"pumping_station","osm_type":"way","osm_id":"217318623","operator":"Thames Water","ref":"DOGKP1ZZ"}},{"type":"Feature","geometry":{"type":"Point","coordinates":[-1.19162,51.75372]},"properties":{"name":"Shotover Reservoir","category":"reservoir_covered","osm_type":"way","osm_id":"225151707"}},{"type":"Feature","geometry":{"type":"Point","coordinates":[-1.24998,51.75307]},"properties":{"name":"Mapped water infrastructure","category":"water_well","osm_type":"way","osm_id":"227479107"}},{"type":"Feature","geometry":{"type":"Point","coordinates":[-1.23077,51.81927]},"properties":{"name":"Islip WwTW","category":"wastewater_plant","osm_type":"way","osm_id":"232020132","operator":"Thames Water","ref":"ISLIS1ZZ"}},{"type":"Feature","geometry":{"type":"Point","coordinates":[-1.34895,51.76879]},"properties":{"name":"Beacon Hill Reservoir","category":"water_works","osm_type":"way","osm_id":"234579807","operator":"Thames Water"}},{"type":"Feature","geometry":{"type":"Point","coordinates":[-1.59143,51.99743]},"properties":{"name":"Long Compton (STW)","category":"wastewater_plant","osm_type":"way","osm_id":"245854917","operator":"Severn Trent","ref":"10341-ST1"}},{"type":"Feature","geometry":{"type":"Point","coordinates":[-1.13341,51.60179]},"properties":{"name":"Mapped water infrastructure","category":"water_tower","osm_type":"way","osm_id":"316758607"}},{"type":"Feature","geometry":{"type":"Point","coordinates":[-1.27897,51.57835]},"properties":{"name":"Mapped water infrastructure","category":"reservoir_covered","osm_type":"way","osm_id":"317365949"}},{"type":"Feature","geometry":{"type":"Point","coordinates":[-1.28689,51.5808]},"properties":{"name":"Mapped water infrastructure","category":"reservoir_covered","osm_type":"way","osm_id":"317365950"}},{"type":"Feature","geometry":{"type":"Point","coordinates":[-1.05586,51.72624]},"properties":{"name":"Mapped water infrastructure","category":"water_tower","osm_type":"way","osm_id":"329291513"}},{"type":"Feature","geometry":{"type":"Point","coordinates":[-1.92823,51.98942]},"properties":{"name":"Mapped water infrastructure","category":"water_tower","osm_type":"way","osm_id":"343002610"}},{"type":"Feature","geometry":{"type":"Point","coordinates":[-1.49802,51.77289]},"properties":{"name":"Witney WwTW","category":"wastewater_plant","osm_type":"way","osm_id":"345129932","operator":"Thames Water","ref":"WITNS1ZZ"}},{"type":"Feature","geometry":{"type":"Point","coordinates":[-1.25013,51.61912]},"properties":{"name":"Didcot Sewage Treatment Works","category":"wastewater_plant","osm_type":"way","osm_id":"360428631","operator":"Thames Water"}},{"type":"Feature","geometry":{"type":"Point","coordinates":[-1.34831,51.77626]},"properties":{"name":"Mapped water infrastructure","category":"water_works","osm_type":"way","osm_id":"367227585"}},{"type":"Feature","geometry":{"type":"Point","coordinates":[-1.99115,51.74128]},"properties":{"name":"Mapped water infrastructure","category":"water_works","osm_type":"way","osm_id":"371376844"}},{"type":"Feature","geometry":{"type":"Point","coordinates":[-1.33999,51.82311]},"properties":{"name":"Mapped water infrastructure","category":"water_works","osm_type":"way","osm_id":"380836093"}},{"type":"Feature","geometry":{"type":"Point","coordinates":[-1.2231,51.92622]},"properties":{"name":"Mapped water infrastructure","category":"reservoir_covered","osm_type":"way","osm_id":"426742810"}},{"type":"Feature","geometry":{"type":"Point","coordinates":[-1.59853,51.66645]},"properties":{"name":"Faringdon WWTW","category":"wastewater_plant","osm_type":"way","osm_id":"454659346","operator":"Thames Water"}},{"type":"Feature","geometry":{"type":"Point","coordinates":[-1.29739,51.6589]},"properties":{"name":"pumping station","category":"water_works","osm_type":"way","osm_id":"465041474"}},{"type":"Feature","geometry":{"type":"Point","coordinates":[-1.64137,51.61183]},"properties":{"name":"Thames Water","category":"pumping_station","osm_type":"way","osm_id":"509840944"}},{"type":"Feature","geometry":{"type":"Point","coordinates":[-1.64765,51.60721]},"properties":{"name":"Shrivenham WwTW","category":"wastewater_plant","osm_type":"way","osm_id":"509843775","operator":"Thames Water","ref":"SHRIS1ZZ"}},{"type":"Feature","geometry":{"type":"Point","coordinates":[-1.28639,51.58179]},"properties":{"name":"Mapped water infrastructure","category":"reservoir_covered","osm_type":"way","osm_id":"528125407"}},{"type":"Feature","geometry":{"type":"Point","coordinates":[-1.46616,51.90222]},"properties":{"name":"Mapped water infrastructure","category":"reservoir_covered","osm_type":"way","osm_id":"531813333"}},{"type":"Feature","geometry":{"type":"Point","coordinates":[-1.47022,51.84845]},"properties":{"name":"Finstock WwTW","category":"wastewater_plant","osm_type":"way","osm_id":"553743104","operator":"Thames Water","ref":"FINSS1ZZ"}},{"type":"Feature","geometry":{"type":"Point","coordinates":[-1.8613,51.67092]},"properties":{"name":"DA Sewage Collector Plant","category":"wastewater_plant","osm_type":"way","osm_id":"572128884","operator":"Thames Water"}},{"type":"Feature","geometry":{"type":"Point","coordinates":[-1.27216,51.7525]},"properties":{"name":"Mapped water infrastructure","category":"water_works","osm_type":"way","osm_id":"588729328"}},{"type":"Feature","geometry":{"type":"Point","coordinates":[-1.59177,51.51603]},"properties":{"name":"Mapped water infrastructure","category":"reservoir_covered","osm_type":"way","osm_id":"617415002"}},{"type":"Feature","geometry":{"type":"Point","coordinates":[-1.36337,51.75531]},"properties":{"name":"Mapped water infrastructure","category":"water_works","osm_type":"way","osm_id":"627372314"}},{"type":"Feature","geometry":{"type":"Point","coordinates":[-1.7025,51.55555]},"properties":{"name":"Wanborough WwTW","category":"wastewater_plant","osm_type":"way","osm_id":"652763663","operator":"Thames Water","ref":"WANBS1ZZ"}},{"type":"Feature","geometry":{"type":"Point","coordinates":[-1.23643,51.56091]},"properties":{"name":"Mapped water infrastructure","category":"wastewater_plant","osm_type":"way","osm_id":"658862142"}},{"type":"Feature","geometry":{"type":"Point","coordinates":[-1.98196,51.50716]},"properties":{"name":"Mapped water infrastructure","category":"water_tower","osm_type":"way","osm_id":"663180483","operator":"MoD"}},{"type":"Feature","geometry":{"type":"Point","coordinates":[-1.32231,51.62734]},"properties":{"name":"Mapped water infrastructure","category":"pumping_station","osm_type":"way","osm_id":"667162771"}},{"type":"Feature","geometry":{"type":"Point","coordinates":[-1.98188,51.50737]},"properties":{"name":"Mapped water infrastructure","category":"water_tower","osm_type":"way","osm_id":"674696411"}},{"type":"Feature","geometry":{"type":"Point","coordinates":[-1.49087,51.78834]},"properties":{"name":"Mapped water infrastructure","category":"water_works","osm_type":"way","osm_id":"683463742","operator":"Thames Water"}},{"type":"Feature","geometry":{"type":"Point","coordinates":[-1.53114,51.79966]},"properties":{"name":"Mapped water infrastructure","category":"water_well","osm_type":"way","osm_id":"683924431"}},{"type":"Feature","geometry":{"type":"Point","coordinates":[-1.28295,51.92484]},"properties":{"name":"Heyford WwTW","category":"wastewater_plant","osm_type":"way","osm_id":"684681862","operator":"Thames Water","ref":"UHEYS1ZZ"}},{"type":"Feature","geometry":{"type":"Point","coordinates":[-1.63886,51.90004]},"properties":{"name":"Mapped water infrastructure","category":"pumping_station","osm_type":"way","osm_id":"771644011"}},{"type":"Feature","geometry":{"type":"Point","coordinates":[-1.79205,51.53512]},"properties":{"name":"Mapped water infrastructure","category":"pumping_station","osm_type":"way","osm_id":"780197984","operator":"Thames Water"}},{"type":"Feature","geometry":{"type":"Point","coordinates":[-1.79666,51.53311]},"properties":{"name":"Mapped water infrastructure","category":"pumping_station","osm_type":"way","osm_id":"801907911","operator":"Thames Water"}},{"type":"Feature","geometry":{"type":"Point","coordinates":[-1.2016,51.99543]},"properties":{"name":"Croughton Wastewater Treatment Works","category":"wastewater_plant","osm_type":"way","osm_id":"806167813","operator":"Thames Water"}},{"type":"Feature","geometry":{"type":"Point","coordinates":[-1.96941,51.99538]},"properties":{"name":"Mapped water infrastructure","category":"wastewater_plant","osm_type":"way","osm_id":"809321008"}},{"type":"Feature","geometry":{"type":"Point","coordinates":[-1.52612,51.78567]},"properties":{"name":"Mapped water infrastructure","category":"pumping_station","osm_type":"way","osm_id":"841064422"}},{"type":"Feature","geometry":{"type":"Point","coordinates":[-1.068,51.52688]},"properties":{"name":"Mapped water infrastructure","category":"reservoir_covered","osm_type":"way","osm_id":"866369036"}},{"type":"Feature","geometry":{"type":"Point","coordinates":[-1.71368,51.63961]},"properties":{"name":"Highworth WWTW","category":"wastewater_plant","osm_type":"way","osm_id":"875525604","operator":"Thames Water","ref":"HIGHS1ZZ"}},{"type":"Feature","geometry":{"type":"Point","coordinates":[-1.22971,51.77503]},"properties":{"name":"Marston Pumping Station","category":"pumping_station","osm_type":"way","osm_id":"876603004","operator":"Thames Water","ref":"MARSC1ZZ"}},{"type":"Feature","geometry":{"type":"Point","coordinates":[-1.96422,51.99732]},"properties":{"name":"Mapped water infrastructure","category":"wastewater_plant","osm_type":"way","osm_id":"883148844"}},{"type":"Feature","geometry":{"type":"Point","coordinates":[-1.73373,51.52165]},"properties":{"name":"Mapped water infrastructure","category":"wastewater_plant","osm_type":"way","osm_id":"888714197"}},{"type":"Feature","geometry":{"type":"Point","coordinates":[-1.46347,51.99918]},"properties":{"name":"Hook Norton WwTW","category":"wastewater_plant","osm_type":"way","osm_id":"893067563","operator":"Thames Water","ref":"HOOKS1ZZ"}},{"type":"Feature","geometry":{"type":"Point","coordinates":[-1.04816,51.96211]},"properties":{"name":"Mapped water infrastructure","category":"wastewater_plant","osm_type":"way","osm_id":"897306439"}},{"type":"Feature","geometry":{"type":"Point","coordinates":[-1.86189,51.82603]},"properties":{"name":"Stowell Park Reservoir","category":"reservoir_covered","osm_type":"way","osm_id":"905954736","operator":"Thames Water","ref":"STOWY1ZZ"}},{"type":"Feature","geometry":{"type":"Point","coordinates":[-1.86257,51.82598]},"properties":{"name":"Stowell Park Reservoir","category":"reservoir_covered","osm_type":"way","osm_id":"905954737","operator":"Thames Water","ref":"STOWY1ZZ"}},{"type":"Feature","geometry":{"type":"Point","coordinates":[-1.58174,51.7138]},"properties":{"name":"Clanfield Wastewater Treatment Works","category":"wastewater_plant","osm_type":"way","osm_id":"910149625","operator":"Thames Water"}},{"type":"Feature","geometry":{"type":"Point","coordinates":[-1.48169,51.78057]},"properties":{"name":"Mapped water infrastructure","category":"pumping_station","osm_type":"way","osm_id":"914405610"}},{"type":"Feature","geometry":{"type":"Point","coordinates":[-1.09754,51.73707]},"properties":{"name":"Mapped water infrastructure","category":"wastewater_plant","osm_type":"way","osm_id":"916011542"}},{"type":"Feature","geometry":{"type":"Point","coordinates":[-1.6796,51.6965]},"properties":{"name":"Lechlade WWTW","category":"wastewater_plant","osm_type":"way","osm_id":"921305126","operator":"Thames Water"}},{"type":"Feature","geometry":{"type":"Point","coordinates":[-1.2559,51.64818]},"properties":{"name":"Didcot Power Station Cooling Water Plant","category":"pumping_station","osm_type":"way","osm_id":"935075714"}},{"type":"Feature","geometry":{"type":"Point","coordinates":[-1.50586,51.6345]},"properties":{"name":"Stanford In The Vale WwTW","category":"wastewater_plant","osm_type":"way","osm_id":"935756886","operator":"Thames Water","ref":"STANS3ZZ"}},{"type":"Feature","geometry":{"type":"Point","coordinates":[-1.53755,51.94095]},"properties":{"name":"Mapped water infrastructure","category":"water_tower","osm_type":"way","osm_id":"965767928"}},{"type":"Feature","geometry":{"type":"Point","coordinates":[-1.68617,51.98514]},"properties":{"name":"Moreton-In-Marsh WwTW","category":"wastewater_plant","osm_type":"way","osm_id":"970120194","operator":"Thames Water","ref":"MORES3ZZ"}},{"type":"Feature","geometry":{"type":"Point","coordinates":[-1.06214,51.77723]},"properties":{"name":"Mapped water infrastructure","category":"wastewater_plant","osm_type":"way","osm_id":"995563199"}},{"type":"Feature","geometry":{"type":"Point","coordinates":[-1.00472,51.98438]},"properties":{"name":"Mapped water infrastructure","category":"reservoir_covered","osm_type":"way","osm_id":"997178585"}},{"type":"Feature","geometry":{"type":"Point","coordinates":[-1.22809,51.61903]},"properties":{"name":"Mapped water infrastructure","category":"pumping_station","osm_type":"way","osm_id":"997754379"}},{"type":"Feature","geometry":{"type":"Point","coordinates":[-1.23868,51.56378]},"properties":{"name":"Mapped water infrastructure","category":"reservoir_covered","osm_type":"way","osm_id":"997800312"}},{"type":"Feature","geometry":{"type":"Point","coordinates":[-1.15431,51.54403]},"properties":{"name":"Mapped water infrastructure","category":"reservoir_covered","osm_type":"way","osm_id":"1002163391"}},{"type":"Feature","geometry":{"type":"Point","coordinates":[-1.42928,51.57892]},"properties":{"name":"Manor Road WWTW","category":"wastewater_plant","osm_type":"way","osm_id":"1007371669","operator":"Thames Water"}},{"type":"Feature","geometry":{"type":"Point","coordinates":[-1.69226,51.87436]},"properties":{"name":"Upper Rissington STW","category":"wastewater_plant","osm_type":"way","osm_id":"1008405047","operator":"Albion Water"}},{"type":"Feature","geometry":{"type":"Point","coordinates":[-1.60445,51.86398]},"properties":{"name":"Milton Under Wychwood WwTW","category":"wastewater_plant","osm_type":"way","osm_id":"1024185303","operator":"Thames Water","ref":"MILTS1ZZ"}},{"type":"Feature","geometry":{"type":"Point","coordinates":[-1.4185,51.67507]},"properties":{"name":"Kingston Bagpuize WWTW","category":"wastewater_plant","osm_type":"way","osm_id":"1026076049","operator":"Thames Water"}},{"type":"Feature","geometry":{"type":"Point","coordinates":[-1.0251,51.65356]},"properties":{"name":"Watlington WWTW","category":"wastewater_plant","osm_type":"way","osm_id":"1026076050","operator":"Thames Water"}},{"type":"Feature","geometry":{"type":"Point","coordinates":[-1.849,51.64382]},"properties":{"name":"Cricklade WWTW","category":"wastewater_plant","osm_type":"way","osm_id":"1026076051","operator":"Thames Water"}},{"type":"Feature","geometry":{"type":"Point","coordinates":[-1.95742,51.96338]},"properties":{"name":"Winchcombe (STW)","category":"wastewater_plant","osm_type":"way","osm_id":"1034820224","operator":"Severn Trent","ref":"10305-ST1"}},{"type":"Feature","geometry":{"type":"Point","coordinates":[-1.06652,51.60437]},"properties":{"name":"Mapped water infrastructure","category":"reservoir_covered","osm_type":"way","osm_id":"1036110769","operator":"Thames Water"}},{"type":"Feature","geometry":{"type":"Point","coordinates":[-1.78879,51.61119]},"properties":{"name":"Mapped water infrastructure","category":"reservoir_covered","osm_type":"way","osm_id":"1037781854"}},{"type":"Feature","geometry":{"type":"Point","coordinates":[-1.78778,51.61065]},"properties":{"name":"Mapped water infrastructure","category":"reservoir_covered","osm_type":"way","osm_id":"1037781855"}},{"type":"Feature","geometry":{"type":"Point","coordinates":[-1.98603,51.55508]},"properties":{"name":"Brinkworth WwTW","category":"wastewater_plant","osm_type":"way","osm_id":"1040369514","operator":"Wessex Water","ref":"13035"}},{"type":"Feature","geometry":{"type":"Point","coordinates":[-1.12174,51.74148]},"properties":{"name":"Wheatley Wastewater Treatment Works","category":"wastewater_plant","osm_type":"way","osm_id":"1043469608","operator":"Thames Water","ref":"WHEAS1ZZ"}},{"type":"Feature","geometry":{"type":"Point","coordinates":[-1.40747,51.63461]},"properties":{"name":"Mapped water infrastructure","category":"water_works","osm_type":"way","osm_id":"1054903036"}},{"type":"Feature","geometry":{"type":"Point","coordinates":[-1.49668,51.79309]},"properties":{"name":"Mapped water infrastructure","category":"pumping_station","osm_type":"way","osm_id":"1059956878"}},{"type":"Feature","geometry":{"type":"Point","coordinates":[-1.86196,51.99969]},"properties":{"name":"Mapped water infrastructure","category":"reservoir_covered","osm_type":"way","osm_id":"1065208596"}},{"type":"Feature","geometry":{"type":"Point","coordinates":[-1.34742,51.76838]},"properties":{"name":"Beacon Hill","category":"reservoir_covered","osm_type":"way","osm_id":"1086439926","operator":"Thames Water"}},{"type":"Feature","geometry":{"type":"Point","coordinates":[-1.35031,51.76849]},"properties":{"name":"Mapped water infrastructure","category":"reservoir_covered","osm_type":"way","osm_id":"1086439927"}},{"type":"Feature","geometry":{"type":"Point","coordinates":[-1.90426,51.79593]},"properties":{"name":"Hemplands WwTW","category":"wastewater_plant","osm_type":"way","osm_id":"1103654001","operator":"Thames Water","ref":"HEMP01ZZ"}},{"type":"Feature","geometry":{"type":"Point","coordinates":[-1.20915,51.94869]},"properties":{"name":"Ardley STW","category":"wastewater_plant","osm_type":"way","osm_id":"1106780054","operator":"Anglian Water","ref":"ARDLST"}},{"type":"Feature","geometry":{"type":"Point","coordinates":[-1.11721,51.53324]},"properties":{"name":"Mapped water infrastructure","category":"reservoir_covered","osm_type":"way","osm_id":"1110049127"}},{"type":"Feature","geometry":{"type":"Point","coordinates":[-1.02514,51.93244]},"properties":{"name":"Twyford STW","category":"wastewater_plant","osm_type":"way","osm_id":"1113176247","operator":"Anglian Water","ref":"TWYFST"}},{"type":"Feature","geometry":{"type":"Point","coordinates":[-1.71374,51.72553]},"properties":{"name":"Southrop WwTW","category":"wastewater_plant","osm_type":"way","osm_id":"1113359220","operator":"Thames Water","ref":"SOUT05ZZ"}},{"type":"Feature","geometry":{"type":"Point","coordinates":[-1.82594,51.58313]},"properties":{"name":"Mouldon View Pump Station","category":"pumping_station","osm_type":"way","osm_id":"1148089023","operator":"Thames Water"}},{"type":"Feature","geometry":{"type":"Point","coordinates":[-1.02532,51.92864]},"properties":{"name":"Mapped water infrastructure","category":"pumping_station","osm_type":"way","osm_id":"1150288254"}},{"type":"Feature","geometry":{"type":"Point","coordinates":[-1.78199,51.51576]},"properties":{"name":"Mapped water infrastructure","category":"reservoir_covered","osm_type":"way","osm_id":"1160233175"}},{"type":"Feature","geometry":{"type":"Point","coordinates":[-1.82748,51.58969]},"properties":{"name":"Haydon End Sewerage Pumping Station","category":"pumping_station","osm_type":"way","osm_id":"1161553835","operator":"Thames Water"}},{"type":"Feature","geometry":{"type":"Point","coordinates":[-1.79358,51.54413]},"properties":{"name":"Mapped water infrastructure","category":"pumping_station","osm_type":"way","osm_id":"1173067035"}},{"type":"Feature","geometry":{"type":"Point","coordinates":[-1.40917,51.58282]},"properties":{"name":"Mapped water infrastructure","category":"reservoir_covered","osm_type":"way","osm_id":"1180301762","operator":"Thames Water"}},{"type":"Feature","geometry":{"type":"Point","coordinates":[-1.74169,51.8763]},"properties":{"name":"Mapped water infrastructure","category":"wastewater_plant","osm_type":"way","osm_id":"1186546340"}},{"type":"Feature","geometry":{"type":"Point","coordinates":[-1.80785,51.60768]},"properties":{"name":"Tadpole Lane Sewage Pumping Station","category":"pumping_station","osm_type":"way","osm_id":"1190710084","operator":"Thames Water"}},{"type":"Feature","geometry":{"type":"Point","coordinates":[-1.07866,51.91923]},"properties":{"name":"Mapped water infrastructure","category":"wastewater_plant","osm_type":"way","osm_id":"1194181635"}},{"type":"Feature","geometry":{"type":"Point","coordinates":[-1.83457,51.60479]},"properties":{"name":"Mapped water infrastructure","category":"pumping_station","osm_type":"way","osm_id":"1195576096"}},{"type":"Feature","geometry":{"type":"Point","coordinates":[-1.73977,51.56818]},"properties":{"name":"Mapped water infrastructure","category":"pumping_station","osm_type":"way","osm_id":"1206223958","operator":"Thames Water"}},{"type":"Feature","geometry":{"type":"Point","coordinates":[-1.17911,51.95118]},"properties":{"name":"Stoke Lyne STW","category":"wastewater_plant","osm_type":"way","osm_id":"1207255056","operator":"Anglian Water","ref":"STLYST"}},{"type":"Feature","geometry":{"type":"Point","coordinates":[-1.05962,51.92484]},"properties":{"name":"Poundon STW","category":"wastewater_plant","osm_type":"way","osm_id":"1207306332","operator":"Anglian Water","ref":"POUNST"}},{"type":"Feature","geometry":{"type":"Point","coordinates":[-1.13314,51.96046]},"properties":{"name":"Hethe STW","category":"wastewater_plant","osm_type":"way","osm_id":"1207306430","operator":"Anglian Water","ref":"HETHST"}},{"type":"Feature","geometry":{"type":"Point","coordinates":[-1.01604,51.96438]},"properties":{"name":"Hillesden Hamlet STW","category":"wastewater_plant","osm_type":"way","osm_id":"1207306499","operator":"Anglian Water","ref":"HILHST"}},{"type":"Feature","geometry":{"type":"Point","coordinates":[-1.00652,51.95526]},"properties":{"name":"Hillesden-Church End STW","category":"wastewater_plant","osm_type":"way","osm_id":"1207306561","operator":"Anglian Water","ref":"HILCST"}},{"type":"Feature","geometry":{"type":"Point","coordinates":[-1.86567,51.95063]},"properties":{"name":"Temple Guiting WwTW","category":"wastewater_plant","osm_type":"way","osm_id":"1207796508","operator":"Thames Water","ref":"TEMPS1ZZ"}},{"type":"Feature","geometry":{"type":"Point","coordinates":[-1.0678,51.74602]},"properties":{"name":"Tiddington WwTW","category":"wastewater_plant","osm_type":"way","osm_id":"1209707247","operator":"Thames Water","ref":"TIDDS1ZZ"}},{"type":"Feature","geometry":{"type":"Point","coordinates":[-1.64734,51.55579]},"properties":{"name":"Bishopstone SPS","category":"pumping_station","osm_type":"way","osm_id":"1210417748","operator":"Thames Water","ref":"BISHP4ZZ"}},{"type":"Feature","geometry":{"type":"Point","coordinates":[-1.89477,51.56406]},"properties":{"name":"Mapped water infrastructure","category":"reservoir_covered","osm_type":"way","osm_id":"1210777627"}},{"type":"Feature","geometry":{"type":"Point","coordinates":[-1.89375,51.56381]},"properties":{"name":"Mapped water infrastructure","category":"reservoir_covered","osm_type":"way","osm_id":"1210777628"}},{"type":"Feature","geometry":{"type":"Point","coordinates":[-1.19388,51.75135]},"properties":{"name":"Brasenose Reservoir","category":"water_works","osm_type":"way","osm_id":"1210789621"}},{"type":"Feature","geometry":{"type":"Point","coordinates":[-1.30116,51.72393]},"properties":{"name":"Boars Hill Reservoir","category":"water_works","osm_type":"way","osm_id":"1210790288"}},{"type":"Feature","geometry":{"type":"Point","coordinates":[-1.87675,51.51234]},"properties":{"name":"Mapped water infrastructure","category":"pumping_station","osm_type":"way","osm_id":"1219404940"}},{"type":"Feature","geometry":{"type":"Point","coordinates":[-1.82354,51.59587]},"properties":{"name":"Mapped water infrastructure","category":"pumping_station","osm_type":"way","osm_id":"1223253258","operator":"Thames Water"}},{"type":"Feature","geometry":{"type":"Point","coordinates":[-1.79156,51.6206]},"properties":{"name":"Mapped water infrastructure","category":"pumping_station","osm_type":"way","osm_id":"1233558726","operator":"Thames Water"}},{"type":"Feature","geometry":{"type":"Point","coordinates":[-1.24698,51.55711]},"properties":{"name":"Mapped water infrastructure","category":"reservoir_covered","osm_type":"way","osm_id":"1235151402"}},{"type":"Feature","geometry":{"type":"Point","coordinates":[-1.23623,51.95469]},"properties":{"name":"Fritwell STW","category":"wastewater_plant","osm_type":"way","osm_id":"1245328919","operator":"Anglian Water","ref":"FRITST"}},{"type":"Feature","geometry":{"type":"Point","coordinates":[-1.73634,51.54323]},"properties":{"name":"Badbury Park Pumping Station","category":"pumping_station","osm_type":"way","osm_id":"1249872726","operator":"Thames Water"}},{"type":"Feature","geometry":{"type":"Point","coordinates":[-1.7338,51.54308]},"properties":{"name":"Coate Water Booster Station","category":"pumping_station","osm_type":"way","osm_id":"1249872729","operator":"Thames Water"}},{"type":"Feature","geometry":{"type":"Point","coordinates":[-1.73325,51.54298]},"properties":{"name":"Mapped water infrastructure","category":"pumping_station","osm_type":"way","osm_id":"1249872730"}},{"type":"Feature","geometry":{"type":"Point","coordinates":[-1.81215,51.50765]},"properties":{"name":"Mapped water infrastructure","category":"reservoir_covered","osm_type":"way","osm_id":"1250752506"}},{"type":"Feature","geometry":{"type":"Point","coordinates":[-1.80594,51.54543]},"properties":{"name":"Mapped water infrastructure","category":"pumping_station","osm_type":"way","osm_id":"1270916183"}},{"type":"Feature","geometry":{"type":"Point","coordinates":[-1.9507,51.65646]},"properties":{"name":"Mapped water infrastructure","category":"wastewater_plant","osm_type":"way","osm_id":"1273377501"}},{"type":"Feature","geometry":{"type":"Point","coordinates":[-1.97287,51.65916]},"properties":{"name":"Mapped water infrastructure","category":"pumping_station","osm_type":"way","osm_id":"1275379186"}},{"type":"Feature","geometry":{"type":"Point","coordinates":[-1.93038,51.68675]},"properties":{"name":"Mapped water infrastructure","category":"wastewater_plant","osm_type":"way","osm_id":"1275421325"}},{"type":"Feature","geometry":{"type":"Point","coordinates":[-1.7775,51.70227]},"properties":{"name":"Horcott Sewage Pumping Station","category":"pumping_station","osm_type":"way","osm_id":"1279729409","operator":"Thames Water"}},{"type":"Feature","geometry":{"type":"Point","coordinates":[-1.57429,51.76465]},"properties":{"name":"Mapped water infrastructure","category":"pumping_station","osm_type":"way","osm_id":"1282186779"}},{"type":"Feature","geometry":{"type":"Point","coordinates":[-1.88473,51.67019]},"properties":{"name":"Latton Water Treatment Works","category":"water_works","osm_type":"way","osm_id":"1296567752","operator":"Thames Water","addr:city":"Cirencester","addr:postcode":"GL7 5QF"}},{"type":"Feature","geometry":{"type":"Point","coordinates":[-1.8837,51.66976]},"properties":{"name":"Mapped water infrastructure","category":"reservoir_covered","osm_type":"way","osm_id":"1296567761"}},{"type":"Feature","geometry":{"type":"Point","coordinates":[-1.78585,51.90442]},"properties":{"name":"Mapped water infrastructure","category":"reservoir_covered","osm_type":"way","osm_id":"1330014137"}},{"type":"Feature","geometry":{"type":"Point","coordinates":[-1.99567,51.59683]},"properties":{"name":"Mapped water infrastructure","category":"reservoir_covered","osm_type":"way","osm_id":"1333849547"}},{"type":"Feature","geometry":{"type":"Point","coordinates":[-1.45294,51.60379]},"properties":{"name":"Mapped water infrastructure","category":"wastewater_plant","osm_type":"way","osm_id":"1335731285"}},{"type":"Feature","geometry":{"type":"Point","coordinates":[-1.98737,51.72189]},"properties":{"name":"Mapped water infrastructure","category":"reservoir_covered","osm_type":"way","osm_id":"1338147045"}},{"type":"Feature","geometry":{"type":"Point","coordinates":[-1.81075,51.59351]},"properties":{"name":"Haydon Leigh Sewage Pumping Station","category":"pumping_station","osm_type":"way","osm_id":"1340747848","operator":"Thames Water"}},{"type":"Feature","geometry":{"type":"Point","coordinates":[-1.23588,51.6215]},"properties":{"name":"Mapped water infrastructure","category":"pumping_station","osm_type":"way","osm_id":"1346668747"}},{"type":"Feature","geometry":{"type":"Point","coordinates":[-1.798,51.55072]},"properties":{"name":"Mapped water infrastructure","category":"reservoir_covered","osm_type":"way","osm_id":"1351578532"}},{"type":"Feature","geometry":{"type":"Point","coordinates":[-1.82384,51.91472]},"properties":{"name":"Mapped water infrastructure","category":"reservoir_covered","osm_type":"way","osm_id":"1351591588"}},{"type":"Feature","geometry":{"type":"Point","coordinates":[-1.31048,51.77449]},"properties":{"name":"Mapped water infrastructure","category":"pumping_station","osm_type":"way","osm_id":"1355263785"}},{"type":"Feature","geometry":{"type":"Point","coordinates":[-1.34861,51.75792]},"properties":{"name":"Mapped water infrastructure","category":"reservoir_covered","osm_type":"way","osm_id":"1389840627"}},{"type":"Feature","geometry":{"type":"Point","coordinates":[-1.34805,51.75759]},"properties":{"name":"Mapped water infrastructure","category":"reservoir_covered","osm_type":"way","osm_id":"1389840628"}},{"type":"Feature","geometry":{"type":"Point","coordinates":[-1.34723,51.75926]},"properties":{"name":"Mapped water infrastructure","category":"pumping_station","osm_type":"way","osm_id":"1389840629"}},{"type":"Feature","geometry":{"type":"Point","coordinates":[-1.16098,51.96117]},"properties":{"name":"Hardwick Hethe Klargester STW","category":"wastewater_plant","osm_type":"way","osm_id":"1413018621","operator":"Anglian Water","ref":"HAHEST"}},{"type":"Feature","geometry":{"type":"Point","coordinates":[-1.48555,51.77848]},"properties":{"name":"Mapped water infrastructure","category":"pumping_station","osm_type":"way","osm_id":"1429779209"}},{"type":"Feature","geometry":{"type":"Point","coordinates":[-1.48422,51.77746]},"properties":{"name":"Mapped water infrastructure","category":"pumping_station","osm_type":"way","osm_id":"1433660147"}},{"type":"Feature","geometry":{"type":"Point","coordinates":[-1.48952,51.77718]},"properties":{"name":"Mapped water infrastructure","category":"pumping_station","osm_type":"way","osm_id":"1443575982"}},{"type":"Feature","geometry":{"type":"Point","coordinates":[-1.72431,51.91609]},"properties":{"name":"Mapped water infrastructure","category":"pumping_station","osm_type":"way","osm_id":"1450121552"}},{"type":"Feature","geometry":{"type":"Point","coordinates":[-1.98146,51.70995]},"properties":{"name":"Mapped water infrastructure","category":"pumping_station","osm_type":"way","osm_id":"1456862088"}},{"type":"Feature","geometry":{"type":"Point","coordinates":[-1.7997,51.55746]},"properties":{"name":"Newham Crescent Pumping Station","category":"pumping_station","osm_type":"way","osm_id":"1468078881","operator":"Thames Water"}},{"type":"Feature","geometry":{"type":"Point","coordinates":[-1.80006,51.57619]},"properties":{"name":"Mapped water infrastructure","category":"wastewater_plant","osm_type":"way","osm_id":"1476327749"}},{"type":"Feature","geometry":{"type":"Point","coordinates":[-1.22738,51.75444]},"properties":{"name":"Headington Reservoir","category":"water_works","osm_type":"way","osm_id":"1476772970"}},{"type":"Feature","geometry":{"type":"Point","coordinates":[-1.16802,51.74786]},"properties":{"name":"Horspath Reservoir","category":"reservoir_covered","osm_type":"way","osm_id":"1476774174"}},{"type":"Feature","geometry":{"type":"Point","coordinates":[-1.19173,51.75487]},"properties":{"name":"Shotover Reservoir","category":"water_works","osm_type":"way","osm_id":"1476775371"}},{"type":"Feature","geometry":{"type":"Point","coordinates":[-1.23149,51.70919]},"properties":{"name":"Mapped water infrastructure","category":"pumping_station","osm_type":"way","osm_id":"1486479237"}},{"type":"Feature","geometry":{"type":"Point","coordinates":[-1.23146,51.66858]},"properties":{"name":"Mapped water infrastructure","category":"water_works","osm_type":"way","osm_id":"1486532357"}},{"type":"Feature","geometry":{"type":"Point","coordinates":[-1.47356,51.77786]},"properties":{"name":"Mapped water infrastructure","category":"pumping_station","osm_type":"way","osm_id":"1491027772"}},{"type":"Feature","geometry":{"type":"Point","coordinates":[-1.26135,51.74455]},"properties":{"name":"Mapped water infrastructure","category":"pumping_station","osm_type":"way","osm_id":"1491674718","operator":"Thames Water"}},{"type":"Feature","geometry":{"type":"Point","coordinates":[-1.27189,51.60084]},"properties":{"name":"Mapped water infrastructure","category":"pumping_station","osm_type":"way","osm_id":"1497462169"}},{"type":"Feature","geometry":{"type":"Point","coordinates":[-1.74049,51.56016]},"properties":{"name":"Dorcan Pumping Station","category":"pumping_station","osm_type":"way","osm_id":"1497486691","operator":"Thames Water"}},{"type":"Feature","geometry":{"type":"Point","coordinates":[-1.4177,51.61435]},"properties":{"name":"Mapped water infrastructure","category":"pumping_station","osm_type":"way","osm_id":"1498201392"}},{"type":"Feature","geometry":{"type":"Point","coordinates":[-1.26635,51.60574]},"properties":{"name":"Mapped water infrastructure","category":"pumping_station","osm_type":"way","osm_id":"1516921934"}},{"type":"Feature","geometry":{"type":"Point","coordinates":[-1.74453,51.83086]},"properties":{"name":"Sherbourne SPS","category":"pumping_station","osm_type":"way","osm_id":"1525218188","operator":"Thames Water"}},{"type":"Feature","geometry":{"type":"Point","coordinates":[-1.34016,51.82263]},"properties":{"name":"Mapped water infrastructure","category":"reservoir_covered","osm_type":"way","osm_id":"1545806578"}},{"type":"Feature","geometry":{"type":"Point","coordinates":[-1.99527,51.67609]},"properties":{"name":"Ewen (Cirencester) SPS","category":"pumping_station","osm_type":"way","osm_id":"1551725029","operator":"Thames Water"}},{"type":"Feature","geometry":{"type":"Point","coordinates":[-1.93332,51.64748]},"properties":{"name":"Back Street (Ashton Keynes) SPS","category":"pumping_station","osm_type":"way","osm_id":"1551725030","operator":"Thames Water"}},{"type":"Feature","geometry":{"type":"Point","coordinates":[-1.24994,51.92388]},"properties":{"name":"Mapped water infrastructure","category":"wastewater_plant","osm_type":"relation","osm_id":"6281782"}},{"type":"Feature","geometry":{"type":"Point","coordinates":[-1.21419,51.71353]},"properties":{"name":"Oxford Sewage Treatment Works","category":"wastewater_plant","osm_type":"way","osm_id":"4254616","operator":"Thames Water"}},{"type":"Feature","geometry":{"type":"Point","coordinates":[-1.21962,51.90869]},"properties":{"name":"Middleton Stoney Wastewater Treatment Works","category":"wastewater_plant","osm_type":"way","osm_id":"23432588","operator":"Thames Water"}},{"type":"Feature","geometry":{"type":"Point","coordinates":[-1.14813,51.76777]},"properties":{"name":"Forest Hill Wastewater Treatment Works","category":"wastewater_plant","osm_type":"way","osm_id":"32452749","ref":"FORES1ZZ"}},{"type":"Feature","geometry":{"type":"Point","coordinates":[-1.13215,51.67585]},"properties":{"name":"Stadhampton Wastewater Treatment Works","category":"wastewater_plant","osm_type":"way","osm_id":"33656146","operator":"Thames Water","ref":"STADS1ZZ"}},{"type":"Feature","geometry":{"type":"Point","coordinates":[-1.22041,51.79008]},"properties":{"name":"Elsfield Wastewater Treatment Works","category":"wastewater_plant","osm_type":"way","osm_id":"38106263","operator":"Thames Water"}},{"type":"Feature","geometry":{"type":"Point","coordinates":[-1.28801,51.65395]},"properties":{"name":"Abingdon Sewage Treatment Works","category":"wastewater_plant","osm_type":"way","osm_id":"38912680","operator":"Thames Water"}},{"type":"Feature","geometry":{"type":"Point","coordinates":[-1.77184,51.54049]},"properties":{"name":"Broome Manor Sewage Farm","category":"wastewater_plant","osm_type":"way","osm_id":"68532453"}},{"type":"Feature","geometry":{"type":"Point","coordinates":[-1.80093,51.59214]},"properties":{"name":"Greenmeadow Sewage Pumping Station","category":"pumping_station","osm_type":"way","osm_id":"73699502"}},{"type":"Feature","geometry":{"type":"Point","coordinates":[-1.22267,51.85323]},"properties":{"name":"Weston-On-The-Green Wastewater Treatment Works","category":"wastewater_plant","osm_type":"way","osm_id":"98028058","operator":"Thames Water"}},{"type":"Feature","geometry":{"type":"Point","coordinates":[-1.48687,51.86968]},"properties":{"name":"Charlbury Wastewater Treatment Works","category":"wastewater_plant","osm_type":"way","osm_id":"100477237","operator":"Thames Water"}},{"type":"Feature","geometry":{"type":"Point","coordinates":[-1.39993,51.74571]},"properties":{"name":"Mapped water infrastructure","category":"water_tower","osm_type":"way","osm_id":"120347383"}},{"type":"Feature","geometry":{"type":"Point","coordinates":[-1.38829,51.81356]},"properties":{"name":"Church Hanborough Wastewater Treatment Works","category":"wastewater_plant","osm_type":"way","osm_id":"137841398","operator":"Thames Water"}},{"type":"Feature","geometry":{"type":"Point","coordinates":[-1.81386,51.57071]},"properties":{"name":"Swindon WWTW","category":"wastewater_plant","osm_type":"way","osm_id":"143577578","operator":"Thames Water"}},{"type":"Feature","geometry":{"type":"Point","coordinates":[-1.69793,51.99232]},"properties":{"name":"Blenheim Way (Moreton in Marsh)","category":"pumping_station","osm_type":"way","osm_id":"153724072","operator":"Thames Water","ref":"BLENP4ZZ"}},{"type":"Feature","geometry":{"type":"Point","coordinates":[-1.34793,51.85614]},"properties":{"name":"Woodstock Wastewater Treatment Works","category":"wastewater_plant","osm_type":"way","osm_id":"165762308","operator":"Thames Water"}},{"type":"Feature","geometry":{"type":"Point","coordinates":[-1.2654,51.85241]},"properties":{"name":"Bletchingdon Wastewater Treatment Works","category":"wastewater_plant","osm_type":"way","osm_id":"184421031","operator":"Thames Water"}},{"type":"Feature","geometry":{"type":"Point","coordinates":[-1.34766,51.75556]},"properties":{"name":"Mapped water infrastructure","category":"water_works","osm_type":"way","osm_id":"189370390"}},{"type":"Feature","geometry":{"type":"Point","coordinates":[-1.35424,51.75975]},"properties":{"name":"Mapped water infrastructure","category":"wastewater_plant","osm_type":"way","osm_id":"189429520"}},{"type":"Feature","geometry":{"type":"Point","coordinates":[-1.37585,51.69627]},"properties":{"name":"Appleton Wastewater Treatment Works","category":"wastewater_plant","osm_type":"way","osm_id":"204428016","operator":"Thames Water"}},{"type":"Feature","geometry":{"type":"Point","coordinates":[-1.14962,51.58157]},"properties":{"name":"Cholsey Wastewater Treatment Works","category":"wastewater_plant","osm_type":"way","osm_id":"216263239","operator":"Thames Water","addr:city":"Wallingford","addr:postcode":"OX10 9LB"}},{"type":"Feature","geometry":{"type":"Point","coordinates":[-1.10392,51.60952]},"properties":{"name":"Benson Wastewater Treatment Works","category":"wastewater_plant","osm_type":"way","osm_id":"218540571","operator":"Thames Water","ref":"BENSS1ZZ"}},{"type":"Feature","geometry":{"type":"Point","coordinates":[-1.33226,51.80611]},"properties":{"name":"Cassington Wastewater Treatment Works","category":"wastewater_plant","osm_type":"way","osm_id":"219123061","operator":"Thames Water"}},{"type":"Feature","geometry":{"type":"Point","coordinates":[-1.15147,51.78321]},"properties":{"name":"Stanton St John Wastewater Treatment Works","category":"wastewater_plant","osm_type":"way","osm_id":"225189246","operator":"Thames Water","ref":"STANS7ZZ"}},{"type":"Feature","geometry":{"type":"Point","coordinates":[-1.0136,51.88442]},"properties":{"name":"Grendon Underwood Wastewater Treatment Works","category":"wastewater_plant","osm_type":"way","osm_id":"231763091","operator":"Thames Water"}},{"type":"Feature","geometry":{"type":"Point","coordinates":[-1.16119,51.88364]},"properties":{"name":"Bicester Sewage Treatment Works","category":"wastewater_plant","osm_type":"way","osm_id":"231872173","operator":"Thames Water"}},{"type":"Feature","geometry":{"type":"Point","coordinates":[-1.8228,51.82662]},"properties":{"name":"Northleach Wastewater Treatment Works","category":"wastewater_plant","osm_type":"way","osm_id":"251494872","operator":"Thames Water"}},{"type":"Feature","geometry":{"type":"Point","coordinates":[-1.33314,51.86429]},"properties":{"name":"Angelinos","category":"pumping_station","osm_type":"way","osm_id":"261065704","operator":"Thames Water"}},{"type":"Feature","geometry":{"type":"Point","coordinates":[-1.90908,51.63798]},"properties":{"name":"Ashton Keynes Wastewater Treatment Works","category":"wastewater_plant","osm_type":"way","osm_id":"318157214","operator":"Thames Water"}},{"type":"Feature","geometry":{"type":"Point","coordinates":[-1.22651,51.79985]},"properties":{"name":"Woodeaton Wastewater Treatment Works","category":"wastewater_plant","osm_type":"way","osm_id":"333333815","operator":"Thames Water"}},{"type":"Feature","geometry":{"type":"Point","coordinates":[-1.06253,51.68384]},"properties":{"name":"Chalgrove Wastewater Treatment Works","category":"wastewater_plant","osm_type":"way","osm_id":"334188747","operator":"Thames Water"}},{"type":"Feature","geometry":{"type":"Point","coordinates":[-1.27313,51.58384]},"properties":{"name":"Mapped water infrastructure","category":"pumping_station","osm_type":"way","osm_id":"352103871","addr:city":"Didcot","addr:postcode":"OX11 0NT"}},{"type":"Feature","geometry":{"type":"Point","coordinates":[-1.17046,51.66611]},"properties":{"name":"Mapped water infrastructure","category":"water_tower","osm_type":"way","osm_id":"356426044"}},{"type":"Feature","geometry":{"type":"Point","coordinates":[-1.59592,51.74263]},"properties":{"name":"Carterton Sewage Treatment Works","category":"wastewater_plant","osm_type":"way","osm_id":"360042121","operator":"Thames Water","ref":"CARTS1ZZ"}},{"type":"Feature","geometry":{"type":"Point","coordinates":[-1.24007,51.7226]},"properties":{"name":"Littlemore Sewage Pumping Station","category":"pumping_station","osm_type":"way","osm_id":"367580926","operator":"Thames Water"}},{"type":"Feature","geometry":{"type":"Point","coordinates":[-1.14496,51.52513]},"properties":{"name":"Streatley Sewage Treatment Works","category":"wastewater_plant","osm_type":"way","osm_id":"375892285","operator":"Thames Water"}},{"type":"Feature","geometry":{"type":"Point","coordinates":[-1.24352,51.50854]},"properties":{"name":"Compton Wastewater Treatment Works","category":"wastewater_plant","osm_type":"way","osm_id":"375903939","operator":"Thames Water"}},{"type":"Feature","geometry":{"type":"Point","coordinates":[-1.13209,51.54097]},"properties":{"name":"Goring Sewage Treatment Works","category":"wastewater_plant","osm_type":"way","osm_id":"376143018","operator":"Thames Water"}},{"type":"Feature","geometry":{"type":"Point","coordinates":[-1.13739,51.71497]},"properties":{"name":"Cuddesdon Wastewater Treatment Works","category":"wastewater_plant","osm_type":"way","osm_id":"403315246","operator":"Thames Water","ref":"CUDDS1ZZ"}},{"type":"Feature","geometry":{"type":"Point","coordinates":[-1.18562,51.59114]},"properties":{"name":"South Moreton Wastewater Treatment Works","category":"wastewater_plant","osm_type":"way","osm_id":"430982949","operator":"Thames Water"}},{"type":"Feature","geometry":{"type":"Point","coordinates":[-1.77243,51.70129]},"properties":{"name":"Fairford WWTW","category":"wastewater_plant","osm_type":"way","osm_id":"467981228","operator":"Thames Water","addr:city":"Fairford","addr:postcode":"GL7 4RB"}},{"type":"Feature","geometry":{"type":"Point","coordinates":[-1.41839,51.71873]},"properties":{"name":"Standlake Wastewater Treatment Works","category":"wastewater_plant","osm_type":"way","osm_id":"476646791","operator":"Thames Water"}},{"type":"Feature","geometry":{"type":"Point","coordinates":[-1.87381,51.5996]},"properties":{"name":"Purton WWTW","category":"wastewater_plant","osm_type":"way","osm_id":"507938100","operator":"Thames Water"}},{"type":"Feature","geometry":{"type":"Point","coordinates":[-1.57277,51.93864]},"properties":{"name":"Chipping Norton Wastewater Treatment Works","category":"wastewater_plant","osm_type":"way","osm_id":"518534750","operator":"Thames Water"}},{"type":"Feature","geometry":{"type":"Point","coordinates":[-1.46852,51.5529]},"properties":{"name":"Mapped water infrastructure","category":"reservoir_covered","osm_type":"way","osm_id":"620592066"}},{"type":"Feature","geometry":{"type":"Point","coordinates":[-1.28396,51.52652]},"properties":{"name":"East Ilsley WwTW","category":"wastewater_plant","osm_type":"way","osm_id":"620735845","operator":"Thames Water","ref":"EILSS1ZZ"}},{"type":"Feature","geometry":{"type":"Point","coordinates":[-1.23361,51.77175]},"properties":{"name":"Boults Lane Pumping Station","category":"pumping_station","osm_type":"way","osm_id":"624285976","operator":"Thames Water","ref":"BOULP3ZZ"}},{"type":"Feature","geometry":{"type":"Point","coordinates":[-1.71844,51.54459]},"properties":{"name":"Mapped water infrastructure","category":"pumping_station","osm_type":"way","osm_id":"762093368","operator":"Thames Water"}},{"type":"Feature","geometry":{"type":"Point","coordinates":[-1.63723,51.9032]},"properties":{"name":"Bledington Wastewater Treatment Works","category":"wastewater_plant","osm_type":"way","osm_id":"766549810","operator":"Thames Water"}},{"type":"Feature","geometry":{"type":"Point","coordinates":[-1.68592,51.94295]},"properties":{"name":"Broadwell Wastewater Treatment Works","category":"wastewater_plant","osm_type":"way","osm_id":"790464430"}},{"type":"Feature","geometry":{"type":"Point","coordinates":[-1.12293,51.80353]},"properties":{"name":"Horton-cum-Studley Wastewater Treatment Works","category":"wastewater_plant","osm_type":"way","osm_id":"804691007","operator":"Thames Water","ref":"HORTS1ZZ"}},{"type":"Feature","geometry":{"type":"Point","coordinates":[-1.3668,51.8337]},"properties":{"name":"Pump House","category":"pumping_station","osm_type":"way","osm_id":"849911064"}},{"type":"Feature","geometry":{"type":"Point","coordinates":[-1.36777,51.84509]},"properties":{"name":"Mapped water infrastructure","category":"water_well","osm_type":"way","osm_id":"849911069"}},{"type":"Feature","geometry":{"type":"Point","coordinates":[-1.76234,51.67667]},"properties":{"name":"Kempsford Wastewater Treatment Works","category":"wastewater_plant","osm_type":"way","osm_id":"875525600","operator":"Thames Water"}},{"type":"Feature","geometry":{"type":"Point","coordinates":[-1.09941,51.69971]},"properties":{"name":"Little Milton Wastewater Treatment Works","category":"wastewater_plant","osm_type":"way","osm_id":"892627066","operator":"Thames Water","ref":"LMILS1ZZ"}},{"type":"Feature","geometry":{"type":"Point","coordinates":[-1.35337,51.92507]},"properties":{"name":"Middle Barton Wastewater Treatment Works","category":"wastewater_plant","osm_type":"way","osm_id":"902954075","operator":"Thames Water"}},{"type":"Feature","geometry":{"type":"Point","coordinates":[-1.29747,51.87281]},"properties":{"name":"Tackley Wastewater Treatment Works","category":"wastewater_plant","osm_type":"way","osm_id":"913867224","operator":"Thames Water"}},{"type":"Feature","geometry":{"type":"Point","coordinates":[-1.73576,51.87869]},"properties":{"name":"Bourton-on-the-Water Wastewater Treatment Works","category":"wastewater_plant","osm_type":"way","osm_id":"921249828","operator":"Thames Water"}},{"type":"Feature","geometry":{"type":"Point","coordinates":[-1.62879,51.80959]},"properties":{"name":"Burford Wastewater Treatment Works","category":"wastewater_plant","osm_type":"way","osm_id":"930768339","operator":"Thames Water","ref":"BURFS1ZZ"}},{"type":"Feature","geometry":{"type":"Point","coordinates":[-1.17904,51.84038]},"properties":{"name":"Charlton-on-Otmoor Wastewater Treatment Works","category":"wastewater_plant","osm_type":"way","osm_id":"936326821","operator":"Thames Water"}},{"type":"Feature","geometry":{"type":"Point","coordinates":[-1.2951,51.60496]},"properties":{"name":"Mapped water infrastructure","category":"pumping_station","osm_type":"way","osm_id":"940775485"}},{"type":"Feature","geometry":{"type":"Point","coordinates":[-1.87945,51.70603]},"properties":{"name":"Ampney St Peter Wastewater Treatment Works","category":"wastewater_plant","osm_type":"way","osm_id":"946102750","operator":"Thames Water"}},{"type":"Feature","geometry":{"type":"Point","coordinates":[-1.38949,51.75116]},"properties":{"name":"Stanton Harcourt Wastewater Treatment Works","category":"wastewater_plant","osm_type":"way","osm_id":"955834205","operator":"Thames Water"}},{"type":"Feature","geometry":{"type":"Point","coordinates":[-1.52569,51.88945]},"properties":{"name":"Chadlington Wastewater Treatment Works","category":"wastewater_plant","osm_type":"way","osm_id":"956557356","operator":"Thames Water"}},{"type":"Feature","geometry":{"type":"Point","coordinates":[-1.22607,51.60615]},"properties":{"name":"Mapped water infrastructure","category":"pumping_station","osm_type":"way","osm_id":"962415594"}},{"type":"Feature","geometry":{"type":"Point","coordinates":[-1.7842,51.62029]},"properties":{"name":"Blunsdon Wastewater Treatment Works","category":"wastewater_plant","osm_type":"way","osm_id":"964591766","operator":"Thames Water"}},{"type":"Feature","geometry":{"type":"Point","coordinates":[-1.73342,51.96657]},"properties":{"name":"Longborough Wastewater Treatment Works","category":"wastewater_plant","osm_type":"way","osm_id":"969847678"}},{"type":"Feature","geometry":{"type":"Point","coordinates":[-1.71854,51.54458]},"properties":{"name":"Mapped water infrastructure","category":"pumping_station","osm_type":"way","osm_id":"970604491","operator":"Thames Water"}},{"type":"Feature","geometry":{"type":"Point","coordinates":[-1.96437,51.87768]},"properties":{"name":"Andoversford Wastewater Treatment Works","category":"wastewater_plant","osm_type":"way","osm_id":"976105481","operator":"Thames Water"}},{"type":"Feature","geometry":{"type":"Point","coordinates":[-1.3576,51.99024]},"properties":{"name":"Barford (St Michael) Wastewater Treatment Works","category":"wastewater_plant","osm_type":"way","osm_id":"976106770","operator":"Thames Water"}},{"type":"Feature","geometry":{"type":"Point","coordinates":[-1.82169,51.76037]},"properties":{"name":"Bibury Wastewater Treatment Works","category":"wastewater_plant","osm_type":"way","osm_id":"976113630","operator":"Thames Water"}},{"type":"Feature","geometry":{"type":"Point","coordinates":[-1.67579,51.5847]},"properties":{"name":"Bourton WwTW","category":"wastewater_plant","osm_type":"way","osm_id":"976120505","operator":"Thames Water","ref":"BOURS1ZZ"}},{"type":"Feature","geometry":{"type":"Point","coordinates":[-1.5,51.68376]},"properties":{"name":"Buckland Wastewater Treatment Works","category":"wastewater_plant","osm_type":"way","osm_id":"976123888","operator":"Thames Water"}},{"type":"Feature","geometry":{"type":"Point","coordinates":[-1.66743,51.6748]},"properties":{"name":"Buscot Wastewater Treatment Works","category":"wastewater_plant","osm_type":"way","osm_id":"976124206","operator":"Thames Water"}},{"type":"Feature","geometry":{"type":"Point","coordinates":[-1.78289,51.66396]},"properties":{"name":"Castle Eaton Wastewater Treatment Works","category":"wastewater_plant","osm_type":"way","osm_id":"976124565","operator":"Thames Water","ref":"CASTS1ZZ"}},{"type":"Feature","geometry":{"type":"Point","coordinates":[-1.44936,51.64958]},"properties":{"name":"Charney Bassett Wastewater Treatment Works","category":"wastewater_plant","osm_type":"way","osm_id":"976129994","operator":"Thames Water"}},{"type":"Feature","geometry":{"type":"Point","coordinates":[-1.01079,51.79571]},"properties":{"name":"Chilton Wastewater Treatment Works","category":"wastewater_plant","osm_type":"way","osm_id":"976131058","operator":"Thames Water"}},{"type":"Feature","geometry":{"type":"Point","coordinates":[-1.28652,51.98016]},"properties":{"name":"Clifton Wastewater Treatment Works","category":"wastewater_plant","osm_type":"way","osm_id":"976223396","operator":"Thames Water"}},{"type":"Feature","geometry":{"type":"Point","coordinates":[-1.66232,51.63944]},"properties":{"name":"Coleshill Wastewater Treatment Works","category":"wastewater_plant","osm_type":"way","osm_id":"976224767","operator":"Thames Water"}},{"type":"Feature","geometry":{"type":"Point","coordinates":[-1.41356,51.83913]},"properties":{"name":"Combe Wastewater Treatment Works","category":"wastewater_plant","osm_type":"way","osm_id":"976225077","operator":"Thames Water"}},{"type":"Feature","geometry":{"type":"Point","coordinates":[-1.0088,51.82257]},"properties":{"name":"Dorton Wastewater Treatment Works","category":"wastewater_plant","osm_type":"way","osm_id":"976249400","operator":"Thames Water"}},{"type":"Feature","geometry":{"type":"Point","coordinates":[-1.63573,51.67067]},"properties":{"name":"Eaton Hastings Wastewater Treatment Works","category":"wastewater_plant","osm_type":"way","osm_id":"976249651","operator":"Thames Water"}},{"type":"Feature","geometry":{"type":"Point","coordinates":[-1.45732,51.92508]},"properties":{"name":"Enstone Wastewater Treatment Works","category":"wastewater_plant","osm_type":"way","osm_id":"976284137","operator":"Thames Water"}},{"type":"Feature","geometry":{"type":"Point","coordinates":[-1.43064,51.52648]},"properties":{"name":"Fawley Wastewater Treatment Works","category":"wastewater_plant","osm_type":"way","osm_id":"976287345","operator":"Thames Water"}},{"type":"Feature","geometry":{"type":"Point","coordinates":[-1.64144,51.8939]},"properties":{"name":"Foscot Wastewater Treatment Works","category":"wastewater_plant","osm_type":"way","osm_id":"976289338","operator":"Thames Water"}},{"type":"Feature","geometry":{"type":"Point","coordinates":[-1.09637,51.72576]},"properties":{"name":"Great Milton Wastewater Treatment Works","category":"wastewater_plant","osm_type":"way","osm_id":"976408352","operator":"Thames Water","ref":"GMILS1ZZ"}},{"type":"Feature","geometry":{"type":"Point","coordinates":[-1.86126,51.92251]},"properties":{"name":"Guiting Power Wastewater Treatment Works","category":"wastewater_plant","osm_type":"way","osm_id":"976409172","operator":"Thames Water"}},{"type":"Feature","geometry":{"type":"Point","coordinates":[-1.7452,51.64007]},"properties":{"name":"Hannington (Wilts) Wastewater Treatment Works","category":"wastewater_plant","osm_type":"way","osm_id":"976412390","operator":"Thames Water"}},{"type":"Feature","geometry":{"type":"Point","coordinates":[-1.0239,51.58827]},"properties":{"name":"Huntercombe Wastewater Treatment Works","category":"wastewater_plant","osm_type":"way","osm_id":"976467205","operator":"Thames Water"}},{"type":"Feature","geometry":{"type":"Point","coordinates":[-1.1173,51.50343]},"properties":{"name":"Lower Basildon Sewage Treatment Works","category":"wastewater_plant","osm_type":"way","osm_id":"976477960","operator":"Thames Water"}},{"type":"Feature","geometry":{"type":"Point","coordinates":[-1.62924,51.96792]},"properties":{"name":"Little Compton Wastewater Treatment Works","category":"wastewater_plant","osm_type":"way","osm_id":"976480765","operator":"Thames Water"}},{"type":"Feature","geometry":{"type":"Point","coordinates":[-1.54545,51.67305]},"properties":{"name":"Littleworth Wastewater Treatment Works","category":"wastewater_plant","osm_type":"way","osm_id":"976567172","operator":"Thames Water"}},{"type":"Feature","geometry":{"type":"Point","coordinates":[-1.04096,51.86174]},"properties":{"name":"Ludgershall Wastewater Treatment Works","category":"wastewater_plant","osm_type":"way","osm_id":"976570915","operator":"Thames Water","ref":"LUDGS1ZZ"}},{"type":"Feature","geometry":{"type":"Point","coordinates":[-1.82283,51.90584]},"properties":{"name":"Naunton Wastewater Treatment Works","category":"wastewater_plant","osm_type":"way","osm_id":"976582437","operator":"Thames Water"}},{"type":"Feature","geometry":{"type":"Point","coordinates":[-1.19747,51.68798]},"properties":{"name":"Nuneham Courtenay Wastewater Treatment Works","category":"wastewater_plant","osm_type":"way","osm_id":"976633771","operator":"Thames Water"}},{"type":"Feature","geometry":{"type":"Point","coordinates":[-1.90913,51.85142]},"properties":{"name":"Pike Hill Rise Wastewater Treatment Works","category":"wastewater_plant","osm_type":"way","osm_id":"976634038","operator":"Thames Water"}},{"type":"Feature","geometry":{"type":"Point","coordinates":[-1.52387,51.97112]},"properties":{"name":"Great Rollright Wastewater Treatment Works","category":"wastewater_plant","osm_type":"way","osm_id":"976634821","operator":"Thames Water"}},{"type":"Feature","geometry":{"type":"Point","coordinates":[-1.3861,51.93375]},"properties":{"name":"Sandford St Martin Wastewater Treatment Works","category":"wastewater_plant","osm_type":"way","osm_id":"976638475","operator":"Thames Water"}},{"type":"Feature","geometry":{"type":"Point","coordinates":[-1.69917,51.60869]},"properties":{"name":"Sevenhampton Wastewater Treatment Works","category":"wastewater_plant","osm_type":"way","osm_id":"976639569","operator":"Thames Water"}},{"type":"Feature","geometry":{"type":"Point","coordinates":[-1.04053,51.76037]},"properties":{"name":"Shabbington Wastewater Treatment Works","category":"wastewater_plant","osm_type":"way","osm_id":"976639904","operator":"Thames Water","ref":"SHABS1ZZ"}},{"type":"Feature","geometry":{"type":"Point","coordinates":[-1.53929,51.63794]},"properties":{"name":"Shellingford Wastewater Treatment Works","category":"wastewater_plant","osm_type":"way","osm_id":"976665930","operator":"Thames Water"}},{"type":"Feature","geometry":{"type":"Point","coordinates":[-1.42959,51.77313]},"properties":{"name":"South Leigh Wastewater Treatment Works","category":"wastewater_plant","osm_type":"way","osm_id":"976670983","operator":"Thames Water"}},{"type":"Feature","geometry":{"type":"Point","coordinates":[-1.49126,51.88887]},"properties":{"name":"Spelsbury Wastewater Treatment Works","category":"wastewater_plant","osm_type":"way","osm_id":"976672929","operator":"Thames Water"}},{"type":"Feature","geometry":{"type":"Point","coordinates":[-1.00974,51.71693]},"properties":{"name":"Tetsworth Wastewater Treatment Works","category":"wastewater_plant","osm_type":"way","osm_id":"976686492","operator":"Thames Water"}},{"type":"Feature","geometry":{"type":"Point","coordinates":[-1.94949,51.83858]},"properties":{"name":"Withington Wastewater Treatment Works","category":"wastewater_plant","osm_type":"way","osm_id":"976700322","operator":"Thames Water"}},{"type":"Feature","geometry":{"type":"Point","coordinates":[-1.53469,51.72236]},"properties":{"name":"Bampton Wastewater Treatment Works","category":"wastewater_plant","osm_type":"way","osm_id":"976728544","operator":"Thames Water"}},{"type":"Feature","geometry":{"type":"Point","coordinates":[-1.95289,51.67278]},"properties":{"name":"Cirencester Wastewater Treatment Works","category":"wastewater_plant","osm_type":"way","osm_id":"976946588","operator":"Thames Water"}},{"type":"Feature","geometry":{"type":"Point","coordinates":[-1.2348,51.61395]},"properties":{"name":"Mapped water infrastructure","category":"pumping_station","osm_type":"way","osm_id":"987012738","operator":"Thames Water"}},{"type":"Feature","geometry":{"type":"Point","coordinates":[-1.20356,51.64648]},"properties":{"name":"Long Wittenham Wastewater Treatment Works","category":"wastewater_plant","osm_type":"way","osm_id":"992072249","operator":"Thames Water"}},{"type":"Feature","geometry":{"type":"Point","coordinates":[-1.29697,51.62466]},"properties":{"name":"Mapped water infrastructure","category":"pumping_station","osm_type":"way","osm_id":"1031504174"}},{"type":"Feature","geometry":{"type":"Point","coordinates":[-1.71865,51.5592]},"properties":{"name":"Mapped water infrastructure","category":"pumping_station","osm_type":"way","osm_id":"1118481224","operator":"Thames Water"}},{"type":"Feature","geometry":{"type":"Point","coordinates":[-1.24276,51.60781]},"properties":{"name":"Mapped water infrastructure","category":"pumping_station","osm_type":"way","osm_id":"1188268351","operator":"Thames Water"}},{"type":"Feature","geometry":{"type":"Point","coordinates":[-1.14224,51.91614]},"properties":{"name":"Mapped water infrastructure","category":"water_tower","osm_type":"way","osm_id":"1192694286"}},{"type":"Feature","geometry":{"type":"Point","coordinates":[-1.99508,51.59647]},"properties":{"name":"Mapped water infrastructure","category":"water_tower","osm_type":"way","osm_id":"1214815996"}},{"type":"Feature","geometry":{"type":"Point","coordinates":[-1.2026,51.59734]},"properties":{"name":"South Moreton Control Valve","category":"pumping_station","osm_type":"way","osm_id":"1272104561","operator":"Thames Water","ref":"SMORVV1ZZ"}},{"type":"Feature","geometry":{"type":"Point","coordinates":[-1.22732,51.68845]},"properties":{"name":"Mapped water infrastructure","category":"pumping_station","osm_type":"way","osm_id":"1286551941"}},{"type":"Feature","geometry":{"type":"Point","coordinates":[-1.31651,51.62584]},"properties":{"name":"Mapped water infrastructure","category":"pumping_station","osm_type":"way","osm_id":"1330922861"}},{"type":"Feature","geometry":{"type":"Point","coordinates":[-1.7662,51.69777]},"properties":{"name":"RAF Fairford Sewage Treatment Works","category":"wastewater_plant","osm_type":"way","osm_id":"1350054344"}},{"type":"Feature","geometry":{"type":"Point","coordinates":[-1.77448,51.69919]},"properties":{"name":"Mapped water infrastructure","category":"water_tower","osm_type":"way","osm_id":"1350642007"}},{"type":"Feature","geometry":{"type":"Point","coordinates":[-1.23492,51.70407]},"properties":{"name":"Mapped water infrastructure","category":"pumping_station","osm_type":"way","osm_id":"1371196319"}},{"type":"Feature","geometry":{"type":"Point","coordinates":[-1.86186,51.64526]},"properties":{"name":"Bailiffs Piece (Cricklade) SPS","category":"pumping_station","osm_type":"way","osm_id":"1551725031","operator":"Thames Water"}}]}