{"type":"FeatureCollection","features":[{"type":"Feature","geometry":{"type":"Point","coordinates":[-1.64472,54.2257]},"properties":{"name":"The Old Station Yard","category":"drinking_water","osm_type":"node","osm_id":"470282988"}},{"type":"Feature","geometry":{"type":"Point","coordinates":[-1.19187,54.12125]},"properties":{"name":"Mapped water infrastructure","category":"drinking_water","osm_type":"node","osm_id":"544520226"}},{"type":"Feature","geometry":{"type":"Point","coordinates":[-1.70114,54.0538]},"properties":{"name":"Mapped water infrastructure","category":"drinking_water","osm_type":"node","osm_id":"1769462881"}},{"type":"Feature","geometry":{"type":"Point","coordinates":[-1.72609,54.01209]},"properties":{"name":"Mapped water infrastructure","category":"water_tower","osm_type":"node","osm_id":"2000086061"}},{"type":"Feature","geometry":{"type":"Point","coordinates":[-1.61297,54.38733]},"properties":{"name":"Mapped water infrastructure","category":"drinking_water","osm_type":"node","osm_id":"3868215221"}},{"type":"Feature","geometry":{"type":"Point","coordinates":[-1.71474,54.21384]},"properties":{"name":"Mapped water infrastructure","category":"drinking_water","osm_type":"node","osm_id":"4340371289"}},{"type":"Feature","geometry":{"type":"Point","coordinates":[-1.94208,54.38498]},"properties":{"name":"Mapped water infrastructure","category":"drinking_water","osm_type":"node","osm_id":"4511110378"}},{"type":"Feature","geometry":{"type":"Point","coordinates":[-1.69482,54.3964]},"properties":{"name":"Mapped water infrastructure","category":"drinking_water","osm_type":"node","osm_id":"6430901055"}},{"type":"Feature","geometry":{"type":"Point","coordinates":[-1.92884,54.22714]},"properties":{"name":"Mapped water infrastructure","category":"drinking_water","osm_type":"node","osm_id":"6566527569"}},{"type":"Feature","geometry":{"type":"Point","coordinates":[-1.1809,54.25485]},"properties":{"name":"Mapped water infrastructure","category":"wastewater_plant","osm_type":"node","osm_id":"7551138580"}},{"type":"Feature","geometry":{"type":"Point","coordinates":[-1.40886,54.13911]},"properties":{"name":"Mapped water infrastructure","category":"water_tower","osm_type":"node","osm_id":"7745640221"}},{"type":"Feature","geometry":{"type":"Point","coordinates":[-1.98318,54.29232]},"properties":{"name":"Mapped water infrastructure","category":"drinking_water","osm_type":"node","osm_id":"7788033327"}},{"type":"Feature","geometry":{"type":"Point","coordinates":[-1.68981,54.15796]},"properties":{"name":"Mapped water infrastructure","category":"water_point","osm_type":"node","osm_id":"7862197585"}},{"type":"Feature","geometry":{"type":"Point","coordinates":[-1.69576,54.15796]},"properties":{"name":"Mapped water infrastructure","category":"water_point","osm_type":"node","osm_id":"7862197586"}},{"type":"Feature","geometry":{"type":"Point","coordinates":[-1.7099,54.13812]},"properties":{"name":"Mapped water infrastructure","category":"water_point","osm_type":"node","osm_id":"7862197885"}},{"type":"Feature","geometry":{"type":"Point","coordinates":[-1.04553,54.04239]},"properties":{"name":"Mapped water infrastructure","category":"water_well","osm_type":"node","osm_id":"8094472504"}},{"type":"Feature","geometry":{"type":"Point","coordinates":[-1.86116,54.3024]},"properties":{"name":"Mapped water infrastructure","category":"water_well","osm_type":"node","osm_id":"8655656157"}},{"type":"Feature","geometry":{"type":"Point","coordinates":[-1.48245,54.13587]},"properties":{"name":"Mapped water infrastructure","category":"water_well","osm_type":"node","osm_id":"8935569390"}},{"type":"Feature","geometry":{"type":"Point","coordinates":[-1.09242,54.45835]},"properties":{"name":"Mapped water infrastructure","category":"water_tower","osm_type":"node","osm_id":"9048687358"}},{"type":"Feature","geometry":{"type":"Point","coordinates":[-1.23517,54.41508]},"properties":{"name":"Mapped water infrastructure","category":"water_well","osm_type":"node","osm_id":"9084177984"}},{"type":"Feature","geometry":{"type":"Point","coordinates":[-1.25129,54.40232]},"properties":{"name":"Harpleys Well","category":"water_well","osm_type":"node","osm_id":"9084177985"}},{"type":"Feature","geometry":{"type":"Point","coordinates":[-1.53646,54.28375]},"properties":{"name":"Mapped water infrastructure","category":"water_well","osm_type":"node","osm_id":"9094490926"}},{"type":"Feature","geometry":{"type":"Point","coordinates":[-1.44165,54.44398]},"properties":{"name":"Mapped water infrastructure","category":"water_well","osm_type":"node","osm_id":"9127187718"}},{"type":"Feature","geometry":{"type":"Point","coordinates":[-1.87198,54.48787]},"properties":{"name":"Mapped water infrastructure","category":"water_well","osm_type":"node","osm_id":"9278934685"}},{"type":"Feature","geometry":{"type":"Point","coordinates":[-1.20935,54.24089]},"properties":{"name":"Mapped water infrastructure","category":"drinking_water","osm_type":"node","osm_id":"9723544966"}},{"type":"Feature","geometry":{"type":"Point","coordinates":[-1.20936,54.24096]},"properties":{"name":"Mapped water infrastructure","category":"drinking_water","osm_type":"node","osm_id":"9723544967"}},{"type":"Feature","geometry":{"type":"Point","coordinates":[-1.35454,54.02647]},"properties":{"name":"Mapped water infrastructure","category":"water_well","osm_type":"node","osm_id":"9984146947"}},{"type":"Feature","geometry":{"type":"Point","coordinates":[-1.70118,54.05374]},"properties":{"name":"Mapped water infrastructure","category":"water_well","osm_type":"node","osm_id":"10693863018"}},{"type":"Feature","geometry":{"type":"Point","coordinates":[-1.03439,54.04361]},"properties":{"name":"Mapped water infrastructure","category":"water_well","osm_type":"node","osm_id":"10776995680"}},{"type":"Feature","geometry":{"type":"Point","coordinates":[-1.99727,54.06998]},"properties":{"name":"Mapped water infrastructure","category":"drinking_water","osm_type":"node","osm_id":"11168153891"}},{"type":"Feature","geometry":{"type":"Point","coordinates":[-1.44489,54.32636]},"properties":{"name":"Romanby Oaktree","category":"wastewater_plant","osm_type":"node","osm_id":"11496787871"}},{"type":"Feature","geometry":{"type":"Point","coordinates":[-1.13436,54.48878]},"properties":{"name":"Mapped water infrastructure","category":"drinking_water","osm_type":"node","osm_id":"11528131363"}},{"type":"Feature","geometry":{"type":"Point","coordinates":[-1.98345,54.29444]},"properties":{"name":"Mapped water infrastructure","category":"drinking_water","osm_type":"node","osm_id":"12020448240"}},{"type":"Feature","geometry":{"type":"Point","coordinates":[-1.5849,54.11313]},"properties":{"name":"Mapped water infrastructure","category":"drinking_water","osm_type":"node","osm_id":"12065282487"}},{"type":"Feature","geometry":{"type":"Point","coordinates":[-1.63893,54.26405]},"properties":{"name":"Mapped water infrastructure","category":"water_well","osm_type":"node","osm_id":"12378847218"}},{"type":"Feature","geometry":{"type":"Point","coordinates":[-1.90939,54.00327]},"properties":{"name":"Mapped water infrastructure","category":"water_point","osm_type":"node","osm_id":"12666343447"}},{"type":"Feature","geometry":{"type":"Point","coordinates":[-1.90885,54.00369]},"properties":{"name":"Mapped water infrastructure","category":"water_point","osm_type":"node","osm_id":"12666343448"}},{"type":"Feature","geometry":{"type":"Point","coordinates":[-1.0251,54.2937]},"properties":{"name":"Mapped water infrastructure","category":"drinking_water","osm_type":"node","osm_id":"12714390367"}},{"type":"Feature","geometry":{"type":"Point","coordinates":[-1.68554,54.08108]},"properties":{"name":"Mapped water infrastructure","category":"drinking_water","osm_type":"node","osm_id":"12813626480"}},{"type":"Feature","geometry":{"type":"Point","coordinates":[-1.01992,54.01078]},"properties":{"name":"Mapped water infrastructure","category":"water_well","osm_type":"node","osm_id":"12956427300"}},{"type":"Feature","geometry":{"type":"Point","coordinates":[-1.59986,54.24064]},"properties":{"name":"Well Water Pumping Station","category":"pumping_station","osm_type":"node","osm_id":"12976937703"}},{"type":"Feature","geometry":{"type":"Point","coordinates":[-1.27524,54.4952]},"properties":{"name":"Mapped water infrastructure","category":"pumping_station","osm_type":"node","osm_id":"13724035116","operator":"Northumbrian Water"}},{"type":"Feature","geometry":{"type":"Point","coordinates":[-1.28253,54.44422]},"properties":{"name":"Mapped water infrastructure","category":"pumping_station","osm_type":"node","osm_id":"13737234118"}},{"type":"Feature","geometry":{"type":"Point","coordinates":[-1.28829,54.44937]},"properties":{"name":"Mapped water infrastructure","category":"pumping_station","osm_type":"node","osm_id":"13737234124"}},{"type":"Feature","geometry":{"type":"Point","coordinates":[-1.27635,54.45225]},"properties":{"name":"Mapped water infrastructure","category":"pumping_station","osm_type":"node","osm_id":"13737234127"}},{"type":"Feature","geometry":{"type":"Point","coordinates":[-1.35755,54.49042]},"properties":{"name":"Mapped water infrastructure","category":"pumping_station","osm_type":"node","osm_id":"13817235080"}},{"type":"Feature","geometry":{"type":"Point","coordinates":[-1.36853,54.4874]},"properties":{"name":"Mapped water infrastructure","category":"pumping_station","osm_type":"node","osm_id":"13817235082"}},{"type":"Feature","geometry":{"type":"Point","coordinates":[-1.32045,54.46147]},"properties":{"name":"Mapped water infrastructure","category":"pumping_station","osm_type":"node","osm_id":"13820151778"}},{"type":"Feature","geometry":{"type":"Point","coordinates":[-1.26951,54.42308]},"properties":{"name":"Mapped water infrastructure","category":"pumping_station","osm_type":"node","osm_id":"13820151780"}},{"type":"Feature","geometry":{"type":"Point","coordinates":[-1.06605,54.47557]},"properties":{"name":"Mapped water infrastructure","category":"drinking_water","osm_type":"node","osm_id":"13986171400","operator":"Kildale Village Hall","wheelchair":"yes"}},{"type":"Feature","geometry":{"type":"Point","coordinates":[-1.19454,54.42007]},"properties":{"name":"Mapped water infrastructure","category":"drinking_water","osm_type":"node","osm_id":"14023676701"}},{"type":"Feature","geometry":{"type":"Point","coordinates":[-1.54443,54.41227]},"properties":{"name":"Mapped water infrastructure","category":"water_tower","osm_type":"node","osm_id":"14158019674"}},{"type":"Feature","geometry":{"type":"Point","coordinates":[-1.5372,54.01668]},"properties":{"name":"Mapped water infrastructure","category":"wastewater_plant","osm_type":"way","osm_id":"31258350"}},{"type":"Feature","geometry":{"type":"Point","coordinates":[-1.1574,54.47971]},"properties":{"name":"Mapped water infrastructure","category":"wastewater_plant","osm_type":"way","osm_id":"106366383"}},{"type":"Feature","geometry":{"type":"Point","coordinates":[-1.45595,54.32984]},"properties":{"name":"Sewage Treatment Works","category":"wastewater_plant","osm_type":"way","osm_id":"119476861","operator":"Yorkshire Water"}},{"type":"Feature","geometry":{"type":"Point","coordinates":[-1.44874,54.39135]},"properties":{"name":"Mapped water infrastructure","category":"water_tower","osm_type":"way","osm_id":"123571124"}},{"type":"Feature","geometry":{"type":"Point","coordinates":[-1.55533,54.49982]},"properties":{"name":"Darlington Wastewater Treatment Plant","category":"wastewater_plant","osm_type":"way","osm_id":"124360532","operator":"Northumbrian Water"}},{"type":"Feature","geometry":{"type":"Point","coordinates":[-1.01686,54.0824]},"properties":{"name":"Mapped water infrastructure","category":"wastewater_plant","osm_type":"way","osm_id":"125652317"}},{"type":"Feature","geometry":{"type":"Point","coordinates":[-1.06281,54.01063]},"properties":{"name":"Mapped water infrastructure","category":"wastewater_plant","osm_type":"way","osm_id":"128702245"}},{"type":"Feature","geometry":{"type":"Point","coordinates":[-1.72068,54.39449]},"properties":{"name":"Water Treatment Works","category":"wastewater_plant","osm_type":"way","osm_id":"143320443"}},{"type":"Feature","geometry":{"type":"Point","coordinates":[-1.69582,54.01709]},"properties":{"name":"Mapped water infrastructure","category":"wastewater_plant","osm_type":"way","osm_id":"143750403"}},{"type":"Feature","geometry":{"type":"Point","coordinates":[-1.6788,54.03216]},"properties":{"name":"WIMS_FID_1317","category":"wastewater_plant","osm_type":"way","osm_id":"143750411","ref":"WIMS_FID_1317"}},{"type":"Feature","geometry":{"type":"Point","coordinates":[-1.19433,54.4622]},"properties":{"name":"Stokesley STW","category":"wastewater_plant","osm_type":"way","osm_id":"145426001","operator":"Northumbrian Water","ref":"TST2182"}},{"type":"Feature","geometry":{"type":"Point","coordinates":[-1.24658,54.03822]},"properties":{"name":"Linton on Ouse Sewage Treatment Works","category":"wastewater_plant","osm_type":"way","osm_id":"169036364","operator":"Yorkshire Water","ref":"SAI00002197"}},{"type":"Feature","geometry":{"type":"Point","coordinates":[-1.90746,54.07324]},"properties":{"name":"Valve Tower","category":"water_works","osm_type":"way","osm_id":"177434850"}},{"type":"Feature","geometry":{"type":"Point","coordinates":[-1.30387,54.36956]},"properties":{"name":"Mapped water infrastructure","category":"reservoir_covered","osm_type":"way","osm_id":"182185364"}},{"type":"Feature","geometry":{"type":"Point","coordinates":[-1.94966,54.04278]},"properties":{"name":"Burnsall","category":"wastewater_plant","osm_type":"way","osm_id":"206519703","operator":"Yorkshire Water","ref":"SAI00001450"}},{"type":"Feature","geometry":{"type":"Point","coordinates":[-1.99095,54.06211]},"properties":{"name":"Grassington Wastewater Treatment Works","category":"wastewater_plant","osm_type":"way","osm_id":"210187999","operator":"Yorkshire Water"}},{"type":"Feature","geometry":{"type":"Point","coordinates":[-1.43322,54.26974]},"properties":{"name":"Maunby Sewage Treatment Works","category":"wastewater_plant","osm_type":"way","osm_id":"223314959","operator":"Yorkshire Water","ref":"SAI00209754"}},{"type":"Feature","geometry":{"type":"Point","coordinates":[-1.50502,54.13015]},"properties":{"name":"Ripon Wastewater Treatment Works","category":"wastewater_plant","osm_type":"way","osm_id":"227710402","operator":"Yorkshire Water"}},{"type":"Feature","geometry":{"type":"Point","coordinates":[-1.62113,54.30688]},"properties":{"name":"Coxwold/STW","category":"wastewater_plant","osm_type":"way","osm_id":"234887601","operator":"Yorkshire Water","ref":"SAI00001695"}},{"type":"Feature","geometry":{"type":"Point","coordinates":[-1.77885,54.10477]},"properties":{"name":"Mapped water infrastructure","category":"wastewater_plant","osm_type":"way","osm_id":"240014993"}},{"type":"Feature","geometry":{"type":"Point","coordinates":[-1.29803,54.37331]},"properties":{"name":"Mapped water infrastructure","category":"reservoir_covered","osm_type":"way","osm_id":"274385119"}},{"type":"Feature","geometry":{"type":"Point","coordinates":[-1.44216,54.00435]},"properties":{"name":"Mapped water infrastructure","category":"wastewater_plant","osm_type":"way","osm_id":"282868504"}},{"type":"Feature","geometry":{"type":"Point","coordinates":[-1.13493,54.12696]},"properties":{"name":"Mapped water infrastructure","category":"wastewater_plant","osm_type":"way","osm_id":"286828675"}},{"type":"Feature","geometry":{"type":"Point","coordinates":[-1.39646,54.3421]},"properties":{"name":"Mapped water infrastructure","category":"reservoir_covered","osm_type":"way","osm_id":"289748806"}},{"type":"Feature","geometry":{"type":"Point","coordinates":[-1.81624,54.29892]},"properties":{"name":"Mapped water infrastructure","category":"wastewater_plant","osm_type":"way","osm_id":"291007915"}},{"type":"Feature","geometry":{"type":"Point","coordinates":[-1.50889,54.24738]},"properties":{"name":"Mapped water infrastructure","category":"wastewater_plant","osm_type":"way","osm_id":"291776296"}},{"type":"Feature","geometry":{"type":"Point","coordinates":[-1.77732,54.4015]},"properties":{"name":"Lownethwaite Water Treatment Works","category":"wastewater_plant","osm_type":"way","osm_id":"355435875"}},{"type":"Feature","geometry":{"type":"Point","coordinates":[-1.68788,54.38478]},"properties":{"name":"Colburn Sewage Treatment Works","category":"wastewater_plant","osm_type":"way","osm_id":"357520267","operator":"Yorkshire Water","ref":"SAI00001689"}},{"type":"Feature","geometry":{"type":"Point","coordinates":[-1.42866,54.17036]},"properties":{"name":"Mapped water infrastructure","category":"wastewater_plant","osm_type":"way","osm_id":"361797636"}},{"type":"Feature","geometry":{"type":"Point","coordinates":[-1.64814,54.2219]},"properties":{"name":"Masham/STW","category":"wastewater_plant","osm_type":"way","osm_id":"373865604","operator":"Yorkshire Water","ref":"SAI00001836"}},{"type":"Feature","geometry":{"type":"Point","coordinates":[-1.73073,54.07143]},"properties":{"name":"Mapped water infrastructure","category":"wastewater_plant","osm_type":"way","osm_id":"378760756"}},{"type":"Feature","geometry":{"type":"Point","coordinates":[-1.33477,54.21794]},"properties":{"name":"Thirsk Waste Water Treatment Works","category":"wastewater_plant","osm_type":"way","osm_id":"380252138"}},{"type":"Feature","geometry":{"type":"Point","coordinates":[-1.88548,54.25895]},"properties":{"name":"Carlton Husthwaite/STW","category":"wastewater_plant","osm_type":"way","osm_id":"383327089","operator":"Yorkshire Water","ref":"SAI00001671"}},{"type":"Feature","geometry":{"type":"Point","coordinates":[-1.98928,54.29171]},"properties":{"name":"Aysgarth Falls/STW","category":"wastewater_plant","osm_type":"way","osm_id":"397139037","operator":"Yorkshire Water","ref":"SAI00294556"}},{"type":"Feature","geometry":{"type":"Point","coordinates":[-1.40571,54.43514]},"properties":{"name":"Mapped water infrastructure","category":"wastewater_plant","osm_type":"way","osm_id":"397686865"}},{"type":"Feature","geometry":{"type":"Point","coordinates":[-1.40444,54.13737]},"properties":{"name":"Mapped water infrastructure","category":"wastewater_plant","osm_type":"way","osm_id":"403174942"}},{"type":"Feature","geometry":{"type":"Point","coordinates":[-1.04437,54.23846]},"properties":{"name":"Mapped water infrastructure","category":"wastewater_plant","osm_type":"way","osm_id":"415431070"}},{"type":"Feature","geometry":{"type":"Point","coordinates":[-1.10811,54.19336]},"properties":{"name":"Mapped water infrastructure","category":"wastewater_plant","osm_type":"way","osm_id":"416069347"}},{"type":"Feature","geometry":{"type":"Point","coordinates":[-1.52925,54.32904]},"properties":{"name":"Mapped water infrastructure","category":"wastewater_plant","osm_type":"way","osm_id":"425850147"}},{"type":"Feature","geometry":{"type":"Point","coordinates":[-1.71995,54.29299]},"properties":{"name":"Thornton Steward water treatment works","category":"water_works","osm_type":"way","osm_id":"430254221","operator":"Yorkshire Water"}},{"type":"Feature","geometry":{"type":"Point","coordinates":[-1.5829,54.25356]},"properties":{"name":"Snape/STW","category":"wastewater_plant","osm_type":"way","osm_id":"430858310","operator":"Yorkshire Water","ref":"SAI00001939"}},{"type":"Feature","geometry":{"type":"Point","coordinates":[-1.86785,54.49201]},"properties":{"name":"Mapped water infrastructure","category":"wastewater_plant","osm_type":"way","osm_id":"444835416"}},{"type":"Feature","geometry":{"type":"Point","coordinates":[-1.82977,54.48489]},"properties":{"name":"Newsham/STW","category":"wastewater_plant","osm_type":"way","osm_id":"444882875","operator":"Yorkshire Water","ref":"SAI00002222"}},{"type":"Feature","geometry":{"type":"Point","coordinates":[-1.45496,54.33307]},"properties":{"name":"Mapped water infrastructure","category":"wastewater_plant","osm_type":"way","osm_id":"453996997"}},{"type":"Feature","geometry":{"type":"Point","coordinates":[-1.51015,54.32598]},"properties":{"name":"Mapped water infrastructure","category":"wastewater_plant","osm_type":"way","osm_id":"454256766"}},{"type":"Feature","geometry":{"type":"Point","coordinates":[-1.54169,54.30553]},"properties":{"name":"Mapped water infrastructure","category":"wastewater_plant","osm_type":"way","osm_id":"456346176"}},{"type":"Feature","geometry":{"type":"Point","coordinates":[-1.2089,54.42571]},"properties":{"name":"Mapped water infrastructure","category":"water_works","osm_type":"way","osm_id":"474815906"}},{"type":"Feature","geometry":{"type":"Point","coordinates":[-1.10196,54.05321]},"properties":{"name":"Studley Roger/STW","category":"wastewater_plant","osm_type":"way","osm_id":"496926813","operator":"Yorkshire Water","ref":"SAI00001947"}},{"type":"Feature","geometry":{"type":"Point","coordinates":[-1.01243,54.02096]},"properties":{"name":"Mapped water infrastructure","category":"wastewater_plant","osm_type":"way","osm_id":"520296456"}},{"type":"Feature","geometry":{"type":"Point","coordinates":[-1.39823,54.34209]},"properties":{"name":"Mapped water infrastructure","category":"reservoir_covered","osm_type":"way","osm_id":"529921996"}},{"type":"Feature","geometry":{"type":"Point","coordinates":[-1.39796,54.34242]},"properties":{"name":"Mapped water infrastructure","category":"reservoir_covered","osm_type":"way","osm_id":"529922000"}},{"type":"Feature","geometry":{"type":"Point","coordinates":[-1.39769,54.34204]},"properties":{"name":"Mapped water infrastructure","category":"reservoir_covered","osm_type":"way","osm_id":"529922002"}},{"type":"Feature","geometry":{"type":"Point","coordinates":[-1.90521,54.2602]},"properties":{"name":"Mapped water infrastructure","category":"water_works","osm_type":"way","osm_id":"533121588"}},{"type":"Feature","geometry":{"type":"Point","coordinates":[-1.68006,54.4934]},"properties":{"name":"Mapped water infrastructure","category":"wastewater_plant","osm_type":"way","osm_id":"540190285"}},{"type":"Feature","geometry":{"type":"Point","coordinates":[-1.68517,54.46955]},"properties":{"name":"Mapped water infrastructure","category":"wastewater_plant","osm_type":"way","osm_id":"540192549"}},{"type":"Feature","geometry":{"type":"Point","coordinates":[-1.78074,54.46756]},"properties":{"name":"Mapped water infrastructure","category":"wastewater_plant","osm_type":"way","osm_id":"546339092"}},{"type":"Feature","geometry":{"type":"Point","coordinates":[-1.71269,54.43774]},"properties":{"name":"Mapped water infrastructure","category":"wastewater_plant","osm_type":"way","osm_id":"546585390"}},{"type":"Feature","geometry":{"type":"Point","coordinates":[-1.21997,54.43752]},"properties":{"name":"Carlton In Cleveland STW","category":"wastewater_plant","osm_type":"way","osm_id":"552922519","operator":"Northumbrian Water","ref":"TST2041"}},{"type":"Feature","geometry":{"type":"Point","coordinates":[-1.37939,54.09699]},"properties":{"name":"Mapped water infrastructure","category":"wastewater_plant","osm_type":"way","osm_id":"604059651"}},{"type":"Feature","geometry":{"type":"Point","coordinates":[-1.26526,54.41841]},"properties":{"name":"Mapped water infrastructure","category":"wastewater_plant","osm_type":"way","osm_id":"623568524"}},{"type":"Feature","geometry":{"type":"Point","coordinates":[-1.16226,54.15928]},"properties":{"name":"Oulston Water Treatment Works","category":"wastewater_plant","osm_type":"way","osm_id":"624191441","operator":"Yorkshire Water","ref":"SAI00234888"}},{"type":"Feature","geometry":{"type":"Point","coordinates":[-1.04427,54.03798]},"properties":{"name":"Mapped water infrastructure","category":"wastewater_plant","osm_type":"way","osm_id":"631386203"}},{"type":"Feature","geometry":{"type":"Point","coordinates":[-1.09612,54.10233]},"properties":{"name":"Stillington","category":"wastewater_plant","osm_type":"way","osm_id":"649094559"}},{"type":"Feature","geometry":{"type":"Point","coordinates":[-1.14994,54.01785]},"properties":{"name":"Mapped water infrastructure","category":"wastewater_plant","osm_type":"way","osm_id":"660951856"}},{"type":"Feature","geometry":{"type":"Point","coordinates":[-1.82624,54.36287]},"properties":{"name":"Mapped water infrastructure","category":"wastewater_plant","osm_type":"way","osm_id":"672185035"}},{"type":"Feature","geometry":{"type":"Point","coordinates":[-1.03506,54.11787]},"properties":{"name":"Whenby","category":"wastewater_plant","osm_type":"way","osm_id":"674257777"}},{"type":"Feature","geometry":{"type":"Point","coordinates":[-1.24246,54.12872]},"properties":{"name":"Raskelf","category":"wastewater_plant","osm_type":"way","osm_id":"682099954"}},{"type":"Feature","geometry":{"type":"Point","coordinates":[-1.59261,54.00011]},"properties":{"name":"Mapped water infrastructure","category":"wastewater_plant","osm_type":"way","osm_id":"688603441"}},{"type":"Feature","geometry":{"type":"Point","coordinates":[-1.18916,54.21086]},"properties":{"name":"Oldstead Water Treatment Works","category":"wastewater_plant","osm_type":"way","osm_id":"692487544","operator":"Yorkshire Water"}},{"type":"Feature","geometry":{"type":"Point","coordinates":[-1.1506,54.20434]},"properties":{"name":"Mapped water infrastructure","category":"wastewater_plant","osm_type":"way","osm_id":"693427858"}},{"type":"Feature","geometry":{"type":"Point","coordinates":[-1.96028,54.05556]},"properties":{"name":"Mapped water infrastructure","category":"wastewater_plant","osm_type":"way","osm_id":"702177390"}},{"type":"Feature","geometry":{"type":"Point","coordinates":[-1.06655,54.00256]},"properties":{"name":"Mapped water infrastructure","category":"pumping_station","osm_type":"way","osm_id":"702560605"}},{"type":"Feature","geometry":{"type":"Point","coordinates":[-1.20269,54.10857]},"properties":{"name":"Easingwold STW","category":"wastewater_plant","osm_type":"way","osm_id":"720742671","operator":"Yorkshire Water"}},{"type":"Feature","geometry":{"type":"Point","coordinates":[-1.46824,54.23405]},"properties":{"name":"Mapped water infrastructure","category":"wastewater_plant","osm_type":"way","osm_id":"730338663"}},{"type":"Feature","geometry":{"type":"Point","coordinates":[-1.16002,54.24132]},"properties":{"name":"Scawton Moor","category":"reservoir_covered","osm_type":"way","osm_id":"734191710"}},{"type":"Feature","geometry":{"type":"Point","coordinates":[-1.29671,54.36479]},"properties":{"name":"Osmotherley/STW","category":"wastewater_plant","osm_type":"way","osm_id":"738983519","operator":"Yorkshire Water","ref":"SAI00001890"}},{"type":"Feature","geometry":{"type":"Point","coordinates":[-1.35814,54.06264]},"properties":{"name":"Mapped water infrastructure","category":"water_tower","osm_type":"way","osm_id":"796462408"}},{"type":"Feature","geometry":{"type":"Point","coordinates":[-1.01686,54.0824]},"properties":{"name":"Mapped water infrastructure","category":"wastewater_plant","osm_type":"way","osm_id":"796545699"}},{"type":"Feature","geometry":{"type":"Point","coordinates":[-1.7963,54.2934]},"properties":{"name":"Mapped water infrastructure","category":"wastewater_plant","osm_type":"way","osm_id":"807671761"}},{"type":"Feature","geometry":{"type":"Point","coordinates":[-1.01444,54.0476]},"properties":{"name":"Haxby Walbutts Waste Water Treatment Works","category":"wastewater_plant","osm_type":"way","osm_id":"849041835"}},{"type":"Feature","geometry":{"type":"Point","coordinates":[-1.73578,54.40949]},"properties":{"name":"Mapped water infrastructure","category":"reservoir_covered","osm_type":"way","osm_id":"868442729"}},{"type":"Feature","geometry":{"type":"Point","coordinates":[-1.73595,54.40981]},"properties":{"name":"Mapped water infrastructure","category":"wastewater_plant","osm_type":"way","osm_id":"868442730"}},{"type":"Feature","geometry":{"type":"Point","coordinates":[-1.35745,54.49038]},"properties":{"name":"Mapped water infrastructure","category":"pumping_station","osm_type":"way","osm_id":"888595424"}},{"type":"Feature","geometry":{"type":"Point","coordinates":[-1.60626,54.05673]},"properties":{"name":"Mapped water infrastructure","category":"wastewater_plant","osm_type":"way","osm_id":"918259498"}},{"type":"Feature","geometry":{"type":"Point","coordinates":[-1.87617,54.31109]},"properties":{"name":"Mapped water infrastructure","category":"wastewater_plant","osm_type":"way","osm_id":"918809360"}},{"type":"Feature","geometry":{"type":"Point","coordinates":[-1.05117,54.18891]},"properties":{"name":"Mapped water infrastructure","category":"wastewater_plant","osm_type":"way","osm_id":"928117848"}},{"type":"Feature","geometry":{"type":"Point","coordinates":[-1.77371,54.08449]},"properties":{"name":"Mapped water infrastructure","category":"reservoir_covered","osm_type":"way","osm_id":"956699404"}},{"type":"Feature","geometry":{"type":"Point","coordinates":[-1.81922,54.28272]},"properties":{"name":"Middleham Reservoir","category":"reservoir_covered","osm_type":"way","osm_id":"963690301"}},{"type":"Feature","geometry":{"type":"Point","coordinates":[-1.72865,54.27495]},"properties":{"name":"Thornton Le Street/STW","category":"wastewater_plant","osm_type":"way","osm_id":"966289869","operator":"Yorkshire Water","ref":"SAI00001979"}},{"type":"Feature","geometry":{"type":"Point","coordinates":[-1.71099,54.22397]},"properties":{"name":"Mapped water infrastructure","category":"reservoir_covered","osm_type":"way","osm_id":"967583567"}},{"type":"Feature","geometry":{"type":"Point","coordinates":[-1.58192,54.28567]},"properties":{"name":"Mapped water infrastructure","category":"wastewater_plant","osm_type":"way","osm_id":"985430956"}},{"type":"Feature","geometry":{"type":"Point","coordinates":[-1.87687,54.48624]},"properties":{"name":"Mapped water infrastructure","category":"reservoir_covered","osm_type":"way","osm_id":"1005692062"}},{"type":"Feature","geometry":{"type":"Point","coordinates":[-1.67772,54.38415]},"properties":{"name":"Mapped water infrastructure","category":"pumping_station","osm_type":"way","osm_id":"1011711635"}},{"type":"Feature","geometry":{"type":"Point","coordinates":[-1.67709,54.38265]},"properties":{"name":"Mapped water infrastructure","category":"pumping_station","osm_type":"way","osm_id":"1011711643"}},{"type":"Feature","geometry":{"type":"Point","coordinates":[-1.33427,54.09395]},"properties":{"name":"Myton on Swale","category":"wastewater_plant","osm_type":"way","osm_id":"1019301377"}},{"type":"Feature","geometry":{"type":"Point","coordinates":[-1.09991,54.16267]},"properties":{"name":"Mapped water infrastructure","category":"reservoir_covered","osm_type":"way","osm_id":"1025812697"}},{"type":"Feature","geometry":{"type":"Point","coordinates":[-1.51605,54.41877]},"properties":{"name":"East Cowton/STW","category":"wastewater_plant","osm_type":"way","osm_id":"1033066993","operator":"Yorkshire Water","ref":"SAI00001713"}},{"type":"Feature","geometry":{"type":"Point","coordinates":[-1.98887,54.41511]},"properties":{"name":"Langthwaite STW","category":"wastewater_plant","osm_type":"way","osm_id":"1033159125","operator":"Yorkshire Water","ref":"SAI00001818"}},{"type":"Feature","geometry":{"type":"Point","coordinates":[-1.84251,54.39936]},"properties":{"name":"Marske Sewage Treatment Works","category":"wastewater_plant","osm_type":"way","osm_id":"1034850859","operator":"Yorkshire Water","ref":"SAI00001832"}},{"type":"Feature","geometry":{"type":"Point","coordinates":[-1.22204,54.01278]},"properties":{"name":"Nun Monkton/STW","category":"wastewater_plant","osm_type":"way","osm_id":"1034886156","operator":"Yorkshire Water","ref":"SAI00001884"}},{"type":"Feature","geometry":{"type":"Point","coordinates":[-1.86028,54.16206]},"properties":{"name":"Middlesmoor","category":"wastewater_plant","osm_type":"way","osm_id":"1035400971","operator":"Yorkshire Water"}},{"type":"Feature","geometry":{"type":"Point","coordinates":[-1.64824,54.12134]},"properties":{"name":"High Grantley Sewage Treatment Works","category":"wastewater_plant","osm_type":"way","osm_id":"1035593065","operator":"Yorkshire Water","ref":"SAI00002719"}},{"type":"Feature","geometry":{"type":"Point","coordinates":[-1.34391,54.29146]},"properties":{"name":"Blubberhouses/STW","category":"wastewater_plant","osm_type":"way","osm_id":"1036776055","operator":"Yorkshire Water","ref":"SAI00001657"}},{"type":"Feature","geometry":{"type":"Point","coordinates":[-1.24006,54.1881]},"properties":{"name":"Carlton Husthwaite Sewage Treatment Works","category":"wastewater_plant","osm_type":"way","osm_id":"1038354924","operator":"Yorkshire Water","ref":"SAI00002379"}},{"type":"Feature","geometry":{"type":"Point","coordinates":[-1.47142,54.43287]},"properties":{"name":"Great Smeaton/No 1 STW","category":"wastewater_plant","osm_type":"way","osm_id":"1038363263","operator":"Yorkshire Water","ref":"SAI00001750"}},{"type":"Feature","geometry":{"type":"Point","coordinates":[-1.2888,54.25563]},"properties":{"name":"Felixkirk Sewage Treatment Works","category":"wastewater_plant","osm_type":"way","osm_id":"1039282463","operator":"Yorkshire Water","ref":"SAI00001730"}},{"type":"Feature","geometry":{"type":"Point","coordinates":[-1.28772,54.29965]},"properties":{"name":"Cowesby/STW","category":"wastewater_plant","osm_type":"way","osm_id":"1039554439","operator":"Yorkshire Water","ref":"SAI00214066"}},{"type":"Feature","geometry":{"type":"Point","coordinates":[-1.35825,54.169]},"properties":{"name":"Dalton Sewage Treatment Works","category":"wastewater_plant","osm_type":"way","osm_id":"1040051284","operator":"Yorkshire Water","ref":"SAI00001715"}},{"type":"Feature","geometry":{"type":"Point","coordinates":[-1.29023,54.06614]},"properties":{"name":"Aldwark Sewage Treatment Works","category":"wastewater_plant","osm_type":"way","osm_id":"1040464805","operator":"Yorkshire Water","ref":"SAI00001615"}},{"type":"Feature","geometry":{"type":"Point","coordinates":[-1.92645,54.38238]},"properties":{"name":"Grinton Sewage Treatment Works","category":"wastewater_plant","osm_type":"way","osm_id":"1040548970","operator":"Yorkshire Water","ref":"SAI00001484"}},{"type":"Feature","geometry":{"type":"Point","coordinates":[-1.92803,54.22632]},"properties":{"name":"Horsehouse/STW","category":"wastewater_plant","osm_type":"way","osm_id":"1040548971","operator":"Yorkshire Water","ref":"SAI00002731"}},{"type":"Feature","geometry":{"type":"Point","coordinates":[-1.54856,54.08628]},"properties":{"name":"Markington Sewage Treatment Works","category":"wastewater_plant","osm_type":"way","osm_id":"1040762794","operator":"Yorkshire Water","ref":"SAI00221189"}},{"type":"Feature","geometry":{"type":"Point","coordinates":[-1.57724,54.20586]},"properties":{"name":"West Tanfield Sewage Treatment Works","category":"wastewater_plant","osm_type":"way","osm_id":"1041545318","operator":"Yorkshire Water","ref":"SAI00002013"}},{"type":"Feature","geometry":{"type":"Point","coordinates":[-1.63331,54.42943]},"properties":{"name":"Moulton Sewage Treatment Works","category":"wastewater_plant","osm_type":"way","osm_id":"1041630644","operator":"Yorkshire Water","ref":"SAI00001856"}},{"type":"Feature","geometry":{"type":"Point","coordinates":[-1.92258,54.03465]},"properties":{"name":"Appletreewick Sewage Treatment Works","category":"wastewater_plant","osm_type":"way","osm_id":"1042010280","operator":"Yorkshire Water","ref":"SAI00002039"}},{"type":"Feature","geometry":{"type":"Point","coordinates":[-1.26063,54.08251]},"properties":{"name":"Flawith Sewage Treatment Works","category":"wastewater_plant","osm_type":"way","osm_id":"1046339418","operator":"Yorkshire Water","ref":"SAI00002119"}},{"type":"Feature","geometry":{"type":"Point","coordinates":[-1.28196,54.25818]},"properties":{"name":"Mapped water infrastructure","category":"reservoir_covered","osm_type":"way","osm_id":"1051867826"}},{"type":"Feature","geometry":{"type":"Point","coordinates":[-1.28199,54.25799]},"properties":{"name":"Mapped water infrastructure","category":"reservoir_covered","osm_type":"way","osm_id":"1051867827"}},{"type":"Feature","geometry":{"type":"Point","coordinates":[-1.1795,54.08273]},"properties":{"name":"Huby Water Treatment Works","category":"wastewater_plant","osm_type":"way","osm_id":"1052031979"}},{"type":"Feature","geometry":{"type":"Point","coordinates":[-1.08947,54.14262]},"properties":{"name":"Brandsby Water Tretment Works","category":"wastewater_plant","osm_type":"way","osm_id":"1052102621"}},{"type":"Feature","geometry":{"type":"Point","coordinates":[-1.12374,54.22329]},"properties":{"name":"Sproxton","category":"reservoir_covered","osm_type":"way","osm_id":"1073427742"}},{"type":"Feature","geometry":{"type":"Point","coordinates":[-1.29865,54.21438]},"properties":{"name":"Bagby Waste Water Treatment Works","category":"wastewater_plant","osm_type":"way","osm_id":"1079136615","operator":"Yorkshire Water"}},{"type":"Feature","geometry":{"type":"Point","coordinates":[-1.26506,54.23361]},"properties":{"name":"Sutton Whitestoneclf/STW","category":"wastewater_plant","osm_type":"way","osm_id":"1090752562","operator":"Yorkshire Water","ref":"SAI00001951"}},{"type":"Feature","geometry":{"type":"Point","coordinates":[-1.82892,54.37644]},"properties":{"name":"Dishforth/STW","category":"wastewater_plant","osm_type":"way","osm_id":"1092293769","operator":"Yorkshire Water","ref":"SAI00001707"}},{"type":"Feature","geometry":{"type":"Point","coordinates":[-1.74075,54.33691]},"properties":{"name":"East Hauxwell/STW","category":"wastewater_plant","osm_type":"way","osm_id":"1107094028","operator":"Yorkshire Water","ref":"SAI00001768"}},{"type":"Feature","geometry":{"type":"Point","coordinates":[-1.48595,54.09724]},"properties":{"name":"Bishop Monkton/No 2 STW","category":"wastewater_plant","osm_type":"way","osm_id":"1112706543","operator":"Yorkshire Water","ref":"SAI00225198"}},{"type":"Feature","geometry":{"type":"Point","coordinates":[-1.16668,54.45662]},"properties":{"name":"Great Broughton STW","category":"wastewater_plant","osm_type":"way","osm_id":"1112767484","operator":"Northumbrian Water","ref":"TST2032"}},{"type":"Feature","geometry":{"type":"Point","coordinates":[-1.28384,54.45544]},"properties":{"name":"Hutton Rudby STW","category":"wastewater_plant","osm_type":"way","osm_id":"1112767715","operator":"Northumbrian Water","ref":"TST2082"}},{"type":"Feature","geometry":{"type":"Point","coordinates":[-1.34077,54.48434]},"properties":{"name":"Kirklevington STW","category":"wastewater_plant","osm_type":"way","osm_id":"1112767909","operator":"Northumbrian Water","ref":"TST2112"}},{"type":"Feature","geometry":{"type":"Point","coordinates":[-1.19806,54.21875]},"properties":{"name":"Mapped water infrastructure","category":"reservoir_covered","osm_type":"way","osm_id":"1159052244"}},{"type":"Feature","geometry":{"type":"Point","coordinates":[-1.55694,54.18206]},"properties":{"name":"Mapped water infrastructure","category":"wastewater_plant","osm_type":"way","osm_id":"1177562637"}},{"type":"Feature","geometry":{"type":"Point","coordinates":[-1.28755,54.25543]},"properties":{"name":"Piperhill","category":"reservoir_covered","osm_type":"way","osm_id":"1183514687"}},{"type":"Feature","geometry":{"type":"Point","coordinates":[-1.94305,54.0503]},"properties":{"name":"Hartlington","category":"wastewater_plant","osm_type":"way","osm_id":"1194915677"}},{"type":"Feature","geometry":{"type":"Point","coordinates":[-1.64796,54.39045]},"properties":{"name":"Mapped water infrastructure","category":"wastewater_plant","osm_type":"way","osm_id":"1216652666","operator":"Yorkshire Water"}},{"type":"Feature","geometry":{"type":"Point","coordinates":[-1.66163,54.35996]},"properties":{"name":"Mapped water infrastructure","category":"wastewater_plant","osm_type":"way","osm_id":"1220029755"}},{"type":"Feature","geometry":{"type":"Point","coordinates":[-1.32515,54.12451]},"properties":{"name":"Helmsley/STW","category":"wastewater_plant","osm_type":"way","osm_id":"1220329572","operator":"Yorkshire Water","ref":"SAI00002163"}},{"type":"Feature","geometry":{"type":"Point","coordinates":[-1.81512,54.30368]},"properties":{"name":"Mapped water infrastructure","category":"water_works","osm_type":"way","osm_id":"1226780222"}},{"type":"Feature","geometry":{"type":"Point","coordinates":[-1.43578,54.44651]},"properties":{"name":"Mapped water infrastructure","category":"wastewater_plant","osm_type":"way","osm_id":"1229539240"}},{"type":"Feature","geometry":{"type":"Point","coordinates":[-1.44488,54.3263]},"properties":{"name":"Mapped water infrastructure","category":"wastewater_plant","osm_type":"way","osm_id":"1234740823","operator":"Yorkshire Water"}},{"type":"Feature","geometry":{"type":"Point","coordinates":[-1.51381,54.22882]},"properties":{"name":"Kirklington/STW","category":"wastewater_plant","osm_type":"way","osm_id":"1250224599","operator":"Yorkshire Water","ref":"SAI00001812"}},{"type":"Feature","geometry":{"type":"Point","coordinates":[-1.50293,54.18453]},"properties":{"name":"Wath Ripon/STW","category":"wastewater_plant","osm_type":"way","osm_id":"1250225513","operator":"Yorkshire Water","ref":"SAI00002005"}},{"type":"Feature","geometry":{"type":"Point","coordinates":[-1.54371,54.36168]},"properties":{"name":"Mapped water infrastructure","category":"water_works","osm_type":"way","osm_id":"1265299671","operator":"Yorkshire Water"}},{"type":"Feature","geometry":{"type":"Point","coordinates":[-1.06826,54.20637]},"properties":{"name":"Mapped water infrastructure","category":"reservoir_covered","osm_type":"way","osm_id":"1282247722"}},{"type":"Feature","geometry":{"type":"Point","coordinates":[-1.98542,54.30377]},"properties":{"name":"Carperby Wastewater Treatment Works","category":"wastewater_plant","osm_type":"way","osm_id":"1298601945"}},{"type":"Feature","geometry":{"type":"Point","coordinates":[-1.49322,54.48804]},"properties":{"name":"Neasham Pump House","category":"water_well","osm_type":"way","osm_id":"1324084166"}},{"type":"Feature","geometry":{"type":"Point","coordinates":[-1.7369,54.40921]},"properties":{"name":"Mapped water infrastructure","category":"reservoir_covered","osm_type":"way","osm_id":"1351862971"}},{"type":"Feature","geometry":{"type":"Point","coordinates":[-1.43594,54.13144]},"properties":{"name":"Marton Le Moor/STW","category":"wastewater_plant","osm_type":"way","osm_id":"1361700676","operator":"Yorkshire Water","ref":"SAI00001834"}},{"type":"Feature","geometry":{"type":"Point","coordinates":[-1.37624,54.4985]},"properties":{"name":"Mapped water infrastructure","category":"wastewater_plant","osm_type":"way","osm_id":"1368778109"}},{"type":"Feature","geometry":{"type":"Point","coordinates":[-1.96046,54.05611]},"properties":{"name":"Hebden Sewage Treatment Works","category":"wastewater_plant","osm_type":"way","osm_id":"1383323751","operator":"Yorkshire Water","ref":"SAI00001596"}},{"type":"Feature","geometry":{"type":"Point","coordinates":[-1.76062,54.02487]},"properties":{"name":"Mapped water infrastructure","category":"water_tower","osm_type":"way","osm_id":"1387059483"}},{"type":"Feature","geometry":{"type":"Point","coordinates":[-1.99625,54.27636]},"properties":{"name":"Tholthorpe/STW","category":"wastewater_plant","osm_type":"way","osm_id":"1408818828","operator":"Yorkshire Water","ref":"SAI00001969"}},{"type":"Feature","geometry":{"type":"Point","coordinates":[-1.21272,54.17077]},"properties":{"name":"Hunton/STW","category":"wastewater_plant","osm_type":"way","osm_id":"1408819850","operator":"Yorkshire Water","ref":"SAI00001788"}},{"type":"Feature","geometry":{"type":"Point","coordinates":[-1.64116,54.45115]},"properties":{"name":"Middleton Quernhow/STW","category":"wastewater_plant","osm_type":"way","osm_id":"1408820630","operator":"Yorkshire Water","ref":"SAI00001844"}},{"type":"Feature","geometry":{"type":"Point","coordinates":[-1.45523,54.11099]},"properties":{"name":"Skeffling/STW","category":"wastewater_plant","osm_type":"way","osm_id":"1413518543","operator":"Yorkshire Water","ref":"SAI00209760"}},{"type":"Feature","geometry":{"type":"Point","coordinates":[-1.73779,54.31155]},"properties":{"name":"Conistone/STW","category":"wastewater_plant","osm_type":"way","osm_id":"1413518862","operator":"Yorkshire Water","ref":"SAI00001454"}},{"type":"Feature","geometry":{"type":"Point","coordinates":[-1.71838,54.3083]},"properties":{"name":"Felixkirk Piper Hill/STW","category":"wastewater_plant","osm_type":"way","osm_id":"1413519032","operator":"Yorkshire Water","ref":"SAI00165027"}},{"type":"Feature","geometry":{"type":"Point","coordinates":[-1.70309,54.32441]},"properties":{"name":"Hunsingore/STW","category":"wastewater_plant","osm_type":"way","osm_id":"1413519217","operator":"Yorkshire Water","ref":"SAI00001786"}},{"type":"Feature","geometry":{"type":"Point","coordinates":[-1.45204,54.20507]},"properties":{"name":"Baldersby St James/STW","category":"wastewater_plant","osm_type":"way","osm_id":"1413520254","operator":"Yorkshire Water","ref":"SAI00222012"}},{"type":"Feature","geometry":{"type":"Point","coordinates":[-1.48647,54.38498]},"properties":{"name":"Cundall/STW","category":"wastewater_plant","osm_type":"way","osm_id":"1416603802","operator":"Yorkshire Water","ref":"SAI00001701"}},{"type":"Feature","geometry":{"type":"Point","coordinates":[-1.10831,54.45049]},"properties":{"name":"Ingleby Greenhow STW","category":"wastewater_plant","osm_type":"way","osm_id":"1423466318","operator":"Northumbrian Water","ref":"TST2091"}},{"type":"Feature","geometry":{"type":"Point","coordinates":[-1.09869,54.49222]},"properties":{"name":"Gribdale STW","category":"wastewater_plant","osm_type":"way","osm_id":"1423466882","operator":"Northumbrian Water","ref":"TST2252"}},{"type":"Feature","geometry":{"type":"Point","coordinates":[-1.39785,54.48528]},"properties":{"name":"Low Worsall WwTW","category":"wastewater_plant","osm_type":"way","osm_id":"1423504149","operator":"Northumbrian Water","ref":"TST2201"}},{"type":"Feature","geometry":{"type":"Point","coordinates":[-1.38821,54.13478]},"properties":{"name":"Norton Le Clay/STW","category":"wastewater_plant","osm_type":"way","osm_id":"1423512930","operator":"Yorkshire Water","ref":"SAI00245559"}},{"type":"Feature","geometry":{"type":"Point","coordinates":[-1.31245,54.35083]},"properties":{"name":"Thimbleby/STW","category":"wastewater_plant","osm_type":"way","osm_id":"1423563309","operator":"Yorkshire Water","ref":"SAI00001961"}},{"type":"Feature","geometry":{"type":"Point","coordinates":[-1.22045,54.07702]},"properties":{"name":"Tollerton/STW","category":"wastewater_plant","osm_type":"way","osm_id":"1423591314","operator":"Yorkshire Water","ref":"SAI00001991"}},{"type":"Feature","geometry":{"type":"Point","coordinates":[-1.66527,54.30589]},"properties":{"name":"Newton Le Willows/STW","category":"wastewater_plant","osm_type":"way","osm_id":"1423593464","operator":"Yorkshire Water","ref":"SAI00001868"}},{"type":"Feature","geometry":{"type":"Point","coordinates":[-1.61599,54.10628]},"properties":{"name":"Sawley/STW","category":"wastewater_plant","osm_type":"way","osm_id":"1423594134","operator":"Yorkshire Water","ref":"SAI00001921"}},{"type":"Feature","geometry":{"type":"Point","coordinates":[-1.04535,54.19967]},"properties":{"name":"Oswaldkirk/STW","category":"wastewater_plant","osm_type":"way","osm_id":"1423873602","operator":"Yorkshire Water","ref":"SAI00002332"}},{"type":"Feature","geometry":{"type":"Point","coordinates":[-1.10625,54.16032]},"properties":{"name":"Yearsley/STW","category":"wastewater_plant","osm_type":"way","osm_id":"1423873646","operator":"Yorkshire Water","ref":"SAI00002025"}},{"type":"Feature","geometry":{"type":"Point","coordinates":[-1.25108,54.16978]},"properties":{"name":"Thormanby/No 2 STW","category":"wastewater_plant","osm_type":"way","osm_id":"1423874207","operator":"Yorkshire Water","ref":"SAI00191222"}},{"type":"Feature","geometry":{"type":"Point","coordinates":[-1.307,54.40128]},"properties":{"name":"Ingleby Arncliffe/STW","category":"wastewater_plant","osm_type":"way","osm_id":"1423925915","operator":"Yorkshire Water","ref":"SAI00001792"}},{"type":"Feature","geometry":{"type":"Point","coordinates":[-1.18098,54.25495]},"properties":{"name":"Cold Kirby/No 2 STW","category":"wastewater_plant","osm_type":"way","osm_id":"1423925972","operator":"Yorkshire Water","ref":"SAI00372354"}},{"type":"Feature","geometry":{"type":"Point","coordinates":[-1.30752,54.33156]},"properties":{"name":"Over Silton/STW","category":"wastewater_plant","osm_type":"way","osm_id":"1423926331","operator":"Yorkshire Water","ref":"SAI00001895"}},{"type":"Feature","geometry":{"type":"Point","coordinates":[-1.55595,54.34102]},"properties":{"name":"Kirkby Fleetham/STW","category":"wastewater_plant","osm_type":"way","osm_id":"1423927688","operator":"Yorkshire Water","ref":"SAI00001806"}},{"type":"Feature","geometry":{"type":"Point","coordinates":[-1.60982,54.31779]},"properties":{"name":"Langthorne/No 2 STW","category":"wastewater_plant","osm_type":"way","osm_id":"1423930654","operator":"Yorkshire Water","ref":"SAI00251039"}},{"type":"Feature","geometry":{"type":"Point","coordinates":[-1.56023,54.19096]},"properties":{"name":"North Stainley/STW","category":"wastewater_plant","osm_type":"way","osm_id":"1423930824","operator":"Yorkshire Water","ref":"SAI00001880"}},{"type":"Feature","geometry":{"type":"Point","coordinates":[-1.62958,54.27836]},"properties":{"name":"Burrill/No 2 STW","category":"wastewater_plant","osm_type":"way","osm_id":"1423930991","operator":"Yorkshire Water","ref":"SAI00257017"}},{"type":"Feature","geometry":{"type":"Point","coordinates":[-1.66087,54.33769]},"properties":{"name":"Hornby/STW","category":"wastewater_plant","osm_type":"way","osm_id":"1423932503","operator":"Yorkshire Water","ref":"SAI00001778"}},{"type":"Feature","geometry":{"type":"Point","coordinates":[-1.74672,54.48552]},"properties":{"name":"East Layton STW","category":"wastewater_plant","osm_type":"way","osm_id":"1423932932","operator":"Northumbrian Water","ref":"TST5082"}},{"type":"Feature","geometry":{"type":"Point","coordinates":[-1.76432,54.44849]},"properties":{"name":"Whashton/STW","category":"wastewater_plant","osm_type":"way","osm_id":"1423933099","operator":"Yorkshire Water","ref":"SAI00002017"}},{"type":"Feature","geometry":{"type":"Point","coordinates":[-1.76968,54.3937]},"properties":{"name":"Hudswell/STW","category":"wastewater_plant","osm_type":"way","osm_id":"1423933580","operator":"Yorkshire Water","ref":"SAI00001784"}},{"type":"Feature","geometry":{"type":"Point","coordinates":[-1.81103,54.46489]},"properties":{"name":"Gayles/STW","category":"wastewater_plant","osm_type":"way","osm_id":"1423933741","operator":"Yorkshire Water","ref":"SAI00001738"}},{"type":"Feature","geometry":{"type":"Point","coordinates":[-1.93073,54.38157]},"properties":{"name":"Grinton West/STW","category":"wastewater_plant","osm_type":"way","osm_id":"1423935253","operator":"Yorkshire Water","ref":"SAI00001754"}},{"type":"Feature","geometry":{"type":"Point","coordinates":[-1.70931,54.2697]},"properties":{"name":"Kilgram Bridge Water Pumping Station","category":"pumping_station","osm_type":"way","osm_id":"291687227","operator":"Yorkshire Water"}},{"type":"Feature","geometry":{"type":"Point","coordinates":[-1.08149,54.00605]},"properties":{"name":"Mapped water infrastructure","category":"pumping_station","osm_type":"way","osm_id":"360363993","operator":"Yorkshire Water","addr:city":"York","addr:postcode":"YO32 3GL"}},{"type":"Feature","geometry":{"type":"Point","coordinates":[-1.73163,54.46557]},"properties":{"name":"Mapped water infrastructure","category":"reservoir_covered","osm_type":"way","osm_id":"540155576"}},{"type":"Feature","geometry":{"type":"Point","coordinates":[-1.83531,54.46531]},"properties":{"name":"Mapped water infrastructure","category":"reservoir_covered","osm_type":"way","osm_id":"546120986"}},{"type":"Feature","geometry":{"type":"Point","coordinates":[-1.73362,54.24275]},"properties":{"name":"Mapped water infrastructure","category":"reservoir_covered","osm_type":"way","osm_id":"552674889","addr:postcode":"HG4 4PW"}},{"type":"Feature","geometry":{"type":"Point","coordinates":[-1.0622,54.01582]},"properties":{"name":"Mapped water infrastructure","category":"pumping_station","osm_type":"way","osm_id":"731794617","operator":"Yorkshire Water","addr:city":"York","addr:postcode":"YO32 3FD"}},{"type":"Feature","geometry":{"type":"Point","coordinates":[-1.64422,54.47622]},"properties":{"name":"Barton STW","category":"wastewater_plant","osm_type":"way","osm_id":"938484116","operator":"Northumbrian Water","ref":"TST5032"}},{"type":"Feature","geometry":{"type":"Point","coordinates":[-1.62504,54.37641]},"properties":{"name":"Colburn STW","category":"wastewater_plant","osm_type":"way","osm_id":"1083814295"}},{"type":"Feature","geometry":{"type":"Point","coordinates":[-1.58645,54.02661]},"properties":{"name":"WIMS_FID_1346","category":"wastewater_plant","osm_type":"way","osm_id":"1085067884","ref":"WIMS_FID_1346"}},{"type":"Feature","geometry":{"type":"Point","coordinates":[-1.62366,54.16222]},"properties":{"name":"Grange Lane STW","category":"wastewater_plant","osm_type":"way","osm_id":"1085071480","operator":"Yorkshire Water"}},{"type":"Feature","geometry":{"type":"Point","coordinates":[-1.81853,54.07284]},"properties":{"name":"Mapped water infrastructure","category":"water_tower","osm_type":"way","osm_id":"1132441724"}},{"type":"Feature","geometry":{"type":"Point","coordinates":[-1.08683,54.01595]},"properties":{"name":"Mapped water infrastructure","category":"pumping_station","osm_type":"way","osm_id":"1189205024","addr:city":"York","addr:postcode":"YO32 2WY"}},{"type":"Feature","geometry":{"type":"Point","coordinates":[-1.61488,54.40851]},"properties":{"name":"St Cuthbert's Well","category":"water_well","osm_type":"way","osm_id":"1352507663"}}]}