{"type":"FeatureCollection","features":[{"type":"Feature","geometry":{"type":"Point","coordinates":[-2.5561,51.56421]},"properties":{"name":"Mapped water infrastructure","category":"drinking_water","osm_type":"node","osm_id":"248169423"}},{"type":"Feature","geometry":{"type":"Point","coordinates":[-2.3903,51.53712]},"properties":{"name":"Mapped water infrastructure","category":"water_well","osm_type":"node","osm_id":"377084245"}},{"type":"Feature","geometry":{"type":"Point","coordinates":[-2.24447,51.7834]},"properties":{"name":"Cliff Well","category":"water_well","osm_type":"node","osm_id":"421784663"}},{"type":"Feature","geometry":{"type":"Point","coordinates":[-2.42192,51.97933]},"properties":{"name":"Mapped water infrastructure","category":"water_well","osm_type":"node","osm_id":"621159328"}},{"type":"Feature","geometry":{"type":"Point","coordinates":[-2.37725,51.99155]},"properties":{"name":"Mapped water infrastructure","category":"water_well","osm_type":"node","osm_id":"621428198"}},{"type":"Feature","geometry":{"type":"Point","coordinates":[-2.36708,51.98871]},"properties":{"name":"Mapped water infrastructure","category":"water_well","osm_type":"node","osm_id":"621428200"}},{"type":"Feature","geometry":{"type":"Point","coordinates":[-2.36187,51.98884]},"properties":{"name":"Mapped water infrastructure","category":"water_well","osm_type":"node","osm_id":"621428202"}},{"type":"Feature","geometry":{"type":"Point","coordinates":[-2.39317,51.98746]},"properties":{"name":"Mapped water infrastructure","category":"water_well","osm_type":"node","osm_id":"621428220"}},{"type":"Feature","geometry":{"type":"Point","coordinates":[-2.40236,51.97501]},"properties":{"name":"Mapped water infrastructure","category":"water_well","osm_type":"node","osm_id":"621428223"}},{"type":"Feature","geometry":{"type":"Point","coordinates":[-2.37384,51.97892]},"properties":{"name":"Mapped water infrastructure","category":"water_well","osm_type":"node","osm_id":"621428226"}},{"type":"Feature","geometry":{"type":"Point","coordinates":[-2.38171,51.97951]},"properties":{"name":"Mapped water infrastructure","category":"water_well","osm_type":"node","osm_id":"621428227"}},{"type":"Feature","geometry":{"type":"Point","coordinates":[-2.18007,51.99624]},"properties":{"name":"Mapped water infrastructure","category":"water_well","osm_type":"node","osm_id":"653655369"}},{"type":"Feature","geometry":{"type":"Point","coordinates":[-2.1769,51.98189]},"properties":{"name":"Mapped water infrastructure","category":"water_well","osm_type":"node","osm_id":"653722157"}},{"type":"Feature","geometry":{"type":"Point","coordinates":[-2.16532,51.79428]},"properties":{"name":"Holy Well","category":"water_well","osm_type":"node","osm_id":"694726905"}},{"type":"Feature","geometry":{"type":"Point","coordinates":[-2.07112,51.71838]},"properties":{"name":"Cassey Well","category":"water_well","osm_type":"node","osm_id":"694827039"}},{"type":"Feature","geometry":{"type":"Point","coordinates":[-2.56068,51.80507]},"properties":{"name":"Mapped water infrastructure","category":"drinking_water","osm_type":"node","osm_id":"702759342"}},{"type":"Feature","geometry":{"type":"Point","coordinates":[-2.06723,51.91208]},"properties":{"name":"Mapped water infrastructure","category":"drinking_water","osm_type":"node","osm_id":"703504063"}},{"type":"Feature","geometry":{"type":"Point","coordinates":[-2.1857,51.65043]},"properties":{"name":"Cromwell's Bath (Well)","category":"water_well","osm_type":"node","osm_id":"819957919"}},{"type":"Feature","geometry":{"type":"Point","coordinates":[-2.14955,51.79539]},"properties":{"name":"Mapped water infrastructure","category":"water_well","osm_type":"node","osm_id":"833823549"}},{"type":"Feature","geometry":{"type":"Point","coordinates":[-2.49642,51.87093]},"properties":{"name":"Mapped water infrastructure","category":"water_well","osm_type":"node","osm_id":"835451756"}},{"type":"Feature","geometry":{"type":"Point","coordinates":[-2.48008,51.88487]},"properties":{"name":"Mapped water infrastructure","category":"water_well","osm_type":"node","osm_id":"835926214"}},{"type":"Feature","geometry":{"type":"Point","coordinates":[-2.52625,51.6095]},"properties":{"name":"Mapped water infrastructure","category":"drinking_water","osm_type":"node","osm_id":"1334860431"}},{"type":"Feature","geometry":{"type":"Point","coordinates":[-2.55493,51.56481]},"properties":{"name":"Mapped water infrastructure","category":"drinking_water","osm_type":"node","osm_id":"1543028808"}},{"type":"Feature","geometry":{"type":"Point","coordinates":[-2.55509,51.56421]},"properties":{"name":"Mapped water infrastructure","category":"drinking_water","osm_type":"node","osm_id":"1543028809"}},{"type":"Feature","geometry":{"type":"Point","coordinates":[-2.55563,51.56512]},"properties":{"name":"Mapped water infrastructure","category":"drinking_water","osm_type":"node","osm_id":"1543028810"}},{"type":"Feature","geometry":{"type":"Point","coordinates":[-2.55474,51.565]},"properties":{"name":"Mapped water infrastructure","category":"drinking_water","osm_type":"node","osm_id":"1543028811"}},{"type":"Feature","geometry":{"type":"Point","coordinates":[-2.55777,51.56494]},"properties":{"name":"Mapped water infrastructure","category":"drinking_water","osm_type":"node","osm_id":"1543028812"}},{"type":"Feature","geometry":{"type":"Point","coordinates":[-2.55461,51.56683]},"properties":{"name":"Mapped water infrastructure","category":"drinking_water","osm_type":"node","osm_id":"1543028813"}},{"type":"Feature","geometry":{"type":"Point","coordinates":[-2.55634,51.56522]},"properties":{"name":"Mapped water infrastructure","category":"drinking_water","osm_type":"node","osm_id":"1543028814"}},{"type":"Feature","geometry":{"type":"Point","coordinates":[-2.55422,51.56604]},"properties":{"name":"Mapped water infrastructure","category":"drinking_water","osm_type":"node","osm_id":"1543028815"}},{"type":"Feature","geometry":{"type":"Point","coordinates":[-2.55663,51.56522]},"properties":{"name":"Mapped water infrastructure","category":"drinking_water","osm_type":"node","osm_id":"1543028817"}},{"type":"Feature","geometry":{"type":"Point","coordinates":[-2.55372,51.56723]},"properties":{"name":"Mapped water infrastructure","category":"drinking_water","osm_type":"node","osm_id":"1543035615"}},{"type":"Feature","geometry":{"type":"Point","coordinates":[-2.55508,51.56696]},"properties":{"name":"Mapped water infrastructure","category":"drinking_water","osm_type":"node","osm_id":"1543035619"}},{"type":"Feature","geometry":{"type":"Point","coordinates":[-2.55326,51.56754]},"properties":{"name":"Mapped water infrastructure","category":"drinking_water","osm_type":"node","osm_id":"1543035637"}},{"type":"Feature","geometry":{"type":"Point","coordinates":[-2.5563,51.56748]},"properties":{"name":"Mapped water infrastructure","category":"drinking_water","osm_type":"node","osm_id":"1543035686"}},{"type":"Feature","geometry":{"type":"Point","coordinates":[-2.65193,51.82725]},"properties":{"name":"Dropping Wells","category":"water_well","osm_type":"node","osm_id":"1760453707"}},{"type":"Feature","geometry":{"type":"Point","coordinates":[-2.65157,51.57116]},"properties":{"name":"Pill Head, Pilning Pumping Station","category":"water_works","osm_type":"node","osm_id":"2321087337"}},{"type":"Feature","geometry":{"type":"Point","coordinates":[-2.65628,51.57384]},"properties":{"name":"Chestle Pill Outfall","category":"water_works","osm_type":"node","osm_id":"2321087368","ref":"ST 54600 86300"}},{"type":"Feature","geometry":{"type":"Point","coordinates":[-2.47281,51.84049]},"properties":{"name":"Mapped water infrastructure","category":"drinking_water","osm_type":"node","osm_id":"2351683380"}},{"type":"Feature","geometry":{"type":"Point","coordinates":[-2.67088,51.54467]},"properties":{"name":"New Pill Outfall","category":"water_works","osm_type":"node","osm_id":"2807541653","ref":"ST 53573 83076"}},{"type":"Feature","geometry":{"type":"Point","coordinates":[-2.49066,51.53389]},"properties":{"name":"Mapped water infrastructure","category":"drinking_water","osm_type":"node","osm_id":"3071719931","wheelchair":"yes"}},{"type":"Feature","geometry":{"type":"Point","coordinates":[-2.58894,51.52743]},"properties":{"name":"(West) Patchway Sewage Pumping Station","category":"pumping_station","osm_type":"node","osm_id":"4026906569","ref":"15143"}},{"type":"Feature","geometry":{"type":"Point","coordinates":[-2.56796,51.53326]},"properties":{"name":"15152","category":"water_works","osm_type":"node","osm_id":"4426950088","ref":"15152"}},{"type":"Feature","geometry":{"type":"Point","coordinates":[-2.45556,51.73685]},"properties":{"name":"Purton Ships Graveyard Water Point","category":"water_point","osm_type":"node","osm_id":"4631919028","operator":"Canal and River Trust"}},{"type":"Feature","geometry":{"type":"Point","coordinates":[-2.45145,51.7375]},"properties":{"name":"Water point","category":"drinking_water","osm_type":"node","osm_id":"4631922788"}},{"type":"Feature","geometry":{"type":"Point","coordinates":[-2.54799,51.50018]},"properties":{"name":"Mapped water infrastructure","category":"drinking_water","osm_type":"node","osm_id":"5578479185"}},{"type":"Feature","geometry":{"type":"Point","coordinates":[-2.06579,51.95544]},"properties":{"name":"Mapped water infrastructure","category":"pumping_station","osm_type":"node","osm_id":"5918564901"}},{"type":"Feature","geometry":{"type":"Point","coordinates":[-2.08426,51.68087]},"properties":{"name":"Mapped water infrastructure","category":"drinking_water","osm_type":"node","osm_id":"6423684459"}},{"type":"Feature","geometry":{"type":"Point","coordinates":[-2.21681,51.74615]},"properties":{"name":"Mapped water infrastructure","category":"drinking_water","osm_type":"node","osm_id":"6574386986","wheelchair":"yes"}},{"type":"Feature","geometry":{"type":"Point","coordinates":[-2.55978,51.50582]},"properties":{"name":"Mapped water infrastructure","category":"drinking_water","osm_type":"node","osm_id":"6622667104","opening_hours":"24/7"}},{"type":"Feature","geometry":{"type":"Point","coordinates":[-2.64039,51.56239]},"properties":{"name":"Mapped water infrastructure","category":"pumping_station","osm_type":"node","osm_id":"6634290958"}},{"type":"Feature","geometry":{"type":"Point","coordinates":[-2.57439,51.59557]},"properties":{"name":"Mapped water infrastructure","category":"water_well","osm_type":"node","osm_id":"6634463403"}},{"type":"Feature","geometry":{"type":"Point","coordinates":[-2.58268,51.60988]},"properties":{"name":"Mapped water infrastructure","category":"water_well","osm_type":"node","osm_id":"6689626357"}},{"type":"Feature","geometry":{"type":"Point","coordinates":[-2.37517,51.66918]},"properties":{"name":"Mapped water infrastructure","category":"drinking_water","osm_type":"node","osm_id":"6779392305"}},{"type":"Feature","geometry":{"type":"Point","coordinates":[-2.55369,51.61021]},"properties":{"name":"St Arild's Well","category":"water_well","osm_type":"node","osm_id":"6837984852"}},{"type":"Feature","geometry":{"type":"Point","coordinates":[-2.6566,51.82752]},"properties":{"name":"Mapped water infrastructure","category":"drinking_water","osm_type":"node","osm_id":"7997594341"}},{"type":"Feature","geometry":{"type":"Point","coordinates":[-2.65683,51.82878]},"properties":{"name":"Mapped water infrastructure","category":"drinking_water","osm_type":"node","osm_id":"7997594349"}},{"type":"Feature","geometry":{"type":"Point","coordinates":[-2.57803,51.57904]},"properties":{"name":"Mapped water infrastructure","category":"water_well","osm_type":"node","osm_id":"8293424944"}},{"type":"Feature","geometry":{"type":"Point","coordinates":[-2.04324,51.90098]},"properties":{"name":"Mapped water infrastructure","category":"water_well","osm_type":"node","osm_id":"8420110982"}},{"type":"Feature","geometry":{"type":"Point","coordinates":[-2.36724,51.68036]},"properties":{"name":"Mapped water infrastructure","category":"drinking_water","osm_type":"node","osm_id":"8443114331"}},{"type":"Feature","geometry":{"type":"Point","coordinates":[-2.16067,51.79364]},"properties":{"name":"Mapped water infrastructure","category":"water_well","osm_type":"node","osm_id":"8454501375"}},{"type":"Feature","geometry":{"type":"Point","coordinates":[-2.23574,51.84091]},"properties":{"name":"Mapped water infrastructure","category":"water_well","osm_type":"node","osm_id":"8637569458"}},{"type":"Feature","geometry":{"type":"Point","coordinates":[-2.23718,51.83786]},"properties":{"name":"Mapped water infrastructure","category":"water_well","osm_type":"node","osm_id":"8637569459"}},{"type":"Feature","geometry":{"type":"Point","coordinates":[-2.23387,51.83886]},"properties":{"name":"Mapped water infrastructure","category":"water_well","osm_type":"node","osm_id":"8637569460"}},{"type":"Feature","geometry":{"type":"Point","coordinates":[-2.28409,51.74845]},"properties":{"name":"Mapped water infrastructure","category":"water_well","osm_type":"node","osm_id":"8699774532"}},{"type":"Feature","geometry":{"type":"Point","coordinates":[-2.31898,51.58083]},"properties":{"name":"Mapped water infrastructure","category":"water_well","osm_type":"node","osm_id":"8701262759"}},{"type":"Feature","geometry":{"type":"Point","coordinates":[-2.63494,51.83977]},"properties":{"name":"Mapped water infrastructure","category":"drinking_water","osm_type":"node","osm_id":"8828269176"}},{"type":"Feature","geometry":{"type":"Point","coordinates":[-2.55785,51.56386]},"properties":{"name":"Mapped water infrastructure","category":"drinking_water","osm_type":"node","osm_id":"8828274339"}},{"type":"Feature","geometry":{"type":"Point","coordinates":[-2.31761,51.63717]},"properties":{"name":"Mapped water infrastructure","category":"drinking_water","osm_type":"node","osm_id":"8920399320","operator":"National Trust"}},{"type":"Feature","geometry":{"type":"Point","coordinates":[-2.42164,51.52091]},"properties":{"name":"Mapped water infrastructure","category":"drinking_water","osm_type":"node","osm_id":"9160386528"}},{"type":"Feature","geometry":{"type":"Point","coordinates":[-2.24267,51.55437]},"properties":{"name":"Mapped water infrastructure","category":"water_well","osm_type":"node","osm_id":"9171621659"}},{"type":"Feature","geometry":{"type":"Point","coordinates":[-2.16713,51.55845]},"properties":{"name":"Mapped water infrastructure","category":"water_well","osm_type":"node","osm_id":"9174575603"}},{"type":"Feature","geometry":{"type":"Point","coordinates":[-2.34641,51.63623]},"properties":{"name":"Mapped water infrastructure","category":"drinking_water","osm_type":"node","osm_id":"9183642952"}},{"type":"Feature","geometry":{"type":"Point","coordinates":[-2.0247,51.90467]},"properties":{"name":"Mapped water infrastructure","category":"water_well","osm_type":"node","osm_id":"9672836816"}},{"type":"Feature","geometry":{"type":"Point","coordinates":[-2.02101,51.89669]},"properties":{"name":"Mapped water infrastructure","category":"water_well","osm_type":"node","osm_id":"9672860821"}},{"type":"Feature","geometry":{"type":"Point","coordinates":[-2.01902,51.89416]},"properties":{"name":"Mapped water infrastructure","category":"water_well","osm_type":"node","osm_id":"9672860822"}},{"type":"Feature","geometry":{"type":"Point","coordinates":[-2.01965,51.89416]},"properties":{"name":"Mapped water infrastructure","category":"water_well","osm_type":"node","osm_id":"9672860823"}},{"type":"Feature","geometry":{"type":"Point","coordinates":[-2.01819,51.89503]},"properties":{"name":"Mapped water infrastructure","category":"water_well","osm_type":"node","osm_id":"9672860824"}},{"type":"Feature","geometry":{"type":"Point","coordinates":[-2.01995,51.89456]},"properties":{"name":"Mapped water infrastructure","category":"water_well","osm_type":"node","osm_id":"9672860825"}},{"type":"Feature","geometry":{"type":"Point","coordinates":[-2.01963,51.89636]},"properties":{"name":"Mapped water infrastructure","category":"water_well","osm_type":"node","osm_id":"9672860826"}},{"type":"Feature","geometry":{"type":"Point","coordinates":[-2.01977,51.89532]},"properties":{"name":"Mapped water infrastructure","category":"water_well","osm_type":"node","osm_id":"9672860827"}},{"type":"Feature","geometry":{"type":"Point","coordinates":[-2.02059,51.89604]},"properties":{"name":"Mapped water infrastructure","category":"water_well","osm_type":"node","osm_id":"9672860828"}},{"type":"Feature","geometry":{"type":"Point","coordinates":[-2.02426,51.89771]},"properties":{"name":"Mapped water infrastructure","category":"water_well","osm_type":"node","osm_id":"9672860829"}},{"type":"Feature","geometry":{"type":"Point","coordinates":[-2.02501,51.8979]},"properties":{"name":"Mapped water infrastructure","category":"water_well","osm_type":"node","osm_id":"9672860830"}},{"type":"Feature","geometry":{"type":"Point","coordinates":[-2.63352,51.52113]},"properties":{"name":"Mapped water infrastructure","category":"drinking_water","osm_type":"node","osm_id":"9762663217"}},{"type":"Feature","geometry":{"type":"Point","coordinates":[-2.15782,51.6358]},"properties":{"name":"Mapped water infrastructure","category":"water_well","osm_type":"node","osm_id":"9881081190"}},{"type":"Feature","geometry":{"type":"Point","coordinates":[-2.21926,51.60779]},"properties":{"name":"Mapped water infrastructure","category":"water_point","osm_type":"node","osm_id":"9899762996"}},{"type":"Feature","geometry":{"type":"Point","coordinates":[-2.17397,51.68067]},"properties":{"name":"Mapped water infrastructure","category":"water_well","osm_type":"node","osm_id":"9926516348"}},{"type":"Feature","geometry":{"type":"Point","coordinates":[-2.17567,51.68184]},"properties":{"name":"Mapped water infrastructure","category":"water_well","osm_type":"node","osm_id":"9926516349"}},{"type":"Feature","geometry":{"type":"Point","coordinates":[-2.17755,51.68144]},"properties":{"name":"Mapped water infrastructure","category":"water_well","osm_type":"node","osm_id":"9926516358"}},{"type":"Feature","geometry":{"type":"Point","coordinates":[-2.17243,51.67956]},"properties":{"name":"Mapped water infrastructure","category":"water_well","osm_type":"node","osm_id":"9926552728"}},{"type":"Feature","geometry":{"type":"Point","coordinates":[-2.16956,51.67952]},"properties":{"name":"Mapped water infrastructure","category":"water_well","osm_type":"node","osm_id":"9933415415"}},{"type":"Feature","geometry":{"type":"Point","coordinates":[-2.12314,51.88413]},"properties":{"name":"Mapped water infrastructure","category":"pumping_station","osm_type":"node","osm_id":"9937743521","operator":"Severn Trent Water"}},{"type":"Feature","geometry":{"type":"Point","coordinates":[-2.48277,51.71055]},"properties":{"name":"Sharpness STW","category":"wastewater_plant","osm_type":"node","osm_id":"9947477671","operator":"Severn Trent"}},{"type":"Feature","geometry":{"type":"Point","coordinates":[-2.64262,51.81558]},"properties":{"name":"Mapped water infrastructure","category":"water_point","osm_type":"node","osm_id":"10031834536"}},{"type":"Feature","geometry":{"type":"Point","coordinates":[-2.64098,51.81612]},"properties":{"name":"Mapped water infrastructure","category":"water_point","osm_type":"node","osm_id":"10031834541"}},{"type":"Feature","geometry":{"type":"Point","coordinates":[-2.6412,51.81482]},"properties":{"name":"Mapped water infrastructure","category":"water_point","osm_type":"node","osm_id":"10031834597"}},{"type":"Feature","geometry":{"type":"Point","coordinates":[-2.64384,51.81785]},"properties":{"name":"Mapped water infrastructure","category":"water_point","osm_type":"node","osm_id":"10031886440"}},{"type":"Feature","geometry":{"type":"Point","coordinates":[-2.64201,51.8167]},"properties":{"name":"Mapped water infrastructure","category":"water_point","osm_type":"node","osm_id":"10031886442"}},{"type":"Feature","geometry":{"type":"Point","coordinates":[-2.21486,51.60633]},"properties":{"name":"Mapped water infrastructure","category":"drinking_water","osm_type":"node","osm_id":"10049880751","operator":"Westonbirt Arboretum"}},{"type":"Feature","geometry":{"type":"Point","coordinates":[-2.3519,51.7787]},"properties":{"name":"Mapped water infrastructure","category":"water_point","osm_type":"node","osm_id":"10244976341"}},{"type":"Feature","geometry":{"type":"Point","coordinates":[-2.35317,51.78092]},"properties":{"name":"Mapped water infrastructure","category":"water_point","osm_type":"node","osm_id":"10245139214"}},{"type":"Feature","geometry":{"type":"Point","coordinates":[-2.15778,51.85172]},"properties":{"name":"Mapped water infrastructure","category":"water_well","osm_type":"node","osm_id":"10752778128"}},{"type":"Feature","geometry":{"type":"Point","coordinates":[-2.39518,51.54336]},"properties":{"name":"Mapped water infrastructure","category":"drinking_water","osm_type":"node","osm_id":"10797303023"}},{"type":"Feature","geometry":{"type":"Point","coordinates":[-2.2347,51.68085]},"properties":{"name":"Mapped water infrastructure","category":"water_point","osm_type":"node","osm_id":"11017620706","operator":"The Hog"}},{"type":"Feature","geometry":{"type":"Point","coordinates":[-2.05677,51.78548]},"properties":{"name":"Mapped water infrastructure","category":"wastewater_plant","osm_type":"node","osm_id":"11018406777"}},{"type":"Feature","geometry":{"type":"Point","coordinates":[-2.27037,51.66253]},"properties":{"name":"Mapped water infrastructure","category":"water_point","osm_type":"node","osm_id":"11018647451"}},{"type":"Feature","geometry":{"type":"Point","coordinates":[-2.48171,51.53708]},"properties":{"name":"Mapped water infrastructure","category":"drinking_water","osm_type":"node","osm_id":"11020757314"}},{"type":"Feature","geometry":{"type":"Point","coordinates":[-2.46086,51.54793]},"properties":{"name":"Mapped water infrastructure","category":"drinking_water","osm_type":"node","osm_id":"11107727322"}},{"type":"Feature","geometry":{"type":"Point","coordinates":[-2.16295,51.68581]},"properties":{"name":"Mapped water infrastructure","category":"drinking_water","osm_type":"node","osm_id":"11298024066"}},{"type":"Feature","geometry":{"type":"Point","coordinates":[-2.474,51.72522]},"properties":{"name":"Sharpness Old Dock Water Point","category":"water_point","osm_type":"node","osm_id":"11588947003","operator":"Canal and River Trust"}},{"type":"Feature","geometry":{"type":"Point","coordinates":[-2.6721,51.78489]},"properties":{"name":"Mapped water infrastructure","category":"drinking_water","osm_type":"node","osm_id":"11937070337","operator":"Redbrook Village Stores"}},{"type":"Feature","geometry":{"type":"Point","coordinates":[-2.35421,51.639]},"properties":{"name":"Mapped water infrastructure","category":"water_point","osm_type":"node","osm_id":"12017259915"}},{"type":"Feature","geometry":{"type":"Point","coordinates":[-2.31991,51.58096]},"properties":{"name":"Mapped water infrastructure","category":"water_point","osm_type":"node","osm_id":"12018857586"}},{"type":"Feature","geometry":{"type":"Point","coordinates":[-2.28377,51.7461]},"properties":{"name":"Mapped water infrastructure","category":"drinking_water","osm_type":"node","osm_id":"12040233977"}},{"type":"Feature","geometry":{"type":"Point","coordinates":[-2.27061,51.70583]},"properties":{"name":"Mapped water infrastructure","category":"drinking_water","osm_type":"node","osm_id":"12149553650"}},{"type":"Feature","geometry":{"type":"Point","coordinates":[-2.08182,51.89518]},"properties":{"name":"Mapped water infrastructure","category":"drinking_water","osm_type":"node","osm_id":"12800642405"}},{"type":"Feature","geometry":{"type":"Point","coordinates":[-2.43006,51.54055]},"properties":{"name":"Mapped water infrastructure","category":"drinking_water","osm_type":"node","osm_id":"12876233251"}},{"type":"Feature","geometry":{"type":"Point","coordinates":[-2.65066,51.82687]},"properties":{"name":"Mapped water infrastructure","category":"drinking_water","osm_type":"node","osm_id":"12997689857"}},{"type":"Feature","geometry":{"type":"Point","coordinates":[-2.07032,51.89332]},"properties":{"name":"Mapped water infrastructure","category":"drinking_water","osm_type":"node","osm_id":"13012186251"}},{"type":"Feature","geometry":{"type":"Point","coordinates":[-2.12837,51.89653]},"properties":{"name":"Mapped water infrastructure","category":"pumping_station","osm_type":"node","osm_id":"13202913754"}},{"type":"Feature","geometry":{"type":"Point","coordinates":[-2.38484,51.63556]},"properties":{"name":"Mapped water infrastructure","category":"pumping_station","osm_type":"node","osm_id":"13542858690"}},{"type":"Feature","geometry":{"type":"Point","coordinates":[-2.20487,51.80184]},"properties":{"name":"Mapped water infrastructure","category":"water_well","osm_type":"node","osm_id":"13622721859"}},{"type":"Feature","geometry":{"type":"Point","coordinates":[-2.10683,51.89172]},"properties":{"name":"Mapped water infrastructure","category":"drinking_water","osm_type":"node","osm_id":"13719589258"}},{"type":"Feature","geometry":{"type":"Point","coordinates":[-2.09373,51.88959]},"properties":{"name":"Mapped water infrastructure","category":"drinking_water","osm_type":"node","osm_id":"13725830932"}},{"type":"Feature","geometry":{"type":"Point","coordinates":[-2.06928,51.92363]},"properties":{"name":"Mapped water infrastructure","category":"water_tower","osm_type":"node","osm_id":"13812017527"}},{"type":"Feature","geometry":{"type":"Point","coordinates":[-2.22383,51.83725]},"properties":{"name":"Mapped water infrastructure","category":"water_well","osm_type":"node","osm_id":"13953094098"}},{"type":"Feature","geometry":{"type":"Point","coordinates":[-2.56078,51.8061]},"properties":{"name":"Mapped water infrastructure","category":"drinking_water","osm_type":"node","osm_id":"14087586205"}},{"type":"Feature","geometry":{"type":"Point","coordinates":[-2.16162,51.99945]},"properties":{"name":"Mythe Treatment Works","category":"water_works","osm_type":"way","osm_id":"30831187"}},{"type":"Feature","geometry":{"type":"Point","coordinates":[-2.17325,51.86946]},"properties":{"name":"Mapped water infrastructure","category":"reservoir_covered","osm_type":"way","osm_id":"32669361"}},{"type":"Feature","geometry":{"type":"Point","coordinates":[-2.17285,51.86836]},"properties":{"name":"Mapped water infrastructure","category":"reservoir_covered","osm_type":"way","osm_id":"32669386"}},{"type":"Feature","geometry":{"type":"Point","coordinates":[-2.17393,51.86872]},"properties":{"name":"Mapped water infrastructure","category":"reservoir_covered","osm_type":"way","osm_id":"32669391"}},{"type":"Feature","geometry":{"type":"Point","coordinates":[-2.1354,51.90663]},"properties":{"name":"Hayden STW","category":"wastewater_plant","osm_type":"way","osm_id":"35038219","operator":"Severn Trent","ref":"10289-ST1"}},{"type":"Feature","geometry":{"type":"Point","coordinates":[-2.19982,51.74487]},"properties":{"name":"Stroud Covered","category":"reservoir_covered","osm_type":"way","osm_id":"52868168","operator":"Severn Trent"}},{"type":"Feature","geometry":{"type":"Point","coordinates":[-2.59471,51.52758]},"properties":{"name":"Almondsbury Reservoir","category":"reservoir_covered","osm_type":"way","osm_id":"58413594","operator":"Bristol Waterworks"}},{"type":"Feature","geometry":{"type":"Point","coordinates":[-2.53753,51.62767]},"properties":{"name":"Water Recycling Centre Thornbury","category":"wastewater_plant","osm_type":"way","osm_id":"120083675","operator":"Wessex Water","ref":"13309"}},{"type":"Feature","geometry":{"type":"Point","coordinates":[-2.57803,51.56258]},"properties":{"name":"Almondsbury Wastewater Treatment Works","category":"wastewater_plant","osm_type":"way","osm_id":"120343293","operator":"Wessex Water"}},{"type":"Feature","geometry":{"type":"Point","coordinates":[-2.30419,51.73995]},"properties":{"name":"Stanley Downton Sewage Treatment Works","category":"wastewater_plant","osm_type":"way","osm_id":"133037521"}},{"type":"Feature","geometry":{"type":"Point","coordinates":[-2.27867,51.83974]},"properties":{"name":"Netheridge Sewage Treatment Works","category":"wastewater_plant","osm_type":"way","osm_id":"147520380","operator":"Severn Trent Water"}},{"type":"Feature","geometry":{"type":"Point","coordinates":[-2.45518,51.60349]},"properties":{"name":"Cromhall sewage treatment works","category":"wastewater_plant","osm_type":"way","osm_id":"153079506"}},{"type":"Feature","geometry":{"type":"Point","coordinates":[-2.08064,51.58171]},"properties":{"name":"Malmesbury Sewage Works","category":"wastewater_plant","osm_type":"way","osm_id":"171770014"}},{"type":"Feature","geometry":{"type":"Point","coordinates":[-2.4627,51.59275]},"properties":{"name":"Mapped water infrastructure","category":"water_works","osm_type":"way","osm_id":"178314599"}},{"type":"Feature","geometry":{"type":"Point","coordinates":[-2.44015,51.72986]},"properties":{"name":"Purton Treatment Works","category":"water_works","osm_type":"way","osm_id":"178995844","operator":"Bristol Waterworks Company"}},{"type":"Feature","geometry":{"type":"Point","coordinates":[-2.48269,51.70984]},"properties":{"name":"Sharpness STW","category":"wastewater_plant","osm_type":"way","osm_id":"179154246"}},{"type":"Feature","geometry":{"type":"Point","coordinates":[-2.45007,51.63318]},"properties":{"name":"Water Recycling Centre Leyhill","category":"wastewater_plant","osm_type":"way","osm_id":"180295205","operator":"Wessex Water"}},{"type":"Feature","geometry":{"type":"Point","coordinates":[-2.09199,51.55534]},"properties":{"name":"Mapped water infrastructure","category":"water_works","osm_type":"way","osm_id":"183302177"}},{"type":"Feature","geometry":{"type":"Point","coordinates":[-2.57696,51.56996]},"properties":{"name":"Mapped water infrastructure","category":"wastewater_plant","osm_type":"way","osm_id":"184540596","operator":"Wessex Water"}},{"type":"Feature","geometry":{"type":"Point","coordinates":[-2.46331,51.82382]},"properties":{"name":"Mapped water infrastructure","category":"wastewater_plant","osm_type":"way","osm_id":"214238516"}},{"type":"Feature","geometry":{"type":"Point","coordinates":[-2.35354,51.7174]},"properties":{"name":"Coaley (STW)","category":"wastewater_plant","osm_type":"way","osm_id":"231340467","operator":"Severn Trent","ref":"10244-ST1"}},{"type":"Feature","geometry":{"type":"Point","coordinates":[-2.19256,51.89214]},"properties":{"name":"Mapped water infrastructure","category":"pumping_station","osm_type":"way","osm_id":"246187222"}},{"type":"Feature","geometry":{"type":"Point","coordinates":[-2.17362,51.89169]},"properties":{"name":"Mapped water infrastructure","category":"wastewater_plant","osm_type":"way","osm_id":"246191893"}},{"type":"Feature","geometry":{"type":"Point","coordinates":[-2.21157,51.70964]},"properties":{"name":"Mapped water infrastructure","category":"reservoir_covered","osm_type":"way","osm_id":"277895594"}},{"type":"Feature","geometry":{"type":"Point","coordinates":[-2.37256,51.63407]},"properties":{"name":"Wotton Under Edge WwTW","category":"wastewater_plant","osm_type":"way","osm_id":"278671502","operator":"Wessex Water","ref":"13361"}},{"type":"Feature","geometry":{"type":"Point","coordinates":[-2.08244,51.57608]},"properties":{"name":"Mapped water infrastructure","category":"water_works","osm_type":"way","osm_id":"291302897"}},{"type":"Feature","geometry":{"type":"Point","coordinates":[-2.09486,51.58224]},"properties":{"name":"Mapped water infrastructure","category":"water_works","osm_type":"way","osm_id":"291874937"}},{"type":"Feature","geometry":{"type":"Point","coordinates":[-2.17779,51.68672]},"properties":{"name":"Avening (STW)","category":"wastewater_plant","osm_type":"way","osm_id":"293794135","operator":"Severn Trent","ref":"10248-ST1"}},{"type":"Feature","geometry":{"type":"Point","coordinates":[-2.65325,51.57328]},"properties":{"name":"Mapped water infrastructure","category":"wastewater_plant","osm_type":"way","osm_id":"295245330"}},{"type":"Feature","geometry":{"type":"Point","coordinates":[-2.40669,51.63827]},"properties":{"name":"Charfield Wastewater Plant","category":"wastewater_plant","osm_type":"way","osm_id":"298540989"}},{"type":"Feature","geometry":{"type":"Point","coordinates":[-2.53235,51.71322]},"properties":{"name":"Lydney STW","category":"wastewater_plant","osm_type":"way","osm_id":"298557672","operator":"Severn Trent","ref":"10243-ST1"}},{"type":"Feature","geometry":{"type":"Point","coordinates":[-2.58812,51.544]},"properties":{"name":"Mapped water infrastructure","category":"water_works","osm_type":"way","osm_id":"307061394"}},{"type":"Feature","geometry":{"type":"Point","coordinates":[-2.58465,51.53237]},"properties":{"name":"Patchway Pumping Station","category":"water_works","osm_type":"way","osm_id":"311336591","ref":"15153"}},{"type":"Feature","geometry":{"type":"Point","coordinates":[-2.01632,51.94352]},"properties":{"name":"Cleeve Common","category":"reservoir_covered","osm_type":"way","osm_id":"333180824","operator":"Severn Trent Water"}},{"type":"Feature","geometry":{"type":"Point","coordinates":[-2.15473,51.9748]},"properties":{"name":"Mapped water infrastructure","category":"reservoir_covered","osm_type":"way","osm_id":"380212699"}},{"type":"Feature","geometry":{"type":"Point","coordinates":[-2.75685,51.98056]},"properties":{"name":"Much Dewchurch WwTW","category":"wastewater_plant","osm_type":"way","osm_id":"404020809","operator":"Dwr Cymru Welsh Water","ref":"33560"}},{"type":"Feature","geometry":{"type":"Point","coordinates":[-2.60477,51.84891]},"properties":{"name":"Lydbrook STW","category":"wastewater_plant","osm_type":"way","osm_id":"404097077","operator":"Dŵr Cymru Welsh Water","ref":"30980"}},{"type":"Feature","geometry":{"type":"Point","coordinates":[-2.08065,51.93237]},"properties":{"name":"Brockhampton Sewage Treatment Works","category":"wastewater_plant","osm_type":"way","osm_id":"405847237"}},{"type":"Feature","geometry":{"type":"Point","coordinates":[-2.65258,51.77722]},"properties":{"name":"Newland WwTW","category":"wastewater_plant","osm_type":"way","osm_id":"488432745","operator":"Dŵr Cymru Welsh Water","ref":"31004"}},{"type":"Feature","geometry":{"type":"Point","coordinates":[-2.18874,51.60508]},"properties":{"name":"Mapped water infrastructure","category":"wastewater_plant","osm_type":"way","osm_id":"526855043"}},{"type":"Feature","geometry":{"type":"Point","coordinates":[-2.39684,51.93595]},"properties":{"name":"Lancaster Terrace (STW)","category":"wastewater_plant","osm_type":"way","osm_id":"549718908","operator":"Severn Trent","ref":"10262-ST1"}},{"type":"Feature","geometry":{"type":"Point","coordinates":[-2.17114,51.98485]},"properties":{"name":"Tewkesbury Sewage Treatment Works","category":"wastewater_plant","osm_type":"way","osm_id":"552897344","operator":"Severn Trent","ref":"10313-ST1"}},{"type":"Feature","geometry":{"type":"Point","coordinates":[-2.09479,51.85496]},"properties":{"name":"Ullenwood Reservoir","category":"reservoir_covered","osm_type":"way","osm_id":"608101865"}},{"type":"Feature","geometry":{"type":"Point","coordinates":[-2.6512,51.73795]},"properties":{"name":"St. Briavels WwTW","category":"wastewater_plant","osm_type":"way","osm_id":"611221065","operator":"Dŵr Cymru Welsh Water","ref":"31082"}},{"type":"Feature","geometry":{"type":"Point","coordinates":[-2.65844,51.71299]},"properties":{"name":"Brockweir WwTW","category":"wastewater_plant","osm_type":"way","osm_id":"612631785","operator":"Dwr Cymru Welsh Water","ref":"30816"}},{"type":"Feature","geometry":{"type":"Point","coordinates":[-2.47113,51.75736]},"properties":{"name":"Blakeney (STW)","category":"wastewater_plant","osm_type":"way","osm_id":"673838413","operator":"Severn Trent","ref":"10249-ST1"}},{"type":"Feature","geometry":{"type":"Point","coordinates":[-2.88227,51.9449]},"properties":{"name":"Pontrilas WwTW","category":"wastewater_plant","osm_type":"way","osm_id":"700667946","operator":"Dŵr Cymru Welsh Water","ref":"31051"}},{"type":"Feature","geometry":{"type":"Point","coordinates":[-2.57378,51.60076]},"properties":{"name":"Littleton Water Treatment Works","category":"water_works","osm_type":"way","osm_id":"706400688","operator":"Bristol Water"}},{"type":"Feature","geometry":{"type":"Point","coordinates":[-2.63727,51.95296]},"properties":{"name":"Kings Caple WwTW","category":"wastewater_plant","osm_type":"way","osm_id":"706906543","operator":"Dŵr Cymru Welsh Water","ref":"30917"}},{"type":"Feature","geometry":{"type":"Point","coordinates":[-2.60451,51.90722]},"properties":{"name":"Lower Cleeve Ross (New) Waste Water Treatment Works","category":"wastewater_plant","osm_type":"way","osm_id":"727091182","operator":"Dŵr Cymru Welsh Water"}},{"type":"Feature","geometry":{"type":"Point","coordinates":[-2.61636,51.60728]},"properties":{"name":"Aust Sewage Treatment Plant","category":"wastewater_plant","osm_type":"way","osm_id":"730292859"}},{"type":"Feature","geometry":{"type":"Point","coordinates":[-2.62882,51.86432]},"properties":{"name":"Goodrich Sewage Works","category":"wastewater_plant","osm_type":"way","osm_id":"741056385","operator":"Dŵr Cymru Welsh Water","ref":"30888"}},{"type":"Feature","geometry":{"type":"Point","coordinates":[-2.71218,51.8665]},"properties":{"name":"Mapped water infrastructure","category":"reservoir_covered","osm_type":"way","osm_id":"754717276"}},{"type":"Feature","geometry":{"type":"Point","coordinates":[-2.36066,51.90564]},"properties":{"name":"Sewage Treatment Plant","category":"wastewater_plant","osm_type":"way","osm_id":"758741059"}},{"type":"Feature","geometry":{"type":"Point","coordinates":[-2.72014,51.9901]},"properties":{"name":"Aconbury","category":"reservoir_covered","osm_type":"way","osm_id":"766303725"}},{"type":"Feature","geometry":{"type":"Point","coordinates":[-2.55876,51.87327]},"properties":{"name":"Mapped water infrastructure","category":"reservoir_covered","osm_type":"way","osm_id":"806432609"}},{"type":"Feature","geometry":{"type":"Point","coordinates":[-2.4323,51.69158]},"properties":{"name":"Mapped water infrastructure","category":"water_works","osm_type":"way","osm_id":"817338907"}},{"type":"Feature","geometry":{"type":"Point","coordinates":[-2.03748,51.89818]},"properties":{"name":"No. 3 Reservoir","category":"reservoir_covered","osm_type":"way","osm_id":"821653924"}},{"type":"Feature","geometry":{"type":"Point","coordinates":[-2.00602,51.9378]},"properties":{"name":"Mapped water infrastructure","category":"reservoir_covered","osm_type":"way","osm_id":"822353978"}},{"type":"Feature","geometry":{"type":"Point","coordinates":[-2.32641,51.58157]},"properties":{"name":"Mapped water infrastructure","category":"reservoir_covered","osm_type":"way","osm_id":"838391935"}},{"type":"Feature","geometry":{"type":"Point","coordinates":[-2.32614,51.58151]},"properties":{"name":"Mapped water infrastructure","category":"reservoir_covered","osm_type":"way","osm_id":"838391936"}},{"type":"Feature","geometry":{"type":"Point","coordinates":[-2.15308,51.63222]},"properties":{"name":"Tetbury Sewage Treatment Works","category":"wastewater_plant","osm_type":"way","osm_id":"844105328"}},{"type":"Feature","geometry":{"type":"Point","coordinates":[-2.33615,51.69239]},"properties":{"name":"Mapped water infrastructure","category":"reservoir_covered","osm_type":"way","osm_id":"852171353"}},{"type":"Feature","geometry":{"type":"Point","coordinates":[-2.34792,51.64488]},"properties":{"name":"Mapped water infrastructure","category":"reservoir_covered","osm_type":"way","osm_id":"861126124"}},{"type":"Feature","geometry":{"type":"Point","coordinates":[-2.11054,51.94038]},"properties":{"name":"Stoke Orchard (STW)","category":"wastewater_plant","osm_type":"way","osm_id":"875576705","operator":"Severn Trent","ref":"10278-ST1"}},{"type":"Feature","geometry":{"type":"Point","coordinates":[-2.06769,51.57595]},"properties":{"name":"Mapped water infrastructure","category":"pumping_station","osm_type":"way","osm_id":"876479486"}},{"type":"Feature","geometry":{"type":"Point","coordinates":[-2.06179,51.589]},"properties":{"name":"Mapped water infrastructure","category":"pumping_station","osm_type":"way","osm_id":"876479487"}},{"type":"Feature","geometry":{"type":"Point","coordinates":[-2.46246,51.53211]},"properties":{"name":"Mapped water infrastructure","category":"pumping_station","osm_type":"way","osm_id":"883194106"}},{"type":"Feature","geometry":{"type":"Point","coordinates":[-2.08448,51.57604]},"properties":{"name":"Mapped water infrastructure","category":"pumping_station","osm_type":"way","osm_id":"892962418"}},{"type":"Feature","geometry":{"type":"Point","coordinates":[-2.39388,51.60302]},"properties":{"name":"Wickwar WwTW","category":"wastewater_plant","osm_type":"way","osm_id":"895594283","operator":"Wessex Water","ref":"13347"}},{"type":"Feature","geometry":{"type":"Point","coordinates":[-2.39547,51.58641]},"properties":{"name":"Mapped water infrastructure","category":"pumping_station","osm_type":"way","osm_id":"896631725"}},{"type":"Feature","geometry":{"type":"Point","coordinates":[-2.39564,51.59019]},"properties":{"name":"Amberley Way Pumping Station","category":"pumping_station","osm_type":"way","osm_id":"900357902"}},{"type":"Feature","geometry":{"type":"Point","coordinates":[-2.44083,51.73515]},"properties":{"name":"Mapped water infrastructure","category":"water_works","osm_type":"way","osm_id":"904203675"}},{"type":"Feature","geometry":{"type":"Point","coordinates":[-2.35291,51.6677]},"properties":{"name":"Breakheart","category":"reservoir_covered","osm_type":"way","osm_id":"908559503","operator":"Severn Trent Water"}},{"type":"Feature","geometry":{"type":"Point","coordinates":[-2.10213,51.81389]},"properties":{"name":"Mapped water infrastructure","category":"reservoir_covered","osm_type":"way","osm_id":"911544119"}},{"type":"Feature","geometry":{"type":"Point","coordinates":[-2.39148,51.93291]},"properties":{"name":"Mapped water infrastructure","category":"wastewater_plant","osm_type":"way","osm_id":"913824340"}},{"type":"Feature","geometry":{"type":"Point","coordinates":[-2.16123,51.6478]},"properties":{"name":"Mapped water infrastructure","category":"reservoir_covered","osm_type":"way","osm_id":"920884974"}},{"type":"Feature","geometry":{"type":"Point","coordinates":[-2.36784,51.62711]},"properties":{"name":"Mapped water infrastructure","category":"water_tower","osm_type":"way","osm_id":"964281858"}},{"type":"Feature","geometry":{"type":"Point","coordinates":[-2.14044,51.99357]},"properties":{"name":"Mapped water infrastructure","category":"pumping_station","osm_type":"way","osm_id":"964699810","operator":"Severn Trent Water"}},{"type":"Feature","geometry":{"type":"Point","coordinates":[-2.06136,51.69331]},"properties":{"name":"Mapped water infrastructure","category":"water_tower","osm_type":"way","osm_id":"965745599"}},{"type":"Feature","geometry":{"type":"Point","coordinates":[-2.98047,51.9473]},"properties":{"name":"Longtown STW PS","category":"pumping_station","osm_type":"way","osm_id":"975188694","operator":"Dŵr Cymru Welsh Water","addr:postcode":"HR2 0LT"}},{"type":"Feature","geometry":{"type":"Point","coordinates":[-2.54681,51.58033]},"properties":{"name":"Alveston Wastewater Treatment Works","category":"wastewater_plant","osm_type":"way","osm_id":"979851640","operator":"Wessex Water","ref":"13007"}},{"type":"Feature","geometry":{"type":"Point","coordinates":[-2.14689,51.59631]},"properties":{"name":"Mapped water infrastructure","category":"water_works","osm_type":"way","osm_id":"990054405","operator":"Bristol Water"}},{"type":"Feature","geometry":{"type":"Point","coordinates":[-2.20519,51.56953]},"properties":{"name":"Mapped water infrastructure","category":"wastewater_plant","osm_type":"way","osm_id":"991173621"}},{"type":"Feature","geometry":{"type":"Point","coordinates":[-2.22022,51.5755]},"properties":{"name":"Mapped water infrastructure","category":"water_tower","osm_type":"way","osm_id":"992241137"}},{"type":"Feature","geometry":{"type":"Point","coordinates":[-2.50414,51.8665]},"properties":{"name":"Mitcheldean Water Treatment Works","category":"water_works","osm_type":"way","osm_id":"1002200733"}},{"type":"Feature","geometry":{"type":"Point","coordinates":[-2.43917,51.65505]},"properties":{"name":"Michaelwood STW","category":"wastewater_plant","osm_type":"way","osm_id":"1017897892","operator":"Wessex Water","ref":"13209","website":"https://wessexwater.co.uk/","addr:city":"Stroud"}},{"type":"Feature","geometry":{"type":"Point","coordinates":[-2.1511,51.54438]},"properties":{"name":"Mapped water infrastructure","category":"wastewater_plant","osm_type":"way","osm_id":"1020905048"}},{"type":"Feature","geometry":{"type":"Point","coordinates":[-2.06824,51.5055]},"properties":{"name":"Sutton Benger WwTW","category":"wastewater_plant","osm_type":"way","osm_id":"1030319541","operator":"Wessex Water"}},{"type":"Feature","geometry":{"type":"Point","coordinates":[-2.74006,51.91326]},"properties":{"name":"St Weonards WwTW","category":"wastewater_plant","osm_type":"way","osm_id":"1030417308","operator":"Dŵr Cymru Welsh Water","ref":"31087"}},{"type":"Feature","geometry":{"type":"Point","coordinates":[-2.67907,51.98001]},"properties":{"name":"Little Dewchurch WwTW","category":"wastewater_plant","osm_type":"way","osm_id":"1034852204","operator":"Dwr Cymru Welsh Water","ref":"30927"}},{"type":"Feature","geometry":{"type":"Point","coordinates":[-2.41249,51.8182]},"properties":{"name":"Westbury (STW)","category":"wastewater_plant","osm_type":"way","osm_id":"1035400081","ref":"10254-ST1"}},{"type":"Feature","geometry":{"type":"Point","coordinates":[-2.07673,51.87269]},"properties":{"name":"Mapped water infrastructure","category":"reservoir_covered","osm_type":"way","osm_id":"1035473697"}},{"type":"Feature","geometry":{"type":"Point","coordinates":[-2.07621,51.87217]},"properties":{"name":"Leckhampton Pumping Station","category":"water_works","osm_type":"way","osm_id":"1035473699"}},{"type":"Feature","geometry":{"type":"Point","coordinates":[-2.47181,51.9352]},"properties":{"name":"Gorsley - Ivy House (STW)","category":"wastewater_plant","osm_type":"way","osm_id":"1035585476","operator":"Severn Trent Water","ref":"10268-ST1"}},{"type":"Feature","geometry":{"type":"Point","coordinates":[-2.3435,51.8062]},"properties":{"name":"Longney (STW)","category":"wastewater_plant","osm_type":"way","osm_id":"1039922442","operator":"Severn Trent","ref":"10257-ST1"}},{"type":"Feature","geometry":{"type":"Point","coordinates":[-2.26721,51.54637]},"properties":{"name":"Great Badminton WwTW","category":"wastewater_plant","osm_type":"way","osm_id":"1039929492","operator":"Wessex Water","ref":"13136"}},{"type":"Feature","geometry":{"type":"Point","coordinates":[-2.98565,51.95054]},"properties":{"name":"Longtown WwTW","category":"wastewater_plant","osm_type":"way","osm_id":"1040373930","operator":"Dwr Cymru Welsh Water","ref":"30977"}},{"type":"Feature","geometry":{"type":"Point","coordinates":[-2.0667,51.97464]},"properties":{"name":"Woolstone Sewage Treatment Works","category":"wastewater_plant","osm_type":"way","osm_id":"1040933811","operator":"Severn Trent","ref":"10306-ST1"}},{"type":"Feature","geometry":{"type":"Point","coordinates":[-2.11434,51.72003]},"properties":{"name":"Highfields WwTW","category":"wastewater_plant","osm_type":"way","osm_id":"1040953449","operator":"Thames Water","ref":"HIGH05ZZ"}},{"type":"Feature","geometry":{"type":"Point","coordinates":[-2.25051,51.58524]},"properties":{"name":"Mapped water infrastructure","category":"wastewater_plant","osm_type":"way","osm_id":"1041206392"}},{"type":"Feature","geometry":{"type":"Point","coordinates":[-2.50234,51.99768]},"properties":{"name":"Much Marcle (STW)","category":"wastewater_plant","osm_type":"way","osm_id":"1042610027","operator":"Severn Trent","ref":"17806-ST1"}},{"type":"Feature","geometry":{"type":"Point","coordinates":[-2.05235,51.54853]},"properties":{"name":"Great Somerford WwTW","category":"wastewater_plant","osm_type":"way","osm_id":"1045879858","operator":"Wessex Water","ref":"13137"}},{"type":"Feature","geometry":{"type":"Point","coordinates":[-2.03227,51.89782]},"properties":{"name":"Northfield reservoir","category":"reservoir_covered","osm_type":"way","osm_id":"1052519588"}},{"type":"Feature","geometry":{"type":"Point","coordinates":[-2.13616,51.90606]},"properties":{"name":"Mapped water infrastructure","category":"wastewater_plant","osm_type":"way","osm_id":"1056524259"}},{"type":"Feature","geometry":{"type":"Point","coordinates":[-2.17017,51.86495]},"properties":{"name":"Mapped water infrastructure","category":"reservoir_covered","osm_type":"way","osm_id":"1060360699"}},{"type":"Feature","geometry":{"type":"Point","coordinates":[-2.4851,51.97272]},"properties":{"name":"Kempley (STW)","category":"wastewater_plant","osm_type":"way","osm_id":"1092284090","operator":"Severn Trent","ref":"10261-ST1"}},{"type":"Feature","geometry":{"type":"Point","coordinates":[-2.38924,51.66976]},"properties":{"name":"North Nibley WwTW","category":"wastewater_plant","osm_type":"way","osm_id":"1107430071","operator":"Wessex Water","ref":"13222"}},{"type":"Feature","geometry":{"type":"Point","coordinates":[-2.23511,51.55368]},"properties":{"name":"Luckington WwTW","category":"wastewater_plant","osm_type":"way","osm_id":"1112796415","operator":"Wessex Water","ref":"13184"}},{"type":"Feature","geometry":{"type":"Point","coordinates":[-2.26291,51.51447]},"properties":{"name":"Burton WwTW","category":"wastewater_plant","osm_type":"way","osm_id":"1112797368","operator":"Wessex Water","ref":"13041"}},{"type":"Feature","geometry":{"type":"Point","coordinates":[-2.10119,51.82313]},"properties":{"name":"Birdlip (STW)","category":"wastewater_plant","osm_type":"way","osm_id":"1113486063","operator":"Severn Trent","ref":"10286-ST1"}},{"type":"Feature","geometry":{"type":"Point","coordinates":[-2.53339,51.78086]},"properties":{"name":"Lydney-The Barracks (STW)","category":"wastewater_plant","osm_type":"way","osm_id":"1113486411","operator":"Severn Trent","ref":"18314-ST1"}},{"type":"Feature","geometry":{"type":"Point","coordinates":[-2.35518,51.87152]},"properties":{"name":"Churcham (STW)","category":"wastewater_plant","osm_type":"way","osm_id":"1113486657","operator":"Severn Trent","ref":"10279-ST1"}},{"type":"Feature","geometry":{"type":"Point","coordinates":[-2.54477,51.84394]},"properties":{"name":"Ruardean (Woodside) WwTW","category":"wastewater_plant","osm_type":"way","osm_id":"1113486984","operator":"Dŵr Cymru Welsh Water","ref":"31074"}},{"type":"Feature","geometry":{"type":"Point","coordinates":[-2.68767,51.8903]},"properties":{"name":"Llangarron Herberts Hill WwTW","category":"wastewater_plant","osm_type":"way","osm_id":"1115998242","operator":"Dŵr Cymru Welsh Water","ref":"30952"}},{"type":"Feature","geometry":{"type":"Point","coordinates":[-2.73217,51.93808]},"properties":{"name":"Llanwarne (Monkton P WwTW","category":"wastewater_plant","osm_type":"way","osm_id":"1125803396","operator":"Dŵr Cymru Welsh Water","ref":"30966"}},{"type":"Feature","geometry":{"type":"Point","coordinates":[-2.81375,51.97258]},"properties":{"name":"Kilpeck WwTW","category":"wastewater_plant","osm_type":"way","osm_id":"1125895067","operator":"Dŵr Cymru Welsh Water","ref":"30915"}},{"type":"Feature","geometry":{"type":"Point","coordinates":[-2.38789,51.70858]},"properties":{"name":"Woodend (STW)","category":"wastewater_plant","osm_type":"way","osm_id":"1125897105","operator":"Severn Trent","ref":"10238-ST1"}},{"type":"Feature","geometry":{"type":"Point","coordinates":[-2.6747,51.91752]},"properties":{"name":"St. Owens Cross WwTW","category":"wastewater_plant","osm_type":"way","osm_id":"1125898306","operator":"Dŵr Cymru Welsh Water","ref":"31086"}},{"type":"Feature","geometry":{"type":"Point","coordinates":[-2.44565,51.95321]},"properties":{"name":"Fouroaks - Wood View (STW)","category":"wastewater_plant","osm_type":"way","osm_id":"1126121151","operator":"Severn Trent","ref":"10307-ST1"}},{"type":"Feature","geometry":{"type":"Point","coordinates":[-2.35685,51.64266]},"properties":{"name":"The Butts","category":"reservoir_covered","osm_type":"way","osm_id":"1154359320"}},{"type":"Feature","geometry":{"type":"Point","coordinates":[-2.11176,51.82733]},"properties":{"name":"Mapped water infrastructure","category":"pumping_station","osm_type":"way","osm_id":"1160863433","operator":"Severn Trent"}},{"type":"Feature","geometry":{"type":"Point","coordinates":[-2.30211,51.69774]},"properties":{"name":"Nympsfield Reservoir","category":"reservoir_covered","osm_type":"way","osm_id":"1169448509","operator":"Severn Trent"}},{"type":"Feature","geometry":{"type":"Point","coordinates":[-2.62073,51.8671]},"properties":{"name":"Goodrich Sewage Pumping Station","category":"pumping_station","osm_type":"way","osm_id":"1174762609"}},{"type":"Feature","geometry":{"type":"Point","coordinates":[-2.07076,51.95252]},"properties":{"name":"Mapped water infrastructure","category":"wastewater_plant","osm_type":"way","osm_id":"1196899639"}},{"type":"Feature","geometry":{"type":"Point","coordinates":[-2.40154,51.74012]},"properties":{"name":"Mapped water infrastructure","category":"water_works","osm_type":"way","osm_id":"1199724758"}},{"type":"Feature","geometry":{"type":"Point","coordinates":[-2.30832,51.99788]},"properties":{"name":"Pendock (STW)","category":"wastewater_plant","osm_type":"way","osm_id":"1207869663","operator":"Severn Trent","ref":"10080-ST1"}},{"type":"Feature","geometry":{"type":"Point","coordinates":[-2.28553,51.98399]},"properties":{"name":"Eldersfield - Bridge End (STW)","category":"wastewater_plant","osm_type":"way","osm_id":"1207871822","operator":"Severn Trent","ref":"10066-ST1"}},{"type":"Feature","geometry":{"type":"Point","coordinates":[-2.25157,51.9759]},"properties":{"name":"Poolhay Close (STW)","category":"wastewater_plant","osm_type":"way","osm_id":"1207876749","operator":"Severn Trent","ref":"17969-ST1"}},{"type":"Feature","geometry":{"type":"Point","coordinates":[-2.11939,51.99508]},"properties":{"name":"Mapped water infrastructure","category":"pumping_station","osm_type":"way","osm_id":"1213743944"}},{"type":"Feature","geometry":{"type":"Point","coordinates":[-2.13574,51.89974]},"properties":{"name":"septic tank","category":"wastewater_plant","osm_type":"way","osm_id":"1213969976"}},{"type":"Feature","geometry":{"type":"Point","coordinates":[-2.00889,51.99581]},"properties":{"name":"Alderton (STW)","category":"wastewater_plant","osm_type":"way","osm_id":"1271443175","operator":"Severn Trent","ref":"10282-ST1"}},{"type":"Feature","geometry":{"type":"Point","coordinates":[-2.34425,51.75818]},"properties":{"name":"Mapped water infrastructure","category":"wastewater_plant","osm_type":"way","osm_id":"1282205424"}},{"type":"Feature","geometry":{"type":"Point","coordinates":[-2.08962,51.59181]},"properties":{"name":"Mapped water infrastructure","category":"water_tower","osm_type":"way","osm_id":"1288451429"}},{"type":"Feature","geometry":{"type":"Point","coordinates":[-2.49317,51.60438]},"properties":{"name":"Mapped water infrastructure","category":"water_tower","osm_type":"way","osm_id":"1288454579"}},{"type":"Feature","geometry":{"type":"Point","coordinates":[-2.51562,51.82324]},"properties":{"name":"Cinderford - Crumpmeadow (STW)","category":"wastewater_plant","osm_type":"way","osm_id":"1293516182","operator":"Severn Trent","ref":"10245-ST1"}},{"type":"Feature","geometry":{"type":"Point","coordinates":[-2.22048,51.89943]},"properties":{"name":"Aster Close Pumping Station","category":"pumping_station","osm_type":"way","osm_id":"1296943110"}},{"type":"Feature","geometry":{"type":"Point","coordinates":[-2.62392,51.51603]},"properties":{"name":"Mapped water infrastructure","category":"water_works","osm_type":"way","osm_id":"1309955609"}},{"type":"Feature","geometry":{"type":"Point","coordinates":[-2.35926,51.98784]},"properties":{"name":"Pfera Hall Reservoir","category":"reservoir_covered","osm_type":"way","osm_id":"1310470662"}},{"type":"Feature","geometry":{"type":"Point","coordinates":[-2.37427,51.98412]},"properties":{"name":"Mapped water infrastructure","category":"reservoir_covered","osm_type":"way","osm_id":"1310470670"}},{"type":"Feature","geometry":{"type":"Point","coordinates":[-2.20321,51.95518]},"properties":{"name":"Mapped water infrastructure","category":"wastewater_plant","osm_type":"way","osm_id":"1328130075"}},{"type":"Feature","geometry":{"type":"Point","coordinates":[-2.31479,51.95824]},"properties":{"name":"Princes Crescent Pumping Station","category":"pumping_station","osm_type":"way","osm_id":"1328149628"}},{"type":"Feature","geometry":{"type":"Point","coordinates":[-2.31159,51.95259]},"properties":{"name":"Pitts Mill Sewage Treatment Works","category":"wastewater_plant","osm_type":"way","osm_id":"1328149640","operator":"Severn Trent","ref":"10295-ST1"}},{"type":"Feature","geometry":{"type":"Point","coordinates":[-2.35496,51.94245]},"properties":{"name":"Hill Farm Sewage Pumping Station","category":"pumping_station","osm_type":"way","osm_id":"1328154658"}},{"type":"Feature","geometry":{"type":"Point","coordinates":[-2.32551,51.97811]},"properties":{"name":"Lowbands Sewage Pumping Station","category":"pumping_station","osm_type":"way","osm_id":"1328368869"}},{"type":"Feature","geometry":{"type":"Point","coordinates":[-2.18917,51.65809]},"properties":{"name":"Mapped water infrastructure","category":"water_works","osm_type":"way","osm_id":"1337691500"}},{"type":"Feature","geometry":{"type":"Point","coordinates":[-2.1625,51.64572]},"properties":{"name":"Mapped water infrastructure","category":"water_tower","osm_type":"way","osm_id":"1350441666"}},{"type":"Feature","geometry":{"type":"Point","coordinates":[-2.56442,51.60082]},"properties":{"name":"Mapped water infrastructure","category":"pumping_station","osm_type":"way","osm_id":"1366535193"}},{"type":"Feature","geometry":{"type":"Point","coordinates":[-2.37714,51.99601]},"properties":{"name":"Bromsberrow (STW)","category":"wastewater_plant","osm_type":"way","osm_id":"1388511681","operator":"Severn Trent","ref":"10094-ST1"}},{"type":"Feature","geometry":{"type":"Point","coordinates":[-2.45877,51.91148]},"properties":{"name":"Aston Ingham (STW)","category":"wastewater_plant","osm_type":"way","osm_id":"1388512689","operator":"Severn Trent","ref":"10284-ST1"}},{"type":"Feature","geometry":{"type":"Point","coordinates":[-2.30468,51.76562]},"properties":{"name":"Nupend (STW)","category":"wastewater_plant","osm_type":"way","osm_id":"1388516479","operator":"Severn Trent","ref":"17937-ST1"}},{"type":"Feature","geometry":{"type":"Point","coordinates":[-2.51986,51.99482]},"properties":{"name":"Much Marcle - Hazerdine (STW)","category":"wastewater_plant","osm_type":"way","osm_id":"1390098838","operator":"Severn Trent","ref":"10137-ST1"}},{"type":"Feature","geometry":{"type":"Point","coordinates":[-2.59771,51.98285]},"properties":{"name":"Brockhampton Ladyridge WwTW","category":"wastewater_plant","osm_type":"way","osm_id":"1390649372","operator":"Dŵr Cymru Welsh Water","ref":"30815"}},{"type":"Feature","geometry":{"type":"Point","coordinates":[-2.52044,51.97717]},"properties":{"name":"Yatton (STW)","category":"wastewater_plant","osm_type":"way","osm_id":"1390652025","operator":"Severn Trent","ref":"15225-ST1"}},{"type":"Feature","geometry":{"type":"Point","coordinates":[-2.43493,51.97895]},"properties":{"name":"Dymock (STW)","category":"wastewater_plant","osm_type":"way","osm_id":"1391622364","operator":"Severn Trent","ref":"10267-ST1"}},{"type":"Feature","geometry":{"type":"Point","coordinates":[-2.83608,51.96837]},"properties":{"name":"Wormbridge (Sw Of Hereford) WwTW","category":"wastewater_plant","osm_type":"way","osm_id":"1396852742","operator":"Welsh Water","ref":"30912"}},{"type":"Feature","geometry":{"type":"Point","coordinates":[-2.55608,51.97654]},"properties":{"name":"Crossway How Caple (Ross-On-Wye) WwTW","category":"wastewater_plant","osm_type":"way","osm_id":"1410010157","operator":"Dŵr Cymru Welsh Water","ref":"30907"}},{"type":"Feature","geometry":{"type":"Point","coordinates":[-2.80532,51.97103]},"properties":{"name":"Mapped water infrastructure","category":"pumping_station","osm_type":"way","osm_id":"1410059703","operator":"Dŵr Cymru - Welsh Water"}},{"type":"Feature","geometry":{"type":"Point","coordinates":[-2.54169,51.60011]},"properties":{"name":"Mapped water infrastructure","category":"reservoir_covered","osm_type":"way","osm_id":"1411273355"}},{"type":"Feature","geometry":{"type":"Point","coordinates":[-2.16413,51.85425]},"properties":{"name":"Mapped water infrastructure","category":"pumping_station","osm_type":"way","osm_id":"1412643732"}},{"type":"Feature","geometry":{"type":"Point","coordinates":[-2.37541,51.86868]},"properties":{"name":"Mapped water infrastructure","category":"pumping_station","osm_type":"way","osm_id":"1413022534","operator":"Severn Trent","addr:city":"Churcham","addr:postcode":"GL2 8AS"}},{"type":"Feature","geometry":{"type":"Point","coordinates":[-2.37915,51.86952]},"properties":{"name":"Huntley (STW)","category":"wastewater_plant","osm_type":"way","osm_id":"1413022786","operator":"Severn Trent","ref":"10260-ST1"}},{"type":"Feature","geometry":{"type":"Point","coordinates":[-2.14609,51.84998]},"properties":{"name":"Mapped water infrastructure","category":"pumping_station","osm_type":"way","osm_id":"1414375279"}},{"type":"Feature","geometry":{"type":"Point","coordinates":[-2.43467,51.81731]},"properties":{"name":"Broadoak (STW)","category":"wastewater_plant","osm_type":"way","osm_id":"1414692762","operator":"Severn Trent","ref":"17619-ST1"}},{"type":"Feature","geometry":{"type":"Point","coordinates":[-2.51816,51.93877]},"properties":{"name":"Upton Bishop (Birtle) WwTW","category":"wastewater_plant","osm_type":"way","osm_id":"1420160778","operator":"Dŵr Cymru - Welsh Water","ref":"75009"}},{"type":"Feature","geometry":{"type":"Point","coordinates":[-2.78289,51.9001]},"properties":{"name":"Garway (No.3 Fairve) WwTW","category":"wastewater_plant","osm_type":"way","osm_id":"1423001438","operator":"Dŵr Cymru - Welsh Water","ref":"30883"}},{"type":"Feature","geometry":{"type":"Point","coordinates":[-2.16383,51.98439]},"properties":{"name":"Tewkesbury - Lincoln Green Lane (STW)","category":"wastewater_plant","osm_type":"way","osm_id":"1423383513","operator":"Severn Trent","ref":"18009-ST1"}},{"type":"Feature","geometry":{"type":"Point","coordinates":[-2.65125,51.81153]},"properties":{"name":"Staunton (Glous) WwTW","category":"wastewater_plant","osm_type":"way","osm_id":"1426049162","operator":"Dŵr Cymru - Welsh Water","ref":"31089"}},{"type":"Feature","geometry":{"type":"Point","coordinates":[-2.42363,51.95719]},"properties":{"name":"Mapped water infrastructure","category":"reservoir_covered","osm_type":"way","osm_id":"1426460033"}},{"type":"Feature","geometry":{"type":"Point","coordinates":[-2.42508,51.93641]},"properties":{"name":"Newent Pumping Station","category":"pumping_station","osm_type":"way","osm_id":"1444481023"}},{"type":"Feature","geometry":{"type":"Point","coordinates":[-2.34482,51.67147]},"properties":{"name":"Mapped water infrastructure","category":"reservoir_covered","osm_type":"way","osm_id":"1484416676"}},{"type":"Feature","geometry":{"type":"Point","coordinates":[-2.08775,51.87846]},"properties":{"name":"Mapped water infrastructure","category":"water_works","osm_type":"way","osm_id":"1500290998"}},{"type":"Feature","geometry":{"type":"Point","coordinates":[-2.25752,51.86949]},"properties":{"name":"Mapped water infrastructure","category":"pumping_station","osm_type":"way","osm_id":"1543224739"}},{"type":"Feature","geometry":{"type":"Point","coordinates":[-2.2956,51.61648]},"properties":{"name":"Tresham Booster Station","category":"reservoir_covered","osm_type":"way","osm_id":"1556756575"}},{"type":"Feature","geometry":{"type":"Point","coordinates":[-2.55614,51.85805]},"properties":{"name":"Ruardean Wastewater Treatment Works","category":"wastewater_plant","osm_type":"relation","osm_id":"16642273","operator":"Dŵr Cymru Welsh Water","ref":"31072"}},{"type":"Feature","geometry":{"type":"Point","coordinates":[-2.31566,51.92705]},"properties":{"name":"Mapped water infrastructure","category":"water_well","osm_type":"way","osm_id":"58327190"}},{"type":"Feature","geometry":{"type":"Point","coordinates":[-2.05593,51.66253]},"properties":{"name":"Mapped water infrastructure","category":"water_tower","osm_type":"way","osm_id":"104738037"}},{"type":"Feature","geometry":{"type":"Point","coordinates":[-2.20868,51.89511]},"properties":{"name":"Mapped water infrastructure","category":"wastewater_plant","osm_type":"way","osm_id":"154892133"}},{"type":"Feature","geometry":{"type":"Point","coordinates":[-2.21281,51.88431]},"properties":{"name":"Mapped water infrastructure","category":"reservoir_covered","osm_type":"way","osm_id":"255044879"}},{"type":"Feature","geometry":{"type":"Point","coordinates":[-2.44932,51.85938]},"properties":{"name":"Longhope STW","category":"wastewater_plant","osm_type":"way","osm_id":"304491319","operator":"Severn Trent","ref":"10240-ST1"}},{"type":"Feature","geometry":{"type":"Point","coordinates":[-2.33738,51.64295]},"properties":{"name":"Mapped water infrastructure","category":"pumping_station","osm_type":"way","osm_id":"406679376","operator":"Severn Trent Water"}},{"type":"Feature","geometry":{"type":"Point","coordinates":[-2.61544,51.59984]},"properties":{"name":"Mapped water infrastructure","category":"pumping_station","osm_type":"way","osm_id":"510586095","operator":"Wessex Water"}},{"type":"Feature","geometry":{"type":"Point","coordinates":[-2.66442,51.5045]},"properties":{"name":"Mapped water infrastructure","category":"pumping_station","osm_type":"way","osm_id":"565957093","addr:city":"Bristol","addr:postcode":"BS11 0NJ"}},{"type":"Feature","geometry":{"type":"Point","coordinates":[-2.62362,51.55497]},"properties":{"name":"Mapped water infrastructure","category":"pumping_station","osm_type":"way","osm_id":"710682548"}},{"type":"Feature","geometry":{"type":"Point","coordinates":[-2.38321,51.99682]},"properties":{"name":"Bromsberrow Pumping Station","category":"pumping_station","osm_type":"way","osm_id":"740818724"}},{"type":"Feature","geometry":{"type":"Point","coordinates":[-2.03988,51.89814]},"properties":{"name":"No. 1 Reservoir","category":"reservoir_covered","osm_type":"way","osm_id":"821653922"}},{"type":"Feature","geometry":{"type":"Point","coordinates":[-2.03917,51.89802]},"properties":{"name":"No. 2 Reservoir","category":"reservoir_covered","osm_type":"way","osm_id":"821653923"}},{"type":"Feature","geometry":{"type":"Point","coordinates":[-2.06462,51.85629]},"properties":{"name":"Mapped water infrastructure","category":"pumping_station","osm_type":"way","osm_id":"892441163"}},{"type":"Feature","geometry":{"type":"Point","coordinates":[-2.60286,51.85503]},"properties":{"name":"Mapped water infrastructure","category":"pumping_station","osm_type":"way","osm_id":"913843916"}},{"type":"Feature","geometry":{"type":"Point","coordinates":[-2.41493,51.62546]},"properties":{"name":"Mapped water infrastructure","category":"reservoir_covered","osm_type":"way","osm_id":"964329364"}},{"type":"Feature","geometry":{"type":"Point","coordinates":[-2.41535,51.62535]},"properties":{"name":"Mapped water infrastructure","category":"reservoir_covered","osm_type":"way","osm_id":"964329365"}},{"type":"Feature","geometry":{"type":"Point","coordinates":[-2.0277,51.70939]},"properties":{"name":"Coates Wastewater Treatment Works","category":"wastewater_plant","osm_type":"way","osm_id":"976223541","operator":"Thames Water"}},{"type":"Feature","geometry":{"type":"Point","coordinates":[-2.05398,51.84204]},"properties":{"name":"Coberley Wastewater Treatment Works","category":"wastewater_plant","osm_type":"way","osm_id":"976224505","operator":"Thames Water"}},{"type":"Feature","geometry":{"type":"Point","coordinates":[-2.06726,51.69123]},"properties":{"name":"Tarlton Wastewater Treatment Works","category":"wastewater_plant","osm_type":"way","osm_id":"976675638","operator":"Thames Water","ref":"TARL01ZZ"}},{"type":"Feature","geometry":{"type":"Point","coordinates":[-2.11314,51.93646]},"properties":{"name":"Mapped water infrastructure","category":"water_works","osm_type":"way","osm_id":"981833964"}},{"type":"Feature","geometry":{"type":"Point","coordinates":[-2.38102,51.77516]},"properties":{"name":"Frampton STW","category":"wastewater_plant","osm_type":"way","osm_id":"1085608471","operator":"Severn Trent","ref":"10256-ST1"}},{"type":"Feature","geometry":{"type":"Point","coordinates":[-2.11035,51.82562]},"properties":{"name":"Mapped water infrastructure","category":"reservoir_covered","osm_type":"way","osm_id":"1253010459"}},{"type":"Feature","geometry":{"type":"Point","coordinates":[-2.05761,51.67224]},"properties":{"name":"Mapped water infrastructure","category":"water_tower","osm_type":"way","osm_id":"1279429282"}},{"type":"Feature","geometry":{"type":"Point","coordinates":[-2.58876,51.84849]},"properties":{"name":"Mapped water infrastructure","category":"pumping_station","osm_type":"way","osm_id":"1304116593"}},{"type":"Feature","geometry":{"type":"Point","coordinates":[-2.16521,51.98804]},"properties":{"name":"Mapped water infrastructure","category":"wastewater_plant","osm_type":"way","osm_id":"1321580480"}},{"type":"Feature","geometry":{"type":"Point","coordinates":[-2.174,51.65614]},"properties":{"name":"Mapped water infrastructure","category":"water_well","osm_type":"way","osm_id":"1337945153"}},{"type":"Feature","geometry":{"type":"Point","coordinates":[-2.25298,51.61564]},"properties":{"name":"Mapped water infrastructure","category":"pumping_station","osm_type":"way","osm_id":"1350705674","operator":"Wessex Water"}},{"type":"Feature","geometry":{"type":"Point","coordinates":[-2.06281,51.99521]},"properties":{"name":"Mapped water infrastructure","category":"pumping_station","osm_type":"way","osm_id":"1504182506"}},{"type":"Feature","geometry":{"type":"Point","coordinates":[-2.13409,51.99078]},"properties":{"name":"Walton Cardiff STWA Pumping Station","category":"pumping_station","osm_type":"way","osm_id":"1505732462"}}]}