{"type":"FeatureCollection","features":[{"type":"Feature","geometry":{"type":"Point","coordinates":[-2.06575,51.25133]},"properties":{"name":"Brouncker's Well","category":"water_well","osm_type":"node","osm_id":"346206845"}},{"type":"Feature","geometry":{"type":"Point","coordinates":[-2.17296,51.26133]},"properties":{"name":"Mapped water infrastructure","category":"drinking_water","osm_type":"node","osm_id":"498414826"}},{"type":"Feature","geometry":{"type":"Point","coordinates":[-2.17307,51.26271]},"properties":{"name":"Mapped water infrastructure","category":"drinking_water","osm_type":"node","osm_id":"498414827"}},{"type":"Feature","geometry":{"type":"Point","coordinates":[-2.18518,51.27237]},"properties":{"name":"'E' Pump House","category":"pumping_station","osm_type":"node","osm_id":"666312979","ref":"33083"}},{"type":"Feature","geometry":{"type":"Point","coordinates":[-2.80517,51.25974]},"properties":{"name":"Clewer Pumping Station","category":"pumping_station","osm_type":"node","osm_id":"690989424"}},{"type":"Feature","geometry":{"type":"Point","coordinates":[-2.75076,51.24909]},"properties":{"name":"Mapped water infrastructure","category":"pumping_station","osm_type":"node","osm_id":"691393589"}},{"type":"Feature","geometry":{"type":"Point","coordinates":[-2.74192,51.20494]},"properties":{"name":"Mapped water infrastructure","category":"pumping_station","osm_type":"node","osm_id":"695824647"}},{"type":"Feature","geometry":{"type":"Point","coordinates":[-2.73014,51.12867]},"properties":{"name":"Mapped water infrastructure","category":"pumping_station","osm_type":"node","osm_id":"695837802"}},{"type":"Feature","geometry":{"type":"Point","coordinates":[-2.72334,51.23805]},"properties":{"name":"Mapped water infrastructure","category":"pumping_station","osm_type":"node","osm_id":"701180596"}},{"type":"Feature","geometry":{"type":"Point","coordinates":[-2.89133,51.05334]},"properties":{"name":"Mapped water infrastructure","category":"pumping_station","osm_type":"node","osm_id":"703678457"}},{"type":"Feature","geometry":{"type":"Point","coordinates":[-2.54573,51.45032]},"properties":{"name":"St Anne's Well","category":"water_well","osm_type":"node","osm_id":"804052709"}},{"type":"Feature","geometry":{"type":"Point","coordinates":[-2.69872,51.22614]},"properties":{"name":"Mapped water infrastructure","category":"pump","osm_type":"node","osm_id":"1460484593"}},{"type":"Feature","geometry":{"type":"Point","coordinates":[-2.62985,51.46173]},"properties":{"name":"Low Level Clifton Pumping Station","category":"water_works","osm_type":"node","osm_id":"1753307067","ref":"14013"}},{"type":"Feature","geometry":{"type":"Point","coordinates":[-2.6319,51.46773]},"properties":{"name":"Mapped water infrastructure","category":"water_well","osm_type":"node","osm_id":"1753307268"}},{"type":"Feature","geometry":{"type":"Point","coordinates":[-2.65723,51.48299]},"properties":{"name":"Avon Chapel Pill Outfalls","category":"water_works","osm_type":"node","osm_id":"1759004791"}},{"type":"Feature","geometry":{"type":"Point","coordinates":[-2.65428,51.48102]},"properties":{"name":"Avon Chapel Pill","category":"water_works","osm_type":"node","osm_id":"1759004797"}},{"type":"Feature","geometry":{"type":"Point","coordinates":[-2.47006,51.45462]},"properties":{"name":"Mapped water infrastructure","category":"drinking_water","osm_type":"node","osm_id":"2351683366"}},{"type":"Feature","geometry":{"type":"Point","coordinates":[-2.4888,51.29826]},"properties":{"name":"Mapped water infrastructure","category":"water_well","osm_type":"node","osm_id":"2635140484"}},{"type":"Feature","geometry":{"type":"Point","coordinates":[-2.48733,51.29976]},"properties":{"name":"Mapped water infrastructure","category":"water_well","osm_type":"node","osm_id":"2635140487"}},{"type":"Feature","geometry":{"type":"Point","coordinates":[-2.48153,51.2977]},"properties":{"name":"Mapped water infrastructure","category":"water_well","osm_type":"node","osm_id":"2635140490"}},{"type":"Feature","geometry":{"type":"Point","coordinates":[-2.47944,51.29757]},"properties":{"name":"Mapped water infrastructure","category":"water_well","osm_type":"node","osm_id":"2635140493"}},{"type":"Feature","geometry":{"type":"Point","coordinates":[-2.71553,51.32765]},"properties":{"name":"Tim's Well","category":"water_well","osm_type":"node","osm_id":"2645586991"}},{"type":"Feature","geometry":{"type":"Point","coordinates":[-2.27189,51.17328]},"properties":{"name":"Mapped water infrastructure","category":"water_well","osm_type":"node","osm_id":"3134329274"}},{"type":"Feature","geometry":{"type":"Point","coordinates":[-2.22899,51.49347]},"properties":{"name":"Mapped water infrastructure","category":"water_well","osm_type":"node","osm_id":"3570361195"}},{"type":"Feature","geometry":{"type":"Point","coordinates":[-2.63692,51.45482]},"properties":{"name":"Leigh Woods North Sewage Pumping Station","category":"pumping_station","osm_type":"node","osm_id":"3627937524"}},{"type":"Feature","geometry":{"type":"Point","coordinates":[-2.07273,51.35536]},"properties":{"name":"Mapped water infrastructure","category":"water_point","osm_type":"node","osm_id":"4273763459"}},{"type":"Feature","geometry":{"type":"Point","coordinates":[-2.09944,51.3516]},"properties":{"name":"Mapped water infrastructure","category":"water_point","osm_type":"node","osm_id":"4313270547"}},{"type":"Feature","geometry":{"type":"Point","coordinates":[-2.25146,51.34046]},"properties":{"name":"Mapped water infrastructure","category":"drinking_water","osm_type":"node","osm_id":"4318157595"}},{"type":"Feature","geometry":{"type":"Point","coordinates":[-2.00131,51.31961]},"properties":{"name":"Potterne Wick Sewage Pumping Station","category":"pumping_station","osm_type":"node","osm_id":"4375349698"}},{"type":"Feature","geometry":{"type":"Point","coordinates":[-2.45217,51.47261]},"properties":{"name":"St Annes Well","category":"water_well","osm_type":"node","osm_id":"4449163071"}},{"type":"Feature","geometry":{"type":"Point","coordinates":[-2.37165,51.41305]},"properties":{"name":"Mapped water infrastructure","category":"water_well","osm_type":"node","osm_id":"4613944517"}},{"type":"Feature","geometry":{"type":"Point","coordinates":[-2.50994,51.42828]},"properties":{"name":"Mapped water infrastructure","category":"water_point","osm_type":"node","osm_id":"4966978080","operator":"Canal & River Trust"}},{"type":"Feature","geometry":{"type":"Point","coordinates":[-2.64365,51.4359]},"properties":{"name":"Mapped water infrastructure","category":"drinking_water","osm_type":"node","osm_id":"5092304841"}},{"type":"Feature","geometry":{"type":"Point","coordinates":[-2.69981,51.45859]},"properties":{"name":"Mapped water infrastructure","category":"drinking_water","osm_type":"node","osm_id":"5196797919"}},{"type":"Feature","geometry":{"type":"Point","coordinates":[-2.59541,51.45114]},"properties":{"name":"Mapped water infrastructure","category":"drinking_water","osm_type":"node","osm_id":"5228146371","operator":"Bristol Water","wheelchair":"yes"}},{"type":"Feature","geometry":{"type":"Point","coordinates":[-2.59996,51.45002]},"properties":{"name":"Mapped water infrastructure","category":"drinking_water","osm_type":"node","osm_id":"5320943953","operator":"Bristol Water","wheelchair":"yes"}},{"type":"Feature","geometry":{"type":"Point","coordinates":[-2.71871,51.44235]},"properties":{"name":"Mapped water infrastructure","category":"drinking_water","osm_type":"node","osm_id":"5416447117"}},{"type":"Feature","geometry":{"type":"Point","coordinates":[-2.73914,51.41646]},"properties":{"name":"Mapped water infrastructure","category":"drinking_water","osm_type":"node","osm_id":"5474401979"}},{"type":"Feature","geometry":{"type":"Point","coordinates":[-2.74025,51.41636]},"properties":{"name":"Mapped water infrastructure","category":"drinking_water","osm_type":"node","osm_id":"5474401980"}},{"type":"Feature","geometry":{"type":"Point","coordinates":[-2.73987,51.41589]},"properties":{"name":"Mapped water infrastructure","category":"drinking_water","osm_type":"node","osm_id":"5474401981"}},{"type":"Feature","geometry":{"type":"Point","coordinates":[-2.73853,51.41625]},"properties":{"name":"Mapped water infrastructure","category":"drinking_water","osm_type":"node","osm_id":"5474401982"}},{"type":"Feature","geometry":{"type":"Point","coordinates":[-2.73862,51.41592]},"properties":{"name":"Mapped water infrastructure","category":"drinking_water","osm_type":"node","osm_id":"5474401983"}},{"type":"Feature","geometry":{"type":"Point","coordinates":[-2.54879,51.49979]},"properties":{"name":"Mapped water infrastructure","category":"drinking_water","osm_type":"node","osm_id":"5578479140"}},{"type":"Feature","geometry":{"type":"Point","coordinates":[-2.28135,51.33854]},"properties":{"name":"Mapped water infrastructure","category":"water_point","osm_type":"node","osm_id":"5625965673"}},{"type":"Feature","geometry":{"type":"Point","coordinates":[-2.77699,51.47817]},"properties":{"name":"Saint Mary's Well","category":"water_well","osm_type":"node","osm_id":"5983183560"}},{"type":"Feature","geometry":{"type":"Point","coordinates":[-2.57751,51.47341]},"properties":{"name":"Mina Road CSO","category":"water_works","osm_type":"node","osm_id":"6254279979","ref":"16354"}},{"type":"Feature","geometry":{"type":"Point","coordinates":[-2.59097,51.46235]},"properties":{"name":"Mapped water infrastructure","category":"drinking_water","osm_type":"node","osm_id":"6316040856","operator":"PRSC","wheelchair":"limited"}},{"type":"Feature","geometry":{"type":"Point","coordinates":[-2.82209,51.44111]},"properties":{"name":"Clevedon Pumping Station","category":"pumping_station","osm_type":"node","osm_id":"6386838416","addr:city":"Clevedon"}},{"type":"Feature","geometry":{"type":"Point","coordinates":[-2.86606,51.43664]},"properties":{"name":"Mapped water infrastructure","category":"drinking_water","osm_type":"node","osm_id":"6515412535"}},{"type":"Feature","geometry":{"type":"Point","coordinates":[-2.69946,51.4131]},"properties":{"name":"Mapped water infrastructure","category":"drinking_water","osm_type":"node","osm_id":"6594337467"}},{"type":"Feature","geometry":{"type":"Point","coordinates":[-2.34111,51.39162]},"properties":{"name":"Mapped water infrastructure","category":"drinking_water","osm_type":"node","osm_id":"6594730403","wheelchair":"no"}},{"type":"Feature","geometry":{"type":"Point","coordinates":[-2.59032,51.4554]},"properties":{"name":"St Edith's Well","category":"water_well","osm_type":"node","osm_id":"6616538933"}},{"type":"Feature","geometry":{"type":"Point","coordinates":[-2.6242,51.4946]},"properties":{"name":"Canford Lane CSO","category":"water_works","osm_type":"node","osm_id":"6699426871"}},{"type":"Feature","geometry":{"type":"Point","coordinates":[-2.60002,51.45216]},"properties":{"name":"Mapped water infrastructure","category":"drinking_water","osm_type":"node","osm_id":"6831316466","operator":"Bristol Water"}},{"type":"Feature","geometry":{"type":"Point","coordinates":[-2.61726,51.48836]},"properties":{"name":"Westbury CSO","category":"water_works","osm_type":"node","osm_id":"6874317421","ref":"16410"}},{"type":"Feature","geometry":{"type":"Point","coordinates":[-2.58078,51.44937]},"properties":{"name":"Mapped water infrastructure","category":"drinking_water","osm_type":"node","osm_id":"7258907634"}},{"type":"Feature","geometry":{"type":"Point","coordinates":[-2.7688,51.4822]},"properties":{"name":"Poacher Hotel Portishead Pumping Station","category":"pumping_station","osm_type":"node","osm_id":"7598469383","operator":"Wessex Water","ref":"15589"}},{"type":"Feature","geometry":{"type":"Point","coordinates":[-2.89866,51.33278]},"properties":{"name":"Mapped water infrastructure","category":"water_tower","osm_type":"node","osm_id":"7671865145","operator":"Decommissioned"}},{"type":"Feature","geometry":{"type":"Point","coordinates":[-2.8465,51.39955]},"properties":{"name":"Mapped water infrastructure","category":"water_well","osm_type":"node","osm_id":"7796704513"}},{"type":"Feature","geometry":{"type":"Point","coordinates":[-2.44907,51.28993]},"properties":{"name":"Mapped water infrastructure","category":"drinking_water","osm_type":"node","osm_id":"7813188885"}},{"type":"Feature","geometry":{"type":"Point","coordinates":[-2.50032,51.48123]},"properties":{"name":"Mapped water infrastructure","category":"pumping_station","osm_type":"node","osm_id":"8047382845","operator":"Wales and West"}},{"type":"Feature","geometry":{"type":"Point","coordinates":[-2.86083,51.40246]},"properties":{"name":"Mapped water infrastructure","category":"pumping_station","osm_type":"node","osm_id":"8512290609"}},{"type":"Feature","geometry":{"type":"Point","coordinates":[-2.2214,51.49707]},"properties":{"name":"Mapped water infrastructure","category":"water_well","osm_type":"node","osm_id":"8571776535"}},{"type":"Feature","geometry":{"type":"Point","coordinates":[-2.48321,51.3872]},"properties":{"name":"Mapped water infrastructure","category":"water_well","osm_type":"node","osm_id":"8616032513"}},{"type":"Feature","geometry":{"type":"Point","coordinates":[-2.6688,51.19418]},"properties":{"name":"Mapped water infrastructure","category":"drinking_water","osm_type":"node","osm_id":"8630051770"}},{"type":"Feature","geometry":{"type":"Point","coordinates":[-2.99993,51.23315]},"properties":{"name":"Mapped water infrastructure","category":"drinking_water","osm_type":"node","osm_id":"8709323839"}},{"type":"Feature","geometry":{"type":"Point","coordinates":[-2.71176,51.42088]},"properties":{"name":"Mapped water infrastructure","category":"water_well","osm_type":"node","osm_id":"8951515768"}},{"type":"Feature","geometry":{"type":"Point","coordinates":[-2.71126,51.42093]},"properties":{"name":"Mapped water infrastructure","category":"water_well","osm_type":"node","osm_id":"8951515769"}},{"type":"Feature","geometry":{"type":"Point","coordinates":[-2.34927,51.38145]},"properties":{"name":"Mapped water infrastructure","category":"water_point","osm_type":"node","osm_id":"9167579399","operator":"Canal & River Trust"}},{"type":"Feature","geometry":{"type":"Point","coordinates":[-2.13418,51.3093]},"properties":{"name":"Mapped water infrastructure","category":"water_well","osm_type":"node","osm_id":"9448193637"}},{"type":"Feature","geometry":{"type":"Point","coordinates":[-2.98996,51.22715]},"properties":{"name":"Mapped water infrastructure","category":"drinking_water","osm_type":"node","osm_id":"9545973207"}},{"type":"Feature","geometry":{"type":"Point","coordinates":[-2.99151,51.20301]},"properties":{"name":"Mapped water infrastructure","category":"water_well","osm_type":"node","osm_id":"9826827063"}},{"type":"Feature","geometry":{"type":"Point","coordinates":[-2.59312,51.44264]},"properties":{"name":"Mapped water infrastructure","category":"drinking_water","osm_type":"node","osm_id":"9866141717"}},{"type":"Feature","geometry":{"type":"Point","coordinates":[-2.61846,51.44678]},"properties":{"name":"Mapped water infrastructure","category":"drinking_water","osm_type":"node","osm_id":"9907634642"}},{"type":"Feature","geometry":{"type":"Point","coordinates":[-2.61009,51.36355]},"properties":{"name":"Dumpers Lane Sewage Pumping Station","category":"pumping_station","osm_type":"node","osm_id":"10039718313","operator":"Wessex Water"}},{"type":"Feature","geometry":{"type":"Point","coordinates":[-2.68123,51.33842]},"properties":{"name":"Mapped water infrastructure","category":"water_well","osm_type":"node","osm_id":"10047583828"}},{"type":"Feature","geometry":{"type":"Point","coordinates":[-2.65419,51.31056]},"properties":{"name":"Mapped water infrastructure","category":"water_well","osm_type":"node","osm_id":"10089476400"}},{"type":"Feature","geometry":{"type":"Point","coordinates":[-2.49805,51.48148]},"properties":{"name":"Mapped water infrastructure","category":"drinking_water","osm_type":"node","osm_id":"10106633850"}},{"type":"Feature","geometry":{"type":"Point","coordinates":[-2.6029,51.4588]},"properties":{"name":"Mapped water infrastructure","category":"drinking_water","osm_type":"node","osm_id":"10211809515","operator":"Bristol Water"}},{"type":"Feature","geometry":{"type":"Point","coordinates":[-2.31196,51.36171]},"properties":{"name":"Mapped water infrastructure","category":"drinking_water","osm_type":"node","osm_id":"10438544019","operator":"Canal & River Trust"}},{"type":"Feature","geometry":{"type":"Point","coordinates":[-2.43233,51.40369]},"properties":{"name":"Mapped water infrastructure","category":"water_well","osm_type":"node","osm_id":"10775047286"}},{"type":"Feature","geometry":{"type":"Point","coordinates":[-2.4947,51.33282]},"properties":{"name":"Mapped water infrastructure","category":"reservoir_covered","osm_type":"node","osm_id":"10886031168"}},{"type":"Feature","geometry":{"type":"Point","coordinates":[-2.35974,51.37877]},"properties":{"name":"WRU014","category":"drinking_water","osm_type":"node","osm_id":"10893439687","ref":"WRU014","wheelchair":"yes"}},{"type":"Feature","geometry":{"type":"Point","coordinates":[-2.35757,51.38114]},"properties":{"name":"WRU007","category":"drinking_water","osm_type":"node","osm_id":"10974178220","ref":"WRU007"}},{"type":"Feature","geometry":{"type":"Point","coordinates":[-2.36194,51.38027]},"properties":{"name":"WRU010","category":"drinking_water","osm_type":"node","osm_id":"10981569027","ref":"WRU010","wheelchair":"yes"}},{"type":"Feature","geometry":{"type":"Point","coordinates":[-2.34964,51.3872]},"properties":{"name":"WRU002","category":"drinking_water","osm_type":"node","osm_id":"10981599388","ref":"WRU002"}},{"type":"Feature","geometry":{"type":"Point","coordinates":[-2.35872,51.37862]},"properties":{"name":"Mapped water infrastructure","category":"drinking_water","osm_type":"node","osm_id":"10989719212","wheelchair":"yes"}},{"type":"Feature","geometry":{"type":"Point","coordinates":[-2.67889,51.25705]},"properties":{"name":"Mapped water infrastructure","category":"drinking_water","osm_type":"node","osm_id":"11075313956"}},{"type":"Feature","geometry":{"type":"Point","coordinates":[-2.67312,51.45525]},"properties":{"name":"Mapped water infrastructure","category":"water_well","osm_type":"node","osm_id":"11159984944"}},{"type":"Feature","geometry":{"type":"Point","coordinates":[-2.59791,51.47319]},"properties":{"name":"Cranbrook Road Bristol Combined Sewer Overflow","category":"wastewater_plant","osm_type":"node","osm_id":"11301084327","ref":"19567"}},{"type":"Feature","geometry":{"type":"Point","coordinates":[-2.31779,51.40529]},"properties":{"name":"Mapped water infrastructure","category":"drinking_water","osm_type":"node","osm_id":"11425621761"}},{"type":"Feature","geometry":{"type":"Point","coordinates":[-2.5977,51.4563]},"properties":{"name":"Mapped water infrastructure","category":"drinking_water","osm_type":"node","osm_id":"11427671860","operator":"Bristol Water","wheelchair":"yes"}},{"type":"Feature","geometry":{"type":"Point","coordinates":[-2.69953,51.35567]},"properties":{"name":"Cleeve's Well","category":"water_well","osm_type":"node","osm_id":"11537576521"}},{"type":"Feature","geometry":{"type":"Point","coordinates":[-2.20195,51.44697]},"properties":{"name":"Mapped water infrastructure","category":"water_well","osm_type":"node","osm_id":"11665595342"}},{"type":"Feature","geometry":{"type":"Point","coordinates":[-2.19726,51.00569]},"properties":{"name":"Mapped water infrastructure","category":"drinking_water","osm_type":"node","osm_id":"11934632868"}},{"type":"Feature","geometry":{"type":"Point","coordinates":[-2.13862,51.3717]},"properties":{"name":"Mapped water infrastructure","category":"drinking_water","osm_type":"node","osm_id":"11987182180"}},{"type":"Feature","geometry":{"type":"Point","coordinates":[-2.51042,51.37983]},"properties":{"name":"Mapped water infrastructure","category":"drinking_water","osm_type":"node","osm_id":"12040118569"}},{"type":"Feature","geometry":{"type":"Point","coordinates":[-2.81702,51.28669]},"properties":{"name":"Mapped water infrastructure","category":"drinking_water","osm_type":"node","osm_id":"12043122159"}},{"type":"Feature","geometry":{"type":"Point","coordinates":[-2.77035,51.28153]},"properties":{"name":"Mapped water infrastructure","category":"water_works","osm_type":"node","osm_id":"12102607579","operator":"Bristol Waterworks"}},{"type":"Feature","geometry":{"type":"Point","coordinates":[-2.60691,51.4659]},"properties":{"name":"Combined Sewer Overflow","category":"water_works","osm_type":"node","osm_id":"12113390903","addr:city":"Bristol"}},{"type":"Feature","geometry":{"type":"Point","coordinates":[-2.50705,51.29625]},"properties":{"name":"Mapped water infrastructure","category":"water_well","osm_type":"node","osm_id":"12457308891"}},{"type":"Feature","geometry":{"type":"Point","coordinates":[-2.81403,51.0103]},"properties":{"name":"Mapped water infrastructure","category":"pumping_station","osm_type":"node","osm_id":"12473762152"}},{"type":"Feature","geometry":{"type":"Point","coordinates":[-2.81581,51.00908]},"properties":{"name":"Mapped water infrastructure","category":"pumping_station","osm_type":"node","osm_id":"12473762159"}},{"type":"Feature","geometry":{"type":"Point","coordinates":[-2.55523,51.47031]},"properties":{"name":"Mapped water infrastructure","category":"water_point","osm_type":"node","osm_id":"12850790983"}},{"type":"Feature","geometry":{"type":"Point","coordinates":[-2.55217,51.46921]},"properties":{"name":"Mapped water infrastructure","category":"water_point","osm_type":"node","osm_id":"12850790984"}},{"type":"Feature","geometry":{"type":"Point","coordinates":[-2.3774,51.32266]},"properties":{"name":"Mapped water infrastructure","category":"drinking_water","osm_type":"node","osm_id":"12861748196"}},{"type":"Feature","geometry":{"type":"Point","coordinates":[-2.6138,51.35035]},"properties":{"name":"Mapped water infrastructure","category":"drinking_water","osm_type":"node","osm_id":"12883034189"}},{"type":"Feature","geometry":{"type":"Point","coordinates":[-2.60144,51.44333]},"properties":{"name":"Mapped water infrastructure","category":"drinking_water","osm_type":"node","osm_id":"12911011286"}},{"type":"Feature","geometry":{"type":"Point","coordinates":[-2.96983,51.35889]},"properties":{"name":"Mapped water infrastructure","category":"drinking_water","osm_type":"node","osm_id":"12945520922"}},{"type":"Feature","geometry":{"type":"Point","coordinates":[-2.71139,51.3862]},"properties":{"name":"Mapped water infrastructure","category":"drinking_water","osm_type":"node","osm_id":"13004701902"}},{"type":"Feature","geometry":{"type":"Point","coordinates":[-2.71715,51.14702]},"properties":{"name":"Mapped water infrastructure","category":"water_point","osm_type":"node","osm_id":"13132735460"}},{"type":"Feature","geometry":{"type":"Point","coordinates":[-2.50983,51.18692]},"properties":{"name":"Doulting Holy Well (Natural Spring)","category":"water_well","osm_type":"node","osm_id":"13137865331"}},{"type":"Feature","geometry":{"type":"Point","coordinates":[-2.54915,51.45662]},"properties":{"name":"Mapped water infrastructure","category":"drinking_water","osm_type":"node","osm_id":"13572783858","opening_hours":"24/7"}},{"type":"Feature","geometry":{"type":"Point","coordinates":[-2.66719,51.20346]},"properties":{"name":"Mapped water infrastructure","category":"wastewater_plant","osm_type":"node","osm_id":"13588423288"}},{"type":"Feature","geometry":{"type":"Point","coordinates":[-2.36757,51.4803]},"properties":{"name":"Underground water chamber","category":"reservoir_covered","osm_type":"node","osm_id":"13591040777"}},{"type":"Feature","geometry":{"type":"Point","coordinates":[-2.45613,51.06035]},"properties":{"name":"Mapped water infrastructure","category":"reservoir_covered","osm_type":"node","osm_id":"13606017957"}},{"type":"Feature","geometry":{"type":"Point","coordinates":[-2.45632,51.06012]},"properties":{"name":"Mapped water infrastructure","category":"reservoir_covered","osm_type":"node","osm_id":"13606024332"}},{"type":"Feature","geometry":{"type":"Point","coordinates":[-2.52348,51.22369]},"properties":{"name":"Mapped water infrastructure","category":"drinking_water","osm_type":"node","osm_id":"13746414006","opening_hours":"24/7"}},{"type":"Feature","geometry":{"type":"Point","coordinates":[-2.01082,51.32696]},"properties":{"name":"Mapped water infrastructure","category":"drinking_water","osm_type":"node","osm_id":"13746424097","opening_hours":"24/7"}},{"type":"Feature","geometry":{"type":"Point","coordinates":[-2.5988,51.33174]},"properties":{"name":"Mapped water infrastructure","category":"drinking_water","osm_type":"node","osm_id":"13746453425","opening_hours":"24/7"}},{"type":"Feature","geometry":{"type":"Point","coordinates":[-2.48427,51.31928]},"properties":{"name":"Mapped water infrastructure","category":"water_well","osm_type":"node","osm_id":"13894689580"}},{"type":"Feature","geometry":{"type":"Point","coordinates":[-2.39557,51.24074]},"properties":{"name":"Mapped water infrastructure","category":"drinking_water","osm_type":"node","osm_id":"14006733837"}},{"type":"Feature","geometry":{"type":"Point","coordinates":[-2.40801,51.39433]},"properties":{"name":"Mapped water infrastructure","category":"drinking_water","osm_type":"node","osm_id":"14183072410"}},{"type":"Feature","geometry":{"type":"Point","coordinates":[-2.86384,51.33242]},"properties":{"name":"The Riverside Pumping Station","category":"pumping_station","osm_type":"way","osm_id":"39344884"}},{"type":"Feature","geometry":{"type":"Point","coordinates":[-2.16673,51.25722]},"properties":{"name":"Mapped water infrastructure","category":"reservoir_covered","osm_type":"way","osm_id":"41989278"}},{"type":"Feature","geometry":{"type":"Point","coordinates":[-2.38308,51.39796]},"properties":{"name":"Primrose Hill Reservoir","category":"reservoir_covered","osm_type":"way","osm_id":"43160349"}},{"type":"Feature","geometry":{"type":"Point","coordinates":[-2.20045,51.27148]},"properties":{"name":"Mapped water infrastructure","category":"pumping_station","osm_type":"way","osm_id":"43571987"}},{"type":"Feature","geometry":{"type":"Point","coordinates":[-2.21655,51.27583]},"properties":{"name":"Westbury Storridge Valve Station","category":"wastewater_plant","osm_type":"way","osm_id":"44840033","ref":"11377"}},{"type":"Feature","geometry":{"type":"Point","coordinates":[-2.37084,51.39952]},"properties":{"name":"Lansdown Woods Reservoir","category":"reservoir_covered","osm_type":"way","osm_id":"49982509"}},{"type":"Feature","geometry":{"type":"Point","coordinates":[-2.31361,51.42257]},"properties":{"name":"Washpool","category":"water_works","osm_type":"way","osm_id":"50189822"}},{"type":"Feature","geometry":{"type":"Point","coordinates":[-2.21073,51.26859]},"properties":{"name":"Mapped water infrastructure","category":"reservoir_covered","osm_type":"way","osm_id":"51079401"}},{"type":"Feature","geometry":{"type":"Point","coordinates":[-2.80149,51.32445]},"properties":{"name":"Mapped water infrastructure","category":"reservoir_covered","osm_type":"way","osm_id":"55342817"}},{"type":"Feature","geometry":{"type":"Point","coordinates":[-2.87475,51.42771]},"properties":{"name":"Clevedon Main Sewage Pumping Station","category":"pumping_station","osm_type":"way","osm_id":"69348583","operator":"Wessex Water","ref":"14495"}},{"type":"Feature","geometry":{"type":"Point","coordinates":[-2.26887,51.08336]},"properties":{"name":"Mere WwTW","category":"wastewater_plant","osm_type":"way","osm_id":"99768746","operator":"Wessex Water","ref":"13207"}},{"type":"Feature","geometry":{"type":"Point","coordinates":[-2.18258,51.19132]},"properties":{"name":"Warminster WwTW","category":"wastewater_plant","osm_type":"way","osm_id":"104494509","operator":"Wessex Water","ref":"13325"}},{"type":"Feature","geometry":{"type":"Point","coordinates":[-2.40879,51.30149]},"properties":{"name":"Mapped water infrastructure","category":"water_works","osm_type":"way","osm_id":"116701583"}},{"type":"Feature","geometry":{"type":"Point","coordinates":[-2.61535,51.00446]},"properties":{"name":"Chilton Cantelo WwTW","category":"wastewater_plant","osm_type":"way","osm_id":"120807069","operator":"Wessex Water","ref":"13156"}},{"type":"Feature","geometry":{"type":"Point","coordinates":[-2.11959,51.4399]},"properties":{"name":"Chippenham STW","category":"wastewater_plant","osm_type":"way","osm_id":"125814352"}},{"type":"Feature","geometry":{"type":"Point","coordinates":[-2.25614,51.43504]},"properties":{"name":"Colerne STW","category":"wastewater_plant","osm_type":"way","osm_id":"127319879","operator":"Wessex Water"}},{"type":"Feature","geometry":{"type":"Point","coordinates":[-2.44349,51.44562]},"properties":{"name":"Mapped water infrastructure","category":"wastewater_plant","osm_type":"way","osm_id":"130042492"}},{"type":"Feature","geometry":{"type":"Point","coordinates":[-2.0173,51.32812]},"properties":{"name":"Potterne WwTW","category":"wastewater_plant","osm_type":"way","osm_id":"130154254","operator":"Wessex Water","ref":"13244"}},{"type":"Feature","geometry":{"type":"Point","coordinates":[-2.66753,51.20304]},"properties":{"name":"Mapped water infrastructure","category":"wastewater_plant","osm_type":"way","osm_id":"131487443"}},{"type":"Feature","geometry":{"type":"Point","coordinates":[-2.87757,51.40827]},"properties":{"name":"Kingston Seymour Sewage Treatment Works","category":"wastewater_plant","osm_type":"way","osm_id":"131990582","operator":"Wessex Water","addr:city":"Clevedon"}},{"type":"Feature","geometry":{"type":"Point","coordinates":[-2.67515,51.21395]},"properties":{"name":"St Cuthbert Paper Mill Wastewater Treatment","category":"wastewater_plant","osm_type":"way","osm_id":"133007376","operator":"St Cuthberts Mill Ltd"}},{"type":"Feature","geometry":{"type":"Point","coordinates":[-2.80044,51.32622]},"properties":{"name":"Mapped water infrastructure","category":"reservoir_covered","osm_type":"way","osm_id":"133059875","operator":"Bristol Waterworks"}},{"type":"Feature","geometry":{"type":"Point","coordinates":[-2.79256,51.38088]},"properties":{"name":"Mapped water infrastructure","category":"reservoir_covered","osm_type":"way","osm_id":"133840235"}},{"type":"Feature","geometry":{"type":"Point","coordinates":[-2.83716,51.04042]},"properties":{"name":"Mapped water infrastructure","category":"wastewater_plant","osm_type":"way","osm_id":"134217497"}},{"type":"Feature","geometry":{"type":"Point","coordinates":[-2.80567,51.22954]},"properties":{"name":"Wedmore WwTW","category":"wastewater_plant","osm_type":"way","osm_id":"136822038","operator":"Wessex Water","ref":"13329"}},{"type":"Feature","geometry":{"type":"Point","coordinates":[-2.73636,51.14073]},"properties":{"name":"Mapped water infrastructure","category":"wastewater_plant","osm_type":"way","osm_id":"137449453"}},{"type":"Feature","geometry":{"type":"Point","coordinates":[-2.18837,51.27229]},"properties":{"name":"Westbury Sewage Works","category":"wastewater_plant","osm_type":"way","osm_id":"148394010"}},{"type":"Feature","geometry":{"type":"Point","coordinates":[-2.99979,51.12615]},"properties":{"name":"Sewage Pumping Station","category":"pumping_station","osm_type":"way","osm_id":"156788431"}},{"type":"Feature","geometry":{"type":"Point","coordinates":[-2.21981,51.32652]},"properties":{"name":"Trowbridge Sewage Works","category":"wastewater_plant","osm_type":"way","osm_id":"159928820","operator":"Wessex Water"}},{"type":"Feature","geometry":{"type":"Point","coordinates":[-2.16536,51.42287]},"properties":{"name":"Thingley WwTW","category":"wastewater_plant","osm_type":"way","osm_id":"162891891","operator":"Wessex Water","ref":"13308"}},{"type":"Feature","geometry":{"type":"Point","coordinates":[-2.44649,51.48472]},"properties":{"name":"Pucklechurch Reservoir","category":"reservoir_covered","osm_type":"way","osm_id":"165962310","operator":"Bristol Water"}},{"type":"Feature","geometry":{"type":"Point","coordinates":[-2.85309,51.44252]},"properties":{"name":"Mapped water infrastructure","category":"reservoir_covered","osm_type":"way","osm_id":"166507484"}},{"type":"Feature","geometry":{"type":"Point","coordinates":[-2.04708,51.36384]},"properties":{"name":"Rowde WwTW","category":"wastewater_plant","osm_type":"way","osm_id":"168461061","operator":"Wessex Water","ref":"13257"}},{"type":"Feature","geometry":{"type":"Point","coordinates":[-2.10316,51.33224]},"properties":{"name":"Keevil WwTW","category":"wastewater_plant","osm_type":"way","osm_id":"168461522","operator":"Wessex Water","ref":"13164"}},{"type":"Feature","geometry":{"type":"Point","coordinates":[-2.00882,51.35045]},"properties":{"name":"Devizes Wastewaster Treatment Works","category":"wastewater_plant","osm_type":"way","osm_id":"168463034","operator":"Wessex Water"}},{"type":"Feature","geometry":{"type":"Point","coordinates":[-2.06839,51.34965]},"properties":{"name":"Seend WwTW","category":"wastewater_plant","osm_type":"way","osm_id":"168623004","operator":"Wessex Water","ref":"13262"}},{"type":"Feature","geometry":{"type":"Point","coordinates":[-2.82873,51.26967]},"properties":{"name":"Pumping Station","category":"water_works","osm_type":"way","osm_id":"168904092"}},{"type":"Feature","geometry":{"type":"Point","coordinates":[-2.36765,51.32245]},"properties":{"name":"Wellow WwTW","category":"wastewater_plant","osm_type":"way","osm_id":"176949514","operator":"Wessex Water","ref":"19623"}},{"type":"Feature","geometry":{"type":"Point","coordinates":[-2.41329,51.04397]},"properties":{"name":"Wincanton Sewage Works","category":"wastewater_plant","osm_type":"way","osm_id":"186237022"}},{"type":"Feature","geometry":{"type":"Point","coordinates":[-2.13886,51.10432]},"properties":{"name":"Bluehouse Reservoir","category":"reservoir_covered","osm_type":"way","osm_id":"198199899","operator":"Wessex Water"}},{"type":"Feature","geometry":{"type":"Point","coordinates":[-2.27935,51.11201]},"properties":{"name":"Mapped water infrastructure","category":"reservoir_covered","osm_type":"way","osm_id":"203800020"}},{"type":"Feature","geometry":{"type":"Point","coordinates":[-2.27942,51.11126]},"properties":{"name":"Mapped water infrastructure","category":"reservoir_covered","osm_type":"way","osm_id":"203800021"}},{"type":"Feature","geometry":{"type":"Point","coordinates":[-2.27974,51.11251]},"properties":{"name":"Mapped water infrastructure","category":"reservoir_covered","osm_type":"way","osm_id":"203800022"}},{"type":"Feature","geometry":{"type":"Point","coordinates":[-2.31162,51.42786]},"properties":{"name":"Mapped water infrastructure","category":"water_works","osm_type":"way","osm_id":"206581838"}},{"type":"Feature","geometry":{"type":"Point","coordinates":[-2.30966,51.45726]},"properties":{"name":"Marshfield Sewerage Treatment Works","category":"wastewater_plant","osm_type":"way","osm_id":"208577920"}},{"type":"Feature","geometry":{"type":"Point","coordinates":[-2.48499,51.41546]},"properties":{"name":"Keynsham Water Recycling Centre","category":"wastewater_plant","osm_type":"way","osm_id":"209331026","operator":"Wessex Water"}},{"type":"Feature","geometry":{"type":"Point","coordinates":[-2.43128,51.29489]},"properties":{"name":"Wessex Water Radstock Sewage Treatment Plant","category":"wastewater_plant","osm_type":"way","osm_id":"221352336","operator":"Wessex Water"}},{"type":"Feature","geometry":{"type":"Point","coordinates":[-2.43477,51.27278]},"properties":{"name":"Mapped water infrastructure","category":"wastewater_plant","osm_type":"way","osm_id":"221489282"}},{"type":"Feature","geometry":{"type":"Point","coordinates":[-2.50131,51.2741]},"properties":{"name":"Mapped water infrastructure","category":"wastewater_plant","osm_type":"way","osm_id":"222470490"}},{"type":"Feature","geometry":{"type":"Point","coordinates":[-2.61843,51.47233]},"properties":{"name":"Mapped water infrastructure","category":"water_works","osm_type":"way","osm_id":"225634980"}},{"type":"Feature","geometry":{"type":"Point","coordinates":[-2.32578,51.38342]},"properties":{"name":"Mapped water infrastructure","category":"reservoir_covered","osm_type":"way","osm_id":"238212070"}},{"type":"Feature","geometry":{"type":"Point","coordinates":[-2.1874,51.02397]},"properties":{"name":"Mapped water infrastructure","category":"reservoir_covered","osm_type":"way","osm_id":"245132220"}},{"type":"Feature","geometry":{"type":"Point","coordinates":[-2.18848,51.02426]},"properties":{"name":"Mapped water infrastructure","category":"water_works","osm_type":"way","osm_id":"245132221"}},{"type":"Feature","geometry":{"type":"Point","coordinates":[-2.99801,51.14257]},"properties":{"name":"Bridgwater Sewage Works","category":"wastewater_plant","osm_type":"way","osm_id":"249300670","operator":"Wessex Water"}},{"type":"Feature","geometry":{"type":"Point","coordinates":[-2.49486,51.31616]},"properties":{"name":"Paulton WwTW","category":"wastewater_plant","osm_type":"way","osm_id":"258610589","operator":"Wessex Water","ref":"13235"}},{"type":"Feature","geometry":{"type":"Point","coordinates":[-2.5828,51.3461]},"properties":{"name":"Mapped water infrastructure","category":"wastewater_plant","osm_type":"way","osm_id":"264293482"}},{"type":"Feature","geometry":{"type":"Point","coordinates":[-2.58538,51.34702]},"properties":{"name":"Mapped water infrastructure","category":"wastewater_plant","osm_type":"way","osm_id":"264293485"}},{"type":"Feature","geometry":{"type":"Point","coordinates":[-2.55843,51.34495]},"properties":{"name":"Mapped water infrastructure","category":"reservoir_covered","osm_type":"way","osm_id":"269521243"}},{"type":"Feature","geometry":{"type":"Point","coordinates":[-2.55297,51.33948]},"properties":{"name":"Clutton Service Reservoir","category":"reservoir_covered","osm_type":"way","osm_id":"269523559"}},{"type":"Feature","geometry":{"type":"Point","coordinates":[-2.62458,51.05263]},"properties":{"name":"Mapped water infrastructure","category":"wastewater_plant","osm_type":"way","osm_id":"272099726"}},{"type":"Feature","geometry":{"type":"Point","coordinates":[-2.14693,51.37601]},"properties":{"name":"Melksham Water Recycling Centre","category":"wastewater_plant","osm_type":"way","osm_id":"276982252","operator":"Wessex Water"}},{"type":"Feature","geometry":{"type":"Point","coordinates":[-2.26612,51.34189]},"properties":{"name":"Bradford-on-Avon Wastewater Treament Works","category":"wastewater_plant","osm_type":"way","osm_id":"278034008","operator":"Wessex Water","ref":"13031"}},{"type":"Feature","geometry":{"type":"Point","coordinates":[-2.53014,51.11595]},"properties":{"name":"Mapped water infrastructure","category":"wastewater_plant","osm_type":"way","osm_id":"334722214"}},{"type":"Feature","geometry":{"type":"Point","coordinates":[-2.1278,51.47507]},"properties":{"name":"Mapped water infrastructure","category":"reservoir_covered","osm_type":"way","osm_id":"347762146","operator":"Wessex Water"}},{"type":"Feature","geometry":{"type":"Point","coordinates":[-2.56258,51.43334]},"properties":{"name":"Knowle Reservoir & Water Tower","category":"reservoir_covered","osm_type":"way","osm_id":"376308044","operator":"Bristol Waterworks"}},{"type":"Feature","geometry":{"type":"Point","coordinates":[-2.00378,51.29485]},"properties":{"name":"Lavington WwTW","category":"wastewater_plant","osm_type":"way","osm_id":"382672225","operator":"Wessex Water","ref":"13177"}},{"type":"Feature","geometry":{"type":"Point","coordinates":[-2.49267,51.23179]},"properties":{"name":"Mapped water infrastructure","category":"pumping_station","osm_type":"way","osm_id":"414384605"}},{"type":"Feature","geometry":{"type":"Point","coordinates":[-2.47126,51.23668]},"properties":{"name":"Edford WRC","category":"wastewater_plant","osm_type":"way","osm_id":"414416029","operator":"Wessex Water Services Ltd"}},{"type":"Feature","geometry":{"type":"Point","coordinates":[-2.33864,51.23134]},"properties":{"name":"Mapped water infrastructure","category":"reservoir_covered","osm_type":"way","osm_id":"418976350"}},{"type":"Feature","geometry":{"type":"Point","coordinates":[-2.73734,51.06414]},"properties":{"name":"Mapped water infrastructure","category":"wastewater_plant","osm_type":"way","osm_id":"440091291"}},{"type":"Feature","geometry":{"type":"Point","coordinates":[-2.3686,51.40808]},"properties":{"name":"Mapped water infrastructure","category":"wastewater_plant","osm_type":"way","osm_id":"448215343"}},{"type":"Feature","geometry":{"type":"Point","coordinates":[-2.51164,51.47025]},"properties":{"name":"Mapped water infrastructure","category":"water_works","osm_type":"way","osm_id":"450065403"}},{"type":"Feature","geometry":{"type":"Point","coordinates":[-2.51188,51.46939]},"properties":{"name":"Mapped water infrastructure","category":"reservoir_covered","osm_type":"way","osm_id":"450065410"}},{"type":"Feature","geometry":{"type":"Point","coordinates":[-2.37015,51.40831]},"properties":{"name":"Mapped water infrastructure","category":"wastewater_plant","osm_type":"way","osm_id":"466642097"}},{"type":"Feature","geometry":{"type":"Point","coordinates":[-2.56586,51.2274]},"properties":{"name":"Mapped water infrastructure","category":"reservoir_covered","osm_type":"way","osm_id":"472420452"}},{"type":"Feature","geometry":{"type":"Point","coordinates":[-2.56484,51.22718]},"properties":{"name":"Mapped water infrastructure","category":"reservoir_covered","osm_type":"way","osm_id":"472420455"}},{"type":"Feature","geometry":{"type":"Point","coordinates":[-2.38489,51.39651]},"properties":{"name":"Primrose Hill Water Treatment Works","category":"wastewater_plant","osm_type":"way","osm_id":"477038299"}},{"type":"Feature","geometry":{"type":"Point","coordinates":[-2.40816,51.00371]},"properties":{"name":"Mapped water infrastructure","category":"wastewater_plant","osm_type":"way","osm_id":"481033686"}},{"type":"Feature","geometry":{"type":"Point","coordinates":[-2.04632,51.28679]},"properties":{"name":"Erlestoke WwTW","category":"wastewater_plant","osm_type":"way","osm_id":"533895398","operator":"Wessex Water","ref":"13116"}},{"type":"Feature","geometry":{"type":"Point","coordinates":[-2.47167,51.00254]},"properties":{"name":"Mapped water infrastructure","category":"wastewater_plant","osm_type":"way","osm_id":"534318345"}},{"type":"Feature","geometry":{"type":"Point","coordinates":[-2.32746,51.01185]},"properties":{"name":"Mapped water infrastructure","category":"reservoir_covered","osm_type":"way","osm_id":"547507891"}},{"type":"Feature","geometry":{"type":"Point","coordinates":[-2.29314,51.26635]},"properties":{"name":"Mapped water infrastructure","category":"wastewater_plant","osm_type":"way","osm_id":"548007314"}},{"type":"Feature","geometry":{"type":"Point","coordinates":[-2.1521,51.21321]},"properties":{"name":"Mapped water infrastructure","category":"wastewater_plant","osm_type":"way","osm_id":"548007324"}},{"type":"Feature","geometry":{"type":"Point","coordinates":[-2.11927,51.40835]},"properties":{"name":"Mapped water infrastructure","category":"wastewater_plant","osm_type":"way","osm_id":"552236222"}},{"type":"Feature","geometry":{"type":"Point","coordinates":[-2.47064,51.10348]},"properties":{"name":"Bruton Wastewater Treatment Works","category":"wastewater_plant","osm_type":"way","osm_id":"557973722","operator":"Wessex Water"}},{"type":"Feature","geometry":{"type":"Point","coordinates":[-2.60168,51.45885]},"properties":{"name":"Mapped water infrastructure","category":"wastewater_plant","osm_type":"way","osm_id":"578146254"}},{"type":"Feature","geometry":{"type":"Point","coordinates":[-2.58102,51.49732]},"properties":{"name":"Horfield Reservoir","category":"reservoir_covered","osm_type":"way","osm_id":"584477986","operator":"Bristol Waterworks"}},{"type":"Feature","geometry":{"type":"Point","coordinates":[-2.91427,51.13958]},"properties":{"name":"Mapped water infrastructure","category":"pumping_station","osm_type":"way","osm_id":"598410050"}},{"type":"Feature","geometry":{"type":"Point","coordinates":[-2.38365,51.38331]},"properties":{"name":"Windsor Villas Bath","category":"pumping_station","osm_type":"way","osm_id":"614946154","operator":"Wessex Water"}},{"type":"Feature","geometry":{"type":"Point","coordinates":[-2.94531,51.04182]},"properties":{"name":"Mapped water infrastructure","category":"wastewater_plant","osm_type":"way","osm_id":"631910856"}},{"type":"Feature","geometry":{"type":"Point","coordinates":[-2.77907,51.48332]},"properties":{"name":"Mapped water infrastructure","category":"reservoir_covered","osm_type":"way","osm_id":"633002193"}},{"type":"Feature","geometry":{"type":"Point","coordinates":[-2.77511,51.48331]},"properties":{"name":"Mapped water infrastructure","category":"reservoir_covered","osm_type":"way","osm_id":"633903795"}},{"type":"Feature","geometry":{"type":"Point","coordinates":[-2.71103,51.32146]},"properties":{"name":"Mapped water infrastructure","category":"reservoir_covered","osm_type":"way","osm_id":"639138874"}},{"type":"Feature","geometry":{"type":"Point","coordinates":[-2.83945,51.29068]},"properties":{"name":"Mapped water infrastructure","category":"reservoir_covered","osm_type":"way","osm_id":"654782077"}},{"type":"Feature","geometry":{"type":"Point","coordinates":[-2.48332,51.2563]},"properties":{"name":"Mapped water infrastructure","category":"wastewater_plant","osm_type":"way","osm_id":"665516523"}},{"type":"Feature","geometry":{"type":"Point","coordinates":[-2.44287,51.23876]},"properties":{"name":"Coleford WwTW","category":"wastewater_plant","osm_type":"way","osm_id":"665516535","operator":"Wessex Water","ref":"13069"}},{"type":"Feature","geometry":{"type":"Point","coordinates":[-2.53093,51.04432]},"properties":{"name":"Mapped water infrastructure","category":"wastewater_plant","osm_type":"way","osm_id":"668435160"}},{"type":"Feature","geometry":{"type":"Point","coordinates":[-2.2401,51.34549]},"properties":{"name":"Mapped water infrastructure","category":"wastewater_plant","osm_type":"way","osm_id":"675840230"}},{"type":"Feature","geometry":{"type":"Point","coordinates":[-2.73794,51.49188]},"properties":{"name":"Portbury Wharf Sewage Treatment Works","category":"wastewater_plant","osm_type":"way","osm_id":"677442614"}},{"type":"Feature","geometry":{"type":"Point","coordinates":[-2.78482,51.44845]},"properties":{"name":"Mapped water infrastructure","category":"reservoir_covered","osm_type":"way","osm_id":"678771288"}},{"type":"Feature","geometry":{"type":"Point","coordinates":[-2.78459,51.44891]},"properties":{"name":"Mapped water infrastructure","category":"water_works","osm_type":"way","osm_id":"678771290"}},{"type":"Feature","geometry":{"type":"Point","coordinates":[-2.6758,51.09932]},"properties":{"name":"Mapped water infrastructure","category":"wastewater_plant","osm_type":"way","osm_id":"681968221"}},{"type":"Feature","geometry":{"type":"Point","coordinates":[-2.93454,51.34274]},"properties":{"name":"Mapped water infrastructure","category":"wastewater_plant","osm_type":"way","osm_id":"732726795"}},{"type":"Feature","geometry":{"type":"Point","coordinates":[-2.77284,51.16718]},"properties":{"name":"Mapped water infrastructure","category":"water_tower","osm_type":"way","osm_id":"753438688"}},{"type":"Feature","geometry":{"type":"Point","coordinates":[-2.31753,51.41383]},"properties":{"name":"Mapped water infrastructure","category":"water_works","osm_type":"way","osm_id":"758918997"}},{"type":"Feature","geometry":{"type":"Point","coordinates":[-2.50258,51.23367]},"properties":{"name":"Oakhill WwTW","category":"wastewater_plant","osm_type":"way","osm_id":"775263945","operator":"Wessex Water","ref":"13229"}},{"type":"Feature","geometry":{"type":"Point","coordinates":[-2.62244,51.40064]},"properties":{"name":"Mapped water infrastructure","category":"water_works","osm_type":"way","osm_id":"790025078"}},{"type":"Feature","geometry":{"type":"Point","coordinates":[-2.61736,51.37483]},"properties":{"name":"Mapped water infrastructure","category":"water_tower","osm_type":"way","osm_id":"793082941"}},{"type":"Feature","geometry":{"type":"Point","coordinates":[-2.22413,51.43246]},"properties":{"name":"Mapped water infrastructure","category":"water_works","osm_type":"way","osm_id":"817858097"}},{"type":"Feature","geometry":{"type":"Point","coordinates":[-2.00133,51.07025]},"properties":{"name":"Fovant WwTW","category":"wastewater_plant","osm_type":"way","osm_id":"823157529","operator":"Wessex Water","ref":"13129"}},{"type":"Feature","geometry":{"type":"Point","coordinates":[-2.41745,51.48]},"properties":{"name":"Pucklechurch WwTW","category":"wastewater_plant","osm_type":"way","osm_id":"837818427","operator":"South West Water","ref":"13248"}},{"type":"Feature","geometry":{"type":"Point","coordinates":[-2.06944,51.15963]},"properties":{"name":"Codford Water Treatment Works","category":"wastewater_plant","osm_type":"way","osm_id":"855826812","operator":"Wessex Water Ltd","addr:city":"Codford","addr:postcode":"BA12 0JX"}},{"type":"Feature","geometry":{"type":"Point","coordinates":[-2.3176,51.40657]},"properties":{"name":"Mapped water infrastructure","category":"pumping_station","osm_type":"way","osm_id":"856438391"}},{"type":"Feature","geometry":{"type":"Point","coordinates":[-2.61803,51.3553]},"properties":{"name":"Chew Stoke Sewage Treatment Works","category":"wastewater_plant","osm_type":"way","osm_id":"859822712","operator":"Bristol Water"}},{"type":"Feature","geometry":{"type":"Point","coordinates":[-2.47867,51.34588]},"properties":{"name":"Mapped water infrastructure","category":"wastewater_plant","osm_type":"way","osm_id":"878443906"}},{"type":"Feature","geometry":{"type":"Point","coordinates":[-2.50903,51.14017]},"properties":{"name":"Evercreech Sewage Works","category":"wastewater_plant","osm_type":"way","osm_id":"895166505"}},{"type":"Feature","geometry":{"type":"Point","coordinates":[-2.31171,51.24947]},"properties":{"name":"Mapped water infrastructure","category":"wastewater_plant","osm_type":"way","osm_id":"895621951"}},{"type":"Feature","geometry":{"type":"Point","coordinates":[-2.03272,51.44334]},"properties":{"name":"Calne STW","category":"wastewater_plant","osm_type":"way","osm_id":"895697214"}},{"type":"Feature","geometry":{"type":"Point","coordinates":[-2.23186,51.20054]},"properties":{"name":"Mapped water infrastructure","category":"reservoir_covered","osm_type":"way","osm_id":"896999302"}},{"type":"Feature","geometry":{"type":"Point","coordinates":[-2.40372,51.35843]},"properties":{"name":"Mapped water infrastructure","category":"reservoir_covered","osm_type":"way","osm_id":"907742452"}},{"type":"Feature","geometry":{"type":"Point","coordinates":[-2.26568,51.3614]},"properties":{"name":"Mapped water infrastructure","category":"reservoir_covered","osm_type":"way","osm_id":"907744487"}},{"type":"Feature","geometry":{"type":"Point","coordinates":[-2.83232,51.38854]},"properties":{"name":"Mapped water infrastructure","category":"pumping_station","osm_type":"way","osm_id":"915600752"}},{"type":"Feature","geometry":{"type":"Point","coordinates":[-2.84172,51.39923]},"properties":{"name":"Kingston (Bridge) Sewage pumping Station","category":"pumping_station","osm_type":"way","osm_id":"918377384","operator":"Wessex Water","ref":"14493"}},{"type":"Feature","geometry":{"type":"Point","coordinates":[-2.27344,51.43842]},"properties":{"name":"Mapped water infrastructure","category":"water_tower","osm_type":"way","osm_id":"926198399"}},{"type":"Feature","geometry":{"type":"Point","coordinates":[-2.49893,51.37864]},"properties":{"name":"Compton Dando STW","category":"wastewater_plant","osm_type":"way","osm_id":"928817145","operator":"Wessex Water"}},{"type":"Feature","geometry":{"type":"Point","coordinates":[-2.31697,51.46543]},"properties":{"name":"Mapped water infrastructure","category":"reservoir_covered","osm_type":"way","osm_id":"931362547"}},{"type":"Feature","geometry":{"type":"Point","coordinates":[-2.41342,51.46321]},"properties":{"name":"Mapped water infrastructure","category":"wastewater_plant","osm_type":"way","osm_id":"933265508"}},{"type":"Feature","geometry":{"type":"Point","coordinates":[-2.79107,51.2693]},"properties":{"name":"Mapped water infrastructure","category":"wastewater_plant","osm_type":"way","osm_id":"945486598"}},{"type":"Feature","geometry":{"type":"Point","coordinates":[-2.78709,51.27586]},"properties":{"name":"Mapped water infrastructure","category":"water_works","osm_type":"way","osm_id":"945500396","operator":"Bristol Water"}},{"type":"Feature","geometry":{"type":"Point","coordinates":[-2.18485,51.17693]},"properties":{"name":"Mapped water infrastructure","category":"reservoir_covered","osm_type":"way","osm_id":"953912462"}},{"type":"Feature","geometry":{"type":"Point","coordinates":[-2.91831,51.39423]},"properties":{"name":"Mapped water infrastructure","category":"wastewater_plant","osm_type":"way","osm_id":"961347515"}},{"type":"Feature","geometry":{"type":"Point","coordinates":[-2.09101,51.17797]},"properties":{"name":"Mapped water infrastructure","category":"wastewater_plant","osm_type":"way","osm_id":"978169027"}},{"type":"Feature","geometry":{"type":"Point","coordinates":[-2.13985,51.36039]},"properties":{"name":"Bowerhill Wastewater Treament Works","category":"wastewater_plant","osm_type":"way","osm_id":"979852977"}},{"type":"Feature","geometry":{"type":"Point","coordinates":[-2.99115,51.307]},"properties":{"name":"Weston-Super-Mare WwTW","category":"wastewater_plant","osm_type":"way","osm_id":"980555270","operator":"Wessex Water","ref":"19155"}},{"type":"Feature","geometry":{"type":"Point","coordinates":[-2.90668,51.1833]},"properties":{"name":"Mapped water infrastructure","category":"pumping_station","osm_type":"way","osm_id":"980858199"}},{"type":"Feature","geometry":{"type":"Point","coordinates":[-2.08261,51.41658]},"properties":{"name":"Mapped water infrastructure","category":"reservoir_covered","osm_type":"way","osm_id":"985525854"}},{"type":"Feature","geometry":{"type":"Point","coordinates":[-2.1952,51.49785]},"properties":{"name":"Mapped water infrastructure","category":"water_tower","osm_type":"way","osm_id":"993627492"}},{"type":"Feature","geometry":{"type":"Point","coordinates":[-2.19525,51.49735]},"properties":{"name":"Mapped water infrastructure","category":"reservoir_covered","osm_type":"way","osm_id":"993627493"}},{"type":"Feature","geometry":{"type":"Point","coordinates":[-2.16551,51.06978]},"properties":{"name":"East Knoyle WwTW","category":"wastewater_plant","osm_type":"way","osm_id":"1032387201","operator":"Wessex Water","ref":"13107"}},{"type":"Feature","geometry":{"type":"Point","coordinates":[-2.39844,51.14914]},"properties":{"name":"Upton Noble WwTW","category":"wastewater_plant","osm_type":"way","osm_id":"1034839868","operator":"Wessex Water","ref":"13321"}},{"type":"Feature","geometry":{"type":"Point","coordinates":[-2.77076,51.36032]},"properties":{"name":"Wrington WwTW","category":"wastewater_plant","osm_type":"way","osm_id":"1039560195","operator":"Wessex Water","ref":"13364"}},{"type":"Feature","geometry":{"type":"Point","coordinates":[-2.27153,51.14644]},"properties":{"name":"Maiden Bradley WwTW","category":"wastewater_plant","osm_type":"way","osm_id":"1040003213","operator":"Wessex Water","ref":"13191"}},{"type":"Feature","geometry":{"type":"Point","coordinates":[-2.36043,51.45119]},"properties":{"name":"Cold Ashton WwTW","category":"wastewater_plant","osm_type":"way","osm_id":"1043377032","operator":"South West Water","ref":"13068"}},{"type":"Feature","geometry":{"type":"Point","coordinates":[-2.71511,51.23011]},"properties":{"name":"Westbury-Sub-Mendip WwTW","category":"wastewater_plant","osm_type":"way","osm_id":"1046628315","operator":"Wessex Water","ref":"19637"}},{"type":"Feature","geometry":{"type":"Point","coordinates":[-2.75763,51.25026]},"properties":{"name":"Draycott WwTW","category":"wastewater_plant","osm_type":"way","osm_id":"1046628362","operator":"Wessex Water","ref":"13101"}},{"type":"Feature","geometry":{"type":"Point","coordinates":[-2.59558,51.1623]},"properties":{"name":"Pilton Wastewater Treatment Works","category":"wastewater_plant","osm_type":"way","osm_id":"1046628577","operator":"Wessex Water","ref":"13239"}},{"type":"Feature","geometry":{"type":"Point","coordinates":[-2.57301,51.19359]},"properties":{"name":"Shepton Mallet WwTW","category":"wastewater_plant","osm_type":"way","osm_id":"1046628692","operator":"Wessex Water","ref":"13267"}},{"type":"Feature","geometry":{"type":"Point","coordinates":[-2.7872,51.17268]},"properties":{"name":"Meare WwTW","category":"wastewater_plant","osm_type":"way","osm_id":"1046628915","operator":"Wessex Water","ref":"13230"}},{"type":"Feature","geometry":{"type":"Point","coordinates":[-2.6272,51.08312]},"properties":{"name":"Lydford WwTW","category":"wastewater_plant","osm_type":"way","osm_id":"1046629242","operator":"Wessex Water","ref":"13187"}},{"type":"Feature","geometry":{"type":"Point","coordinates":[-2.5668,51.08978]},"properties":{"name":"Alford WwTW","category":"wastewater_plant","osm_type":"way","osm_id":"1046629674","operator":"Wessex Water","ref":"19837"}},{"type":"Feature","geometry":{"type":"Point","coordinates":[-2.52966,51.08431]},"properties":{"name":"Castle Cary WwTW","category":"wastewater_plant","osm_type":"way","osm_id":"1046630005","operator":"Wessex Water","ref":"13048"}},{"type":"Feature","geometry":{"type":"Point","coordinates":[-2.65119,51.01995]},"properties":{"name":"Podimore WwTW","category":"wastewater_plant","osm_type":"way","osm_id":"1046630360","operator":"Wessex Water","ref":"13241"}},{"type":"Feature","geometry":{"type":"Point","coordinates":[-2.69066,51.00248]},"properties":{"name":"Ilchester WwTW","category":"wastewater_plant","osm_type":"way","osm_id":"1046630513","operator":"Wessex Water","ref":"13160"}},{"type":"Feature","geometry":{"type":"Point","coordinates":[-2.86209,51.31636]},"properties":{"name":"Winscombe WwTW","category":"wastewater_plant","osm_type":"way","osm_id":"1046630678","operator":"Wessex Water","ref":"13351"}},{"type":"Feature","geometry":{"type":"Point","coordinates":[-2.56433,51.02364]},"properties":{"name":"Sparkford WwTW","category":"wastewater_plant","osm_type":"way","osm_id":"1046631624","operator":"Wessex Water","ref":"13282"}},{"type":"Feature","geometry":{"type":"Point","coordinates":[-2.44018,51.19004]},"properties":{"name":"Cranmore WwTW","category":"wastewater_plant","osm_type":"way","osm_id":"1046632379","operator":"Wessex Water","ref":"13083"}},{"type":"Feature","geometry":{"type":"Point","coordinates":[-2.43308,51.22382]},"properties":{"name":"Leigh On Mendip WwTW","category":"wastewater_plant","osm_type":"way","osm_id":"1046659224","operator":"Wessex Water","ref":"13178"}},{"type":"Feature","geometry":{"type":"Point","coordinates":[-2.40767,51.17565]},"properties":{"name":"Wanstrow WwTW","category":"wastewater_plant","osm_type":"way","osm_id":"1046678429","operator":"Wessex Water","ref":"13323"}},{"type":"Feature","geometry":{"type":"Point","coordinates":[-2.38383,51.23855]},"properties":{"name":"Mells WwTW","category":"wastewater_plant","osm_type":"way","osm_id":"1046682739","operator":"Wessex Water","ref":"13205"}},{"type":"Feature","geometry":{"type":"Point","coordinates":[-2.96194,51.05389]},"properties":{"name":"East Lyng WwTW","category":"wastewater_plant","osm_type":"way","osm_id":"1046685145","operator":"Wessex Water","ref":"17408"}},{"type":"Feature","geometry":{"type":"Point","coordinates":[-2.33419,51.30339]},"properties":{"name":"Norton St Philip WwTW","category":"wastewater_plant","osm_type":"way","osm_id":"1046686075","operator":"Wessex Water","ref":"13226"}},{"type":"Feature","geometry":{"type":"Point","coordinates":[-2.61409,51.30502]},"properties":{"name":"Mapped water infrastructure","category":"wastewater_plant","osm_type":"way","osm_id":"1099317318"}},{"type":"Feature","geometry":{"type":"Point","coordinates":[-2.68413,51.32331]},"properties":{"name":"Ubley WRC","category":"wastewater_plant","osm_type":"way","osm_id":"1103497347","operator":"Wessex Water"}},{"type":"Feature","geometry":{"type":"Point","coordinates":[-2.61061,51.45996]},"properties":{"name":"Victoria","category":"reservoir_covered","osm_type":"way","osm_id":"1105287188"}},{"type":"Feature","geometry":{"type":"Point","coordinates":[-2.19318,51.2951]},"properties":{"name":"Mapped water infrastructure","category":"pumping_station","osm_type":"way","osm_id":"1107274523"}},{"type":"Feature","geometry":{"type":"Point","coordinates":[-2.23711,51.37496]},"properties":{"name":"South Wraxall WwTW","category":"wastewater_plant","osm_type":"way","osm_id":"1112791636","operator":"Wessex Water","ref":"19556"}},{"type":"Feature","geometry":{"type":"Point","coordinates":[-2.54523,51.01317]},"properties":{"name":"Sutton Montis WwTW","category":"wastewater_plant","osm_type":"way","osm_id":"1112793234","operator":"Wessex Water","ref":"13301"}},{"type":"Feature","geometry":{"type":"Point","coordinates":[-2.28219,51.28997]},"properties":{"name":"Rode WwTW","category":"wastewater_plant","osm_type":"way","osm_id":"1112796200","operator":"Wessex Water","ref":"13256"}},{"type":"Feature","geometry":{"type":"Point","coordinates":[-2.22042,51.47989]},"properties":{"name":"Long Dean WwTW","category":"wastewater_plant","osm_type":"way","osm_id":"1112796436","operator":"Wessex Water","ref":"13180"}},{"type":"Feature","geometry":{"type":"Point","coordinates":[-2.12132,51.09373]},"properties":{"name":"Hindon WwTW","category":"wastewater_plant","osm_type":"way","osm_id":"1112796518","operator":"Wessex Water","ref":"13149"}},{"type":"Feature","geometry":{"type":"Point","coordinates":[-2.22916,51.24891]},"properties":{"name":"Dilton Marsh WwTW","category":"wastewater_plant","osm_type":"way","osm_id":"1112796713","operator":"Wessex Water","ref":"13092"}},{"type":"Feature","geometry":{"type":"Point","coordinates":[-2.59746,51.19779]},"properties":{"name":"Croscombe WwTW","category":"wastewater_plant","osm_type":"way","osm_id":"1112796793","operator":"Wessex Water","ref":"13087"}},{"type":"Feature","geometry":{"type":"Point","coordinates":[-2.01421,51.19408]},"properties":{"name":"Chitterne WwTW","category":"wastewater_plant","osm_type":"way","osm_id":"1112796922","operator":"Wessex Water","ref":"13065"}},{"type":"Feature","geometry":{"type":"Point","coordinates":[-2.49926,51.39714]},"properties":{"name":"Chewton Keynsham WwTW","category":"wastewater_plant","osm_type":"way","osm_id":"1112796983","operator":"Wessex Water","ref":"13059"}},{"type":"Feature","geometry":{"type":"Point","coordinates":[-2.91739,51.06889]},"properties":{"name":"Burrowbridge WwTW","category":"wastewater_plant","osm_type":"way","osm_id":"1112797417","operator":"Wessex Water","ref":"13040"}},{"type":"Feature","geometry":{"type":"Point","coordinates":[-2.66038,51.26007]},"properties":{"name":"Mapped water infrastructure","category":"reservoir_covered","osm_type":"way","osm_id":"1122477438"}},{"type":"Feature","geometry":{"type":"Point","coordinates":[-2.29043,51.03185]},"properties":{"name":"Mapped water infrastructure","category":"reservoir_covered","osm_type":"way","osm_id":"1134655545"}},{"type":"Feature","geometry":{"type":"Point","coordinates":[-2.83426,51.45987]},"properties":{"name":"Mapped water infrastructure","category":"water_works","osm_type":"way","osm_id":"1155303743","operator":"Bristol Water"}},{"type":"Feature","geometry":{"type":"Point","coordinates":[-2.7948,51.27827]},"properties":{"name":"Mapped water infrastructure","category":"pumping_station","osm_type":"way","osm_id":"1157773112","operator":"Bristol Water"}},{"type":"Feature","geometry":{"type":"Point","coordinates":[-2.38159,51.35017]},"properties":{"name":"Mapped water infrastructure","category":"pumping_station","osm_type":"way","osm_id":"1173019343"}},{"type":"Feature","geometry":{"type":"Point","coordinates":[-2.86442,51.32385]},"properties":{"name":"Banwell","category":"water_works","osm_type":"way","osm_id":"1181354508","operator":"Bristol Water"}},{"type":"Feature","geometry":{"type":"Point","coordinates":[-2.80855,51.2835]},"properties":{"name":"West tower","category":"pumping_station","osm_type":"way","osm_id":"1183010714","operator":"Bristol Water"}},{"type":"Feature","geometry":{"type":"Point","coordinates":[-2.80925,51.28448]},"properties":{"name":"Mapped water infrastructure","category":"water_works","osm_type":"way","osm_id":"1183010716","operator":"Bristol Water"}},{"type":"Feature","geometry":{"type":"Point","coordinates":[-2.45995,51.30656]},"properties":{"name":"Mapped water infrastructure","category":"reservoir_covered","osm_type":"way","osm_id":"1241673958"}},{"type":"Feature","geometry":{"type":"Point","coordinates":[-2.00862,51.43257]},"properties":{"name":"Mapped water infrastructure","category":"wastewater_plant","osm_type":"way","osm_id":"1283224272"}},{"type":"Feature","geometry":{"type":"Point","coordinates":[-2.32742,51.4619]},"properties":{"name":"Mapped water infrastructure","category":"water_tower","osm_type":"way","osm_id":"1288452251"}},{"type":"Feature","geometry":{"type":"Point","coordinates":[-2.32736,51.34293]},"properties":{"name":"Mapped water infrastructure","category":"water_tower","osm_type":"way","osm_id":"1288454309"}},{"type":"Feature","geometry":{"type":"Point","coordinates":[-2.30538,51.46369]},"properties":{"name":"Mapped water infrastructure","category":"reservoir_covered","osm_type":"way","osm_id":"1302319571"}},{"type":"Feature","geometry":{"type":"Point","coordinates":[-2.98613,51.22186]},"properties":{"name":"Mapped water infrastructure","category":"wastewater_plant","osm_type":"way","osm_id":"1344827550"}},{"type":"Feature","geometry":{"type":"Point","coordinates":[-2.17875,51.22178]},"properties":{"name":"Mapped water infrastructure","category":"reservoir_covered","osm_type":"way","osm_id":"1349016175"}},{"type":"Feature","geometry":{"type":"Point","coordinates":[-2.0294,51.08929]},"properties":{"name":"Mapped water infrastructure","category":"reservoir_covered","osm_type":"way","osm_id":"1349807575"}},{"type":"Feature","geometry":{"type":"Point","coordinates":[-2.70051,51.14663]},"properties":{"name":"Mapped water infrastructure","category":"reservoir_covered","osm_type":"way","osm_id":"1366711406"}},{"type":"Feature","geometry":{"type":"Point","coordinates":[-2.47793,51.11391]},"properties":{"name":"Bruton WwTW","category":"wastewater_plant","osm_type":"way","osm_id":"1391618719","operator":"Wessex Water","ref":"19733"}},{"type":"Feature","geometry":{"type":"Point","coordinates":[-2.70671,51.2073]},"properties":{"name":"Wookey WwTW","category":"wastewater_plant","osm_type":"way","osm_id":"1411144566","operator":"Wessex Water","ref":"13358"}},{"type":"Feature","geometry":{"type":"Point","coordinates":[-2.58153,51.15741]},"properties":{"name":"Mapped water infrastructure","category":"reservoir_covered","osm_type":"way","osm_id":"1411830565"}},{"type":"Feature","geometry":{"type":"Point","coordinates":[-2.25618,51.25414]},"properties":{"name":"Standerwick WwTW","category":"wastewater_plant","osm_type":"way","osm_id":"1413017936","operator":"Wessex Water","ref":"19783"}},{"type":"Feature","geometry":{"type":"Point","coordinates":[-2.89783,51.05526]},"properties":{"name":"Stoke St Gregory WwTW","category":"wastewater_plant","osm_type":"way","osm_id":"1413520913","operator":"Wessex Water","ref":"19614"}},{"type":"Feature","geometry":{"type":"Point","coordinates":[-2.89527,51.36304]},"properties":{"name":"St Georges No 2 Sewage Treatment Works","category":"wastewater_plant","osm_type":"way","osm_id":"1415147610"}},{"type":"Feature","geometry":{"type":"Point","coordinates":[-2.89736,51.29635]},"properties":{"name":"Loxton WwTW","category":"wastewater_plant","osm_type":"way","osm_id":"1420416758","operator":"Wessex Water","ref":"17549"}},{"type":"Feature","geometry":{"type":"Point","coordinates":[-2.89624,51.29852]},"properties":{"name":"Loxton WwTW","category":"wastewater_plant","osm_type":"way","osm_id":"1422992530","operator":"Wessex Water","ref":"13183"}},{"type":"Feature","geometry":{"type":"Point","coordinates":[-2.2614,51.47219]},"properties":{"name":"North Wraxall WwTW","category":"wastewater_plant","osm_type":"way","osm_id":"1426575019","operator":"Wessex Water","ref":"13512"}},{"type":"Feature","geometry":{"type":"Point","coordinates":[-2.69888,51.0375]},"properties":{"name":"Mapped water infrastructure","category":"reservoir_covered","osm_type":"way","osm_id":"1482929140"}},{"type":"Feature","geometry":{"type":"Point","coordinates":[-2.19175,51.01059]},"properties":{"name":"Mapped water infrastructure","category":"reservoir_covered","osm_type":"way","osm_id":"1501577991"}},{"type":"Feature","geometry":{"type":"Point","coordinates":[-2.50489,51.08982]},"properties":{"name":"Mapped water infrastructure","category":"reservoir_covered","osm_type":"way","osm_id":"1511041393"}},{"type":"Feature","geometry":{"type":"Point","coordinates":[-2.17613,51.0018]},"properties":{"name":"The Maltings Sewage Pumping Station","category":"pumping_station","osm_type":"way","osm_id":"1524820251","operator":"Wessex Water"}},{"type":"Feature","geometry":{"type":"Point","coordinates":[-2.53651,51.44773]},"properties":{"name":"Robertson Drive","category":"pumping_station","osm_type":"way","osm_id":"1528471421","operator":"Wessex Water","ref":"19058"}},{"type":"Feature","geometry":{"type":"Point","coordinates":[-2.03671,51.36531]},"properties":{"name":"Tower View Rowde Sewerage Pumping Station","category":"pumping_station","osm_type":"way","osm_id":"1550159406","operator":"Wessex Water"}},{"type":"Feature","geometry":{"type":"Point","coordinates":[-2.14871,51.21539]},"properties":{"name":"Mapped water infrastructure","category":"reservoir_covered","osm_type":"way","osm_id":"1554601745"}},{"type":"Feature","geometry":{"type":"Point","coordinates":[-2.13878,51.17293]},"properties":{"name":"Mapped water infrastructure","category":"wastewater_plant","osm_type":"way","osm_id":"1555144109"}},{"type":"Feature","geometry":{"type":"Point","coordinates":[-2.31112,51.42795]},"properties":{"name":"Mapped water infrastructure","category":"reservoir_covered","osm_type":"way","osm_id":"1557306704"}},{"type":"Feature","geometry":{"type":"Point","coordinates":[-2.79912,51.03164]},"properties":{"name":"Mapped water infrastructure","category":"pumping_station","osm_type":"way","osm_id":"1558089720"}},{"type":"Feature","geometry":{"type":"Point","coordinates":[-2.83537,51.03677]},"properties":{"name":"Mapped water infrastructure","category":"pumping_station","osm_type":"way","osm_id":"1558089726"}},{"type":"Feature","geometry":{"type":"Point","coordinates":[-2.80763,51.09074]},"properties":{"name":"Mapped water infrastructure","category":"pumping_station","osm_type":"way","osm_id":"1559284726"}},{"type":"Feature","geometry":{"type":"Point","coordinates":[-2.018,51.32868]},"properties":{"name":"Potterne STW","category":"wastewater_plant","osm_type":"relation","osm_id":"1754109","ref":"13244"}},{"type":"Feature","geometry":{"type":"Point","coordinates":[-2.65857,51.41025]},"properties":{"name":"Bristol Water","category":"water_works","osm_type":"relation","osm_id":"9429040"}},{"type":"Feature","geometry":{"type":"Point","coordinates":[-2.4301,51.32847]},"properties":{"name":"Cam Valley Sewage Treatment Works","category":"wastewater_plant","osm_type":"way","osm_id":"40370645"}},{"type":"Feature","geometry":{"type":"Point","coordinates":[-2.34077,51.35307]},"properties":{"name":"Mapped water infrastructure","category":"water_works","osm_type":"way","osm_id":"49777899"}},{"type":"Feature","geometry":{"type":"Point","coordinates":[-2.34129,51.35358]},"properties":{"name":"Mapped water infrastructure","category":"water_works","osm_type":"way","osm_id":"49777900"}},{"type":"Feature","geometry":{"type":"Point","coordinates":[-2.30256,51.3437]},"properties":{"name":"Freshford Sewage Treatment Plant","category":"wastewater_plant","osm_type":"way","osm_id":"51014633"}},{"type":"Feature","geometry":{"type":"Point","coordinates":[-2.28043,51.32641]},"properties":{"name":"Westwood Sewage Treatment Works","category":"wastewater_plant","osm_type":"way","osm_id":"51037018","operator":"Wessex Water","ref":"13341"}},{"type":"Feature","geometry":{"type":"Point","coordinates":[-2.29178,51.33841]},"properties":{"name":"Winsley WwTW","category":"wastewater_plant","osm_type":"way","osm_id":"51038631","operator":"Wessex Water","ref":"13352"}},{"type":"Feature","geometry":{"type":"Point","coordinates":[-2.25578,51.41841]},"properties":{"name":"Box Wastewater Treament Works","category":"wastewater_plant","osm_type":"way","osm_id":"51179702","operator":"Wessex Water"}},{"type":"Feature","geometry":{"type":"Point","coordinates":[-2.41048,51.39217]},"properties":{"name":"Mapped water infrastructure","category":"water_works","osm_type":"way","osm_id":"78283578","operator":"Wessex Water"}},{"type":"Feature","geometry":{"type":"Point","coordinates":[-2.28169,51.03213]},"properties":{"name":"Gillingham Sewage Works","category":"wastewater_plant","osm_type":"way","osm_id":"80915989"}},{"type":"Feature","geometry":{"type":"Point","coordinates":[-2.29501,51.00236]},"properties":{"name":"East Stour Sewage Works","category":"wastewater_plant","osm_type":"way","osm_id":"88311813"}},{"type":"Feature","geometry":{"type":"Point","coordinates":[-2.61085,51.46094]},"properties":{"name":"Victoria Pumping Station","category":"water_works","osm_type":"way","osm_id":"98873712","operator":"Bristol Water"}},{"type":"Feature","geometry":{"type":"Point","coordinates":[-2.44524,51.41341]},"properties":{"name":"Saltford Water Recycling Centre","category":"wastewater_plant","osm_type":"way","osm_id":"100528743","operator":"Wessex Water","ref":"13016"}},{"type":"Feature","geometry":{"type":"Point","coordinates":[-2.62142,51.44511]},"properties":{"name":"Sewage Pumping Station","category":"pumping_station","osm_type":"way","osm_id":"128295851","operator":"Wessex Water","ref":"14016","addr:city":"Bristol"}},{"type":"Feature","geometry":{"type":"Point","coordinates":[-2.61798,51.47205]},"properties":{"name":"Clifton Water Tower","category":"water_tower","osm_type":"way","osm_id":"147022263","addr:city":"Bristol","addr:postcode":"BS9 1FG"}},{"type":"Feature","geometry":{"type":"Point","coordinates":[-2.178,51.24979]},"properties":{"name":"12123 Wellhead Westbury Water Treatment Works","category":"pumping_station","osm_type":"way","osm_id":"150437166","operator":"Wessex Water 0845 600 4 600"}},{"type":"Feature","geometry":{"type":"Point","coordinates":[-2.32705,51.23866]},"properties":{"name":"Mapped water infrastructure","category":"wastewater_plant","osm_type":"way","osm_id":"150568593"}},{"type":"Feature","geometry":{"type":"Point","coordinates":[-2.0509,51.35404]},"properties":{"name":"Caen Hill Back Pumping Station","category":"pumping_station","osm_type":"way","osm_id":"168496334"}},{"type":"Feature","geometry":{"type":"Point","coordinates":[-2.34453,51.01623]},"properties":{"name":"Filley Brook Sewage Pumping Station","category":"pumping_station","osm_type":"way","osm_id":"203307699"}},{"type":"Feature","geometry":{"type":"Point","coordinates":[-2.57275,51.36636]},"properties":{"name":"Stanton Drew Sewage Treatment Works","category":"wastewater_plant","osm_type":"way","osm_id":"244567346"}},{"type":"Feature","geometry":{"type":"Point","coordinates":[-2.99376,51.1368]},"properties":{"name":"Pumping Station","category":"water_works","osm_type":"way","osm_id":"248759154","operator":"Wessex Water","addr:city":"Bridgwater","addr:postcode":"TA6 4AZ"}},{"type":"Feature","geometry":{"type":"Point","coordinates":[-2.63841,51.45314]},"properties":{"name":"Mapped water infrastructure","category":"water_tower","osm_type":"way","osm_id":"280997096"}},{"type":"Feature","geometry":{"type":"Point","coordinates":[-2.80533,51.22964]},"properties":{"name":"Mapped water infrastructure","category":"pumping_station","osm_type":"way","osm_id":"328393800"}},{"type":"Feature","geometry":{"type":"Point","coordinates":[-2.67409,51.49143]},"properties":{"name":"Shirehampton Reservoir","category":"reservoir_covered","osm_type":"way","osm_id":"358610032","operator":"Bristol Waterworks"}},{"type":"Feature","geometry":{"type":"Point","coordinates":[-2.56233,51.43382]},"properties":{"name":"Mapped water infrastructure","category":"water_tower","osm_type":"way","osm_id":"376308068"}},{"type":"Feature","geometry":{"type":"Point","coordinates":[-2.51308,51.08608]},"properties":{"name":"Mapped water infrastructure","category":"pumping_station","osm_type":"way","osm_id":"396980304"}},{"type":"Feature","geometry":{"type":"Point","coordinates":[-2.53253,51.43419]},"properties":{"name":"Broomhill Road, Bristol Pumping Station","category":"water_works","osm_type":"way","osm_id":"405934106","ref":"14028"}},{"type":"Feature","geometry":{"type":"Point","coordinates":[-2.30162,51.37819]},"properties":{"name":"Claverton Pumping Station","category":"pumping_station","osm_type":"way","osm_id":"436968792","addr:postcode":"BA2 7BH"}},{"type":"Feature","geometry":{"type":"Point","coordinates":[-2.64091,51.39701]},"properties":{"name":"Pumping station","category":"water_works","osm_type":"way","osm_id":"443477814"}},{"type":"Feature","geometry":{"type":"Point","coordinates":[-2.37946,51.40682]},"properties":{"name":"Mapped water infrastructure","category":"water_tower","osm_type":"way","osm_id":"461172701"}},{"type":"Feature","geometry":{"type":"Point","coordinates":[-2.37947,51.2169]},"properties":{"name":"Mapped water infrastructure","category":"wastewater_plant","osm_type":"way","osm_id":"485715375"}},{"type":"Feature","geometry":{"type":"Point","coordinates":[-2.61052,51.46043]},"properties":{"name":"Mapped water infrastructure","category":"reservoir_covered","osm_type":"way","osm_id":"493996653"}},{"type":"Feature","geometry":{"type":"Point","coordinates":[-2.55487,51.45031]},"properties":{"name":"Pumping Station","category":"water_works","osm_type":"way","osm_id":"515367660","operator":"Wessex Water","ref":"14501","addr:city":"Bristol"}},{"type":"Feature","geometry":{"type":"Point","coordinates":[-2.62444,51.44688]},"properties":{"name":"Longmore Brook Flapped Outfall","category":"water_works","osm_type":"way","osm_id":"548613202"}},{"type":"Feature","geometry":{"type":"Point","coordinates":[-2.19009,51.23078]},"properties":{"name":"Mapped water infrastructure","category":"reservoir_covered","osm_type":"way","osm_id":"554256135"}},{"type":"Feature","geometry":{"type":"Point","coordinates":[-2.75621,51.48379]},"properties":{"name":"Mapped water infrastructure","category":"pumping_station","osm_type":"way","osm_id":"631561601"}},{"type":"Feature","geometry":{"type":"Point","coordinates":[-2.75486,51.4806]},"properties":{"name":"Mapped water infrastructure","category":"pumping_station","osm_type":"way","osm_id":"631653191"}},{"type":"Feature","geometry":{"type":"Point","coordinates":[-2.77512,51.48326]},"properties":{"name":"Pumping Station","category":"pumping_station","osm_type":"way","osm_id":"633903793"}},{"type":"Feature","geometry":{"type":"Point","coordinates":[-2.7149,51.33685]},"properties":{"name":"Blagdon Pumping Station & Visitor Centre","category":"pumping_station","osm_type":"way","osm_id":"639386100","addr:city":"Bristol","addr:postcode":"BS40 7UN"}},{"type":"Feature","geometry":{"type":"Point","coordinates":[-2.67394,51.49162]},"properties":{"name":"Mapped water infrastructure","category":"water_works","osm_type":"way","osm_id":"648538301"}},{"type":"Feature","geometry":{"type":"Point","coordinates":[-2.77878,51.44048]},"properties":{"name":"East Tickenham Pumping Station","category":"pumping_station","osm_type":"way","osm_id":"679055838","operator":"Wessex Water"}},{"type":"Feature","geometry":{"type":"Point","coordinates":[-2.68897,51.48414]},"properties":{"name":"Avon Road Pumping Station","category":"pumping_station","osm_type":"way","osm_id":"682473685","operator":"Wessex Water"}},{"type":"Feature","geometry":{"type":"Point","coordinates":[-2.75244,51.48992]},"properties":{"name":"Mapped water infrastructure","category":"pumping_station","osm_type":"way","osm_id":"684471246","operator":"Wessex Water"}},{"type":"Feature","geometry":{"type":"Point","coordinates":[-2.62438,51.49516]},"properties":{"name":"Merlin Close Vortex","category":"water_works","osm_type":"way","osm_id":"720598204","ref":"19030","addr:city":"Bristol"}},{"type":"Feature","geometry":{"type":"Point","coordinates":[-2.2571,51.09288]},"properties":{"name":"Mapped water infrastructure","category":"pumping_station","osm_type":"way","osm_id":"813363008"}},{"type":"Feature","geometry":{"type":"Point","coordinates":[-2.28801,51.38989]},"properties":{"name":"Mapped water infrastructure","category":"reservoir_covered","osm_type":"way","osm_id":"968838162"}},{"type":"Feature","geometry":{"type":"Point","coordinates":[-2.06317,51.06776]},"properties":{"name":"Tisbury STW","category":"wastewater_plant","osm_type":"way","osm_id":"1088429330","operator":"Wessex Water"}},{"type":"Feature","geometry":{"type":"Point","coordinates":[-2.64122,51.01441]},"properties":{"name":"Mapped water infrastructure","category":"water_tower","osm_type":"way","osm_id":"1135778589"}},{"type":"Feature","geometry":{"type":"Point","coordinates":[-2.59526,51.44202]},"properties":{"name":"Mapped water infrastructure","category":"pumping_station","osm_type":"way","osm_id":"1214035576"}},{"type":"Feature","geometry":{"type":"Point","coordinates":[-2.05942,51.38402]},"properties":{"name":"Mapped water infrastructure","category":"pumping_station","osm_type":"way","osm_id":"1377610911"}}]}