{"type":"FeatureCollection","features":[{"type":"Feature","geometry":{"type":"Point","coordinates":[-2.27761,52.16223]},"properties":{"name":"Bush Hill","category":"reservoir_covered","osm_type":"node","osm_id":"375602271"}},{"type":"Feature","geometry":{"type":"Point","coordinates":[-2.09835,52.49731]},"properties":{"name":"Blowers Green Water Point","category":"water_point","osm_type":"node","osm_id":"410873688","operator":"Canal and River Trust"}},{"type":"Feature","geometry":{"type":"Point","coordinates":[-2.68437,52.06053]},"properties":{"name":"Mapped water infrastructure","category":"pumping_station","osm_type":"node","osm_id":"417712811"}},{"type":"Feature","geometry":{"type":"Point","coordinates":[-2.34261,52.1255]},"properties":{"name":"Earl Beauchamp's Fountain","category":"drinking_water","osm_type":"node","osm_id":"469967519"}},{"type":"Feature","geometry":{"type":"Point","coordinates":[-2.34235,52.10103]},"properties":{"name":"Hayslad","category":"drinking_water","osm_type":"node","osm_id":"479225047"}},{"type":"Feature","geometry":{"type":"Point","coordinates":[-2.34953,52.05147]},"properties":{"name":"Walm's Well","category":"water_well","osm_type":"node","osm_id":"489539300"}},{"type":"Feature","geometry":{"type":"Point","coordinates":[-2.09441,52.47121]},"properties":{"name":"Mapped water infrastructure","category":"pumping_station","osm_type":"node","osm_id":"530731991"}},{"type":"Feature","geometry":{"type":"Point","coordinates":[-2.04061,52.41848]},"properties":{"name":"Mapped water infrastructure","category":"pumping_station","osm_type":"node","osm_id":"534407251"}},{"type":"Feature","geometry":{"type":"Point","coordinates":[-2.23698,52.15582]},"properties":{"name":"Mapped water infrastructure","category":"wastewater_plant","osm_type":"node","osm_id":"602821328"}},{"type":"Feature","geometry":{"type":"Point","coordinates":[-2.16197,52.00806]},"properties":{"name":"Mapped water infrastructure","category":"water_tower","osm_type":"node","osm_id":"606984430"}},{"type":"Feature","geometry":{"type":"Point","coordinates":[-2.369,52.01035]},"properties":{"name":"Mapped water infrastructure","category":"water_well","osm_type":"node","osm_id":"619986983"}},{"type":"Feature","geometry":{"type":"Point","coordinates":[-2.36289,52.01143]},"properties":{"name":"Mapped water infrastructure","category":"water_well","osm_type":"node","osm_id":"619986986"}},{"type":"Feature","geometry":{"type":"Point","coordinates":[-2.40203,52.0176]},"properties":{"name":"Mapped water infrastructure","category":"water_well","osm_type":"node","osm_id":"620522959"}},{"type":"Feature","geometry":{"type":"Point","coordinates":[-2.40508,52.0162]},"properties":{"name":"Mapped water infrastructure","category":"water_well","osm_type":"node","osm_id":"620522960"}},{"type":"Feature","geometry":{"type":"Point","coordinates":[-2.40641,52.01995]},"properties":{"name":"Mapped water infrastructure","category":"water_well","osm_type":"node","osm_id":"620522963"}},{"type":"Feature","geometry":{"type":"Point","coordinates":[-2.39159,52.01562]},"properties":{"name":"Mapped water infrastructure","category":"water_well","osm_type":"node","osm_id":"620522966"}},{"type":"Feature","geometry":{"type":"Point","coordinates":[-2.41528,52.04582]},"properties":{"name":"Mapped water infrastructure","category":"water_well","osm_type":"node","osm_id":"620991338"}},{"type":"Feature","geometry":{"type":"Point","coordinates":[-2.40014,52.05495]},"properties":{"name":"Mapped water infrastructure","category":"water_well","osm_type":"node","osm_id":"620991343"}},{"type":"Feature","geometry":{"type":"Point","coordinates":[-2.40756,52.05295]},"properties":{"name":"Mapped water infrastructure","category":"water_well","osm_type":"node","osm_id":"620991354"}},{"type":"Feature","geometry":{"type":"Point","coordinates":[-2.36984,52.02056]},"properties":{"name":"Mapped water infrastructure","category":"water_well","osm_type":"node","osm_id":"621131230"}},{"type":"Feature","geometry":{"type":"Point","coordinates":[-2.34475,52.04408]},"properties":{"name":"Mapped water infrastructure","category":"water_well","osm_type":"node","osm_id":"621436002"}},{"type":"Feature","geometry":{"type":"Point","coordinates":[-2.32642,52.05578]},"properties":{"name":"Mapped water infrastructure","category":"water_well","osm_type":"node","osm_id":"621454687"}},{"type":"Feature","geometry":{"type":"Point","coordinates":[-2.39688,52.04865]},"properties":{"name":"Mapped water infrastructure","category":"pumping_station","osm_type":"node","osm_id":"621817316"}},{"type":"Feature","geometry":{"type":"Point","coordinates":[-2.36571,52.0504]},"properties":{"name":"Mapped water infrastructure","category":"water_well","osm_type":"node","osm_id":"621834435"}},{"type":"Feature","geometry":{"type":"Point","coordinates":[-2.36495,52.04456]},"properties":{"name":"Mapped water infrastructure","category":"water_well","osm_type":"node","osm_id":"621848290"}},{"type":"Feature","geometry":{"type":"Point","coordinates":[-2.3571,52.04203]},"properties":{"name":"Mapped water infrastructure","category":"water_well","osm_type":"node","osm_id":"621860924"}},{"type":"Feature","geometry":{"type":"Point","coordinates":[-2.359,52.04097]},"properties":{"name":"Mapped water infrastructure","category":"water_well","osm_type":"node","osm_id":"621860928"}},{"type":"Feature","geometry":{"type":"Point","coordinates":[-2.14491,52.04573]},"properties":{"name":"Mapped water infrastructure","category":"water_well","osm_type":"node","osm_id":"632181638"}},{"type":"Feature","geometry":{"type":"Point","coordinates":[-2.1478,52.04733]},"properties":{"name":"Mapped water infrastructure","category":"water_well","osm_type":"node","osm_id":"632181639"}},{"type":"Feature","geometry":{"type":"Point","coordinates":[-2.14201,52.02396]},"properties":{"name":"Chad Well","category":"water_well","osm_type":"node","osm_id":"632947042"}},{"type":"Feature","geometry":{"type":"Point","coordinates":[-2.07467,52.05029]},"properties":{"name":"Mapped water infrastructure","category":"water_well","osm_type":"node","osm_id":"633045207"}},{"type":"Feature","geometry":{"type":"Point","coordinates":[-2.53861,52.41654]},"properties":{"name":"Mapped water infrastructure","category":"water_well","osm_type":"node","osm_id":"669213289"}},{"type":"Feature","geometry":{"type":"Point","coordinates":[-2.4813,52.38796]},"properties":{"name":"Pike Well","category":"water_well","osm_type":"node","osm_id":"669881409"}},{"type":"Feature","geometry":{"type":"Point","coordinates":[-2.53062,52.35343]},"properties":{"name":"Mapped water infrastructure","category":"water_well","osm_type":"node","osm_id":"670072641"}},{"type":"Feature","geometry":{"type":"Point","coordinates":[-2.53908,52.34865]},"properties":{"name":"Mapped water infrastructure","category":"water_well","osm_type":"node","osm_id":"670105639"}},{"type":"Feature","geometry":{"type":"Point","coordinates":[-2.63731,52.43698]},"properties":{"name":"Saint Milburga's Well","category":"water_well","osm_type":"node","osm_id":"685905621"}},{"type":"Feature","geometry":{"type":"Point","coordinates":[-2.71103,52.34393]},"properties":{"name":"Mapped water infrastructure","category":"water_well","osm_type":"node","osm_id":"686550107"}},{"type":"Feature","geometry":{"type":"Point","coordinates":[-2.33657,52.0789]},"properties":{"name":"Holy Well","category":"drinking_water","osm_type":"node","osm_id":"1078902776"}},{"type":"Feature","geometry":{"type":"Point","coordinates":[-2.32005,52.12445]},"properties":{"name":"Mapped water infrastructure","category":"drinking_water","osm_type":"node","osm_id":"1110712715"}},{"type":"Feature","geometry":{"type":"Point","coordinates":[-2.32985,52.11113]},"properties":{"name":"Malvhina Spout","category":"drinking_water","osm_type":"node","osm_id":"1307324357"}},{"type":"Feature","geometry":{"type":"Point","coordinates":[-2.05867,52.33519]},"properties":{"name":"Mapped water infrastructure","category":"drinking_water","osm_type":"node","osm_id":"1513098507"}},{"type":"Feature","geometry":{"type":"Point","coordinates":[-2.3422,52.0666]},"properties":{"name":"Evendine","category":"drinking_water","osm_type":"node","osm_id":"2216266020"}},{"type":"Feature","geometry":{"type":"Point","coordinates":[-2.33346,52.09599]},"properties":{"name":"Lower Wyche Spout","category":"drinking_water","osm_type":"node","osm_id":"2223361482"}},{"type":"Feature","geometry":{"type":"Point","coordinates":[-2.60357,52.08001]},"properties":{"name":"Mapped water infrastructure","category":"drinking_water","osm_type":"node","osm_id":"2297673095"}},{"type":"Feature","geometry":{"type":"Point","coordinates":[-2.24788,52.41064]},"properties":{"name":"Mapped water infrastructure","category":"drinking_water","osm_type":"node","osm_id":"2359194013"}},{"type":"Feature","geometry":{"type":"Point","coordinates":[-2.24706,52.41068]},"properties":{"name":"Mapped water infrastructure","category":"drinking_water","osm_type":"node","osm_id":"2359194018"}},{"type":"Feature","geometry":{"type":"Point","coordinates":[-2.22457,52.1786]},"properties":{"name":"Mapped water infrastructure","category":"drinking_water","osm_type":"node","osm_id":"2454766282"}},{"type":"Feature","geometry":{"type":"Point","coordinates":[-2.21996,52.18414]},"properties":{"name":"Mapped water infrastructure","category":"drinking_water","osm_type":"node","osm_id":"2454766313"}},{"type":"Feature","geometry":{"type":"Point","coordinates":[-2.7616,52.45796]},"properties":{"name":"Mapped water infrastructure","category":"drinking_water","osm_type":"node","osm_id":"2456233434"}},{"type":"Feature","geometry":{"type":"Point","coordinates":[-2.12277,52.26666]},"properties":{"name":"Mapped water infrastructure","category":"water_point","osm_type":"node","osm_id":"3011110118"}},{"type":"Feature","geometry":{"type":"Point","coordinates":[-2.2201,52.18367]},"properties":{"name":"Mapped water infrastructure","category":"drinking_water","osm_type":"node","osm_id":"3022564164"}},{"type":"Feature","geometry":{"type":"Point","coordinates":[-2.27827,52.33781]},"properties":{"name":"Mapped water infrastructure","category":"drinking_water","osm_type":"node","osm_id":"4815706614","operator":"British Waterways"}},{"type":"Feature","geometry":{"type":"Point","coordinates":[-2.27824,52.3378]},"properties":{"name":"Mapped water infrastructure","category":"drinking_water","osm_type":"node","osm_id":"4815753498"}},{"type":"Feature","geometry":{"type":"Point","coordinates":[-2.27337,52.34365]},"properties":{"name":"Mapped water infrastructure","category":"drinking_water","osm_type":"node","osm_id":"4875092861"}},{"type":"Feature","geometry":{"type":"Point","coordinates":[-2.29667,52.36084]},"properties":{"name":"Severn Trent Reservoir","category":"water_works","osm_type":"node","osm_id":"4897617201"}},{"type":"Feature","geometry":{"type":"Point","coordinates":[-2.70568,52.48406]},"properties":{"name":"Mapped water infrastructure","category":"water_well","osm_type":"node","osm_id":"5018736583"}},{"type":"Feature","geometry":{"type":"Point","coordinates":[-2.31016,52.1298]},"properties":{"name":"Mapped water infrastructure","category":"water_point","osm_type":"node","osm_id":"5485453445"}},{"type":"Feature","geometry":{"type":"Point","coordinates":[-2.28709,52.06384]},"properties":{"name":"Mapped water infrastructure","category":"water_tower","osm_type":"node","osm_id":"5792818278"}},{"type":"Feature","geometry":{"type":"Point","coordinates":[-2.30693,52.35407]},"properties":{"name":"Mapped water infrastructure","category":"pumping_station","osm_type":"node","osm_id":"6032522677","operator":"Severn Trent Water"}},{"type":"Feature","geometry":{"type":"Point","coordinates":[-2.32704,52.10993]},"properties":{"name":"Mapped water infrastructure","category":"drinking_water","osm_type":"node","osm_id":"6571086716"}},{"type":"Feature","geometry":{"type":"Point","coordinates":[-2.21925,52.06531]},"properties":{"name":"Mapped water infrastructure","category":"drinking_water","osm_type":"node","osm_id":"7444335371"}},{"type":"Feature","geometry":{"type":"Point","coordinates":[-2.07094,52.49083]},"properties":{"name":"Windmill End Water Point","category":"water_point","osm_type":"node","osm_id":"7880710200","operator":"Canal and River Trust"}},{"type":"Feature","geometry":{"type":"Point","coordinates":[-2.153,52.46115]},"properties":{"name":"Stourbridge Town Arm Water Point","category":"water_point","osm_type":"node","osm_id":"7880710201","operator":"Canal and River Trust"}},{"type":"Feature","geometry":{"type":"Point","coordinates":[-2.20555,52.46217]},"properties":{"name":"Stourton Water Point","category":"water_point","osm_type":"node","osm_id":"7880710204","operator":"Canal and River Trust"}},{"type":"Feature","geometry":{"type":"Point","coordinates":[-2.20477,52.49602]},"properties":{"name":"Greensforge Water Point","category":"water_point","osm_type":"node","osm_id":"7880710205","operator":"Canal and River Trust"}},{"type":"Feature","geometry":{"type":"Point","coordinates":[-2.22603,52.45028]},"properties":{"name":"Kinver Water Point","category":"water_point","osm_type":"node","osm_id":"7885199966","operator":"Canal and River Trust"}},{"type":"Feature","geometry":{"type":"Point","coordinates":[-2.22579,52.45038]},"properties":{"name":"Kinver Water Point","category":"water_point","osm_type":"node","osm_id":"7885199967","operator":"Canal and River Trust"}},{"type":"Feature","geometry":{"type":"Point","coordinates":[-2.14968,52.46102]},"properties":{"name":"Stourbridge Basin Water Point","category":"water_point","osm_type":"node","osm_id":"7924975259","operator":"Stourbridge Navigation Trust"}},{"type":"Feature","geometry":{"type":"Point","coordinates":[-2.35457,52.36577]},"properties":{"name":"Mapped water infrastructure","category":"reservoir_covered","osm_type":"node","osm_id":"8373115396"}},{"type":"Feature","geometry":{"type":"Point","coordinates":[-2.51235,52.15627]},"properties":{"name":"Mapped water infrastructure","category":"water_well","osm_type":"node","osm_id":"8693721994"}},{"type":"Feature","geometry":{"type":"Point","coordinates":[-2.72016,52.26903]},"properties":{"name":"Mapped water infrastructure","category":"water_well","osm_type":"node","osm_id":"9250076497"}},{"type":"Feature","geometry":{"type":"Point","coordinates":[-2.21969,52.1844]},"properties":{"name":"Mapped water infrastructure","category":"drinking_water","osm_type":"node","osm_id":"10127680948","operator":"Canal & River Trust"}},{"type":"Feature","geometry":{"type":"Point","coordinates":[-2.21986,52.18423]},"properties":{"name":"Mapped water infrastructure","category":"drinking_water","osm_type":"node","osm_id":"10127680949","operator":"Canal & River Trust"}},{"type":"Feature","geometry":{"type":"Point","coordinates":[-2.21951,52.18458]},"properties":{"name":"Mapped water infrastructure","category":"drinking_water","osm_type":"node","osm_id":"10127681818","operator":"Canal & River Trust"}},{"type":"Feature","geometry":{"type":"Point","coordinates":[-2.10727,52.42554]},"properties":{"name":"Mapped water infrastructure","category":"water_well","osm_type":"node","osm_id":"11174618601"}},{"type":"Feature","geometry":{"type":"Point","coordinates":[-2.23295,52.19655]},"properties":{"name":"Mapped water infrastructure","category":"water_point","osm_type":"node","osm_id":"11368788550"}},{"type":"Feature","geometry":{"type":"Point","coordinates":[-2.73115,52.07602]},"properties":{"name":"Mapped water infrastructure","category":"pumping_station","osm_type":"node","osm_id":"11690183614"}},{"type":"Feature","geometry":{"type":"Point","coordinates":[-2.83127,52.43016]},"properties":{"name":"Mapped water infrastructure","category":"water_well","osm_type":"node","osm_id":"11731365457"}},{"type":"Feature","geometry":{"type":"Point","coordinates":[-2.00091,52.49029]},"properties":{"name":"Chapel Pump","category":"water_well","osm_type":"node","osm_id":"13008497572","operator":"Syensqo, Trinity Street"}},{"type":"Feature","geometry":{"type":"Point","coordinates":[-2.00125,52.49129]},"properties":{"name":"Top Field Well","category":"water_well","osm_type":"node","osm_id":"13008497573","operator":"Syensqo, Trinity Street"}},{"type":"Feature","geometry":{"type":"Point","coordinates":[-2.00354,52.49137]},"properties":{"name":"Cricket Field Well","category":"water_well","osm_type":"node","osm_id":"13008497574","operator":"Syensqo, Trinity Street"}},{"type":"Feature","geometry":{"type":"Point","coordinates":[-2.00542,52.49147]},"properties":{"name":"Crosswells Spring","category":"water_well","osm_type":"node","osm_id":"13008497575","operator":"Syensqo, Trinity Street"}},{"type":"Feature","geometry":{"type":"Point","coordinates":[-2.00854,52.49364]},"properties":{"name":"Oldbury Works Well","category":"water_well","osm_type":"node","osm_id":"13008497576","operator":"Syensqo, Trinity Street"}},{"type":"Feature","geometry":{"type":"Point","coordinates":[-2.06729,52.4108]},"properties":{"name":"Mapped water infrastructure","category":"water_point","osm_type":"node","osm_id":"13115282726"}},{"type":"Feature","geometry":{"type":"Point","coordinates":[-2.31899,52.10452]},"properties":{"name":"Mapped water infrastructure","category":"water_well","osm_type":"node","osm_id":"13354301290"}},{"type":"Feature","geometry":{"type":"Point","coordinates":[-2.08355,52.27183]},"properties":{"name":"Mapped water infrastructure","category":"drinking_water","osm_type":"node","osm_id":"13721200543"}},{"type":"Feature","geometry":{"type":"Point","coordinates":[-2.70177,52.04539]},"properties":{"name":"Eign Wastewater Treatment Works","category":"wastewater_plant","osm_type":"way","osm_id":"36363314","operator":"Dŵr Cymru Welsh Water","addr:postcode":"HR1 1RY"}},{"type":"Feature","geometry":{"type":"Point","coordinates":[-2.68226,52.04205]},"properties":{"name":"Rotherwas Wastewater Treatment Works","category":"wastewater_plant","osm_type":"way","osm_id":"36865733","operator":"Dŵr Cymru Welsh Water","addr:postcode":"HR2 6FG"}},{"type":"Feature","geometry":{"type":"Point","coordinates":[-2.25455,52.4345]},"properties":{"name":"Mapped water infrastructure","category":"reservoir_covered","osm_type":"way","osm_id":"42765680"}},{"type":"Feature","geometry":{"type":"Point","coordinates":[-2.23738,52.15522]},"properties":{"name":"Powick (STW)","category":"wastewater_plant","osm_type":"way","osm_id":"60858650","operator":"Severn Trent","ref":"10100-ST1"}},{"type":"Feature","geometry":{"type":"Point","coordinates":[-2.22441,52.13252]},"properties":{"name":"Mapped water infrastructure","category":"wastewater_plant","osm_type":"way","osm_id":"89739095"}},{"type":"Feature","geometry":{"type":"Point","coordinates":[-2.06117,52.31348]},"properties":{"name":"Mapped water infrastructure","category":"wastewater_plant","osm_type":"way","osm_id":"91220190"}},{"type":"Feature","geometry":{"type":"Point","coordinates":[-2.20966,52.20049]},"properties":{"name":"Mapped water infrastructure","category":"reservoir_covered","osm_type":"way","osm_id":"93202958"}},{"type":"Feature","geometry":{"type":"Point","coordinates":[-2.22917,52.1784]},"properties":{"name":"Mapped water infrastructure","category":"wastewater_plant","osm_type":"way","osm_id":"99198751"}},{"type":"Feature","geometry":{"type":"Point","coordinates":[-2.20967,52.07057]},"properties":{"name":"Holly Green Sewage Treatment Works","category":"wastewater_plant","osm_type":"way","osm_id":"99614189","operator":"Severn Trent Water"}},{"type":"Feature","geometry":{"type":"Point","coordinates":[-2.16682,52.1505]},"properties":{"name":"Mapped water infrastructure","category":"pumping_station","osm_type":"way","osm_id":"102065982"}},{"type":"Feature","geometry":{"type":"Point","coordinates":[-2.11089,52.10329]},"properties":{"name":"Pershore - Tiddesley Wood (STW)","category":"wastewater_plant","osm_type":"way","osm_id":"107258365","operator":"Severn Trent","ref":"10040-ST1"}},{"type":"Feature","geometry":{"type":"Point","coordinates":[-2.13509,52.13969]},"properties":{"name":"Mapped water infrastructure","category":"wastewater_plant","osm_type":"way","osm_id":"107754557"}},{"type":"Feature","geometry":{"type":"Point","coordinates":[-2.11227,52.18527]},"properties":{"name":"Broughton Hackett (STW)","category":"wastewater_plant","osm_type":"way","osm_id":"109187537","operator":"Severn Trent","ref":"10068-ST1"}},{"type":"Feature","geometry":{"type":"Point","coordinates":[-2.07703,52.18403]},"properties":{"name":"Upton Snodsbury (STW)","category":"wastewater_plant","osm_type":"way","osm_id":"109490956","operator":"Severn Trent","ref":"10084-ST1"}},{"type":"Feature","geometry":{"type":"Point","coordinates":[-2.51994,52.09]},"properties":{"name":"Mapped water infrastructure","category":"wastewater_plant","osm_type":"way","osm_id":"109697952"}},{"type":"Feature","geometry":{"type":"Point","coordinates":[-2.02902,52.38896]},"properties":{"name":"Chadwich Reservoir","category":"reservoir_covered","osm_type":"way","osm_id":"127888874"}},{"type":"Feature","geometry":{"type":"Point","coordinates":[-2.18288,52.30455]},"properties":{"name":"Mapped water infrastructure","category":"wastewater_plant","osm_type":"way","osm_id":"134592440"}},{"type":"Feature","geometry":{"type":"Point","coordinates":[-2.35293,52.234]},"properties":{"name":"Martley - Ductons Coppice (STW)","category":"wastewater_plant","osm_type":"way","osm_id":"134929999","operator":"Severn Trent","ref":"10140-ST1"}},{"type":"Feature","geometry":{"type":"Point","coordinates":[-2.1365,52.06845]},"properties":{"name":"Lower Strensham (Hallwood Green) (STW)","category":"wastewater_plant","osm_type":"way","osm_id":"171700698","operator":"Severn Trent","ref":"10052-ST1"}},{"type":"Feature","geometry":{"type":"Point","coordinates":[-2.12467,52.05713]},"properties":{"name":"Mapped water infrastructure","category":"water_works","osm_type":"way","osm_id":"172086917"}},{"type":"Feature","geometry":{"type":"Point","coordinates":[-2.02026,52.03673]},"properties":{"name":"Mapped water infrastructure","category":"reservoir_covered","osm_type":"way","osm_id":"178064174"}},{"type":"Feature","geometry":{"type":"Point","coordinates":[-2.13806,52.03186]},"properties":{"name":"Twyning (STW)","category":"wastewater_plant","osm_type":"way","osm_id":"183486583","operator":"Severn Trent","ref":"10044-ST1"}},{"type":"Feature","geometry":{"type":"Point","coordinates":[-2.87016,52.35895]},"properties":{"name":"Mapped water infrastructure","category":"wastewater_plant","osm_type":"way","osm_id":"201784109"}},{"type":"Feature","geometry":{"type":"Point","coordinates":[-2.49089,52.13353]},"properties":{"name":"Bishops Frome WwTW","category":"wastewater_plant","osm_type":"way","osm_id":"214468265","operator":"Dŵr Cymru Welsh Water","ref":"30804"}},{"type":"Feature","geometry":{"type":"Point","coordinates":[-2.03091,52.14785]},"properties":{"name":"Throckmorton STW","category":"wastewater_plant","osm_type":"way","osm_id":"217469686","operator":"Severn Trent Water"}},{"type":"Feature","geometry":{"type":"Point","coordinates":[-2.02518,52.00786]},"properties":{"name":"Great Washbourne (STW)","category":"wastewater_plant","osm_type":"way","osm_id":"218321459","operator":"Severn Trent","ref":"10269-ST1"}},{"type":"Feature","geometry":{"type":"Point","coordinates":[-2.03586,52.11967]},"properties":{"name":"Lower Moor (STW)","category":"wastewater_plant","osm_type":"way","osm_id":"229418505","operator":"Severn Trent","ref":"10055-ST1"}},{"type":"Feature","geometry":{"type":"Point","coordinates":[-2.00089,52.48039]},"properties":{"name":"Langley Reservoir (Hill Top Reservoir)","category":"reservoir_covered","osm_type":"way","osm_id":"237984032"}},{"type":"Feature","geometry":{"type":"Point","coordinates":[-2.36855,52.48106]},"properties":{"name":"Hampton Loade Water Treatment Works","category":"water_works","osm_type":"way","osm_id":"240028792","operator":"South Staffs Water"}},{"type":"Feature","geometry":{"type":"Point","coordinates":[-2.37366,52.48079]},"properties":{"name":"Mapped water infrastructure","category":"wastewater_plant","osm_type":"way","osm_id":"240028802"}},{"type":"Feature","geometry":{"type":"Point","coordinates":[-2.583,52.31334]},"properties":{"name":"Tenbury Wells STW","category":"wastewater_plant","osm_type":"way","osm_id":"250921121","operator":"Severn Trent","ref":"10852-ST1"}},{"type":"Feature","geometry":{"type":"Point","coordinates":[-2.13013,52.38675]},"properties":{"name":"Belbroughton Works (STW)","category":"wastewater_plant","osm_type":"way","osm_id":"264291244","operator":"Severn Trent","ref":"10193-ST1"}},{"type":"Feature","geometry":{"type":"Point","coordinates":[-2.09272,52.2975]},"properties":{"name":"Stoke Prior STW","category":"wastewater_plant","osm_type":"way","osm_id":"266222362","operator":"Severn Trent","ref":"10173-ST1"}},{"type":"Feature","geometry":{"type":"Point","coordinates":[-2.08649,52.00929]},"properties":{"name":"Aston on Carrant Sewage Pumping Station","category":"water_works","osm_type":"way","osm_id":"270556767"}},{"type":"Feature","geometry":{"type":"Point","coordinates":[-2.02076,52.49882]},"properties":{"name":"Mapped water infrastructure","category":"reservoir_covered","osm_type":"way","osm_id":"271281312"}},{"type":"Feature","geometry":{"type":"Point","coordinates":[-2.02253,52.4994]},"properties":{"name":"Mapped water infrastructure","category":"reservoir_covered","osm_type":"way","osm_id":"271281325"}},{"type":"Feature","geometry":{"type":"Point","coordinates":[-2.01992,52.49858]},"properties":{"name":"Mapped water infrastructure","category":"reservoir_covered","osm_type":"way","osm_id":"271281328"}},{"type":"Feature","geometry":{"type":"Point","coordinates":[-2.71054,52.35433]},"properties":{"name":"Ludlow (STW)","category":"wastewater_plant","osm_type":"way","osm_id":"271443714","operator":"Severn Trent","ref":"10929-ST1"}},{"type":"Feature","geometry":{"type":"Point","coordinates":[-2.06998,52.3606]},"properties":{"name":"Mapped water infrastructure","category":"reservoir_covered","osm_type":"way","osm_id":"273307121","operator":"Severn Trent Water"}},{"type":"Feature","geometry":{"type":"Point","coordinates":[-2.00792,52.23823]},"properties":{"name":"Priest Bridge (STW)","category":"wastewater_plant","osm_type":"way","osm_id":"274235911","operator":"Severn Trent","ref":"10163-ST1"}},{"type":"Feature","geometry":{"type":"Point","coordinates":[-2.21888,52.43934]},"properties":{"name":"Kinver (STW)","category":"wastewater_plant","osm_type":"way","osm_id":"279973637","operator":"Severn Trent","ref":"15218-ST1"}},{"type":"Feature","geometry":{"type":"Point","coordinates":[-2.24922,52.48189]},"properties":{"name":"Enville (STW)","category":"wastewater_plant","osm_type":"way","osm_id":"284064624","operator":"Severn Trent","ref":"15238-ST1"}},{"type":"Feature","geometry":{"type":"Point","coordinates":[-2.14333,52.2526]},"properties":{"name":"Droitwich Water Tower","category":"water_tower","osm_type":"way","osm_id":"292059394","operator":"Severn Trent Water"}},{"type":"Feature","geometry":{"type":"Point","coordinates":[-2.26633,52.14253]},"properties":{"name":"Deblins Green - Old (STW)","category":"wastewater_plant","osm_type":"way","osm_id":"311434036","operator":"Severn Trent","ref":"10071-ST1"}},{"type":"Feature","geometry":{"type":"Point","coordinates":[-2.61693,52.00342]},"properties":{"name":"Fownhope WwTW","category":"wastewater_plant","osm_type":"way","osm_id":"323812199","operator":"Dŵr Cymru Welsh Water","ref":"30881"}},{"type":"Feature","geometry":{"type":"Point","coordinates":[-2.29173,52.13069]},"properties":{"name":"Madresfield - Waterloo Close (STW","category":"wastewater_plant","osm_type":"way","osm_id":"327315662","operator":"Severn Trent","ref":"10118-ST1"}},{"type":"Feature","geometry":{"type":"Point","coordinates":[-2.32218,52.40477]},"properties":{"name":"Mapped water infrastructure","category":"reservoir_covered","osm_type":"way","osm_id":"331397890"}},{"type":"Feature","geometry":{"type":"Point","coordinates":[-2.02238,52.34365]},"properties":{"name":"Mapped water infrastructure","category":"reservoir_covered","osm_type":"way","osm_id":"343020136"}},{"type":"Feature","geometry":{"type":"Point","coordinates":[-2.05834,52.168]},"properties":{"name":"Naunton Beauchamp (STW)","category":"wastewater_plant","osm_type":"way","osm_id":"343529167","operator":"Severn Trent","ref":"10020-ST1"}},{"type":"Feature","geometry":{"type":"Point","coordinates":[-2.12008,52.46331]},"properties":{"name":"Sewage Works","category":"wastewater_plant","osm_type":"way","osm_id":"376414144"}},{"type":"Feature","geometry":{"type":"Point","coordinates":[-2.73491,52.04841]},"properties":{"name":"Mapped water infrastructure","category":"pumping_station","osm_type":"way","osm_id":"378231341"}},{"type":"Feature","geometry":{"type":"Point","coordinates":[-2.73556,52.05168]},"properties":{"name":"Mapped water infrastructure","category":"water_works","osm_type":"way","osm_id":"378231342"}},{"type":"Feature","geometry":{"type":"Point","coordinates":[-2.71124,52.10309]},"properties":{"name":"Moreton-on-Lugg Waste Water Treatment Works","category":"wastewater_plant","osm_type":"way","osm_id":"398915156","operator":"Dŵr Cymru Welsh Water","ref":"30991"}},{"type":"Feature","geometry":{"type":"Point","coordinates":[-2.22843,52.07325]},"properties":{"name":"Quay Lane (STW)","category":"wastewater_plant","osm_type":"way","osm_id":"399502573","operator":"Severn Trent","ref":"10101-ST1"}},{"type":"Feature","geometry":{"type":"Point","coordinates":[-2.22875,52.06192]},"properties":{"name":"Upton-On-Severn Works (STW)","category":"wastewater_plant","osm_type":"way","osm_id":"399503350","operator":"Severn Trent","ref":"10143-ST1"}},{"type":"Feature","geometry":{"type":"Point","coordinates":[-2.34195,52.41876]},"properties":{"name":"Upper Arley (STW)","category":"wastewater_plant","osm_type":"way","osm_id":"421743986","operator":"Severn Trent Water","ref":"10178-ST1"}},{"type":"Feature","geometry":{"type":"Point","coordinates":[-2.25787,52.21554]},"properties":{"name":"Hallow (STW)","category":"wastewater_plant","osm_type":"way","osm_id":"426765790","operator":"Severn Trent","ref":"10099-ST1"}},{"type":"Feature","geometry":{"type":"Point","coordinates":[-2.07206,52.1235]},"properties":{"name":"Mapped water infrastructure","category":"pumping_station","osm_type":"way","osm_id":"435994411","operator":"Seven Trent Water"}},{"type":"Feature","geometry":{"type":"Point","coordinates":[-2.38003,52.08278]},"properties":{"name":"Mapped water infrastructure","category":"wastewater_plant","osm_type":"way","osm_id":"440741513"}},{"type":"Feature","geometry":{"type":"Point","coordinates":[-2.30194,52.03109]},"properties":{"name":"Castlemorton (STW)","category":"wastewater_plant","osm_type":"way","osm_id":"440764338","operator":"Severn Trent","ref":"10070-ST1"}},{"type":"Feature","geometry":{"type":"Point","coordinates":[-2.28319,52.05108]},"properties":{"name":"Welland (STW)","category":"wastewater_plant","osm_type":"way","osm_id":"466714337","operator":"Severn Trent","ref":"10107-ST1"}},{"type":"Feature","geometry":{"type":"Point","coordinates":[-2.30505,52.37531]},"properties":{"name":"Mapped water infrastructure","category":"water_tower","osm_type":"way","osm_id":"502827948"}},{"type":"Feature","geometry":{"type":"Point","coordinates":[-2.26139,52.36465]},"properties":{"name":"Severn Trent Sewage Treatment Works","category":"wastewater_plant","osm_type":"way","osm_id":"506789066","operator":"Severn Trent"}},{"type":"Feature","geometry":{"type":"Point","coordinates":[-2.05004,52.31175]},"properties":{"name":"Mapped water infrastructure","category":"reservoir_covered","osm_type":"way","osm_id":"550269313"}},{"type":"Feature","geometry":{"type":"Point","coordinates":[-2.27619,52.20186]},"properties":{"name":"Mapped water infrastructure","category":"wastewater_plant","osm_type":"way","osm_id":"554512402"}},{"type":"Feature","geometry":{"type":"Point","coordinates":[-2.19832,52.36969]},"properties":{"name":"Mapped water infrastructure","category":"reservoir_covered","osm_type":"way","osm_id":"560653227"}},{"type":"Feature","geometry":{"type":"Point","coordinates":[-2.12443,52.29208]},"properties":{"name":"Wychbold (STW)","category":"wastewater_plant","osm_type":"way","osm_id":"561183072","operator":"Severn Trent","ref":"10164-ST1"}},{"type":"Feature","geometry":{"type":"Point","coordinates":[-2.09706,52.19962]},"properties":{"name":"Mapped water infrastructure","category":"wastewater_plant","osm_type":"way","osm_id":"590810824"}},{"type":"Feature","geometry":{"type":"Point","coordinates":[-2.12509,52.02524]},"properties":{"name":"Bredon (STW)","category":"wastewater_plant","osm_type":"way","osm_id":"591626717","operator":"Severn Trent","ref":"10028-ST1"}},{"type":"Feature","geometry":{"type":"Point","coordinates":[-2.11899,52.06335]},"properties":{"name":"Eckington Works (STW)","category":"wastewater_plant","osm_type":"way","osm_id":"592015940","operator":"Severn Trent","ref":"10033-ST1"}},{"type":"Feature","geometry":{"type":"Point","coordinates":[-2.20087,52.25173]},"properties":{"name":"Mapped water infrastructure","category":"wastewater_plant","osm_type":"way","osm_id":"608980492"}},{"type":"Feature","geometry":{"type":"Point","coordinates":[-2.22008,52.28186]},"properties":{"name":"Ombersley (STW)","category":"wastewater_plant","osm_type":"way","osm_id":"611114448","operator":"Severn Trent","ref":"10205-ST1"}},{"type":"Feature","geometry":{"type":"Point","coordinates":[-2.28868,52.31671]},"properties":{"name":"Sewage Pumping Station","category":"pumping_station","osm_type":"way","osm_id":"612703114"}},{"type":"Feature","geometry":{"type":"Point","coordinates":[-2.18153,52.03996]},"properties":{"name":"Ripple Works (STW)","category":"wastewater_plant","osm_type":"way","osm_id":"630237248","operator":"Severn Trent","ref":"10082-ST1"}},{"type":"Feature","geometry":{"type":"Point","coordinates":[-2.42592,52.24903]},"properties":{"name":"Clifton-Upon-Teme (STW)","category":"wastewater_plant","osm_type":"way","osm_id":"650758182","operator":"Severn Trent","ref":"10180-ST1"}},{"type":"Feature","geometry":{"type":"Point","coordinates":[-2.05206,52.08849]},"properties":{"name":"Little Comberton Works (STW)","category":"wastewater_plant","osm_type":"way","osm_id":"653357464","operator":"Severn Trent","ref":"10046-ST1"}},{"type":"Feature","geometry":{"type":"Point","coordinates":[-2.56319,52.07037]},"properties":{"name":"Tarrington WwTW","category":"wastewater_plant","osm_type":"way","osm_id":"707478588","operator":"Dwr Cymru Welsh Water","ref":"31071"}},{"type":"Feature","geometry":{"type":"Point","coordinates":[-2.84001,52.02894]},"properties":{"name":"Mapped water infrastructure","category":"wastewater_plant","osm_type":"way","osm_id":"711626770"}},{"type":"Feature","geometry":{"type":"Point","coordinates":[-2.49938,52.18781]},"properties":{"name":"Bromyard Water Treatment Works","category":"wastewater_plant","osm_type":"way","osm_id":"719958809","operator":"Dŵr Cymru - Welsh Water","ref":"30817"}},{"type":"Feature","geometry":{"type":"Point","coordinates":[-2.95068,52.03764]},"properties":{"name":"Peterchurch Wastewater Treatment Works","category":"wastewater_plant","osm_type":"way","osm_id":"737203611","operator":"Dŵr Cymru Welsh Water","addr:postcode":"HR2 0SF"}},{"type":"Feature","geometry":{"type":"Point","coordinates":[-2.80369,52.03703]},"properties":{"name":"Clehonger Wastewater Treatment Works","category":"wastewater_plant","osm_type":"way","osm_id":"774721565","addr:postcode":"HR2 9RA"}},{"type":"Feature","geometry":{"type":"Point","coordinates":[-2.84469,52.18938]},"properties":{"name":"Dilwyn WwTW","category":"wastewater_plant","osm_type":"way","osm_id":"785805685","operator":"Dŵr Cymru Welsh Water","ref":"30863"}},{"type":"Feature","geometry":{"type":"Point","coordinates":[-2.71097,52.17922]},"properties":{"name":"Mapped water infrastructure","category":"wastewater_plant","osm_type":"way","osm_id":"789647666"}},{"type":"Feature","geometry":{"type":"Point","coordinates":[-2.24009,52.38177]},"properties":{"name":"Mapped water infrastructure","category":"water_tower","osm_type":"way","osm_id":"793516866","operator":"Severn Valley Railway"}},{"type":"Feature","geometry":{"type":"Point","coordinates":[-2.55439,52.1501]},"properties":{"name":"Mapped water infrastructure","category":"wastewater_plant","osm_type":"way","osm_id":"794902618"}},{"type":"Feature","geometry":{"type":"Point","coordinates":[-2.74956,52.09862]},"properties":{"name":"Bewdley Bank","category":"reservoir_covered","osm_type":"way","osm_id":"795653618","operator":"Welsh Water","capacity":"29354"}},{"type":"Feature","geometry":{"type":"Point","coordinates":[-2.60361,52.08293]},"properties":{"name":"Mapped water infrastructure","category":"reservoir_covered","osm_type":"way","osm_id":"799423955"}},{"type":"Feature","geometry":{"type":"Point","coordinates":[-2.88458,52.1637]},"properties":{"name":"Weobley WwTW","category":"wastewater_plant","osm_type":"way","osm_id":"801717922","operator":"Dŵr Cymru Welsh Water","ref":"31119"}},{"type":"Feature","geometry":{"type":"Point","coordinates":[-2.89022,52.22172]},"properties":{"name":"Pembridge Wastewater Treatment Works","category":"wastewater_plant","osm_type":"way","osm_id":"802431362","operator":"Dŵr Cymru Welsh Water"}},{"type":"Feature","geometry":{"type":"Point","coordinates":[-2.67484,52.16033]},"properties":{"name":"Bodenham Wastewater Treatment Works","category":"wastewater_plant","osm_type":"way","osm_id":"803301950","operator":"Dŵr Cymru Welsh Water","ref":"30805","addr:city":"Hereford","addr:postcode":"HR1 3LE"}},{"type":"Feature","geometry":{"type":"Point","coordinates":[-2.96467,52.19576]},"properties":{"name":"Lyonshall Wastewater Treatment Works","category":"wastewater_plant","osm_type":"way","osm_id":"812606942","operator":"Dŵr Cymru Welsh Water","ref":"30981","addr:city":"Kington","addr:postcode":"HR5 3LT"}},{"type":"Feature","geometry":{"type":"Point","coordinates":[-2.88946,52.13729]},"properties":{"name":"Mapped water infrastructure","category":"reservoir_covered","osm_type":"way","osm_id":"814977093"}},{"type":"Feature","geometry":{"type":"Point","coordinates":[-2.88227,52.02275]},"properties":{"name":"Mapped water infrastructure","category":"reservoir_covered","osm_type":"way","osm_id":"828687192"}},{"type":"Feature","geometry":{"type":"Point","coordinates":[-2.63168,52.36317]},"properties":{"name":"Mapped water infrastructure","category":"reservoir_covered","osm_type":"way","osm_id":"842769668"}},{"type":"Feature","geometry":{"type":"Point","coordinates":[-2.20941,52.32686]},"properties":{"name":"Mapped water infrastructure","category":"wastewater_plant","osm_type":"way","osm_id":"873116852"}},{"type":"Feature","geometry":{"type":"Point","coordinates":[-2.93867,52.36425]},"properties":{"name":"Bucknell (STW)","category":"wastewater_plant","osm_type":"way","osm_id":"875789604","operator":"Severn Trent","ref":"10806-ST1"}},{"type":"Feature","geometry":{"type":"Point","coordinates":[-2.2246,52.44817]},"properties":{"name":"Kinver Pumping Station","category":"pumping_station","osm_type":"way","osm_id":"881720514"}},{"type":"Feature","geometry":{"type":"Point","coordinates":[-2.84001,52.02894]},"properties":{"name":"Kingstone and Madely Sewage Treatment Works","category":"wastewater_plant","osm_type":"way","osm_id":"885940486","operator":"Dŵr Cymru Welsh Water"}},{"type":"Feature","geometry":{"type":"Point","coordinates":[-2.83022,52.42428]},"properties":{"name":"Craven Arms STW","category":"wastewater_plant","osm_type":"way","osm_id":"888931557"}},{"type":"Feature","geometry":{"type":"Point","coordinates":[-2.91836,52.40656]},"properties":{"name":"Mapped water infrastructure","category":"reservoir_covered","osm_type":"way","osm_id":"889481561"}},{"type":"Feature","geometry":{"type":"Point","coordinates":[-2.15362,52.43216]},"properties":{"name":"Mapped water infrastructure","category":"pumping_station","osm_type":"way","osm_id":"890974430"}},{"type":"Feature","geometry":{"type":"Point","coordinates":[-2.35521,52.46396]},"properties":{"name":"Alveley (STW)","category":"wastewater_plant","osm_type":"way","osm_id":"896433789","operator":"Severn Trent","ref":"10791-ST1"}},{"type":"Feature","geometry":{"type":"Point","coordinates":[-2.35673,52.36488]},"properties":{"name":"Mapped water infrastructure","category":"water_tower","osm_type":"way","osm_id":"901339384","operator":"Severn Trent Water"}},{"type":"Feature","geometry":{"type":"Point","coordinates":[-2.47064,52.38256]},"properties":{"name":"Cleobury Mortimer","category":"wastewater_plant","osm_type":"way","osm_id":"905123917","operator":"Severn Trent","ref":"10817-ST1"}},{"type":"Feature","geometry":{"type":"Point","coordinates":[-2.52241,52.37814]},"properties":{"name":"Mapped water infrastructure","category":"reservoir_covered","osm_type":"way","osm_id":"932647300"}},{"type":"Feature","geometry":{"type":"Point","coordinates":[-2.50442,52.38376]},"properties":{"name":"Mapped water infrastructure","category":"reservoir_covered","osm_type":"way","osm_id":"932648135"}},{"type":"Feature","geometry":{"type":"Point","coordinates":[-2.92251,52.4211]},"properties":{"name":"Clunbury (STW)","category":"wastewater_plant","osm_type":"way","osm_id":"961217582","operator":"Severn Trent","ref":"18424-ST1"}},{"type":"Feature","geometry":{"type":"Point","coordinates":[-2.1789,52.1394]},"properties":{"name":"Mapped water infrastructure","category":"reservoir_covered","osm_type":"way","osm_id":"971028979"}},{"type":"Feature","geometry":{"type":"Point","coordinates":[-2.72923,52.21789]},"properties":{"name":"Leominster (Worcester Road) Waste Water Treatment Works","category":"wastewater_plant","osm_type":"way","osm_id":"975268593","operator":"Dŵr Cymru Welsh Water","ref":"30925","addr:city":"Leominster","addr:postcode":"HR6 0QF"}},{"type":"Feature","geometry":{"type":"Point","coordinates":[-2.88759,52.24549]},"properties":{"name":"Shobdon Airfield Wastewater Treatment Works","category":"wastewater_plant","osm_type":"way","osm_id":"975306639","operator":"Dŵr Cymru Welsh Water"}},{"type":"Feature","geometry":{"type":"Point","coordinates":[-2.74702,52.26865]},"properties":{"name":"Luston & Yarpole Wastewater Treatment Works","category":"wastewater_plant","osm_type":"way","osm_id":"975307624","operator":"Dŵr Cymru Welsh Water"}},{"type":"Feature","geometry":{"type":"Point","coordinates":[-2.14402,52.25224]},"properties":{"name":"Mapped water infrastructure","category":"reservoir_covered","osm_type":"way","osm_id":"1000849444"}},{"type":"Feature","geometry":{"type":"Point","coordinates":[-2.1442,52.25251]},"properties":{"name":"Mapped water infrastructure","category":"reservoir_covered","osm_type":"way","osm_id":"1000849445"}},{"type":"Feature","geometry":{"type":"Point","coordinates":[-2.82551,52.27414]},"properties":{"name":"Mapped water infrastructure","category":"wastewater_plant","osm_type":"way","osm_id":"1023229107"}},{"type":"Feature","geometry":{"type":"Point","coordinates":[-2.57967,52.36367]},"properties":{"name":"Coreley - Clee Hill (STW)","category":"wastewater_plant","osm_type":"way","osm_id":"1030342554","operator":"Severn Trent Water","ref":"10819-ST1"}},{"type":"Feature","geometry":{"type":"Point","coordinates":[-2.58232,52.17074]},"properties":{"name":"Pencombe WwTW","category":"wastewater_plant","osm_type":"way","osm_id":"1031462514","operator":"Dwr Cymru Welsh Water","ref":"31038"}},{"type":"Feature","geometry":{"type":"Point","coordinates":[-2.92996,52.09695]},"properties":{"name":"Staunton-On-Wye WwTW","category":"wastewater_plant","osm_type":"way","osm_id":"1034851811","operator":"Dŵr Cymru - Welsh Water","ref":"31090"}},{"type":"Feature","geometry":{"type":"Point","coordinates":[-2.78545,52.13818]},"properties":{"name":"Canon Pyon WwTW","category":"wastewater_plant","osm_type":"way","osm_id":"1036773820","operator":"Dwr Cymru Welsh Water","ref":"30828"}},{"type":"Feature","geometry":{"type":"Point","coordinates":[-2.56322,52.01764]},"properties":{"name":"Woolhope (Village) WwTW","category":"wastewater_plant","osm_type":"way","osm_id":"1038355182","operator":"Dŵr Cymru Welsh Water","ref":"31127"}},{"type":"Feature","geometry":{"type":"Point","coordinates":[-2.28961,52.12319]},"properties":{"name":"Madresfield - Rectory Lane (STW)","category":"wastewater_plant","osm_type":"way","osm_id":"1038809766","operator":"Severn Trent","ref":"10076-ST1"}},{"type":"Feature","geometry":{"type":"Point","coordinates":[-2.2705,52.26767]},"properties":{"name":"Holt Heath (STW)","category":"wastewater_plant","osm_type":"way","osm_id":"1039919786","operator":"Severn Trent","ref":"10209-ST1"}},{"type":"Feature","geometry":{"type":"Point","coordinates":[-2.61463,52.05722]},"properties":{"name":"Dormington WwTW","category":"wastewater_plant","osm_type":"way","osm_id":"1040463338","operator":"Dwr Cymru Welsh Water","ref":"30866"}},{"type":"Feature","geometry":{"type":"Point","coordinates":[-2.80128,52.24031]},"properties":{"name":"Kingsland WwTW","category":"wastewater_plant","osm_type":"way","osm_id":"1040765307","operator":"Dŵr Cymru - Welsh Water","ref":"30918"}},{"type":"Feature","geometry":{"type":"Point","coordinates":[-2.34204,52.16289]},"properties":{"name":"Coles Green (STW)","category":"wastewater_plant","osm_type":"way","osm_id":"1040933123","operator":"Severn Trent","ref":"15212-ST1"}},{"type":"Feature","geometry":{"type":"Point","coordinates":[-2.02664,52.20213]},"properties":{"name":"Kington (STW)","category":"wastewater_plant","osm_type":"way","osm_id":"1043492608","operator":"Severn Trent","ref":"10167-ST1"}},{"type":"Feature","geometry":{"type":"Point","coordinates":[-2.14866,52.12712]},"properties":{"name":"Wadborough (STW)","category":"wastewater_plant","osm_type":"way","osm_id":"1043494910","operator":"Severn Trent","ref":"10045-ST1"}},{"type":"Feature","geometry":{"type":"Point","coordinates":[-2.11932,52.0837]},"properties":{"name":"Defford Village (STW)","category":"wastewater_plant","osm_type":"way","osm_id":"1043498817","operator":"Severn Trent","ref":"10032-ST1"}},{"type":"Feature","geometry":{"type":"Point","coordinates":[-2.18615,52.10577]},"properties":{"name":"High Green (STW)","category":"wastewater_plant","osm_type":"way","osm_id":"1043499895","operator":"Severn Trent","ref":"15199-ST1"}},{"type":"Feature","geometry":{"type":"Point","coordinates":[-2.14521,52.06599]},"properties":{"name":"Baughton Lane (STW)","category":"wastewater_plant","osm_type":"way","osm_id":"1043501101","operator":"Severn Trent","ref":"18005-ST1"}},{"type":"Feature","geometry":{"type":"Point","coordinates":[-2.0011,52.03417]},"properties":{"name":"Ashton Under Hill (STW)","category":"wastewater_plant","osm_type":"way","osm_id":"1043502578","operator":"Severn Trent","ref":"10265-ST1"}},{"type":"Feature","geometry":{"type":"Point","coordinates":[-2.04369,52.01573]},"properties":{"name":"Beckford (STW)","category":"wastewater_plant","osm_type":"way","osm_id":"1043503254","operator":"Severn Trent","ref":"10285-ST1"}},{"type":"Feature","geometry":{"type":"Point","coordinates":[-2.16474,52.35433]},"properties":{"name":"Chaddesley Corbett (STW)","category":"wastewater_plant","osm_type":"way","osm_id":"1043504901","operator":"Severn Trent","ref":"10208-ST1"}},{"type":"Feature","geometry":{"type":"Point","coordinates":[-2.74985,52.09562]},"properties":{"name":"Bewdley Bank No.2","category":"reservoir_covered","osm_type":"way","osm_id":"1086432735","operator":"Welsh Water","capacity":"36608"}},{"type":"Feature","geometry":{"type":"Point","coordinates":[-2.62724,52.04334]},"properties":{"name":"Mordiford (Sufton) WwTW","category":"wastewater_plant","osm_type":"way","osm_id":"1086678888","operator":"Dŵr Cymru Welsh Water","ref":"30989"}},{"type":"Feature","geometry":{"type":"Point","coordinates":[-2.19242,52.20082]},"properties":{"name":"Elbury Hill reservoir","category":"reservoir_covered","osm_type":"way","osm_id":"1094105671"}},{"type":"Feature","geometry":{"type":"Point","coordinates":[-2.69944,52.48447]},"properties":{"name":"Munslow (STW)","category":"wastewater_plant","osm_type":"way","osm_id":"1103654445","operator":"Severn Trent","ref":"10829-ST1"}},{"type":"Feature","geometry":{"type":"Point","coordinates":[-2.72909,52.46491]},"properties":{"name":"Diddlebury - The Moors (STW)","category":"wastewater_plant","osm_type":"way","osm_id":"1103655810","operator":"Severn Trent","ref":"10825-ST1"}},{"type":"Feature","geometry":{"type":"Point","coordinates":[-2.56797,52.49936]},"properties":{"name":"Ditton Priors (STW)","category":"wastewater_plant","osm_type":"way","osm_id":"1103659833","operator":"Severn Trent","ref":"10826-ST1"}},{"type":"Feature","geometry":{"type":"Point","coordinates":[-2.74774,52.43636]},"properties":{"name":"Culmington - Corve View (STW)","category":"wastewater_plant","osm_type":"way","osm_id":"1103662048","operator":"Severn Trent","ref":"10822-ST1"}},{"type":"Feature","geometry":{"type":"Point","coordinates":[-2.40785,52.16611]},"properties":{"name":"Suckley - Rectory Lane (STW)","category":"wastewater_plant","osm_type":"way","osm_id":"1103681798","operator":"Severn Trent","ref":"15119-ST1"}},{"type":"Feature","geometry":{"type":"Point","coordinates":[-2.45025,52.30934]},"properties":{"name":"Eardiston (STW)","category":"wastewater_plant","osm_type":"way","osm_id":"1103681890","operator":"Severn Trent","ref":"10931-ST1"}},{"type":"Feature","geometry":{"type":"Point","coordinates":[-2.40291,52.18479]},"properties":{"name":"Knightwick - Highfields (STW)","category":"wastewater_plant","osm_type":"way","osm_id":"1103755051","operator":"Severn Trent","ref":"10131-ST1"}},{"type":"Feature","geometry":{"type":"Point","coordinates":[-2.55117,52.15107]},"properties":{"name":"Stoke Lacy (Westbury) WwTW","category":"wastewater_plant","osm_type":"way","osm_id":"1107201910","operator":"Dŵr Cymru Welsh Water","ref":"31092"}},{"type":"Feature","geometry":{"type":"Point","coordinates":[-2.35843,52.11115]},"properties":{"name":"West Malvern (STW)","category":"wastewater_plant","osm_type":"way","osm_id":"1107212036","operator":"Severn Trent","ref":"10121-ST1"}},{"type":"Feature","geometry":{"type":"Point","coordinates":[-2.211,52.10125]},"properties":{"name":"Severn Stoke Wks (STW)","category":"wastewater_plant","osm_type":"way","osm_id":"1110246482","operator":"Severn Trent","ref":"10103-ST1"}},{"type":"Feature","geometry":{"type":"Point","coordinates":[-2.53716,52.09306]},"properties":{"name":"Stretton Grandison WwTW","category":"wastewater_plant","osm_type":"way","osm_id":"1111720329","operator":"Dŵr Cymru Welsh Water","ref":"31094"}},{"type":"Feature","geometry":{"type":"Point","coordinates":[-2.81043,52.04573]},"properties":{"name":"Eaton Bishop WwTW","category":"wastewater_plant","osm_type":"way","osm_id":"1111897521","operator":"Dŵr Cymru Welsh Water","ref":"30873"}},{"type":"Feature","geometry":{"type":"Point","coordinates":[-2.64918,52.0202]},"properties":{"name":"Hereford River View WwTW","category":"wastewater_plant","osm_type":"way","osm_id":"1111990268","operator":"Dŵr Cymru Welsh Water","ref":"71132"}},{"type":"Feature","geometry":{"type":"Point","coordinates":[-2.06353,52.26062]},"properties":{"name":"Hanbury - Worcestershire (STW)","category":"wastewater_plant","osm_type":"way","osm_id":"1112152137","operator":"Severn Trent","ref":"17618-ST1"}},{"type":"Feature","geometry":{"type":"Point","coordinates":[-2.58797,52.06341]},"properties":{"name":"Stoke Edith WwTW","category":"wastewater_plant","osm_type":"way","osm_id":"1112311695","operator":"Dŵr Cymru Welsh Water","ref":"31091"}},{"type":"Feature","geometry":{"type":"Point","coordinates":[-2.97798,52.23432]},"properties":{"name":"Titley WwTW","category":"wastewater_plant","osm_type":"way","osm_id":"1123199976","operator":"Dŵr Cymru Welsh Water","ref":"71718"}},{"type":"Feature","geometry":{"type":"Point","coordinates":[-2.61296,52.39152]},"properties":{"name":"Bedlam (STW)","category":"wastewater_plant","osm_type":"way","osm_id":"1125804074","operator":"Severn Trent","ref":"10797-ST1"}},{"type":"Feature","geometry":{"type":"Point","coordinates":[-2.89896,52.0759]},"properties":{"name":"Preston-On-Wye WwTW","category":"wastewater_plant","osm_type":"way","osm_id":"1125920455","operator":"Dŵr Cymru Welsh Water","ref":"31059"}},{"type":"Feature","geometry":{"type":"Point","coordinates":[-2.51126,52.19477]},"properties":{"name":"Mapped water infrastructure","category":"pumping_station","osm_type":"way","osm_id":"1134113028","operator":"Welsh Water"}},{"type":"Feature","geometry":{"type":"Point","coordinates":[-2.46121,52.07954]},"properties":{"name":"Bosbury - Cold Green (STW)","category":"wastewater_plant","osm_type":"way","osm_id":"1207539565","operator":"Severn Trent","ref":"10063-ST1"}},{"type":"Feature","geometry":{"type":"Point","coordinates":[-2.45831,52.16544]},"properties":{"name":"Stanford Bishop (SE Of Bromyard) WwTW","category":"wastewater_plant","osm_type":"way","osm_id":"1207540842","operator":"Dŵr Cymru Welsh Water","ref":"31088","addr:city":"Stanford Bishop","addr:postcode":"WR6 5TU"}},{"type":"Feature","geometry":{"type":"Point","coordinates":[-2.21375,52.33503]},"properties":{"name":"Walton Cottages (STW)","category":"wastewater_plant","osm_type":"way","osm_id":"1207791847","operator":"Severn Trent","ref":"15149-ST1"}},{"type":"Feature","geometry":{"type":"Point","coordinates":[-2.19032,52.17513]},"properties":{"name":"Whittington - Meb (STW)","category":"wastewater_plant","osm_type":"way","osm_id":"1207859455","operator":"Severn Trent","ref":"10089-ST1"}},{"type":"Feature","geometry":{"type":"Point","coordinates":[-2.139,52.1785]},"properties":{"name":"Sneachill (STW)","category":"wastewater_plant","osm_type":"way","osm_id":"1207860136","operator":"Severn Trent","ref":"10083-ST1"}},{"type":"Feature","geometry":{"type":"Point","coordinates":[-2.17535,52.16731]},"properties":{"name":"Whittington East (STW)","category":"wastewater_plant","osm_type":"way","osm_id":"1207861701","operator":"Severn Trent","ref":"17817-ST1"}},{"type":"Feature","geometry":{"type":"Point","coordinates":[-2.17443,52.17545]},"properties":{"name":"Whittington Nr Motorway (STW)","category":"wastewater_plant","osm_type":"way","osm_id":"1207863100","operator":"Severn Trent","ref":"10088-ST1"}},{"type":"Feature","geometry":{"type":"Point","coordinates":[-2.20021,52.15855]},"properties":{"name":"Broomhall (STW)","category":"wastewater_plant","osm_type":"way","osm_id":"1207864096","operator":"Severn Trent","ref":"15210-ST1"}},{"type":"Feature","geometry":{"type":"Point","coordinates":[-2.27157,52.10358]},"properties":{"name":"Guarlford (STW)","category":"wastewater_plant","osm_type":"way","osm_id":"1207866891","operator":"Severn Trent","ref":"10075-ST1"}},{"type":"Feature","geometry":{"type":"Point","coordinates":[-2.24299,52.05549]},"properties":{"name":"Duckswich (STW)","category":"wastewater_plant","osm_type":"way","osm_id":"1207867740","operator":"Severn Trent","ref":"10126-ST1"}},{"type":"Feature","geometry":{"type":"Point","coordinates":[-2.46306,52.26711]},"properties":{"name":"Upper Sapey (STW)","category":"wastewater_plant","osm_type":"way","osm_id":"1209213676","operator":"Severn Trent","ref":"10188-ST1"}},{"type":"Feature","geometry":{"type":"Point","coordinates":[-2.72766,52.09404]},"properties":{"name":"Pipe & Lyde (N Of Hereford) WwTW","category":"wastewater_plant","osm_type":"way","osm_id":"1209213774","operator":"Dŵr Cymru Welsh Water","ref":"31048"}},{"type":"Feature","geometry":{"type":"Point","coordinates":[-2.06127,52.2329]},"properties":{"name":"Earls Common (STW)","category":"wastewater_plant","osm_type":"way","osm_id":"1209562173","operator":"Severn Trent","ref":"18128-ST1"}},{"type":"Feature","geometry":{"type":"Point","coordinates":[-2.02208,52.2002]},"properties":{"name":"Mapped water infrastructure","category":"wastewater_plant","osm_type":"way","osm_id":"1216497160","operator":"Severn Trent"}},{"type":"Feature","geometry":{"type":"Point","coordinates":[-2.67621,52.3899]},"properties":{"name":"Middleton (STW)","category":"wastewater_plant","osm_type":"way","osm_id":"1242809353","operator":"Severn Trent","ref":"10859-ST1"}},{"type":"Feature","geometry":{"type":"Point","coordinates":[-2.6015,52.11432]},"properties":{"name":"Ocle Pychard WwTW","category":"wastewater_plant","osm_type":"way","osm_id":"1242963137","operator":"Dŵr Cymru Welsh Water","ref":"31025"}},{"type":"Feature","geometry":{"type":"Point","coordinates":[-2.58404,52.20844]},"properties":{"name":"Bredenbury (Grendon) WwTW","category":"wastewater_plant","osm_type":"way","osm_id":"1272999183","operator":"Dŵr Cymru Welsh Water","ref":"30810"}},{"type":"Feature","geometry":{"type":"Point","coordinates":[-2.12389,52.05482]},"properties":{"name":"Strensham Intake (STW)","category":"wastewater_plant","osm_type":"way","osm_id":"1294484556","operator":"Severn Trent","ref":"14491-ST1"}},{"type":"Feature","geometry":{"type":"Point","coordinates":[-2.73294,52.15848]},"properties":{"name":"Mapped water infrastructure","category":"reservoir_covered","osm_type":"way","osm_id":"1300289190"}},{"type":"Feature","geometry":{"type":"Point","coordinates":[-2.2744,52.19273]},"properties":{"name":"Rushwick Green (Crown East) (STW)","category":"wastewater_plant","osm_type":"way","osm_id":"1316395231","operator":"Severn Trent","ref":"10120-ST1"}},{"type":"Feature","geometry":{"type":"Point","coordinates":[-2.01342,52.16488]},"properties":{"name":"Bishampton (STW)","category":"wastewater_plant","osm_type":"way","osm_id":"1316935091","operator":"Severn Trent","ref":"10026-ST1"}},{"type":"Feature","geometry":{"type":"Point","coordinates":[-2.20369,52.08883]},"properties":{"name":"Severn Stoke Reservoir","category":"reservoir_covered","osm_type":"way","osm_id":"1332719385"}},{"type":"Feature","geometry":{"type":"Point","coordinates":[-2.11994,52.09345]},"properties":{"name":"Defford - Lodge Hill (STW)","category":"wastewater_plant","osm_type":"way","osm_id":"1388502380","operator":"Severn Trent","ref":"10056-ST1"}},{"type":"Feature","geometry":{"type":"Point","coordinates":[-2.23405,52.02621]},"properties":{"name":"Longdon Works (STW)","category":"wastewater_plant","osm_type":"way","osm_id":"1388517292","operator":"Severn Trent","ref":"10135-ST1"}},{"type":"Feature","geometry":{"type":"Point","coordinates":[-2.37693,52.02724]},"properties":{"name":"Eastnor (STW)","category":"wastewater_plant","osm_type":"way","osm_id":"1388718093","operator":"Severn Trent","ref":"10072-ST1"}},{"type":"Feature","geometry":{"type":"Point","coordinates":[-2.11964,52.14556]},"properties":{"name":"Stoulton - Windmill Hill (STW)","category":"wastewater_plant","osm_type":"way","osm_id":"1388735641","operator":"Severn Trent","ref":"10042-ST1"}},{"type":"Feature","geometry":{"type":"Point","coordinates":[-2.01602,52.10264]},"properties":{"name":"Cropthorne Heath (STW)","category":"wastewater_plant","osm_type":"way","osm_id":"1388773454","operator":"Severn Trent","ref":"10030-ST1"}},{"type":"Feature","geometry":{"type":"Point","coordinates":[-2.0959,52.15481]},"properties":{"name":"Peopleton Rbc (STW)","category":"wastewater_plant","osm_type":"way","osm_id":"1388778417","operator":"Severn Trent","ref":"10039-ST1"}},{"type":"Feature","geometry":{"type":"Point","coordinates":[-2.06816,52.37468]},"properties":{"name":"Wildmoor (STW)","category":"wastewater_plant","osm_type":"way","osm_id":"1388778861","operator":"Severn Trent","ref":"14492-ST1"}},{"type":"Feature","geometry":{"type":"Point","coordinates":[-2.27704,52.30762]},"properties":{"name":"Astley Hampstall (STW)","category":"wastewater_plant","osm_type":"way","osm_id":"1390098118","operator":"Severn Trent","ref":"10192-ST1"}},{"type":"Feature","geometry":{"type":"Point","coordinates":[-2.80558,52.40611]},"properties":{"name":"Onibury - Woodyard (STW)","category":"wastewater_plant","osm_type":"way","osm_id":"1390341691","operator":"Severn Trent","ref":"10833-ST1"}},{"type":"Feature","geometry":{"type":"Point","coordinates":[-2.80093,52.40608]},"properties":{"name":"Onibury - Church Close (STW)","category":"wastewater_plant","osm_type":"way","osm_id":"1390342877","operator":"Severn Trent","ref":"10832-ST1"}},{"type":"Feature","geometry":{"type":"Point","coordinates":[-2.89558,52.42779]},"properties":{"name":"Aston On Clun (STW)","category":"wastewater_plant","osm_type":"way","osm_id":"1390532302","operator":"Severn Trent","ref":"14719-ST1"}},{"type":"Feature","geometry":{"type":"Point","coordinates":[-2.39468,52.34297]},"properties":{"name":"Rock - Rectory Lane (STW)","category":"wastewater_plant","osm_type":"way","osm_id":"1390533223","operator":"Severn Trent","ref":"10190-ST1"}},{"type":"Feature","geometry":{"type":"Point","coordinates":[-2.3701,52.31064]},"properties":{"name":"Abberley - Suffolk Lane (STW)","category":"wastewater_plant","osm_type":"way","osm_id":"1390534876","operator":"Severn Trent","ref":"10177-ST1"}},{"type":"Feature","geometry":{"type":"Point","coordinates":[-2.46985,52.04522]},"properties":{"name":"Falcon Lane (STW)","category":"wastewater_plant","osm_type":"way","osm_id":"1391563748","operator":"Severn Trent","ref":"10128-ST1"}},{"type":"Feature","geometry":{"type":"Point","coordinates":[-2.1883,52.40151]},"properties":{"name":"Blakedown (STW)","category":"wastewater_plant","osm_type":"way","osm_id":"1391564264","operator":"Severn Trent","ref":"10207-ST1"}},{"type":"Feature","geometry":{"type":"Point","coordinates":[-2.29516,52.23806]},"properties":{"name":"Monkwood Green (STW)","category":"wastewater_plant","osm_type":"way","osm_id":"1391624497","operator":"Severn Trent","ref":"15121-ST1"}},{"type":"Feature","geometry":{"type":"Point","coordinates":[-2.52824,52.22248]},"properties":{"name":"Edwyn Ralph WwTW","category":"wastewater_plant","osm_type":"way","osm_id":"1391624904","operator":"Dwr Cymru - Welsh Water","ref":"30874"}},{"type":"Feature","geometry":{"type":"Point","coordinates":[-2.10311,52.08228]},"properties":{"name":"Birlingham (STW)","category":"wastewater_plant","osm_type":"way","osm_id":"1396670066","operator":"Severn Trent","ref":"14761-ST1"}},{"type":"Feature","geometry":{"type":"Point","coordinates":[-2.31017,52.26769]},"properties":{"name":"Little Witley (STW)","category":"wastewater_plant","osm_type":"way","osm_id":"1396670655","operator":"Severn Trent","ref":"10203-ST1"}},{"type":"Feature","geometry":{"type":"Point","coordinates":[-2.47198,52.04952]},"properties":{"name":"Wallers Green (STW)","category":"wastewater_plant","osm_type":"way","osm_id":"1396671951","operator":"Severn Trent","ref":"10085-ST1"}},{"type":"Feature","geometry":{"type":"Point","coordinates":[-2.2241,52.11429]},"properties":{"name":"Clifton - Kempsey (STW)","category":"wastewater_plant","osm_type":"way","osm_id":"1396793945","operator":"Severn Trent","ref":"17759-ST1"}},{"type":"Feature","geometry":{"type":"Point","coordinates":[-2.20087,52.011]},"properties":{"name":"Bushley Green (STW)","category":"wastewater_plant","osm_type":"way","osm_id":"1396794538","operator":"Severn Trent","ref":"10124-ST1"}},{"type":"Feature","geometry":{"type":"Point","coordinates":[-2.05432,52.1471]},"properties":{"name":"Tilesford Park (STW)","category":"wastewater_plant","osm_type":"way","osm_id":"1396832436","operator":"Severn Trent","ref":"10024-ST1"}},{"type":"Feature","geometry":{"type":"Point","coordinates":[-2.23961,52.24599]},"properties":{"name":"Grimley (STW)","category":"wastewater_plant","osm_type":"way","osm_id":"1396836728","operator":"Severn Trent","ref":"15132-ST1"}},{"type":"Feature","geometry":{"type":"Point","coordinates":[-2.38637,52.10969]},"properties":{"name":"Mathon (STW)","category":"wastewater_plant","osm_type":"way","osm_id":"1396842319","operator":"Severn Trent","ref":"10119-ST1"}},{"type":"Feature","geometry":{"type":"Point","coordinates":[-2.39533,52.26224]},"properties":{"name":"Shelsley Beauchamp (STW)","category":"wastewater_plant","osm_type":"way","osm_id":"1396842780","operator":"Severn Trent","ref":"10183-ST1"}},{"type":"Feature","geometry":{"type":"Point","coordinates":[-2.40282,52.20374]},"properties":{"name":"Whitbourne Works (STW)","category":"wastewater_plant","osm_type":"way","osm_id":"1396843338","operator":"Severn Trent","ref":"10087-ST1"}},{"type":"Feature","geometry":{"type":"Point","coordinates":[-2.9776,52.09591]},"properties":{"name":"Bredwardine WwTW","category":"wastewater_plant","osm_type":"way","osm_id":"1408124173","operator":"Dŵr Cymru Welsh Water","ref":"30811"}},{"type":"Feature","geometry":{"type":"Point","coordinates":[-2.21187,52.03054]},"properties":{"name":"Queen Hill (STW)","category":"wastewater_plant","osm_type":"way","osm_id":"1408779821","operator":"Severn Trent","ref":"15120-ST1"}},{"type":"Feature","geometry":{"type":"Point","coordinates":[-2.38267,52.19006]},"properties":{"name":"Lulsley Greswold (STW)","category":"wastewater_plant","osm_type":"way","osm_id":"1409410920","operator":"Severn Trent","ref":"10115-ST1"}},{"type":"Feature","geometry":{"type":"Point","coordinates":[-2.38243,52.18634]},"properties":{"name":"Lusley Rbc - Council Houses (STW)","category":"wastewater_plant","osm_type":"way","osm_id":"1409412581","operator":"Severn Trent","ref":"10146-ST1"}},{"type":"Feature","geometry":{"type":"Point","coordinates":[-2.44503,52.15253]},"properties":{"name":"Acton Green (STW)","category":"wastewater_plant","osm_type":"way","osm_id":"1409540563","operator":"Severn Trent","ref":"18153-ST1"}},{"type":"Feature","geometry":{"type":"Point","coordinates":[-2.36947,52.17788]},"properties":{"name":"Alfrick - Clay Green (STW)","category":"wastewater_plant","osm_type":"way","osm_id":"1409542738","operator":"Severn Trent","ref":"10091-ST1"}},{"type":"Feature","geometry":{"type":"Point","coordinates":[-2.39119,52.2091]},"properties":{"name":"Knightwick - Almshouses (STW)","category":"wastewater_plant","osm_type":"way","osm_id":"1409543180","operator":"Severn Trent","ref":"10113-ST1"}},{"type":"Feature","geometry":{"type":"Point","coordinates":[-2.41277,52.28616]},"properties":{"name":"Shelsley - Stanford Bungalows (STW)","category":"wastewater_plant","osm_type":"way","osm_id":"1409544974","operator":"Severn Trent","ref":"10184-ST1"}},{"type":"Feature","geometry":{"type":"Point","coordinates":[-2.391,52.28805]},"properties":{"name":"Shelsley - Wilderness Cottages (STW)","category":"wastewater_plant","osm_type":"way","osm_id":"1409545122","operator":"Severn Trent","ref":"10185-ST1"}},{"type":"Feature","geometry":{"type":"Point","coordinates":[-2.29705,52.29403]},"properties":{"name":"Shrawley - New Inn Lane (STW)","category":"wastewater_plant","osm_type":"way","osm_id":"1409545756","operator":"Severn Trent","ref":"10210-ST1"}},{"type":"Feature","geometry":{"type":"Point","coordinates":[-2.29473,52.28738]},"properties":{"name":"Shrawley - Rectory Lane (STW)","category":"wastewater_plant","osm_type":"way","osm_id":"1409548861","operator":"Severn Trent","ref":"10211-ST1"}},{"type":"Feature","geometry":{"type":"Point","coordinates":[-2.39079,52.13154]},"properties":{"name":"Cradley (STW)","category":"wastewater_plant","osm_type":"way","osm_id":"1409676756","operator":"Severn Trent","ref":"10096-ST1"}},{"type":"Feature","geometry":{"type":"Point","coordinates":[-2.33281,52.09909]},"properties":{"name":"Mapped water infrastructure","category":"reservoir_covered","osm_type":"way","osm_id":"1409678853"}},{"type":"Feature","geometry":{"type":"Point","coordinates":[-2.44485,52.08611]},"properties":{"name":"Bosbury Rbc (STW)","category":"wastewater_plant","osm_type":"way","osm_id":"1409751500","operator":"Severn Trent","ref":"10065-ST1"}},{"type":"Feature","geometry":{"type":"Point","coordinates":[-2.49392,52.03817]},"properties":{"name":"Aylton (STW)","category":"wastewater_plant","osm_type":"way","osm_id":"1409753131","operator":"Severn Trent","ref":"10061-ST1"}},{"type":"Feature","geometry":{"type":"Point","coordinates":[-2.44039,52.0264]},"properties":{"name":"Leddington (STW)","category":"wastewater_plant","osm_type":"way","osm_id":"1409753407","operator":"Severn Trent","ref":"15141-ST1"}},{"type":"Feature","geometry":{"type":"Point","coordinates":[-2.40455,52.1606]},"properties":{"name":"Suckley (STW)","category":"wastewater_plant","osm_type":"way","osm_id":"1409754911","operator":"Severn Trent","ref":"10105-ST1"}},{"type":"Feature","geometry":{"type":"Point","coordinates":[-2.66307,52.06342]},"properties":{"name":"Tidnor Lane Sewage Pumping Station","category":"pumping_station","osm_type":"way","osm_id":"1409756726","operator":"Dŵr Cymru Welsh Water"}},{"type":"Feature","geometry":{"type":"Point","coordinates":[-2.7451,52.00955]},"properties":{"name":"Hillcrest Septic Tank","category":"wastewater_plant","osm_type":"way","osm_id":"1410057687"}},{"type":"Feature","geometry":{"type":"Point","coordinates":[-2.9529,52.07129]},"properties":{"name":"Moccas SWK WwTW","category":"wastewater_plant","osm_type":"way","osm_id":"1410064105","operator":"Dŵr Cymru - Welsh Water","ref":"30986"}},{"type":"Feature","geometry":{"type":"Point","coordinates":[-2.75609,52.44184]},"properties":{"name":"Seifton (STW)","category":"wastewater_plant","osm_type":"way","osm_id":"1410851768","operator":"Severn Trent","ref":"10837-ST1"}},{"type":"Feature","geometry":{"type":"Point","coordinates":[-2.50935,52.03431]},"properties":{"name":"Putley Green (STW)","category":"wastewater_plant","osm_type":"way","osm_id":"1410934392","operator":"Severn Trent","ref":"10081-ST1"}},{"type":"Feature","geometry":{"type":"Point","coordinates":[-2.19172,52.14045]},"properties":{"name":"Kempsey - Green Street (STW)","category":"wastewater_plant","osm_type":"way","osm_id":"1411091256","operator":"Severn Trent","ref":"17688-ST1"}},{"type":"Feature","geometry":{"type":"Point","coordinates":[-2.37573,52.20471]},"properties":{"name":"Darbys Green (STW)","category":"wastewater_plant","osm_type":"way","osm_id":"1411390313","operator":"Severn Trent","ref":"10125-ST1"}},{"type":"Feature","geometry":{"type":"Point","coordinates":[-2.38028,52.16356]},"properties":{"name":"Mapped water infrastructure","category":"pumping_station","osm_type":"way","osm_id":"1411396176","operator":"Severn Trent"}},{"type":"Feature","geometry":{"type":"Point","coordinates":[-2.95711,52.46476]},"properties":{"name":"Lydbury North (STW)","category":"wastewater_plant","osm_type":"way","osm_id":"1411789484","operator":"Severn Trent","ref":"10951-ST1"}},{"type":"Feature","geometry":{"type":"Point","coordinates":[-2.92096,52.34664]},"properties":{"name":"Brampton Bryan (STW)","category":"wastewater_plant","osm_type":"way","osm_id":"1412247254","operator":"Severn Trent","ref":"10936-ST1"}},{"type":"Feature","geometry":{"type":"Point","coordinates":[-2.49061,52.44417]},"properties":{"name":"Stottesdon (STW)","category":"wastewater_plant","osm_type":"way","osm_id":"1412251322","operator":"Severn Trent","ref":"10844-ST1"}},{"type":"Feature","geometry":{"type":"Point","coordinates":[-2.34969,52.29419]},"properties":{"name":"Great Witley (STW)","category":"wastewater_plant","osm_type":"way","osm_id":"1414310593","operator":"Severn Trent","ref":"10181-ST1"}},{"type":"Feature","geometry":{"type":"Point","coordinates":[-2.70164,52.33102]},"properties":{"name":"Ashford Carbonell (STW)","category":"wastewater_plant","osm_type":"way","osm_id":"1414621917","operator":"Severn Trent","ref":"10792-ST1"}},{"type":"Feature","geometry":{"type":"Point","coordinates":[-2.01867,52.48883]},"properties":{"name":"Titford Road Flood Alleviation Tank","category":"reservoir_covered","osm_type":"way","osm_id":"1415200656","operator":"Severn Trent Water","capacity":"1750"}},{"type":"Feature","geometry":{"type":"Point","coordinates":[-2.64632,52.017]},"properties":{"name":"Holme Lacy (Wyelands) WwTW","category":"wastewater_plant","osm_type":"way","osm_id":"1415863507","operator":"Dŵr Cymru - Welsh Water","ref":"30906"}},{"type":"Feature","geometry":{"type":"Point","coordinates":[-2.35219,52.10158]},"properties":{"name":"West Malvern - Park Lane (STW)","category":"wastewater_plant","osm_type":"way","osm_id":"1416526606","operator":"Severn Trent","ref":"10079-ST1"}},{"type":"Feature","geometry":{"type":"Point","coordinates":[-2.63841,52.45843]},"properties":{"name":"Clee St Margaret (STW)","category":"wastewater_plant","osm_type":"way","osm_id":"1420434902","operator":"Severn Trent","ref":"10816-ST1"}},{"type":"Feature","geometry":{"type":"Point","coordinates":[-2.73871,52.4069]},"properties":{"name":"Stanton Lacy (STW)","category":"wastewater_plant","osm_type":"way","osm_id":"1420446757","operator":"Severn Trent","ref":"10842-ST1"}},{"type":"Feature","geometry":{"type":"Point","coordinates":[-2.64309,52.1107]},"properties":{"name":"Preston Wynne WwTW","category":"wastewater_plant","osm_type":"way","osm_id":"1421521259","operator":"Dŵr Cymru - Welsh Water","ref":"31058"}},{"type":"Feature","geometry":{"type":"Point","coordinates":[-2.61932,52.03246]},"properties":{"name":"Mordiford (Nr Hereford) Pentaloe Close WwTW","category":"wastewater_plant","osm_type":"way","osm_id":"1423358607","operator":"Dŵr Cymru - Welsh Water","ref":"30990"}},{"type":"Feature","geometry":{"type":"Point","coordinates":[-2.99732,52.06953]},"properties":{"name":"Dorstone (Oakland Pl) WwTW","category":"wastewater_plant","osm_type":"way","osm_id":"1423378163","operator":"Dŵr Cymru - Welsh Water","ref":"30867"}},{"type":"Feature","geometry":{"type":"Point","coordinates":[-2.02754,52.14685]},"properties":{"name":"Throckmorton (STW)","category":"wastewater_plant","osm_type":"way","osm_id":"1423380837","operator":"Severn Trent","ref":"10043-ST1"}},{"type":"Feature","geometry":{"type":"Point","coordinates":[-2.0185,52.34338]},"properties":{"name":"Burcott (STW)","category":"wastewater_plant","osm_type":"way","osm_id":"1423381683","operator":"Severn Trent","ref":"17810-ST1"}},{"type":"Feature","geometry":{"type":"Point","coordinates":[-2.60479,52.07252]},"properties":{"name":"Weston Beggard WwTW","category":"wastewater_plant","osm_type":"way","osm_id":"1425079419","operator":"Dŵr Cymru - Welsh Water","ref":"31122"}},{"type":"Feature","geometry":{"type":"Point","coordinates":[-2.7717,52.20635]},"properties":{"name":"Ivington (Nr Leominster) WwTW","category":"wastewater_plant","osm_type":"way","osm_id":"1425082204","operator":"Dŵr Cymru - Welsh Water","ref":"30911"}},{"type":"Feature","geometry":{"type":"Point","coordinates":[-2.7362,52.05183]},"properties":{"name":"Mapped water infrastructure","category":"water_tower","osm_type":"way","osm_id":"1479889657","operator":"Welsh Water"}},{"type":"Feature","geometry":{"type":"Point","coordinates":[-2.81826,52.24661]},"properties":{"name":"Mapped water infrastructure","category":"pumping_station","osm_type":"way","osm_id":"1537524605","operator":"Dŵr Cymru - Welsh Water"}},{"type":"Feature","geometry":{"type":"Point","coordinates":[-2.08067,52.2976]},"properties":{"name":"Mapped water infrastructure","category":"pumping_station","osm_type":"way","osm_id":"1556776251"}},{"type":"Feature","geometry":{"type":"Point","coordinates":[-2.02926,52.19851]},"properties":{"name":"Flyford Flavell STW (STW)","category":"wastewater_plant","osm_type":"relation","osm_id":"8133203","operator":"Severn Trent","ref":"10165-ST1"}},{"type":"Feature","geometry":{"type":"Point","coordinates":[-2.0436,52.01533]},"properties":{"name":"Mapped water infrastructure","category":"wastewater_plant","osm_type":"relation","osm_id":"8795842"}},{"type":"Feature","geometry":{"type":"Point","coordinates":[-2.18969,52.45431]},"properties":{"name":"Roundhill Works","category":"wastewater_plant","osm_type":"relation","osm_id":"9464420","operator":"Severn Trent","ref":"11000-ST1"}},{"type":"Feature","geometry":{"type":"Point","coordinates":[-2.62411,52.04471]},"properties":{"name":"Mapped water infrastructure","category":"pumping_station","osm_type":"relation","osm_id":"14469102"}},{"type":"Feature","geometry":{"type":"Point","coordinates":[-2.29482,52.10119]},"properties":{"name":"Malvern (STW)","category":"wastewater_plant","osm_type":"way","osm_id":"93646482","operator":"Severn Trent","ref":"10139-ST1"}},{"type":"Feature","geometry":{"type":"Point","coordinates":[-2.17577,52.12402]},"properties":{"name":"Pirton WwTW","category":"wastewater_plant","osm_type":"way","osm_id":"97503483","operator":"Severn Trent","ref":"10041-ST1"}},{"type":"Feature","geometry":{"type":"Point","coordinates":[-2.15212,52.48539]},"properties":{"name":"Mapped water infrastructure","category":"water_tower","osm_type":"way","osm_id":"153224273"}},{"type":"Feature","geometry":{"type":"Point","coordinates":[-2.02501,52.48522]},"properties":{"name":"Mapped water infrastructure","category":"pumping_station","osm_type":"way","osm_id":"163119200","operator":"Severn Trent"}},{"type":"Feature","geometry":{"type":"Point","coordinates":[-2.22538,52.10096]},"properties":{"name":"The Shed","category":"pumping_station","osm_type":"way","osm_id":"182485625"}},{"type":"Feature","geometry":{"type":"Point","coordinates":[-2.89477,52.4008]},"properties":{"name":"Mapped water infrastructure","category":"wastewater_plant","osm_type":"way","osm_id":"219157444"}},{"type":"Feature","geometry":{"type":"Point","coordinates":[-2.99029,52.48741]},"properties":{"name":"Bishops Castle (STW)","category":"wastewater_plant","osm_type":"way","osm_id":"251863336","operator":"Severn Trent","ref":"10794-ST1"}},{"type":"Feature","geometry":{"type":"Point","coordinates":[-2.02389,52.34362]},"properties":{"name":"Mapped water infrastructure","category":"pumping_station","osm_type":"way","osm_id":"343020169"}},{"type":"Feature","geometry":{"type":"Point","coordinates":[-2.8498,52.31346]},"properties":{"name":"Wigmore (STW)","category":"wastewater_plant","osm_type":"way","osm_id":"366078719","operator":"Severn Trent","ref":"10857-ST1"}},{"type":"Feature","geometry":{"type":"Point","coordinates":[-2.02242,52.37186]},"properties":{"name":"Mapped water infrastructure","category":"reservoir_covered","osm_type":"way","osm_id":"370717103"}},{"type":"Feature","geometry":{"type":"Point","coordinates":[-2.17736,52.47793]},"properties":{"name":"Mapped water infrastructure","category":"water_tower","osm_type":"way","osm_id":"400767899"}},{"type":"Feature","geometry":{"type":"Point","coordinates":[-2.43509,52.0314]},"properties":{"name":"Ledbury Water Treatment Works","category":"wastewater_plant","osm_type":"way","osm_id":"424117085","addr:city":"Ledbury","addr:postcode":"HR8 2DP"}},{"type":"Feature","geometry":{"type":"Point","coordinates":[-2.38093,52.21419]},"properties":{"name":"Collins Green Reservoir","category":"reservoir_covered","osm_type":"way","osm_id":"505040002","operator":"Severn Trent Water"}},{"type":"Feature","geometry":{"type":"Point","coordinates":[-2.49411,52.28465]},"properties":{"name":"Mapped water infrastructure","category":"water_tower","osm_type":"way","osm_id":"520511091"}},{"type":"Feature","geometry":{"type":"Point","coordinates":[-2.53255,52.38605]},"properties":{"name":"Hopton Wafers (STW)","category":"wastewater_plant","osm_type":"way","osm_id":"543058352","operator":"Severn Trent","ref":"10949-ST1"}},{"type":"Feature","geometry":{"type":"Point","coordinates":[-2.0605,52.40577]},"properties":{"name":"Romsley Water Tower","category":"water_tower","osm_type":"way","osm_id":"549721105"}},{"type":"Feature","geometry":{"type":"Point","coordinates":[-2.36962,52.30391]},"properties":{"name":"Severn Trent Abberley No 1 and 2","category":"reservoir_covered","osm_type":"way","osm_id":"677704873","operator":"Severn Tent Water"}},{"type":"Feature","geometry":{"type":"Point","coordinates":[-2.69277,52.31596]},"properties":{"name":"Mapped water infrastructure","category":"pumping_station","osm_type":"way","osm_id":"718510344"}},{"type":"Feature","geometry":{"type":"Point","coordinates":[-2.28664,52.33961]},"properties":{"name":"Severn-Trent Pumping Station","category":"pumping_station","osm_type":"way","osm_id":"758546802"}},{"type":"Feature","geometry":{"type":"Point","coordinates":[-2.68426,52.06053]},"properties":{"name":"Mapped water infrastructure","category":"pumping_station","osm_type":"way","osm_id":"816972229"}},{"type":"Feature","geometry":{"type":"Point","coordinates":[-2.37498,52.30979]},"properties":{"name":"Abberley - The Common (STW)","category":"wastewater_plant","osm_type":"way","osm_id":"895059854","operator":"Severn Trent","ref":"10196-ST1"}},{"type":"Feature","geometry":{"type":"Point","coordinates":[-2.35359,52.4644]},"properties":{"name":"Mapped water infrastructure","category":"reservoir_covered","osm_type":"way","osm_id":"909311215"}},{"type":"Feature","geometry":{"type":"Point","coordinates":[-2.89238,52.46217]},"properties":{"name":"Mapped water infrastructure","category":"reservoir_covered","osm_type":"way","osm_id":"945054911","operator":"Severn Trent Water"}},{"type":"Feature","geometry":{"type":"Point","coordinates":[-2.28301,52.33787]},"properties":{"name":"Mapped water infrastructure","category":"pumping_station","osm_type":"way","osm_id":"1001097341"}},{"type":"Feature","geometry":{"type":"Point","coordinates":[-2.64249,52.44402]},"properties":{"name":"Mapped water infrastructure","category":"reservoir_covered","osm_type":"way","osm_id":"1011247895"}},{"type":"Feature","geometry":{"type":"Point","coordinates":[-2.38234,52.44251]},"properties":{"name":"Highley STW","category":"wastewater_plant","osm_type":"way","osm_id":"1085598989","operator":"Severn Trent","ref":"10778-ST1"}}]}