{"type":"FeatureCollection","features":[{"type":"Feature","geometry":{"type":"Point","coordinates":[-2.12433,50.6881]},"properties":{"name":"Baggs Mill River Flow Rate Station","category":"water_works","osm_type":"node","osm_id":"1691210576"}},{"type":"Feature","geometry":{"type":"Point","coordinates":[-2.10636,50.67371]},"properties":{"name":"Sewage Pumping Station","category":"pumping_station","osm_type":"node","osm_id":"1716834484"}},{"type":"Feature","geometry":{"type":"Point","coordinates":[-2.02373,50.93754]},"properties":{"name":"Mapped water infrastructure","category":"water_tower","osm_type":"node","osm_id":"1876117506"}},{"type":"Feature","geometry":{"type":"Point","coordinates":[-2.2499,50.6188]},"properties":{"name":"Mapped water infrastructure","category":"pumping_station","osm_type":"node","osm_id":"2127025377"}},{"type":"Feature","geometry":{"type":"Point","coordinates":[-2.00758,50.75475]},"properties":{"name":"Bryony Close, Broadstone Sewage Pumping Station","category":"pumping_station","osm_type":"node","osm_id":"2301709399","operator":"Wessex Water","ref":"15775"}},{"type":"Feature","geometry":{"type":"Point","coordinates":[-2.08974,50.67937]},"properties":{"name":"Ridge, Stoborough Sewage Pumping Station","category":"pumping_station","osm_type":"node","osm_id":"2685992154","operator":"Wessex Water","ref":"14255"}},{"type":"Feature","geometry":{"type":"Point","coordinates":[-2.03736,50.5976]},"properties":{"name":"Mapped water infrastructure","category":"water_well","osm_type":"node","osm_id":"2992601393","operator":"Square and Compass"}},{"type":"Feature","geometry":{"type":"Point","coordinates":[-2.95883,50.72618]},"properties":{"name":"Mapped water infrastructure","category":"wastewater_plant","osm_type":"node","osm_id":"3087893779"}},{"type":"Feature","geometry":{"type":"Point","coordinates":[-2.27743,50.65912]},"properties":{"name":"Winfrith Church Sewage Pumping Station","category":"pumping_station","osm_type":"node","osm_id":"3262286869","operator":"Wessex Water","ref":"14237"}},{"type":"Feature","geometry":{"type":"Point","coordinates":[-2.08267,50.75761]},"properties":{"name":"Mapped water infrastructure","category":"water_well","osm_type":"node","osm_id":"3313140680"}},{"type":"Feature","geometry":{"type":"Point","coordinates":[-2.03841,50.59642]},"properties":{"name":"Mapped water infrastructure","category":"water_well","osm_type":"node","osm_id":"3460269570"}},{"type":"Feature","geometry":{"type":"Point","coordinates":[-2.29686,50.93444]},"properties":{"name":"Mapped water infrastructure","category":"pumping_station","osm_type":"node","osm_id":"3997487168"}},{"type":"Feature","geometry":{"type":"Point","coordinates":[-2.09833,50.65516]},"properties":{"name":"Mapped water infrastructure","category":"wastewater_plant","osm_type":"node","osm_id":"4215783996"}},{"type":"Feature","geometry":{"type":"Point","coordinates":[-2.44598,50.62255]},"properties":{"name":"Mapped water infrastructure","category":"drinking_water","osm_type":"node","osm_id":"5022952680"}},{"type":"Feature","geometry":{"type":"Point","coordinates":[-2.44608,50.62245]},"properties":{"name":"Mapped water infrastructure","category":"drinking_water","osm_type":"node","osm_id":"5022952681"}},{"type":"Feature","geometry":{"type":"Point","coordinates":[-2.44634,50.6222]},"properties":{"name":"Mapped water infrastructure","category":"drinking_water","osm_type":"node","osm_id":"5022952682"}},{"type":"Feature","geometry":{"type":"Point","coordinates":[-2.44649,50.62206]},"properties":{"name":"Mapped water infrastructure","category":"drinking_water","osm_type":"node","osm_id":"5022952683"}},{"type":"Feature","geometry":{"type":"Point","coordinates":[-2.44676,50.6218]},"properties":{"name":"Mapped water infrastructure","category":"drinking_water","osm_type":"node","osm_id":"5022952684"}},{"type":"Feature","geometry":{"type":"Point","coordinates":[-2.44715,50.62144]},"properties":{"name":"Mapped water infrastructure","category":"drinking_water","osm_type":"node","osm_id":"5022952685"}},{"type":"Feature","geometry":{"type":"Point","coordinates":[-2.44753,50.62106]},"properties":{"name":"Mapped water infrastructure","category":"drinking_water","osm_type":"node","osm_id":"5022952686"}},{"type":"Feature","geometry":{"type":"Point","coordinates":[-2.44783,50.62077]},"properties":{"name":"Mapped water infrastructure","category":"drinking_water","osm_type":"node","osm_id":"5022952687"}},{"type":"Feature","geometry":{"type":"Point","coordinates":[-2.44812,50.62048]},"properties":{"name":"Mapped water infrastructure","category":"drinking_water","osm_type":"node","osm_id":"5022952688"}},{"type":"Feature","geometry":{"type":"Point","coordinates":[-2.44842,50.62018]},"properties":{"name":"Mapped water infrastructure","category":"drinking_water","osm_type":"node","osm_id":"5022952689"}},{"type":"Feature","geometry":{"type":"Point","coordinates":[-2.44895,50.61954]},"properties":{"name":"Mapped water infrastructure","category":"drinking_water","osm_type":"node","osm_id":"5022952690"}},{"type":"Feature","geometry":{"type":"Point","coordinates":[-2.73821,50.70777]},"properties":{"name":"Mapped water infrastructure","category":"drinking_water","osm_type":"node","osm_id":"5254591239"}},{"type":"Feature","geometry":{"type":"Point","coordinates":[-2.73931,50.70793]},"properties":{"name":"Mapped water infrastructure","category":"drinking_water","osm_type":"node","osm_id":"5254591253"}},{"type":"Feature","geometry":{"type":"Point","coordinates":[-2.08897,50.73158]},"properties":{"name":"Mapped water infrastructure","category":"water_point","osm_type":"node","osm_id":"5767982088"}},{"type":"Feature","geometry":{"type":"Point","coordinates":[-2.45221,50.61519]},"properties":{"name":"Mapped water infrastructure","category":"drinking_water","osm_type":"node","osm_id":"6659005089"}},{"type":"Feature","geometry":{"type":"Point","coordinates":[-2.45202,50.6156]},"properties":{"name":"Mapped water infrastructure","category":"drinking_water","osm_type":"node","osm_id":"6659005090"}},{"type":"Feature","geometry":{"type":"Point","coordinates":[-2.45113,50.61698]},"properties":{"name":"Mapped water infrastructure","category":"drinking_water","osm_type":"node","osm_id":"6659005091"}},{"type":"Feature","geometry":{"type":"Point","coordinates":[-2.99582,50.70664]},"properties":{"name":"Mapped water infrastructure","category":"pumping_station","osm_type":"node","osm_id":"6707665348"}},{"type":"Feature","geometry":{"type":"Point","coordinates":[-2.00152,50.77512]},"properties":{"name":"Mapped water infrastructure","category":"water_well","osm_type":"node","osm_id":"7478988995"}},{"type":"Feature","geometry":{"type":"Point","coordinates":[-2.21847,50.75484]},"properties":{"name":"Mapped water infrastructure","category":"water_well","osm_type":"node","osm_id":"8314022414"}},{"type":"Feature","geometry":{"type":"Point","coordinates":[-2.2143,50.75456]},"properties":{"name":"Mapped water infrastructure","category":"water_well","osm_type":"node","osm_id":"8314022415"}},{"type":"Feature","geometry":{"type":"Point","coordinates":[-2.21693,50.75506]},"properties":{"name":"Mapped water infrastructure","category":"water_well","osm_type":"node","osm_id":"8314022416"}},{"type":"Feature","geometry":{"type":"Point","coordinates":[-2.22127,50.75457]},"properties":{"name":"Mapped water infrastructure","category":"water_well","osm_type":"node","osm_id":"8314045617"}},{"type":"Feature","geometry":{"type":"Point","coordinates":[-2.22119,50.75452]},"properties":{"name":"Mapped water infrastructure","category":"water_well","osm_type":"node","osm_id":"8314045618"}},{"type":"Feature","geometry":{"type":"Point","coordinates":[-2.06396,50.6157]},"properties":{"name":"Mapped water infrastructure","category":"drinking_water","osm_type":"node","osm_id":"8407812787"}},{"type":"Feature","geometry":{"type":"Point","coordinates":[-2.13139,50.72872]},"properties":{"name":"Mapped water infrastructure","category":"water_well","osm_type":"node","osm_id":"8457665350"}},{"type":"Feature","geometry":{"type":"Point","coordinates":[-2.45223,50.60557]},"properties":{"name":"Mapped water infrastructure","category":"drinking_water","osm_type":"node","osm_id":"8467867372","operator":"Councill","wheelchair":"yes"}},{"type":"Feature","geometry":{"type":"Point","coordinates":[-2.75823,50.7331]},"properties":{"name":"Mapped water infrastructure","category":"drinking_water","osm_type":"node","osm_id":"8932746535","operator":"Wessex Water"}},{"type":"Feature","geometry":{"type":"Point","coordinates":[-2.45227,50.60879]},"properties":{"name":"Mapped water infrastructure","category":"drinking_water","osm_type":"node","osm_id":"8932974146","operator":"Wessex Water"}},{"type":"Feature","geometry":{"type":"Point","coordinates":[-2.45332,50.6119]},"properties":{"name":"Mapped water infrastructure","category":"drinking_water","osm_type":"node","osm_id":"8932974147","operator":"Wessex Water"}},{"type":"Feature","geometry":{"type":"Point","coordinates":[-2.43768,50.71192]},"properties":{"name":"Mapped water infrastructure","category":"drinking_water","osm_type":"node","osm_id":"8932999753","operator":"Wessex Water"}},{"type":"Feature","geometry":{"type":"Point","coordinates":[-2.44718,50.5532]},"properties":{"name":"Mapped water infrastructure","category":"water_well","osm_type":"node","osm_id":"8937591351"}},{"type":"Feature","geometry":{"type":"Point","coordinates":[-2.69251,50.91255]},"properties":{"name":"Mapped water infrastructure","category":"water_well","osm_type":"node","osm_id":"8939081035"}},{"type":"Feature","geometry":{"type":"Point","coordinates":[-2.69054,50.91368]},"properties":{"name":"Mapped water infrastructure","category":"water_well","osm_type":"node","osm_id":"8939081055"}},{"type":"Feature","geometry":{"type":"Point","coordinates":[-2.05944,50.63636]},"properties":{"name":"Mapped water infrastructure","category":"drinking_water","osm_type":"node","osm_id":"9571864815"}},{"type":"Feature","geometry":{"type":"Point","coordinates":[-2.6307,50.94139]},"properties":{"name":"Mapped water infrastructure","category":"drinking_water","osm_type":"node","osm_id":"9589893702","operator":"Wessex Water","wheelchair":"yes"}},{"type":"Feature","geometry":{"type":"Point","coordinates":[-2.39672,50.71732]},"properties":{"name":"Mapped water infrastructure","category":"water_well","osm_type":"node","osm_id":"9810853304"}},{"type":"Feature","geometry":{"type":"Point","coordinates":[-2.00753,50.71045]},"properties":{"name":"Mapped water infrastructure","category":"drinking_water","osm_type":"node","osm_id":"9948849861"}},{"type":"Feature","geometry":{"type":"Point","coordinates":[-2.00924,50.71053]},"properties":{"name":"Mapped water infrastructure","category":"drinking_water","osm_type":"node","osm_id":"9948849862"}},{"type":"Feature","geometry":{"type":"Point","coordinates":[-2.64381,50.89812]},"properties":{"name":"Mapped water infrastructure","category":"drinking_water","osm_type":"node","osm_id":"10558080330","operator":"Wessex Water"}},{"type":"Feature","geometry":{"type":"Point","coordinates":[-2.08558,50.73594]},"properties":{"name":"Mapped water infrastructure","category":"drinking_water","osm_type":"node","osm_id":"10599692992"}},{"type":"Feature","geometry":{"type":"Point","coordinates":[-2.37971,50.96189]},"properties":{"name":"Mapped water infrastructure","category":"water_well","osm_type":"node","osm_id":"11117853996"}},{"type":"Feature","geometry":{"type":"Point","coordinates":[-2.02931,50.73868]},"properties":{"name":"Mapped water infrastructure","category":"drinking_water","osm_type":"node","osm_id":"11181014749"}},{"type":"Feature","geometry":{"type":"Point","coordinates":[-2.80005,50.82024]},"properties":{"name":"Broadwindsor Pump","category":"water_well","osm_type":"node","osm_id":"11516280453"}},{"type":"Feature","geometry":{"type":"Point","coordinates":[-2.04984,50.98466]},"properties":{"name":"Mapped water infrastructure","category":"water_well","osm_type":"node","osm_id":"11774270521"}},{"type":"Feature","geometry":{"type":"Point","coordinates":[-2.12804,50.60867]},"properties":{"name":"Mapped water infrastructure","category":"drinking_water","osm_type":"node","osm_id":"11919587269"}},{"type":"Feature","geometry":{"type":"Point","coordinates":[-2.94956,50.85199]},"properties":{"name":"Water Treatment Plant","category":"water_works","osm_type":"node","osm_id":"11942785496"}},{"type":"Feature","geometry":{"type":"Point","coordinates":[-2.93784,50.72277]},"properties":{"name":"Mapped water infrastructure","category":"drinking_water","osm_type":"node","osm_id":"12151450286"}},{"type":"Feature","geometry":{"type":"Point","coordinates":[-2.93653,50.72349]},"properties":{"name":"Mapped water infrastructure","category":"drinking_water","osm_type":"node","osm_id":"12177432283"}},{"type":"Feature","geometry":{"type":"Point","coordinates":[-2.60902,50.8393]},"properties":{"name":"Mapped water infrastructure","category":"water_well","osm_type":"node","osm_id":"12421837590"}},{"type":"Feature","geometry":{"type":"Point","coordinates":[-2.73711,50.70762]},"properties":{"name":"Mapped water infrastructure","category":"drinking_water","osm_type":"node","osm_id":"12646450663"}},{"type":"Feature","geometry":{"type":"Point","coordinates":[-2.73736,50.70708]},"properties":{"name":"Mapped water infrastructure","category":"drinking_water","osm_type":"node","osm_id":"12646450664"}},{"type":"Feature","geometry":{"type":"Point","coordinates":[-2.73723,50.70734]},"properties":{"name":"Mapped water infrastructure","category":"drinking_water","osm_type":"node","osm_id":"12646450665"}},{"type":"Feature","geometry":{"type":"Point","coordinates":[-2.73943,50.70765]},"properties":{"name":"Mapped water infrastructure","category":"drinking_water","osm_type":"node","osm_id":"12646450666"}},{"type":"Feature","geometry":{"type":"Point","coordinates":[-2.73956,50.70741]},"properties":{"name":"Mapped water infrastructure","category":"drinking_water","osm_type":"node","osm_id":"12646450667"}},{"type":"Feature","geometry":{"type":"Point","coordinates":[-2.73846,50.70725]},"properties":{"name":"Mapped water infrastructure","category":"drinking_water","osm_type":"node","osm_id":"12646450668"}},{"type":"Feature","geometry":{"type":"Point","coordinates":[-2.73832,50.70749]},"properties":{"name":"Mapped water infrastructure","category":"drinking_water","osm_type":"node","osm_id":"12646450669"}},{"type":"Feature","geometry":{"type":"Point","coordinates":[-2.05777,50.63693]},"properties":{"name":"Mapped water infrastructure","category":"water_well","osm_type":"node","osm_id":"12752496652"}},{"type":"Feature","geometry":{"type":"Point","coordinates":[-2.06227,50.64561]},"properties":{"name":"Mapped water infrastructure","category":"drinking_water","osm_type":"node","osm_id":"12787144282"}},{"type":"Feature","geometry":{"type":"Point","coordinates":[-2.45232,50.60938]},"properties":{"name":"Mapped water infrastructure","category":"drinking_water","osm_type":"node","osm_id":"12834653737"}},{"type":"Feature","geometry":{"type":"Point","coordinates":[-2.45089,50.60871]},"properties":{"name":"Mapped water infrastructure","category":"drinking_water","osm_type":"node","osm_id":"12834653738"}},{"type":"Feature","geometry":{"type":"Point","coordinates":[-2.16545,50.85607]},"properties":{"name":"Mapped water infrastructure","category":"drinking_water","osm_type":"node","osm_id":"12873924012","operator":"wikidata=Q7984154"}},{"type":"Feature","geometry":{"type":"Point","coordinates":[-2.95376,50.76484]},"properties":{"name":"Mapped water infrastructure","category":"water_point","osm_type":"node","osm_id":"13043482641"}},{"type":"Feature","geometry":{"type":"Point","coordinates":[-2.95217,50.76457]},"properties":{"name":"Mapped water infrastructure","category":"water_point","osm_type":"node","osm_id":"13043482675"}},{"type":"Feature","geometry":{"type":"Point","coordinates":[-2.95282,50.76522]},"properties":{"name":"Mapped water infrastructure","category":"water_point","osm_type":"node","osm_id":"13043482676"}},{"type":"Feature","geometry":{"type":"Point","coordinates":[-2.95138,50.76397]},"properties":{"name":"Mapped water infrastructure","category":"water_point","osm_type":"node","osm_id":"13043482683"}},{"type":"Feature","geometry":{"type":"Point","coordinates":[-2.95092,50.76246]},"properties":{"name":"Mapped water infrastructure","category":"water_point","osm_type":"node","osm_id":"13043482688"}},{"type":"Feature","geometry":{"type":"Point","coordinates":[-2.95124,50.76296]},"properties":{"name":"Mapped water infrastructure","category":"water_point","osm_type":"node","osm_id":"13043482689"}},{"type":"Feature","geometry":{"type":"Point","coordinates":[-2.95103,50.76302]},"properties":{"name":"Mapped water infrastructure","category":"water_point","osm_type":"node","osm_id":"13043482691"}},{"type":"Feature","geometry":{"type":"Point","coordinates":[-2.95251,50.76246]},"properties":{"name":"Mapped water infrastructure","category":"water_point","osm_type":"node","osm_id":"13043483419"}},{"type":"Feature","geometry":{"type":"Point","coordinates":[-2.44715,50.5532]},"properties":{"name":"Mapped water infrastructure","category":"water_well","osm_type":"node","osm_id":"13340926076"}},{"type":"Feature","geometry":{"type":"Point","coordinates":[-2.30112,50.94546]},"properties":{"name":"Mapped water infrastructure","category":"pumping_station","osm_type":"node","osm_id":"13898664437","operator":"Wessex Water"}},{"type":"Feature","geometry":{"type":"Point","coordinates":[-2.41727,50.96]},"properties":{"name":"Frith Reservoir","category":"reservoir_covered","osm_type":"way","osm_id":"119513670","operator":"Wessex Water"}},{"type":"Feature","geometry":{"type":"Point","coordinates":[-2.30627,50.95586]},"properties":{"name":"Marnhull Sewage Treatment Works","category":"wastewater_plant","osm_type":"way","osm_id":"123982587"}},{"type":"Feature","geometry":{"type":"Point","coordinates":[-2.60962,50.94578]},"properties":{"name":"Yeovil (Pen Mill) WwTW","category":"wastewater_plant","osm_type":"way","osm_id":"136165571","operator":"Wessex Water","ref":"13366"}},{"type":"Feature","geometry":{"type":"Point","coordinates":[-2.72593,50.70896]},"properties":{"name":"Mapped water infrastructure","category":"reservoir_covered","osm_type":"way","osm_id":"147399872"}},{"type":"Feature","geometry":{"type":"Point","coordinates":[-2.09217,50.69891]},"properties":{"name":"Mapped water infrastructure","category":"wastewater_plant","osm_type":"way","osm_id":"155738020"}},{"type":"Feature","geometry":{"type":"Point","coordinates":[-2.14609,50.73886]},"properties":{"name":"Water Recycling Centre - Blackheath","category":"wastewater_plant","osm_type":"way","osm_id":"156893946","operator":"Wessex Water","ref":"13024"}},{"type":"Feature","geometry":{"type":"Point","coordinates":[-2.11114,50.69496]},"properties":{"name":"Drax Avenue, Wareham Sewage Pumping Station","category":"pumping_station","osm_type":"way","osm_id":"167692239","operator":"Wessex Water","ref":"14271"}},{"type":"Feature","geometry":{"type":"Point","coordinates":[-2.58346,50.96168]},"properties":{"name":"Trent WwTW","category":"wastewater_plant","osm_type":"way","osm_id":"171076268","operator":"Wessex Water","ref":"17297"}},{"type":"Feature","geometry":{"type":"Point","coordinates":[-2.05507,50.64721]},"properties":{"name":"Mapped water infrastructure","category":"wastewater_plant","osm_type":"way","osm_id":"185215223"}},{"type":"Feature","geometry":{"type":"Point","coordinates":[-2.27928,50.76982]},"properties":{"name":"Snag Lane Sewage Works","category":"wastewater_plant","osm_type":"way","osm_id":"185565033"}},{"type":"Feature","geometry":{"type":"Point","coordinates":[-2.04741,50.73108]},"properties":{"name":"Mapped water infrastructure","category":"wastewater_plant","osm_type":"way","osm_id":"190524515"}},{"type":"Feature","geometry":{"type":"Point","coordinates":[-2.33494,50.96166]},"properties":{"name":"Marnhull Common WwTW","category":"wastewater_plant","osm_type":"way","osm_id":"203446626","operator":"Wessex Water","ref":"13199"}},{"type":"Feature","geometry":{"type":"Point","coordinates":[-2.19989,50.90395]},"properties":{"name":"Mapped water infrastructure","category":"wastewater_plant","osm_type":"way","osm_id":"245266680"}},{"type":"Feature","geometry":{"type":"Point","coordinates":[-2.22754,50.74285]},"properties":{"name":"Mapped water infrastructure","category":"reservoir_covered","osm_type":"way","osm_id":"264485839"}},{"type":"Feature","geometry":{"type":"Point","coordinates":[-2.25317,50.68514]},"properties":{"name":"Water Recycling Centre - Wool","category":"wastewater_plant","osm_type":"way","osm_id":"264665364","operator":"Wessex Water","ref":"13359"}},{"type":"Feature","geometry":{"type":"Point","coordinates":[-2.35423,50.75362]},"properties":{"name":"Mapped water infrastructure","category":"wastewater_plant","osm_type":"way","osm_id":"264710002"}},{"type":"Feature","geometry":{"type":"Point","coordinates":[-2.47596,50.7978]},"properties":{"name":"Mapped water infrastructure","category":"wastewater_plant","osm_type":"way","osm_id":"264710007"}},{"type":"Feature","geometry":{"type":"Point","coordinates":[-2.2474,50.63445]},"properties":{"name":"Mapped water infrastructure","category":"reservoir_covered","osm_type":"way","osm_id":"265535251"}},{"type":"Feature","geometry":{"type":"Point","coordinates":[-2.01014,50.78921]},"properties":{"name":"Corfe Mullen WwTW","category":"wastewater_plant","osm_type":"way","osm_id":"289771447","operator":"Wessex Water","ref":"13078"}},{"type":"Feature","geometry":{"type":"Point","coordinates":[-2.04217,50.78596]},"properties":{"name":"Mapped water infrastructure","category":"water_works","osm_type":"way","osm_id":"289863634"}},{"type":"Feature","geometry":{"type":"Point","coordinates":[-2.03741,50.78304]},"properties":{"name":"Mapped water infrastructure","category":"water_works","osm_type":"way","osm_id":"290084756"}},{"type":"Feature","geometry":{"type":"Point","coordinates":[-2.414,50.71117]},"properties":{"name":"Mapped water infrastructure","category":"wastewater_plant","osm_type":"way","osm_id":"321499460"}},{"type":"Feature","geometry":{"type":"Point","coordinates":[-2.29258,50.92657]},"properties":{"name":"Sewage Treatment Works","category":"wastewater_plant","osm_type":"way","osm_id":"323664665"}},{"type":"Feature","geometry":{"type":"Point","coordinates":[-2.07595,50.76032]},"properties":{"name":"Lime Kiln Lytchett Matravers booster","category":"pumping_station","osm_type":"way","osm_id":"324607354","operator":"Wessex Water","ref":"11530"}},{"type":"Feature","geometry":{"type":"Point","coordinates":[-2.3626,50.88364]},"properties":{"name":"Mapped water infrastructure","category":"wastewater_plant","osm_type":"way","osm_id":"324900245"}},{"type":"Feature","geometry":{"type":"Point","coordinates":[-2.23301,50.68037]},"properties":{"name":"Belhuish Washout","category":"pumping_station","osm_type":"way","osm_id":"339575493","operator":"Wessex Water","ref":"17303"}},{"type":"Feature","geometry":{"type":"Point","coordinates":[-2.22831,50.68072]},"properties":{"name":"East Burton Road Sewage Pumping Station, Wool","category":"pumping_station","osm_type":"way","osm_id":"339577011","operator":"Wessex Water","ref":"17573"}},{"type":"Feature","geometry":{"type":"Point","coordinates":[-2.23967,50.68194]},"properties":{"name":"East Burton Crossroads Sewage Pumping Station","category":"pumping_station","osm_type":"way","osm_id":"339612833","operator":"Wessex Water"}},{"type":"Feature","geometry":{"type":"Point","coordinates":[-2.07063,50.71452]},"properties":{"name":"Holton Heath Sewage Pumping Station","category":"pumping_station","osm_type":"way","osm_id":"340183031","operator":"Wessex Water"}},{"type":"Feature","geometry":{"type":"Point","coordinates":[-2.44684,50.70114]},"properties":{"name":"Mapped water infrastructure","category":"water_works","osm_type":"way","osm_id":"349932193"}},{"type":"Feature","geometry":{"type":"Point","coordinates":[-2.37524,50.85798]},"properties":{"name":"Mapped water infrastructure","category":"wastewater_plant","osm_type":"way","osm_id":"362126285"}},{"type":"Feature","geometry":{"type":"Point","coordinates":[-2.29152,50.65051]},"properties":{"name":"East Chaldon Sewage Pumping Station","category":"pumping_station","osm_type":"way","osm_id":"362483848","operator":"Wessex Water"}},{"type":"Feature","geometry":{"type":"Point","coordinates":[-2.03676,50.62668]},"properties":{"name":"Harmans Cross sewage treatment works","category":"wastewater_plant","osm_type":"way","osm_id":"368766627","operator":"Wessex Water","ref":"13143"}},{"type":"Feature","geometry":{"type":"Point","coordinates":[-2.12394,50.75158]},"properties":{"name":"Cock and Bottle, Moredon Sewage Pumping Station","category":"pumping_station","osm_type":"way","osm_id":"375991919","operator":"Wessex Water","ref":"14243"}},{"type":"Feature","geometry":{"type":"Point","coordinates":[-2.99298,50.97639]},"properties":{"name":"Mapped water infrastructure","category":"wastewater_plant","osm_type":"way","osm_id":"376354596"}},{"type":"Feature","geometry":{"type":"Point","coordinates":[-2.13145,50.75332]},"properties":{"name":"Hector's Corner, Morden Sewage Pumping Station","category":"pumping_station","osm_type":"way","osm_id":"377040800","operator":"Wessex Water","ref":"14242"}},{"type":"Feature","geometry":{"type":"Point","coordinates":[-2.60203,50.94892]},"properties":{"name":"Mapped water infrastructure","category":"wastewater_plant","osm_type":"way","osm_id":"393047941"}},{"type":"Feature","geometry":{"type":"Point","coordinates":[-2.25459,50.62749]},"properties":{"name":"West Lulworth Sewage Pumping Station","category":"pumping_station","osm_type":"way","osm_id":"407505989","operator":"Wessex Water","ref":"17046"}},{"type":"Feature","geometry":{"type":"Point","coordinates":[-2.28409,50.65368]},"properties":{"name":"Mapped water infrastructure","category":"pumping_station","osm_type":"way","osm_id":"407505990","operator":"Wessex Water"}},{"type":"Feature","geometry":{"type":"Point","coordinates":[-2.22382,50.68173]},"properties":{"name":"Mapped water infrastructure","category":"pumping_station","osm_type":"way","osm_id":"417014999","operator":"Wessex Water"}},{"type":"Feature","geometry":{"type":"Point","coordinates":[-2.07751,50.71839]},"properties":{"name":"Holton Heath Reservoir","category":"reservoir_covered","osm_type":"way","osm_id":"419910135","operator":"Department of Admiralty (Defunct)"}},{"type":"Feature","geometry":{"type":"Point","coordinates":[-2.29095,50.74848]},"properties":{"name":"East Farm Sewage Pumping Station Tolpuddle","category":"pumping_station","osm_type":"way","osm_id":"428517802","operator":"Wessex Water","ref":"17249"}},{"type":"Feature","geometry":{"type":"Point","coordinates":[-2.62719,50.96564]},"properties":{"name":"Yeovil Without WwTW","category":"wastewater_plant","osm_type":"way","osm_id":"440856575","operator":"Wessex Water","ref":"13368"}},{"type":"Feature","geometry":{"type":"Point","coordinates":[-2.94214,50.92427]},"properties":{"name":"Donyatt WwTW","category":"wastewater_plant","osm_type":"way","osm_id":"442738988","operator":"Wessex Water","ref":"13114"}},{"type":"Feature","geometry":{"type":"Point","coordinates":[-2.65844,50.70002]},"properties":{"name":"Puncknowle WwTW","category":"wastewater_plant","osm_type":"way","osm_id":"447909211","operator":"Wessex Water","ref":"13250"}},{"type":"Feature","geometry":{"type":"Point","coordinates":[-2.91754,50.9416]},"properties":{"name":"Ilminster STW","category":"wastewater_plant","osm_type":"way","osm_id":"463629982","operator":"Wessex Water"}},{"type":"Feature","geometry":{"type":"Point","coordinates":[-2.75278,50.71294]},"properties":{"name":"Bridport (West Bay) Wastewater Treatment Works","category":"wastewater_plant","osm_type":"way","osm_id":"471552468","operator":"Wessex Water"}},{"type":"Feature","geometry":{"type":"Point","coordinates":[-2.27238,50.89765]},"properties":{"name":"Mapped water infrastructure","category":"water_works","osm_type":"way","osm_id":"475054456"}},{"type":"Feature","geometry":{"type":"Point","coordinates":[-2.02371,50.75794]},"properties":{"name":"Corfe Hills Resevoir","category":"water_works","osm_type":"way","osm_id":"475067291","operator":"Wessex Water"}},{"type":"Feature","geometry":{"type":"Point","coordinates":[-2.68273,50.8486]},"properties":{"name":"Corscombe Water Recycling Centre","category":"wastewater_plant","osm_type":"way","osm_id":"480103694","operator":"Wessex Water"}},{"type":"Feature","geometry":{"type":"Point","coordinates":[-2.15999,50.85626]},"properties":{"name":"Mapped water infrastructure","category":"water_works","osm_type":"way","osm_id":"495062816"}},{"type":"Feature","geometry":{"type":"Point","coordinates":[-2.10836,50.86684]},"properties":{"name":"Mapped water infrastructure","category":"wastewater_plant","osm_type":"way","osm_id":"499523986"}},{"type":"Feature","geometry":{"type":"Point","coordinates":[-2.64969,50.91313]},"properties":{"name":"East Coker WwTW","category":"wastewater_plant","osm_type":"way","osm_id":"505901965","operator":"Wessex Water","ref":"13105"}},{"type":"Feature","geometry":{"type":"Point","coordinates":[-2.78372,50.97141]},"properties":{"name":"Mapped water infrastructure","category":"wastewater_plant","osm_type":"way","osm_id":"512049497"}},{"type":"Feature","geometry":{"type":"Point","coordinates":[-2.93987,50.90314]},"properties":{"name":"Mapped water infrastructure","category":"wastewater_plant","osm_type":"way","osm_id":"530037652"}},{"type":"Feature","geometry":{"type":"Point","coordinates":[-2.72244,50.98343]},"properties":{"name":"Mapped water infrastructure","category":"wastewater_plant","osm_type":"way","osm_id":"548905007"}},{"type":"Feature","geometry":{"type":"Point","coordinates":[-2.80695,50.82575]},"properties":{"name":"Mapped water infrastructure","category":"wastewater_plant","osm_type":"way","osm_id":"554576482"}},{"type":"Feature","geometry":{"type":"Point","coordinates":[-2.44917,50.7141]},"properties":{"name":"Mapped water infrastructure","category":"water_tower","osm_type":"way","osm_id":"588619121"}},{"type":"Feature","geometry":{"type":"Point","coordinates":[-2.94067,50.83635]},"properties":{"name":"Mapped water infrastructure","category":"wastewater_plant","osm_type":"way","osm_id":"663580547"}},{"type":"Feature","geometry":{"type":"Point","coordinates":[-2.94247,50.83873]},"properties":{"name":"Tatworth STW Tatworth","category":"wastewater_plant","osm_type":"way","osm_id":"663580554","operator":"South West Water","ref":"000000053718"}},{"type":"Feature","geometry":{"type":"Point","coordinates":[-2.78209,50.88264]},"properties":{"name":"Mapped water infrastructure","category":"wastewater_plant","osm_type":"way","osm_id":"663799263"}},{"type":"Feature","geometry":{"type":"Point","coordinates":[-2.78154,50.91113]},"properties":{"name":"Mapped water infrastructure","category":"wastewater_plant","osm_type":"way","osm_id":"663799266"}},{"type":"Feature","geometry":{"type":"Point","coordinates":[-2.81241,50.95372]},"properties":{"name":"Mapped water infrastructure","category":"wastewater_plant","osm_type":"way","osm_id":"663801725","operator":"Wessex Water","addr:city":"South Petherton"}},{"type":"Feature","geometry":{"type":"Point","coordinates":[-2.89443,50.91365]},"properties":{"name":"Dowlish Wake WwTW","category":"wastewater_plant","osm_type":"way","osm_id":"665160407","operator":"Wessex Water","ref":"13117"}},{"type":"Feature","geometry":{"type":"Point","coordinates":[-2.83154,50.92309]},"properties":{"name":"Longbridge Sewage Treatment Works","category":"wastewater_plant","osm_type":"way","osm_id":"778751041"}},{"type":"Feature","geometry":{"type":"Point","coordinates":[-2.046,50.73805]},"properties":{"name":"French's Farm Upton Sewage Pumping Station","category":"pumping_station","osm_type":"way","osm_id":"796563769","operator":"Wessex Water","ref":"14221"}},{"type":"Feature","geometry":{"type":"Point","coordinates":[-2.06956,50.76173]},"properties":{"name":"Wimborne Road Lytchett Matravers Sewage Pumping Station","category":"pumping_station","osm_type":"way","osm_id":"802258632","operator":"Wessex Water","ref":"14224"}},{"type":"Feature","geometry":{"type":"Point","coordinates":[-2.09069,50.74716]},"properties":{"name":"Bulbury Lane Pumping Station","category":"pumping_station","osm_type":"way","osm_id":"802258649","operator":"Wessex Water"}},{"type":"Feature","geometry":{"type":"Point","coordinates":[-2.20614,50.70825]},"properties":{"name":"Hyde Reservoir","category":"reservoir_covered","osm_type":"way","osm_id":"815961354","operator":"Wessex Water","ref":"11178"}},{"type":"Feature","geometry":{"type":"Point","coordinates":[-2.2247,50.75456]},"properties":{"name":"Shitterton , Bere Regis Sewage Pumping Station","category":"pumping_station","osm_type":"way","osm_id":"815961378","operator":"Wessex Water","ref":"14262"}},{"type":"Feature","geometry":{"type":"Point","coordinates":[-2.63192,50.90255]},"properties":{"name":"Stourton Caundle Water Works","category":"water_works","osm_type":"way","osm_id":"867691772","operator":"Wessex Water"}},{"type":"Feature","geometry":{"type":"Point","coordinates":[-2.94518,50.73633]},"properties":{"name":"Mapped water infrastructure","category":"wastewater_plant","osm_type":"way","osm_id":"868886136"}},{"type":"Feature","geometry":{"type":"Point","coordinates":[-2.3962,50.7657]},"properties":{"name":"Water Recycling Centre - Piddlehinton","category":"wastewater_plant","osm_type":"way","osm_id":"871963339","operator":"Wessex Water","ref":"13238"}},{"type":"Feature","geometry":{"type":"Point","coordinates":[-2.46566,50.8792]},"properties":{"name":"Mapped water infrastructure","category":"wastewater_plant","osm_type":"way","osm_id":"878034168"}},{"type":"Feature","geometry":{"type":"Point","coordinates":[-2.52602,50.93744]},"properties":{"name":"Mapped water infrastructure","category":"wastewater_plant","osm_type":"way","osm_id":"878765171"}},{"type":"Feature","geometry":{"type":"Point","coordinates":[-2.68551,50.82579]},"properties":{"name":"Mapped water infrastructure","category":"reservoir_covered","osm_type":"way","osm_id":"878906697"}},{"type":"Feature","geometry":{"type":"Point","coordinates":[-2.08774,50.76194]},"properties":{"name":"Mapped water infrastructure","category":"water_tower","osm_type":"way","osm_id":"893989605"}},{"type":"Feature","geometry":{"type":"Point","coordinates":[-2.60883,50.83942]},"properties":{"name":"Mapped water infrastructure","category":"water_works","osm_type":"way","osm_id":"895543631"}},{"type":"Feature","geometry":{"type":"Point","coordinates":[-2.56195,50.77401]},"properties":{"name":"Maiden Newton STW","category":"wastewater_plant","osm_type":"way","osm_id":"915198977","operator":"Wessex Water"}},{"type":"Feature","geometry":{"type":"Point","coordinates":[-2.55246,50.64296]},"properties":{"name":"Langton Herring WwTW","category":"wastewater_plant","osm_type":"way","osm_id":"917562268","operator":"Wessex Water","ref":"13176"}},{"type":"Feature","geometry":{"type":"Point","coordinates":[-2.42967,50.64976]},"properties":{"name":"Mapped water infrastructure","category":"reservoir_covered","osm_type":"way","osm_id":"921759018"}},{"type":"Feature","geometry":{"type":"Point","coordinates":[-2.42473,50.91204]},"properties":{"name":"Mapped water infrastructure","category":"wastewater_plant","osm_type":"way","osm_id":"922638090"}},{"type":"Feature","geometry":{"type":"Point","coordinates":[-2.37736,50.68057]},"properties":{"name":"Mapped water infrastructure","category":"wastewater_plant","osm_type":"way","osm_id":"932155462"}},{"type":"Feature","geometry":{"type":"Point","coordinates":[-2.33535,50.79414]},"properties":{"name":"Magna Housing Association Sewage Treatment Works","category":"wastewater_plant","osm_type":"way","osm_id":"948872931"}},{"type":"Feature","geometry":{"type":"Point","coordinates":[-2.32022,50.83021]},"properties":{"name":"Mapped water infrastructure","category":"reservoir_covered","osm_type":"way","osm_id":"965392316"}},{"type":"Feature","geometry":{"type":"Point","coordinates":[-2.72201,50.91355]},"properties":{"name":"East Chinnock","category":"wastewater_plant","osm_type":"way","osm_id":"966192577"}},{"type":"Feature","geometry":{"type":"Point","coordinates":[-2.70565,50.9066]},"properties":{"name":"Mapped water infrastructure","category":"wastewater_plant","osm_type":"way","osm_id":"966688515"}},{"type":"Feature","geometry":{"type":"Point","coordinates":[-2.81508,50.72625]},"properties":{"name":"Mapped water infrastructure","category":"wastewater_plant","osm_type":"way","osm_id":"967654538"}},{"type":"Feature","geometry":{"type":"Point","coordinates":[-2.27042,50.67388]},"properties":{"name":"Blacknoll East Knighton Sewage Pumping Station","category":"pumping_station","osm_type":"way","osm_id":"967675996","operator":"Wessex Water","ref":"14222"}},{"type":"Feature","geometry":{"type":"Point","coordinates":[-2.32881,50.67692]},"properties":{"name":"Owermoigne Sewage Pumping Station","category":"pumping_station","osm_type":"way","osm_id":"967676012","operator":"Wessex Water","ref":"14398"}},{"type":"Feature","geometry":{"type":"Point","coordinates":[-2.68679,50.76144]},"properties":{"name":"Powerstock Sewage Treatment Works","category":"wastewater_plant","osm_type":"way","osm_id":"1007283516","operator":"Wessex Water"}},{"type":"Feature","geometry":{"type":"Point","coordinates":[-2.00022,50.94756]},"properties":{"name":"Sixpenny Handley WwTW","category":"wastewater_plant","osm_type":"way","osm_id":"1031950227","operator":"Wessex Water","ref":"13277"}},{"type":"Feature","geometry":{"type":"Point","coordinates":[-2.00229,50.94838]},"properties":{"name":"Sixpenny Handley Sewage Pumping Station","category":"pumping_station","osm_type":"way","osm_id":"1031950302","operator":"Wessex Water","ref":"14041"}},{"type":"Feature","geometry":{"type":"Point","coordinates":[-2.43997,50.64612]},"properties":{"name":"Mapped water infrastructure","category":"pumping_station","osm_type":"way","osm_id":"1037367078","operator":"Wessex Water"}},{"type":"Feature","geometry":{"type":"Point","coordinates":[-2.9156,50.96285]},"properties":{"name":"Ilton WwTW","category":"wastewater_plant","osm_type":"way","osm_id":"1038870763","operator":"Wessex Water","ref":"13162"}},{"type":"Feature","geometry":{"type":"Point","coordinates":[-2.61666,50.78001]},"properties":{"name":"Toller Porcorum WwTW","category":"wastewater_plant","osm_type":"way","osm_id":"1040373114","operator":"Wessex Water","ref":"13316"}},{"type":"Feature","geometry":{"type":"Point","coordinates":[-2.49591,50.90846]},"properties":{"name":"Longburton WwTW","category":"wastewater_plant","osm_type":"way","osm_id":"1041209241","operator":"Wessex Water","ref":"13182"}},{"type":"Feature","geometry":{"type":"Point","coordinates":[-2.1743,50.68225]},"properties":{"name":"East Stoke WwTW","category":"wastewater_plant","osm_type":"way","osm_id":"1041759475","operator":"Wessex Water","ref":"13110"}},{"type":"Feature","geometry":{"type":"Point","coordinates":[-2.67007,50.97351]},"properties":{"name":"Chilthorne Domer WwTW","category":"wastewater_plant","osm_type":"way","osm_id":"1046647895","operator":"Wessex Water","ref":"13072"}},{"type":"Feature","geometry":{"type":"Point","coordinates":[-2.67306,50.9705]},"properties":{"name":"Chilthorne Domer WwTW","category":"wastewater_plant","osm_type":"way","osm_id":"1046666984","operator":"Wessex Water","ref":"13062"}},{"type":"Feature","geometry":{"type":"Point","coordinates":[-2.80003,50.92975]},"properties":{"name":"Over Stratton WwTW","category":"wastewater_plant","osm_type":"way","osm_id":"1046683337","operator":"Wessex Water","ref":"13231"}},{"type":"Feature","geometry":{"type":"Point","coordinates":[-2.58021,50.91192]},"properties":{"name":"Thornford WwTW","category":"wastewater_plant","osm_type":"way","osm_id":"1046683563","operator":"Wessex Water","ref":"13310"}},{"type":"Feature","geometry":{"type":"Point","coordinates":[-2.91574,50.99794]},"properties":{"name":"Fivehead WwTW","category":"wastewater_plant","osm_type":"way","osm_id":"1046683843","operator":"Wessex Water","ref":"13125"}},{"type":"Feature","geometry":{"type":"Point","coordinates":[-2.75104,50.89829]},"properties":{"name":"Haselbury Plucknett WwTW","category":"wastewater_plant","osm_type":"way","osm_id":"1046684739","operator":"Wessex Water","ref":"13167"}},{"type":"Feature","geometry":{"type":"Point","coordinates":[-2.47297,50.92544]},"properties":{"name":"Alweston WwTW","category":"wastewater_plant","osm_type":"way","osm_id":"1046685944","operator":"Wessex Water","ref":"13005"}},{"type":"Feature","geometry":{"type":"Point","coordinates":[-2.40295,50.9886]},"properties":{"name":"Yenston WwTW","category":"wastewater_plant","osm_type":"way","osm_id":"1046686589","operator":"Wessex Water","ref":"13365"}},{"type":"Feature","geometry":{"type":"Point","coordinates":[-2.32168,50.6959]},"properties":{"name":"Redbridge, Crossways Sewage Pumping Station","category":"pumping_station","osm_type":"way","osm_id":"1065276792","operator":"Wessex Water","ref":"15490"}},{"type":"Feature","geometry":{"type":"Point","coordinates":[-2.10601,50.83735]},"properties":{"name":"Mapped water infrastructure","category":"pumping_station","osm_type":"way","osm_id":"1066595911"}},{"type":"Feature","geometry":{"type":"Point","coordinates":[-2.10842,50.83513]},"properties":{"name":"Keyneston Tarrant Keyneston Booster","category":"pumping_station","osm_type":"way","osm_id":"1066595915","operator":"Wessex Water","ref":"12544"}},{"type":"Feature","geometry":{"type":"Point","coordinates":[-2.11622,50.81709]},"properties":{"name":"Crawford Bridge Spetisbury Sewage Pumping Station","category":"pumping_station","osm_type":"way","osm_id":"1066595925","operator":"Wessex Water","ref":"15209"}},{"type":"Feature","geometry":{"type":"Point","coordinates":[-2.01522,50.78149]},"properties":{"name":"Mapped water infrastructure","category":"pumping_station","osm_type":"way","osm_id":"1078166306"}},{"type":"Feature","geometry":{"type":"Point","coordinates":[-2.25067,50.61888]},"properties":{"name":"Mapped water infrastructure","category":"wastewater_plant","osm_type":"way","osm_id":"1096144403"}},{"type":"Feature","geometry":{"type":"Point","coordinates":[-2.96683,50.95522]},"properties":{"name":"Ashill WwTW","category":"wastewater_plant","osm_type":"way","osm_id":"1112791782","operator":"Wessex Water","ref":"13010"}},{"type":"Feature","geometry":{"type":"Point","coordinates":[-2.35295,50.63319]},"properties":{"name":"Ringstead WwTW","category":"wastewater_plant","osm_type":"way","osm_id":"1112792017","operator":"Wessex Water","ref":"17062"}},{"type":"Feature","geometry":{"type":"Point","coordinates":[-2.67241,50.97492]},"properties":{"name":"Chilthorne Domer WwTW","category":"wastewater_plant","osm_type":"way","osm_id":"1112792205","operator":"Wessex Water","ref":"13517"}},{"type":"Feature","geometry":{"type":"Point","coordinates":[-2.52445,50.78602]},"properties":{"name":"Sydling St Nicholas WwTW","category":"wastewater_plant","osm_type":"way","osm_id":"1112793086","operator":"Wessex Water","ref":"13303"}},{"type":"Feature","geometry":{"type":"Point","coordinates":[-2.63252,50.90201]},"properties":{"name":"Stourton Caundle WwTW","category":"wastewater_plant","osm_type":"way","osm_id":"1112793741","operator":"Wessex Water","ref":"13292"}},{"type":"Feature","geometry":{"type":"Point","coordinates":[-2.77537,50.80147]},"properties":{"name":"Stoke Abbott WwTW","category":"wastewater_plant","osm_type":"way","osm_id":"1112793924","operator":"Wessex Water","ref":"13289"}},{"type":"Feature","geometry":{"type":"Point","coordinates":[-2.75414,50.86357]},"properties":{"name":"South Perrott WwTW","category":"wastewater_plant","osm_type":"way","osm_id":"1112794307","operator":"Wessex Water","ref":"13280"}},{"type":"Feature","geometry":{"type":"Point","coordinates":[-2.19973,50.92421]},"properties":{"name":"Iwerne Minster WwTW","category":"wastewater_plant","osm_type":"way","osm_id":"1112796468","operator":"Wessex Water","ref":"13163"}},{"type":"Feature","geometry":{"type":"Point","coordinates":[-2.6513,50.87105]},"properties":{"name":"Halstock WwTW","category":"wastewater_plant","osm_type":"way","osm_id":"1112796591","operator":"Wessex Water","ref":"13140"}},{"type":"Feature","geometry":{"type":"Point","coordinates":[-2.96894,50.8938]},"properties":{"name":"Combe St Nicholas WwTW","category":"wastewater_plant","osm_type":"way","osm_id":"1112796846","operator":"Wessex Water","ref":"13073"}},{"type":"Feature","geometry":{"type":"Point","coordinates":[-2.89213,50.73981]},"properties":{"name":"Charmouth WwTW","category":"wastewater_plant","osm_type":"way","osm_id":"1112797235","operator":"Wessex Water","ref":"13056"}},{"type":"Feature","geometry":{"type":"Point","coordinates":[-2.63239,50.90276]},"properties":{"name":"Sutton Bingham Supply WwTW","category":"wastewater_plant","osm_type":"way","osm_id":"1112800893","operator":"Wessex Water","ref":"13300"}},{"type":"Feature","geometry":{"type":"Point","coordinates":[-2.47693,50.58935]},"properties":{"name":"Weymouth Wastewater Treatment Works","category":"wastewater_plant","osm_type":"way","osm_id":"1112801876","operator":"Wessex Water","ref":"13342"}},{"type":"Feature","geometry":{"type":"Point","coordinates":[-2.98209,50.81021]},"properties":{"name":"Goldsmiths Lane STW Axminster","category":"wastewater_plant","osm_type":"way","osm_id":"1115094955","operator":"South West Water","ref":"000010303620"}},{"type":"Feature","geometry":{"type":"Point","coordinates":[-2.97414,50.80722]},"properties":{"name":"Waggs Plot STW Axminster","category":"wastewater_plant","osm_type":"way","osm_id":"1115095117","operator":"South West Water","ref":"000010615030"}},{"type":"Feature","geometry":{"type":"Point","coordinates":[-2.93717,50.80374]},"properties":{"name":"Hawkchurch STW Hawkchurch","category":"wastewater_plant","osm_type":"way","osm_id":"1115096701","operator":"South West Water","ref":"000000053657"}},{"type":"Feature","geometry":{"type":"Point","coordinates":[-2.88903,50.85026]},"properties":{"name":"Winsham STW Winsham","category":"wastewater_plant","osm_type":"way","osm_id":"1115096931","operator":"South West Water","ref":"000000053743"}},{"type":"Feature","geometry":{"type":"Point","coordinates":[-2.02295,50.74044]},"properties":{"name":"Gorse Lane Sewage Pumping Station","category":"pumping_station","osm_type":"way","osm_id":"1128096963","operator":"Wessex Water","ref":"14236"}},{"type":"Feature","geometry":{"type":"Point","coordinates":[-2.2293,50.67441]},"properties":{"name":"Chalk Pit Lane Sewage Pumping Station","category":"pumping_station","osm_type":"way","osm_id":"1144158326","operator":"Wessex Water"}},{"type":"Feature","geometry":{"type":"Point","coordinates":[-2.23105,50.80375]},"properties":{"name":"Mapped water infrastructure","category":"water_works","osm_type":"way","osm_id":"1167457334"}},{"type":"Feature","geometry":{"type":"Point","coordinates":[-2.08933,50.81475]},"properties":{"name":"Shapwick Cross Shapwick Sewage Pumping Station","category":"pumping_station","osm_type":"way","osm_id":"1177442152","operator":"Wessex Water","ref":"15056"}},{"type":"Feature","geometry":{"type":"Point","coordinates":[-2.08596,50.81385]},"properties":{"name":"Stewards Lane Shapwick Sewage Pumping Station","category":"pumping_station","osm_type":"way","osm_id":"1177442155","operator":"Wessex Water","ref":"15064"}},{"type":"Feature","geometry":{"type":"Point","coordinates":[-2.08381,50.81306]},"properties":{"name":"Shapwick East Shapwick Sewage Pumping Station","category":"pumping_station","osm_type":"way","osm_id":"1177442158","operator":"Wessex Water","ref":"15061"}},{"type":"Feature","geometry":{"type":"Point","coordinates":[-2.99274,50.71619]},"properties":{"name":"Mapped water infrastructure","category":"reservoir_covered","osm_type":"way","osm_id":"1182075438"}},{"type":"Feature","geometry":{"type":"Point","coordinates":[-2.0383,50.59156]},"properties":{"name":"Mapped water infrastructure","category":"wastewater_plant","osm_type":"way","osm_id":"1184791118"}},{"type":"Feature","geometry":{"type":"Point","coordinates":[-2.45055,50.60475]},"properties":{"name":"Mapped water infrastructure","category":"pumping_station","osm_type":"way","osm_id":"1215898279"}},{"type":"Feature","geometry":{"type":"Point","coordinates":[-2.47579,50.60005]},"properties":{"name":"Reservoir 1 and 2 Wyke Regis","category":"reservoir_covered","osm_type":"way","osm_id":"1221247464","operator":"Wessex Water"}},{"type":"Feature","geometry":{"type":"Point","coordinates":[-2.35197,50.74613]},"properties":{"name":"Mapped water infrastructure","category":"reservoir_covered","osm_type":"way","osm_id":"1255235514","operator":"Wessex Water"}},{"type":"Feature","geometry":{"type":"Point","coordinates":[-2.3454,50.75163]},"properties":{"name":"Mapped water infrastructure","category":"pumping_station","osm_type":"way","osm_id":"1258408701","operator":"Wessex Water","addr:city":"Puddletown"}},{"type":"Feature","geometry":{"type":"Point","coordinates":[-2.31548,50.79581]},"properties":{"name":"Water Treatment Centre - Dewlish","category":"wastewater_plant","osm_type":"way","osm_id":"1290727747","operator":"Wessex Water","ref":"12043"}},{"type":"Feature","geometry":{"type":"Point","coordinates":[-2.07599,50.79335]},"properties":{"name":"Station Road Sturminster Marshall Sewage Pumping Station","category":"pumping_station","osm_type":"way","osm_id":"1301396995","operator":"Wessex Water","ref":"15065"}},{"type":"Feature","geometry":{"type":"Point","coordinates":[-2.07305,50.79789]},"properties":{"name":"High Street Sturminster Marshall Sewage Pumping Station","category":"pumping_station","osm_type":"way","osm_id":"1301396996","operator":"Wessex Water","ref":"15058"}},{"type":"Feature","geometry":{"type":"Point","coordinates":[-2.07189,50.8017]},"properties":{"name":"Church Street Sturminster Marshall Sewage Pumping Station","category":"pumping_station","osm_type":"way","osm_id":"1301396997","operator":"Wessex Water","ref":"15062"}},{"type":"Feature","geometry":{"type":"Point","coordinates":[-2.11664,50.92114]},"properties":{"name":"Main Street Stubhampton Sewage Pumping Station","category":"pumping_station","osm_type":"way","osm_id":"1301397002","operator":"Wessex Water","ref":"14121"}},{"type":"Feature","geometry":{"type":"Point","coordinates":[-2.0905,50.90126]},"properties":{"name":"Mapped water infrastructure","category":"wastewater_plant","osm_type":"way","osm_id":"1301397012"}},{"type":"Feature","geometry":{"type":"Point","coordinates":[-2.27415,50.88926]},"properties":{"name":"Okeford Okeford Fitzpaine Reservoir","category":"reservoir_covered","osm_type":"way","osm_id":"1305479367","operator":"Wessex Water","ref":"11241"}},{"type":"Feature","geometry":{"type":"Point","coordinates":[-2.13154,50.91494]},"properties":{"name":"Tarrant Gunville Blandford Forum Reservoir","category":"reservoir_covered","osm_type":"way","osm_id":"1311105856","operator":"Wessex Water","ref":"11311"}},{"type":"Feature","geometry":{"type":"Point","coordinates":[-2.31284,50.70382]},"properties":{"name":"Housing Sewage Treatment Works","category":"wastewater_plant","osm_type":"way","osm_id":"1323937970","operator":"Aster Group"}},{"type":"Feature","geometry":{"type":"Point","coordinates":[-2.71268,50.72549]},"properties":{"name":"Mapped water infrastructure","category":"reservoir_covered","osm_type":"way","osm_id":"1386781597"}},{"type":"Feature","geometry":{"type":"Point","coordinates":[-2.49494,50.97667]},"properties":{"name":"Poyntington WwTW","category":"wastewater_plant","osm_type":"way","osm_id":"1391621727","operator":"Wessex Water","ref":"13246"}},{"type":"Feature","geometry":{"type":"Point","coordinates":[-2.52279,50.99711]},"properties":{"name":"Corton Denham WwTW","category":"wastewater_plant","osm_type":"way","osm_id":"1391622527","operator":"Wessex Water","ref":"13081"}},{"type":"Feature","geometry":{"type":"Point","coordinates":[-2.1841,50.998]},"properties":{"name":"Cann WwTW","category":"wastewater_plant","osm_type":"way","osm_id":"1413018207","operator":"Wessex Water","ref":"13046"}},{"type":"Feature","geometry":{"type":"Point","coordinates":[-2.19742,50.95297]},"properties":{"name":"Fontmell Magna WwTW","category":"wastewater_plant","osm_type":"way","osm_id":"1413446216","operator":"Wessex Water","ref":"13127"}},{"type":"Feature","geometry":{"type":"Point","coordinates":[-2.83789,50.96207]},"properties":{"name":"West Lambrook WwTW","category":"wastewater_plant","osm_type":"way","osm_id":"1413446968","operator":"Wessex Water","ref":"19649"}},{"type":"Feature","geometry":{"type":"Point","coordinates":[-2.06403,50.88407]},"properties":{"name":"Mapped water infrastructure","category":"reservoir_covered","osm_type":"way","osm_id":"1416155078","operator":"Bournemouth Water"}},{"type":"Feature","geometry":{"type":"Point","coordinates":[-2.83494,50.85246]},"properties":{"name":"Clapton Bridge STW Crewkerne","category":"wastewater_plant","osm_type":"way","osm_id":"1420012546","operator":"South West Water","ref":"000010406346"}},{"type":"Feature","geometry":{"type":"Point","coordinates":[-2.82914,50.84755]},"properties":{"name":"Drimpton STW Drimpton","category":"wastewater_plant","osm_type":"way","osm_id":"1420012738","operator":"South West Water","ref":"000000053652"}},{"type":"Feature","geometry":{"type":"Point","coordinates":[-2.73031,50.77793]},"properties":{"name":"Melplash WwTW","category":"wastewater_plant","osm_type":"way","osm_id":"1420425962","operator":"Wessex Water","ref":"10307"}},{"type":"Feature","geometry":{"type":"Point","coordinates":[-2.0878,50.76187]},"properties":{"name":"Lytchett Matravers Tower Distribution Site","category":"water_works","osm_type":"way","osm_id":"1424659484","operator":"Wessex Water","ref":"11211"}},{"type":"Feature","geometry":{"type":"Point","coordinates":[-2.82426,50.87067]},"properties":{"name":"Hewish STW Crewkerne","category":"wastewater_plant","osm_type":"way","osm_id":"1426189567","operator":"South West Water","ref":"000010088480"}},{"type":"Feature","geometry":{"type":"Point","coordinates":[-2.02432,50.7322]},"properties":{"name":"Sandy Lane Upton Sewage Pumping Station","category":"pumping_station","osm_type":"way","osm_id":"1462188305","operator":"Wessex Water","ref":"14219"}},{"type":"Feature","geometry":{"type":"Point","coordinates":[-2.05061,50.73533]},"properties":{"name":"Watery Lane Upton Sewage Pumping Station","category":"pumping_station","osm_type":"way","osm_id":"1462188320","operator":"Wessex Water","ref":"11404"}},{"type":"Feature","geometry":{"type":"Point","coordinates":[-2.28035,50.7839]},"properties":{"name":"Water Treatment Centre - Milborne St Andrew","category":"wastewater_plant","osm_type":"way","osm_id":"1504592510","operator":"Wessex Water"}},{"type":"Feature","geometry":{"type":"Point","coordinates":[-2.40035,50.93002]},"properties":{"name":"Mapped water infrastructure","category":"wastewater_plant","osm_type":"way","osm_id":"1507530267"}},{"type":"Feature","geometry":{"type":"Point","coordinates":[-2.70167,50.95481]},"properties":{"name":"Mapped water infrastructure","category":"pumping_station","osm_type":"way","osm_id":"1546269362"}},{"type":"Feature","geometry":{"type":"Point","coordinates":[-2.69996,50.91645]},"properties":{"name":"Mapped water infrastructure","category":"reservoir_covered","osm_type":"way","osm_id":"1547244730"}},{"type":"Feature","geometry":{"type":"Point","coordinates":[-2.79365,50.80918]},"properties":{"name":"Stoke Knapp Reservoir","category":"reservoir_covered","osm_type":"way","osm_id":"1551245923","operator":"Wessex Water"}},{"type":"Feature","geometry":{"type":"Point","coordinates":[-2.77285,50.75427]},"properties":{"name":"Dottery Reservoir","category":"reservoir_covered","osm_type":"way","osm_id":"1551287114"}},{"type":"Feature","geometry":{"type":"Point","coordinates":[-2.71162,50.718]},"properties":{"name":"Mapped water infrastructure","category":"wastewater_plant","osm_type":"way","osm_id":"1551970013"}},{"type":"Feature","geometry":{"type":"Point","coordinates":[-2.98394,50.7755]},"properties":{"name":"Mapped water infrastructure","category":"reservoir_covered","osm_type":"way","osm_id":"1555080100"}},{"type":"Feature","geometry":{"type":"Point","coordinates":[-2.9963,50.79194]},"properties":{"name":"Oakham Pump House","category":"pumping_station","osm_type":"way","osm_id":"1556736054"}},{"type":"Feature","geometry":{"type":"Point","coordinates":[-2.99296,50.71655]},"properties":{"name":"Mapped water infrastructure","category":"reservoir_covered","osm_type":"way","osm_id":"1557632738"}},{"type":"Feature","geometry":{"type":"Point","coordinates":[-2.60067,50.83724]},"properties":{"name":"Mapped water infrastructure","category":"wastewater_plant","osm_type":"relation","osm_id":"18418857"}},{"type":"Feature","geometry":{"type":"Point","coordinates":[-2.19906,50.99289]},"properties":{"name":"Shaftesbury Sewage Works","category":"wastewater_plant","osm_type":"way","osm_id":"89168561"}},{"type":"Feature","geometry":{"type":"Point","coordinates":[-2.4524,50.95461]},"properties":{"name":"Milborne Port Sewage Works","category":"wastewater_plant","osm_type":"way","osm_id":"103078488"}},{"type":"Feature","geometry":{"type":"Point","coordinates":[-2.20761,50.88658]},"properties":{"name":"Stourpaine Sewage Works","category":"wastewater_plant","osm_type":"way","osm_id":"119399123"}},{"type":"Feature","geometry":{"type":"Point","coordinates":[-2.34563,50.99214]},"properties":{"name":"Five Bridges Sewage Pumping Station","category":"pumping_station","osm_type":"way","osm_id":"125554501","operator":"Wessex Water"}},{"type":"Feature","geometry":{"type":"Point","coordinates":[-2.95166,50.93582]},"properties":{"name":"Broadway WwTW","category":"wastewater_plant","osm_type":"way","osm_id":"128093499","operator":"Wessex Water","ref":"13051"}},{"type":"Feature","geometry":{"type":"Point","coordinates":[-2.25066,50.61902]},"properties":{"name":"Mapped water infrastructure","category":"pumping_station","osm_type":"way","osm_id":"155527007"}},{"type":"Feature","geometry":{"type":"Point","coordinates":[-2.28404,50.65375]},"properties":{"name":"East Chaldon, Booster Distribution Site","category":"pumping_station","osm_type":"way","osm_id":"167142601","operator":"Wessex Water","ref":"11472"}},{"type":"Feature","geometry":{"type":"Point","coordinates":[-2.31619,50.63986]},"properties":{"name":"Mapped water infrastructure","category":"pumping_station","osm_type":"way","osm_id":"244881615"}},{"type":"Feature","geometry":{"type":"Point","coordinates":[-2.48556,50.67823]},"properties":{"name":"Mapped water infrastructure","category":"reservoir_covered","osm_type":"way","osm_id":"248314668"}},{"type":"Feature","geometry":{"type":"Point","coordinates":[-2.48553,50.67869]},"properties":{"name":"Mapped water infrastructure","category":"reservoir_covered","osm_type":"way","osm_id":"248314670"}},{"type":"Feature","geometry":{"type":"Point","coordinates":[-2.08278,50.72061]},"properties":{"name":"Holton Heath, Booster Distribution Site","category":"pumping_station","osm_type":"way","osm_id":"258840346","operator":"Wessex Water","ref":"11514"}},{"type":"Feature","geometry":{"type":"Point","coordinates":[-2.87881,50.82979]},"properties":{"name":"Mapped water infrastructure","category":"wastewater_plant","osm_type":"way","osm_id":"305780613"}},{"type":"Feature","geometry":{"type":"Point","coordinates":[-2.11238,50.68994]},"properties":{"name":"North Bridge, Wareham Sewage Pumping Station","category":"pumping_station","osm_type":"way","osm_id":"338420937","operator":"Wessex Water","ref":"14268"}},{"type":"Feature","geometry":{"type":"Point","coordinates":[-2.4631,50.60925]},"properties":{"name":"Mapped water infrastructure","category":"wastewater_plant","osm_type":"way","osm_id":"368545724"}},{"type":"Feature","geometry":{"type":"Point","coordinates":[-2.82174,50.72288]},"properties":{"name":"Mapped water infrastructure","category":"pumping_station","osm_type":"way","osm_id":"459427932"}},{"type":"Feature","geometry":{"type":"Point","coordinates":[-2.14677,50.885]},"properties":{"name":"Pumping Station","category":"pumping_station","osm_type":"way","osm_id":"514014801","operator":"Wessex Water"}},{"type":"Feature","geometry":{"type":"Point","coordinates":[-2.58307,50.66282]},"properties":{"name":"Abbotsbury WwTW","category":"wastewater_plant","osm_type":"way","osm_id":"528132938","operator":"Wessex Water","ref":"13001"}},{"type":"Feature","geometry":{"type":"Point","coordinates":[-2.04912,50.76158]},"properties":{"name":"Rushall Lane Lytchett Matravers Booster","category":"pumping_station","osm_type":"way","osm_id":"802258593","operator":"Wessex Water","ref":"19166"}},{"type":"Feature","geometry":{"type":"Point","coordinates":[-2.2129,50.75543]},"properties":{"name":"Bere Regis Wareham Booster","category":"wastewater_plant","osm_type":"way","osm_id":"815961380","operator":"Wessex Water","ref":"12519"}},{"type":"Feature","geometry":{"type":"Point","coordinates":[-2.11949,50.82667]},"properties":{"name":"Tarrant Crawford WwTW","category":"wastewater_plant","osm_type":"way","osm_id":"866057521","operator":"Wessex Water","ref":"13304"}},{"type":"Feature","geometry":{"type":"Point","coordinates":[-2.44174,50.72613]},"properties":{"name":"Mapped water infrastructure","category":"pumping_station","osm_type":"way","osm_id":"878613752"}},{"type":"Feature","geometry":{"type":"Point","coordinates":[-2.42911,50.65002]},"properties":{"name":"Mapped water infrastructure","category":"pumping_station","osm_type":"way","osm_id":"921759019"}},{"type":"Feature","geometry":{"type":"Point","coordinates":[-2.25555,50.7381]},"properties":{"name":"Briantspuddle Sewage Pumping Station","category":"pumping_station","osm_type":"way","osm_id":"961402522","operator":"Wessex Water","ref":"14272"}},{"type":"Feature","geometry":{"type":"Point","coordinates":[-2.28045,50.80892]},"properties":{"name":"Milton Abbas Sewage Pumping Station","category":"pumping_station","osm_type":"way","osm_id":"965392328","operator":"Wessex Water","ref":"19612"}},{"type":"Feature","geometry":{"type":"Point","coordinates":[-2.40223,50.72301]},"properties":{"name":"Mapped water infrastructure","category":"pumping_station","osm_type":"way","osm_id":"1077799226"}},{"type":"Feature","geometry":{"type":"Point","coordinates":[-2.2355,50.89686]},"properties":{"name":"Shillingstone STW","category":"wastewater_plant","osm_type":"way","osm_id":"1088502202","operator":"Wessex Water"}},{"type":"Feature","geometry":{"type":"Point","coordinates":[-2.09416,50.71626]},"properties":{"name":"Mapped water infrastructure","category":"water_tower","osm_type":"way","osm_id":"1118169571"}},{"type":"Feature","geometry":{"type":"Point","coordinates":[-2.10488,50.68487]},"properties":{"name":"South East Wareham Sewage Pumping Station","category":"pumping_station","osm_type":"way","osm_id":"1217646305","operator":"Wessex Water"}},{"type":"Feature","geometry":{"type":"Point","coordinates":[-2.46177,50.61409]},"properties":{"name":"Mapped water infrastructure","category":"wastewater_plant","osm_type":"way","osm_id":"1220076272","addr:postcode":"DT4 0GB"}},{"type":"Feature","geometry":{"type":"Point","coordinates":[-2.17449,50.74454]},"properties":{"name":"Mapped water infrastructure","category":"pumping_station","osm_type":"way","osm_id":"1350741253"}},{"type":"Feature","geometry":{"type":"Point","coordinates":[-2.41698,50.65441]},"properties":{"name":"Sutton Poyntz Pumping Station","category":"pumping_station","osm_type":"way","osm_id":"1479037562"}}]}