{"type":"FeatureCollection","features":[{"type":"Feature","geometry":{"type":"Point","coordinates":[-3.00413,52.6079]},"properties":{"name":"Mapped water infrastructure","category":"pumping_station","osm_type":"node","osm_id":"6762147039"}},{"type":"Feature","geometry":{"type":"Point","coordinates":[-3.02024,52.81823]},"properties":{"name":"Maesbury Water Point","category":"water_point","osm_type":"node","osm_id":"8522389775","operator":"Canal and River Trust"}},{"type":"Feature","geometry":{"type":"Point","coordinates":[-3.00063,52.90747]},"properties":{"name":"New Marton Water Point","category":"water_point","osm_type":"node","osm_id":"8522405092","operator":"Canal and River Trust"}},{"type":"Feature","geometry":{"type":"Point","coordinates":[-3.00082,52.90762]},"properties":{"name":"New Marton Water Point","category":"water_point","osm_type":"node","osm_id":"8522405093","operator":"Canal and River Trust"}},{"type":"Feature","geometry":{"type":"Point","coordinates":[-3.03108,52.89856]},"properties":{"name":"Mapped water infrastructure","category":"pumping_station","osm_type":"node","osm_id":"14112041575","operator":"Severn Trent Water"}},{"type":"Feature","geometry":{"type":"Point","coordinates":[-3.08044,52.78578]},"properties":{"name":"Pant - Plas Cerrig (STW)","category":"wastewater_plant","osm_type":"way","osm_id":"215649123","operator":"Severn Trent","ref":"10549-ST1"}},{"type":"Feature","geometry":{"type":"Point","coordinates":[-3.12728,52.808]},"properties":{"name":"Mapped water infrastructure","category":"reservoir_covered","osm_type":"way","osm_id":"216250647"}},{"type":"Feature","geometry":{"type":"Point","coordinates":[-3.03832,52.84]},"properties":{"name":"Oswestry (Mile Oak) STW","category":"wastewater_plant","osm_type":"way","osm_id":"399506421","operator":"Severn Trent"}},{"type":"Feature","geometry":{"type":"Point","coordinates":[-3.02465,52.86901]},"properties":{"name":"Oswestry Drenewydd STW","category":"wastewater_plant","osm_type":"way","osm_id":"479523494"}},{"type":"Feature","geometry":{"type":"Point","coordinates":[-3.06748,52.86541]},"properties":{"name":"Mapped water infrastructure","category":"water_works","osm_type":"way","osm_id":"845075224"}},{"type":"Feature","geometry":{"type":"Point","coordinates":[-3.07253,52.8662]},"properties":{"name":"Mapped water infrastructure","category":"water_works","osm_type":"way","osm_id":"845075251"}},{"type":"Feature","geometry":{"type":"Point","coordinates":[-3.09152,52.86983]},"properties":{"name":"Mapped water infrastructure","category":"water_works","osm_type":"way","osm_id":"845075269"}},{"type":"Feature","geometry":{"type":"Point","coordinates":[-3.07578,52.8576]},"properties":{"name":"Mapped water infrastructure","category":"water_works","osm_type":"way","osm_id":"845131572","operator":"United Utilities"}},{"type":"Feature","geometry":{"type":"Point","coordinates":[-3.06689,52.57181]},"properties":{"name":"Mapped water infrastructure","category":"reservoir_covered","osm_type":"way","osm_id":"880140738"}},{"type":"Feature","geometry":{"type":"Point","coordinates":[-3.00352,52.60814]},"properties":{"name":"Mapped water infrastructure","category":"reservoir_covered","osm_type":"way","osm_id":"912362285"}},{"type":"Feature","geometry":{"type":"Point","coordinates":[-3.02937,52.59783]},"properties":{"name":"Mapped water infrastructure","category":"reservoir_covered","osm_type":"way","osm_id":"961933622"}},{"type":"Feature","geometry":{"type":"Point","coordinates":[-3.0611,52.8246]},"properties":{"name":"Mapped water infrastructure","category":"reservoir_covered","osm_type":"way","osm_id":"989850599"}},{"type":"Feature","geometry":{"type":"Point","coordinates":[-3.02664,52.88134]},"properties":{"name":"Mapped water infrastructure","category":"pumping_station","osm_type":"way","osm_id":"1118963085"}},{"type":"Feature","geometry":{"type":"Point","coordinates":[-3.1145,52.83422]},"properties":{"name":"Mapped water infrastructure","category":"reservoir_covered","osm_type":"way","osm_id":"1155809001"}},{"type":"Feature","geometry":{"type":"Point","coordinates":[-3.06363,52.80757]},"properties":{"name":"Llynclys (STW)","category":"wastewater_plant","osm_type":"way","osm_id":"1293985723","operator":"Severn Trent","ref":"10761-ST1"}},{"type":"Feature","geometry":{"type":"Point","coordinates":[-3.12146,52.8191]},"properties":{"name":"Mapped water infrastructure","category":"reservoir_covered","osm_type":"way","osm_id":"1427060694"}},{"type":"Feature","geometry":{"type":"Point","coordinates":[-3.09412,52.5786]},"properties":{"name":"Water works","category":"pumping_station","osm_type":"way","osm_id":"173046800","operator":"Hafren Dyfrdwy"}},{"type":"Feature","geometry":{"type":"Point","coordinates":[-3.09458,52.58121]},"properties":{"name":"Chirbury (STW)","category":"wastewater_plant","osm_type":"way","osm_id":"187635487","operator":"Severn Trent","ref":"10603-ST1"}},{"type":"Feature","geometry":{"type":"Point","coordinates":[-3.00169,52.77833]},"properties":{"name":"Pumping Station","category":"pumping_station","osm_type":"way","osm_id":"339210260","operator":"Severn Trent Water"}},{"type":"Feature","geometry":{"type":"Point","coordinates":[-3.0727,52.86642]},"properties":{"name":"Mapped water infrastructure","category":"water_works","osm_type":"way","osm_id":"856739847"}}]}