{"type":"FeatureCollection","features":[{"type":"Feature","geometry":{"type":"Point","coordinates":[-3.03699,54.4335]},"properties":{"name":"DLC Site","category":"wastewater_plant","osm_type":"node","osm_id":"1026381275"}},{"type":"Feature","geometry":{"type":"Point","coordinates":[-3.26117,54.4571]},"properties":{"name":"Mapped water infrastructure","category":"drinking_water","osm_type":"node","osm_id":"1325489843"}},{"type":"Feature","geometry":{"type":"Point","coordinates":[-3.10011,54.44234]},"properties":{"name":"Mapped water infrastructure","category":"drinking_water","osm_type":"node","osm_id":"5899306721"}},{"type":"Feature","geometry":{"type":"Point","coordinates":[-3.09862,54.4434]},"properties":{"name":"Mapped water infrastructure","category":"drinking_water","osm_type":"node","osm_id":"6226873615"}},{"type":"Feature","geometry":{"type":"Point","coordinates":[-3.25687,54.46773]},"properties":{"name":"Mapped water infrastructure","category":"drinking_water","osm_type":"node","osm_id":"6875275585"}},{"type":"Feature","geometry":{"type":"Point","coordinates":[-3.26276,54.45621]},"properties":{"name":"Mapped water infrastructure","category":"drinking_water","osm_type":"node","osm_id":"7859596716","operator":"National Trust","wheelchair":"yes"}},{"type":"Feature","geometry":{"type":"Point","coordinates":[-3.2317,54.12781]},"properties":{"name":"Mapped water infrastructure","category":"water_well","osm_type":"node","osm_id":"8887960340"}},{"type":"Feature","geometry":{"type":"Point","coordinates":[-3.2319,54.1283]},"properties":{"name":"Mapped water infrastructure","category":"water_well","osm_type":"node","osm_id":"8887960341"}},{"type":"Feature","geometry":{"type":"Point","coordinates":[-3.23176,54.12728]},"properties":{"name":"Mapped water infrastructure","category":"water_well","osm_type":"node","osm_id":"8887960342"}},{"type":"Feature","geometry":{"type":"Point","coordinates":[-3.23161,54.12693]},"properties":{"name":"Mapped water infrastructure","category":"water_well","osm_type":"node","osm_id":"8887960343"}},{"type":"Feature","geometry":{"type":"Point","coordinates":[-3.07538,54.37326]},"properties":{"name":"Mapped water infrastructure","category":"drinking_water","osm_type":"node","osm_id":"9998995897"}},{"type":"Feature","geometry":{"type":"Point","coordinates":[-3.07555,54.37339]},"properties":{"name":"Mapped water infrastructure","category":"drinking_water","osm_type":"node","osm_id":"9999360060"}},{"type":"Feature","geometry":{"type":"Point","coordinates":[-3.35042,54.42633]},"properties":{"name":"Mapped water infrastructure","category":"drinking_water","osm_type":"node","osm_id":"10011712714"}},{"type":"Feature","geometry":{"type":"Point","coordinates":[-3.34935,54.42589]},"properties":{"name":"Mapped water infrastructure","category":"drinking_water","osm_type":"node","osm_id":"10011728963"}},{"type":"Feature","geometry":{"type":"Point","coordinates":[-3.09517,54.37762]},"properties":{"name":"Mapped water infrastructure","category":"drinking_water","osm_type":"node","osm_id":"10882764901"}},{"type":"Feature","geometry":{"type":"Point","coordinates":[-3.36825,54.38931]},"properties":{"name":"Mapped water infrastructure","category":"drinking_water","osm_type":"node","osm_id":"11035885760"}},{"type":"Feature","geometry":{"type":"Point","coordinates":[-3.36793,54.38928]},"properties":{"name":"Mapped water infrastructure","category":"drinking_water","osm_type":"node","osm_id":"11035885763"}},{"type":"Feature","geometry":{"type":"Point","coordinates":[-3.36767,54.38892]},"properties":{"name":"Mapped water infrastructure","category":"drinking_water","osm_type":"node","osm_id":"11035885781"}},{"type":"Feature","geometry":{"type":"Point","coordinates":[-3.36799,54.38934]},"properties":{"name":"Mapped water infrastructure","category":"drinking_water","osm_type":"node","osm_id":"11035885785"}},{"type":"Feature","geometry":{"type":"Point","coordinates":[-3.02422,54.34076]},"properties":{"name":"Mapped water infrastructure","category":"drinking_water","osm_type":"node","osm_id":"11178974894"}},{"type":"Feature","geometry":{"type":"Point","coordinates":[-3.42053,54.38342]},"properties":{"name":"Mapped water infrastructure","category":"water_well","osm_type":"node","osm_id":"11382562693"}},{"type":"Feature","geometry":{"type":"Point","coordinates":[-3.18116,54.35709]},"properties":{"name":"Mapped water infrastructure","category":"water_point","osm_type":"node","osm_id":"11953463723","operator":"Turner Hall Farm Campsite"}},{"type":"Feature","geometry":{"type":"Point","coordinates":[-3.03766,54.37661]},"properties":{"name":"Mapped water infrastructure","category":"drinking_water","osm_type":"node","osm_id":"12046666728"}},{"type":"Feature","geometry":{"type":"Point","coordinates":[-3.08949,54.44854]},"properties":{"name":"Mapped water infrastructure","category":"drinking_water","osm_type":"node","osm_id":"12100882563","operator":"Sticklebarn"}},{"type":"Feature","geometry":{"type":"Point","coordinates":[-3.34846,54.42651]},"properties":{"name":"Mapped water infrastructure","category":"drinking_water","osm_type":"node","osm_id":"12159831917"}},{"type":"Feature","geometry":{"type":"Point","coordinates":[-3.35106,54.38907]},"properties":{"name":"Mapped water infrastructure","category":"drinking_water","osm_type":"node","osm_id":"12847675997","operator":"The Barn Campsite"}},{"type":"Feature","geometry":{"type":"Point","coordinates":[-3.42813,54.41523]},"properties":{"name":"Gosforth WwTW","category":"wastewater_plant","osm_type":"way","osm_id":"117402455","operator":"United Utilities","ref":"UU-GOSFO-WW1"}},{"type":"Feature","geometry":{"type":"Point","coordinates":[-3.04011,54.42761]},"properties":{"name":"Mapped water infrastructure","category":"wastewater_plant","osm_type":"way","osm_id":"162961451","operator":"United Utilities"}},{"type":"Feature","geometry":{"type":"Point","coordinates":[-3.19564,54.17902]},"properties":{"name":"Greenscoe WwTW","category":"wastewater_plant","osm_type":"way","osm_id":"262289631","operator":"United Utilities","ref":"UU-GRNCO-WW1"}},{"type":"Feature","geometry":{"type":"Point","coordinates":[-3.24619,54.20672]},"properties":{"name":"Mapped water infrastructure","category":"wastewater_plant","osm_type":"way","osm_id":"314843668"}},{"type":"Feature","geometry":{"type":"Point","coordinates":[-3.22103,54.26174]},"properties":{"name":"Mapped water infrastructure","category":"wastewater_plant","osm_type":"way","osm_id":"316463926","operator":"United Utilities"}},{"type":"Feature","geometry":{"type":"Point","coordinates":[-3.28035,54.22432]},"properties":{"name":"Mapped water infrastructure","category":"water_works","osm_type":"way","osm_id":"318741014"}},{"type":"Feature","geometry":{"type":"Point","coordinates":[-3.20955,54.19382]},"properties":{"name":"Askam-In-Furness WwTW","category":"wastewater_plant","osm_type":"way","osm_id":"322889757","operator":"United Utilities","ref":"UU-ASKAM-WW1"}},{"type":"Feature","geometry":{"type":"Point","coordinates":[-3.22422,54.12924]},"properties":{"name":"Mapped water infrastructure","category":"reservoir_covered","osm_type":"way","osm_id":"330539110"}},{"type":"Feature","geometry":{"type":"Point","coordinates":[-3.22326,54.12894]},"properties":{"name":"Mapped water infrastructure","category":"reservoir_covered","osm_type":"way","osm_id":"330539665"}},{"type":"Feature","geometry":{"type":"Point","coordinates":[-3.48007,54.39467]},"properties":{"name":"Mapped water infrastructure","category":"wastewater_plant","osm_type":"way","osm_id":"331093219"}},{"type":"Feature","geometry":{"type":"Point","coordinates":[-3.02097,54.45547]},"properties":{"name":"Grasmere WWTW","category":"wastewater_plant","osm_type":"way","osm_id":"348717022","operator":"United Utilities","ref":"UU-GRASM-WW1"}},{"type":"Feature","geometry":{"type":"Point","coordinates":[-3.10242,54.3786]},"properties":{"name":"Mapped water infrastructure","category":"water_works","osm_type":"way","osm_id":"367350044"}},{"type":"Feature","geometry":{"type":"Point","coordinates":[-3.0618,54.18611]},"properties":{"name":"Ulverston STW","category":"wastewater_plant","osm_type":"way","osm_id":"407982648","operator":"United Utilities"}},{"type":"Feature","geometry":{"type":"Point","coordinates":[-3.12653,54.11148]},"properties":{"name":"Newbiggin WwTW","category":"wastewater_plant","osm_type":"way","osm_id":"412445622","operator":"United Utilities","ref":"UU-NEWBG-WW1"}},{"type":"Feature","geometry":{"type":"Point","coordinates":[-3.01619,54.24299]},"properties":{"name":"Mapped water infrastructure","category":"wastewater_plant","osm_type":"way","osm_id":"412452156"}},{"type":"Feature","geometry":{"type":"Point","coordinates":[-3.21797,54.3417]},"properties":{"name":"Ulpha Water Treatment Works","category":"water_works","osm_type":"way","osm_id":"436361991","operator":"United Utilites"}},{"type":"Feature","geometry":{"type":"Point","coordinates":[-3.38389,54.28217]},"properties":{"name":"Mapped water infrastructure","category":"wastewater_plant","osm_type":"way","osm_id":"498865596"}},{"type":"Feature","geometry":{"type":"Point","coordinates":[-3.40782,54.42963]},"properties":{"name":"Mapped water infrastructure","category":"water_works","osm_type":"way","osm_id":"514270072"}},{"type":"Feature","geometry":{"type":"Point","coordinates":[-3.19123,54.21785]},"properties":{"name":"Soutergate Waste Water Treatment Plant","category":"wastewater_plant","osm_type":"way","osm_id":"518633196","operator":"United Utilities","ref":"UU-SOUTE-WW1"}},{"type":"Feature","geometry":{"type":"Point","coordinates":[-3.55536,54.49436]},"properties":{"name":"Mapped water infrastructure","category":"reservoir_covered","osm_type":"way","osm_id":"534537478"}},{"type":"Feature","geometry":{"type":"Point","coordinates":[-3.49852,54.46158]},"properties":{"name":"Mapped water infrastructure","category":"wastewater_plant","osm_type":"way","osm_id":"538988998"}},{"type":"Feature","geometry":{"type":"Point","coordinates":[-3.52733,54.44071]},"properties":{"name":"Mapped water infrastructure","category":"water_works","osm_type":"way","osm_id":"547612557"}},{"type":"Feature","geometry":{"type":"Point","coordinates":[-3.18793,54.23217]},"properties":{"name":"Mapped water infrastructure","category":"pumping_station","osm_type":"way","osm_id":"561594129","operator":"United Utilities"}},{"type":"Feature","geometry":{"type":"Point","coordinates":[-3.03162,54.48362]},"properties":{"name":"Dunmail Raise Water Treatment Works","category":"water_works","osm_type":"way","osm_id":"699266289","operator":"United Utilities"}},{"type":"Feature","geometry":{"type":"Point","coordinates":[-3.16667,54.23254]},"properties":{"name":"Mapped water infrastructure","category":"reservoir_covered","osm_type":"way","osm_id":"771505280"}},{"type":"Feature","geometry":{"type":"Point","coordinates":[-3.18472,54.23474]},"properties":{"name":"Mapped water infrastructure","category":"pumping_station","osm_type":"way","osm_id":"772263644"}},{"type":"Feature","geometry":{"type":"Point","coordinates":[-3.27194,54.25708]},"properties":{"name":"Mapped water infrastructure","category":"reservoir_covered","osm_type":"way","osm_id":"815255875"}},{"type":"Feature","geometry":{"type":"Point","coordinates":[-3.40732,54.35243]},"properties":{"name":"Mapped water infrastructure","category":"wastewater_plant","osm_type":"way","osm_id":"853219268"}},{"type":"Feature","geometry":{"type":"Point","coordinates":[-3.05545,54.23652]},"properties":{"name":"Crake Valley WwTW","category":"wastewater_plant","osm_type":"way","osm_id":"859390166","operator":"United Utilities"}},{"type":"Feature","geometry":{"type":"Point","coordinates":[-3.06344,54.25157]},"properties":{"name":"Mapped water infrastructure","category":"wastewater_plant","osm_type":"way","osm_id":"859457283"}},{"type":"Feature","geometry":{"type":"Point","coordinates":[-3.06076,54.18628]},"properties":{"name":"Glaxo Smith Kline","category":"wastewater_plant","osm_type":"way","osm_id":"911968363"}},{"type":"Feature","geometry":{"type":"Point","coordinates":[-3.02336,54.32277]},"properties":{"name":"Satterthwaite Wastewater Treatment Plant","category":"wastewater_plant","osm_type":"way","osm_id":"926283583"}},{"type":"Feature","geometry":{"type":"Point","coordinates":[-3.16241,54.18293]},"properties":{"name":"Marton Lane End WwTW","category":"wastewater_plant","osm_type":"way","osm_id":"957235993","operator":"United Utilities","ref":"UU-MARLE-WW1"}},{"type":"Feature","geometry":{"type":"Point","coordinates":[-3.2364,54.14426]},"properties":{"name":"Kimberly Clark Wastewater treatment plant","category":"wastewater_plant","osm_type":"way","osm_id":"960766673","operator":"Kimberly Clark","ref":"0167t"}},{"type":"Feature","geometry":{"type":"Point","coordinates":[-3.23575,54.14379]},"properties":{"name":"Mapped water infrastructure","category":"wastewater_plant","osm_type":"way","osm_id":"961591314"}},{"type":"Feature","geometry":{"type":"Point","coordinates":[-3.23956,54.13559]},"properties":{"name":"Barrow Palace Nook STW","category":"wastewater_plant","osm_type":"way","osm_id":"961616028","operator":"United Utilities","ref":"017470051"}},{"type":"Feature","geometry":{"type":"Point","coordinates":[-3.21447,54.25749]},"properties":{"name":"Foxfield Wastewater Treatment Plant","category":"wastewater_plant","osm_type":"way","osm_id":"964405303","operator":"United Utilities"}},{"type":"Feature","geometry":{"type":"Point","coordinates":[-3.0865,54.3667]},"properties":{"name":"Mapped water infrastructure","category":"reservoir_covered","osm_type":"way","osm_id":"1016906809"}},{"type":"Feature","geometry":{"type":"Point","coordinates":[-3.09691,54.22983]},"properties":{"name":"Broughton Beck WwTW","category":"wastewater_plant","osm_type":"way","osm_id":"1046467280","operator":"United Utilities","ref":"UU-BROUB-WW1"}},{"type":"Feature","geometry":{"type":"Point","coordinates":[-3.13188,54.18501]},"properties":{"name":"Loppergarth WwTW","category":"wastewater_plant","osm_type":"way","osm_id":"1046467878","operator":"United Utilities","ref":"UU-LOPPE-WW1"}},{"type":"Feature","geometry":{"type":"Point","coordinates":[-3.48795,54.43034]},"properties":{"name":"Calder Bridge WwTW","category":"wastewater_plant","osm_type":"way","osm_id":"1049620865","operator":"United Utilities","ref":"UU-CLDBR-WW1"}},{"type":"Feature","geometry":{"type":"Point","coordinates":[-3.01665,54.42729]},"properties":{"name":"Mapped water infrastructure","category":"pumping_station","osm_type":"way","osm_id":"1060310953"}},{"type":"Feature","geometry":{"type":"Point","coordinates":[-3.34951,54.42595]},"properties":{"name":"Mapped water infrastructure","category":"wastewater_plant","osm_type":"way","osm_id":"1093186692"}},{"type":"Feature","geometry":{"type":"Point","coordinates":[-3.03171,54.25758]},"properties":{"name":"Bouth WwTW","category":"wastewater_plant","osm_type":"way","osm_id":"1112714272","operator":"United Utilities","ref":"UU-BOUTH-WW1"}},{"type":"Feature","geometry":{"type":"Point","coordinates":[-3.10523,54.33641]},"properties":{"name":"Torver Wastewater Pumping Station","category":"pumping_station","osm_type":"way","osm_id":"1112888970","operator":"United Utilities"}},{"type":"Feature","geometry":{"type":"Point","coordinates":[-3.22602,54.16945]},"properties":{"name":"Roanhead WwTW","category":"wastewater_plant","osm_type":"way","osm_id":"1112895449","operator":"United Utilities","ref":"UU-ROANH-WW1"}},{"type":"Feature","geometry":{"type":"Point","coordinates":[-3.02716,54.4572]},"properties":{"name":"Goldrill Wastewater Pumping Station","category":"pumping_station","osm_type":"way","osm_id":"1184960164","operator":"United Utilities","ref":"39001"}},{"type":"Feature","geometry":{"type":"Point","coordinates":[-3.42023,54.39055]},"properties":{"name":"Mapped water infrastructure","category":"wastewater_plant","osm_type":"way","osm_id":"1227469523"}},{"type":"Feature","geometry":{"type":"Point","coordinates":[-3.26015,54.25112]},"properties":{"name":"Mapped water infrastructure","category":"wastewater_plant","osm_type":"way","osm_id":"1341263180"}},{"type":"Feature","geometry":{"type":"Point","coordinates":[-3.17463,54.07453]},"properties":{"name":"Roa Island WwTW","category":"wastewater_plant","osm_type":"way","osm_id":"1390024023","operator":"United Utilities","ref":"UU-ROAIS-WW1"}},{"type":"Feature","geometry":{"type":"Point","coordinates":[-3.23363,54.12354]},"properties":{"name":"Mapped water infrastructure","category":"pumping_station","osm_type":"way","osm_id":"1423024704"}},{"type":"Feature","geometry":{"type":"Point","coordinates":[-3.19551,54.1074]},"properties":{"name":"Barrow-In-Furness Wastewater Treatment Works","category":"wastewater_plant","osm_type":"relation","osm_id":"17324341","operator":"United Utilities","ref":"UU-BARFU-WW1"}},{"type":"Feature","geometry":{"type":"Point","coordinates":[-3.06893,54.36475]},"properties":{"name":"Coniston Waste Water Treatment Works","category":"wastewater_plant","osm_type":"way","osm_id":"31317691","operator":"United Utilities"}},{"type":"Feature","geometry":{"type":"Point","coordinates":[-3.31741,54.42323]},"properties":{"name":"Wastwater Pumps","category":"pumping_station","osm_type":"way","osm_id":"161539762","operator":"Electricity North West"}},{"type":"Feature","geometry":{"type":"Point","coordinates":[-3.28031,54.22466]},"properties":{"name":"Mapped water infrastructure","category":"reservoir_covered","osm_type":"way","osm_id":"318741013"}},{"type":"Feature","geometry":{"type":"Point","coordinates":[-3.53043,54.43127]},"properties":{"name":"Mapped water infrastructure","category":"wastewater_plant","osm_type":"way","osm_id":"331088996"}},{"type":"Feature","geometry":{"type":"Point","coordinates":[-3.46432,54.48028]},"properties":{"name":"Mapped water infrastructure","category":"reservoir_covered","osm_type":"way","osm_id":"503533388"}},{"type":"Feature","geometry":{"type":"Point","coordinates":[-3.47774,54.48652]},"properties":{"name":"Mapped water infrastructure","category":"reservoir_covered","osm_type":"way","osm_id":"538949750"}},{"type":"Feature","geometry":{"type":"Point","coordinates":[-3.51227,54.46592]},"properties":{"name":"Mapped water infrastructure","category":"reservoir_covered","osm_type":"way","osm_id":"538989001"}},{"type":"Feature","geometry":{"type":"Point","coordinates":[-3.05156,54.42601]},"properties":{"name":"Mapped water infrastructure","category":"reservoir_covered","osm_type":"way","osm_id":"560669387"}},{"type":"Feature","geometry":{"type":"Point","coordinates":[-3.01957,54.32149]},"properties":{"name":"Mapped water infrastructure","category":"pumping_station","osm_type":"way","osm_id":"561500577"}},{"type":"Feature","geometry":{"type":"Point","coordinates":[-3.20843,54.10956]},"properties":{"name":"Mapped water infrastructure","category":"pumping_station","osm_type":"way","osm_id":"588192477"}}]}