{"type":"FeatureCollection","features":[{"type":"Feature","geometry":{"type":"Point","coordinates":[-3.05004,54.74962]},"properties":{"name":"St. Mungo's Well","category":"water_well","osm_type":"node","osm_id":"5042735784"}},{"type":"Feature","geometry":{"type":"Point","coordinates":[-3.32741,54.76461]},"properties":{"name":"St Patricks Holy Well","category":"water_well","osm_type":"node","osm_id":"5042741059"}},{"type":"Feature","geometry":{"type":"Point","coordinates":[-3.1524,54.51792]},"properties":{"name":"Mapped water infrastructure","category":"drinking_water","osm_type":"node","osm_id":"6583667636"}},{"type":"Feature","geometry":{"type":"Point","coordinates":[-3.2275,54.60956]},"properties":{"name":"Mapped water infrastructure","category":"drinking_water","osm_type":"node","osm_id":"7099737883"}},{"type":"Feature","geometry":{"type":"Point","coordinates":[-3.3723,54.73044]},"properties":{"name":"Hatching Well","category":"water_well","osm_type":"node","osm_id":"7588123990"}},{"type":"Feature","geometry":{"type":"Point","coordinates":[-3.32263,54.70123]},"properties":{"name":"Mapped water infrastructure","category":"water_well","osm_type":"node","osm_id":"7601957098"}},{"type":"Feature","geometry":{"type":"Point","coordinates":[-3.41156,54.81697]},"properties":{"name":"Mapped water infrastructure","category":"water_well","osm_type":"node","osm_id":"7682243938"}},{"type":"Feature","geometry":{"type":"Point","coordinates":[-3.31751,54.61652]},"properties":{"name":"Mapped water infrastructure","category":"drinking_water","osm_type":"node","osm_id":"7798429362"}},{"type":"Feature","geometry":{"type":"Point","coordinates":[-3.33191,54.63239]},"properties":{"name":"Stanger Well","category":"water_well","osm_type":"node","osm_id":"7846938253"}},{"type":"Feature","geometry":{"type":"Point","coordinates":[-3.11093,54.59176]},"properties":{"name":"Mapped water infrastructure","category":"drinking_water","osm_type":"node","osm_id":"9765285975"}},{"type":"Feature","geometry":{"type":"Point","coordinates":[-3.37597,54.72976]},"properties":{"name":"Yarling Well","category":"water_well","osm_type":"node","osm_id":"10831431524"}},{"type":"Feature","geometry":{"type":"Point","coordinates":[-3.37892,54.72843]},"properties":{"name":"West Garth Well","category":"water_well","osm_type":"node","osm_id":"10877329487"}},{"type":"Feature","geometry":{"type":"Point","coordinates":[-3.36509,54.73151]},"properties":{"name":"Tommy Tack Well","category":"water_well","osm_type":"node","osm_id":"10877335006"}},{"type":"Feature","geometry":{"type":"Point","coordinates":[-3.13456,54.51027]},"properties":{"name":"Mapped water infrastructure","category":"water_point","osm_type":"node","osm_id":"11216035698"}},{"type":"Feature","geometry":{"type":"Point","coordinates":[-3.13257,54.50986]},"properties":{"name":"Mapped water infrastructure","category":"water_point","osm_type":"node","osm_id":"11216035699"}},{"type":"Feature","geometry":{"type":"Point","coordinates":[-3.16836,54.51114]},"properties":{"name":"Mapped water infrastructure","category":"water_point","osm_type":"node","osm_id":"11216035700"}},{"type":"Feature","geometry":{"type":"Point","coordinates":[-3.14022,54.5947]},"properties":{"name":"Mapped water infrastructure","category":"pumping_station","osm_type":"node","osm_id":"12976801647"}},{"type":"Feature","geometry":{"type":"Point","coordinates":[-3.0551,54.61192]},"properties":{"name":"Threlkeld Quarry Pumping Station","category":"pumping_station","osm_type":"node","osm_id":"13045821230","operator":"United Utilities"}},{"type":"Feature","geometry":{"type":"Point","coordinates":[-3.04369,54.61113]},"properties":{"name":"Mapped water infrastructure","category":"water_tower","osm_type":"node","osm_id":"13099176978"}},{"type":"Feature","geometry":{"type":"Point","coordinates":[-3.34257,54.58129]},"properties":{"name":"Mapped water infrastructure","category":"water_well","osm_type":"node","osm_id":"13746054553"}},{"type":"Feature","geometry":{"type":"Point","coordinates":[-3.13716,54.60075]},"properties":{"name":"Mapped water infrastructure","category":"drinking_water","osm_type":"node","osm_id":"14133600332"}},{"type":"Feature","geometry":{"type":"Point","coordinates":[-3.52621,54.50585]},"properties":{"name":"Mapped water infrastructure","category":"wastewater_plant","osm_type":"way","osm_id":"117768895"}},{"type":"Feature","geometry":{"type":"Point","coordinates":[-3.44166,54.65953]},"properties":{"name":"Broughton Cross WwTW","category":"wastewater_plant","osm_type":"way","osm_id":"255541944","operator":"United Utilities","ref":"UU-BROUC-WW1"}},{"type":"Feature","geometry":{"type":"Point","coordinates":[-3.37182,54.69116]},"properties":{"name":"Mapped water infrastructure","category":"wastewater_plant","osm_type":"way","osm_id":"292800385"}},{"type":"Feature","geometry":{"type":"Point","coordinates":[-3.39137,54.66589]},"properties":{"name":"Cockermouth STW","category":"wastewater_plant","osm_type":"way","osm_id":"306116089","operator":"United Utilities"}},{"type":"Feature","geometry":{"type":"Point","coordinates":[-3.41405,54.68253]},"properties":{"name":"Dovenby WwTW","category":"wastewater_plant","osm_type":"way","osm_id":"306116373","operator":"United Utilities","ref":"UU-DOVEN-WW1"}},{"type":"Feature","geometry":{"type":"Point","coordinates":[-3.54525,54.67051]},"properties":{"name":"Workington STW","category":"wastewater_plant","osm_type":"way","osm_id":"312749568","operator":"United Utilities"}},{"type":"Feature","geometry":{"type":"Point","coordinates":[-3.04139,54.88027]},"properties":{"name":"Mapped water infrastructure","category":"wastewater_plant","osm_type":"way","osm_id":"323818294"}},{"type":"Feature","geometry":{"type":"Point","coordinates":[-3.34028,54.75554]},"properties":{"name":"Aspatria STW","category":"wastewater_plant","osm_type":"way","osm_id":"324477986","operator":"United Utilities"}},{"type":"Feature","geometry":{"type":"Point","coordinates":[-3.27672,54.81306]},"properties":{"name":"Mapped water infrastructure","category":"wastewater_plant","osm_type":"way","osm_id":"324515312"}},{"type":"Feature","geometry":{"type":"Point","coordinates":[-3.06386,54.92238]},"properties":{"name":"Burgh By Sands WwTW","category":"wastewater_plant","osm_type":"way","osm_id":"324707755","operator":"United Utilities","ref":"UU-BURGH-WW1"}},{"type":"Feature","geometry":{"type":"Point","coordinates":[-3.45355,54.73581]},"properties":{"name":"Mapped water infrastructure","category":"wastewater_plant","osm_type":"way","osm_id":"327219561"}},{"type":"Feature","geometry":{"type":"Point","coordinates":[-3.15743,54.93114]},"properties":{"name":"Mapped water infrastructure","category":"wastewater_plant","osm_type":"way","osm_id":"327741661"}},{"type":"Feature","geometry":{"type":"Point","coordinates":[-3.35296,54.77908]},"properties":{"name":"Wetheral & Great Corby WwTW","category":"wastewater_plant","osm_type":"way","osm_id":"332403636","operator":"United Utilities","ref":"UU-WETHE-WW1"}},{"type":"Feature","geometry":{"type":"Point","coordinates":[-3.43728,54.54552]},"properties":{"name":"Kirkland Wastewater Plant","category":"wastewater_plant","osm_type":"way","osm_id":"333556224","operator":"United Utilities"}},{"type":"Feature","geometry":{"type":"Point","coordinates":[-3.0264,54.77323]},"properties":{"name":"Mapped water infrastructure","category":"water_works","osm_type":"way","osm_id":"337185197"}},{"type":"Feature","geometry":{"type":"Point","coordinates":[-3.2722,54.74292]},"properties":{"name":"Mapped water infrastructure","category":"wastewater_plant","osm_type":"way","osm_id":"338963800"}},{"type":"Feature","geometry":{"type":"Point","coordinates":[-3.39143,54.66872]},"properties":{"name":"Mapped water infrastructure","category":"wastewater_plant","osm_type":"way","osm_id":"342943122"}},{"type":"Feature","geometry":{"type":"Point","coordinates":[-3.14566,54.51649]},"properties":{"name":"Mapped water infrastructure","category":"wastewater_plant","osm_type":"way","osm_id":"350454632"}},{"type":"Feature","geometry":{"type":"Point","coordinates":[-3.15232,54.52464]},"properties":{"name":"Mapped water infrastructure","category":"wastewater_plant","osm_type":"way","osm_id":"350688376"}},{"type":"Feature","geometry":{"type":"Point","coordinates":[-3.05683,54.55724]},"properties":{"name":"Stannah (Thirlmere) WwTW","category":"wastewater_plant","osm_type":"way","osm_id":"396265788","operator":"United Utilities","ref":"UU-STANN-WW1"}},{"type":"Feature","geometry":{"type":"Point","coordinates":[-3.06854,54.56224]},"properties":{"name":"Thirlmere Water Treatment Works","category":"water_works","osm_type":"way","osm_id":"396313654"}},{"type":"Feature","geometry":{"type":"Point","coordinates":[-3.42983,54.78363]},"properties":{"name":"Allonby Waste Water Treatment Works","category":"wastewater_plant","osm_type":"way","osm_id":"410879602"}},{"type":"Feature","geometry":{"type":"Point","coordinates":[-3.37131,54.86996]},"properties":{"name":"Mapped water infrastructure","category":"wastewater_plant","osm_type":"way","osm_id":"416893915"}},{"type":"Feature","geometry":{"type":"Point","coordinates":[-3.41722,54.52484]},"properties":{"name":"Mapped water infrastructure","category":"water_works","osm_type":"way","osm_id":"420432414"}},{"type":"Feature","geometry":{"type":"Point","coordinates":[-3.19692,54.59579]},"properties":{"name":"Mapped water infrastructure","category":"reservoir_covered","osm_type":"way","osm_id":"455535053"}},{"type":"Feature","geometry":{"type":"Point","coordinates":[-3.27486,54.66254]},"properties":{"name":"Mapped water infrastructure","category":"wastewater_plant","osm_type":"way","osm_id":"457208462"}},{"type":"Feature","geometry":{"type":"Point","coordinates":[-3.39988,54.64357]},"properties":{"name":"Mapped water infrastructure","category":"wastewater_plant","osm_type":"way","osm_id":"471796094"}},{"type":"Feature","geometry":{"type":"Point","coordinates":[-3.156,54.61352]},"properties":{"name":"Keswick STW","category":"wastewater_plant","osm_type":"way","osm_id":"475264780","ref":"UKENNW_UU_TP000071"}},{"type":"Feature","geometry":{"type":"Point","coordinates":[-3.44247,54.66255]},"properties":{"name":"Great Broughton WWTW","category":"wastewater_plant","osm_type":"way","osm_id":"488466242","operator":"United Utilities"}},{"type":"Feature","geometry":{"type":"Point","coordinates":[-3.1811,54.74245]},"properties":{"name":"Mapped water infrastructure","category":"wastewater_plant","osm_type":"way","osm_id":"494437191"}},{"type":"Feature","geometry":{"type":"Point","coordinates":[-3.04724,54.61789]},"properties":{"name":"Mapped water infrastructure","category":"wastewater_plant","osm_type":"way","osm_id":"494683888"}},{"type":"Feature","geometry":{"type":"Point","coordinates":[-3.31732,54.58753]},"properties":{"name":"Mapped water infrastructure","category":"water_works","osm_type":"way","osm_id":"495215042"}},{"type":"Feature","geometry":{"type":"Point","coordinates":[-3.15139,54.55168]},"properties":{"name":"Mapped water infrastructure","category":"wastewater_plant","osm_type":"way","osm_id":"496906055"}},{"type":"Feature","geometry":{"type":"Point","coordinates":[-3.34782,54.69692]},"properties":{"name":"Williamsgate Water Treatment Works","category":"water_works","osm_type":"way","osm_id":"505265407","operator":"United Utilities"}},{"type":"Feature","geometry":{"type":"Point","coordinates":[-3.08313,54.75518]},"properties":{"name":"Mapped water infrastructure","category":"reservoir_covered","osm_type":"way","osm_id":"512339206"}},{"type":"Feature","geometry":{"type":"Point","coordinates":[-3.08019,54.71939]},"properties":{"name":"Mapped water infrastructure","category":"reservoir_covered","osm_type":"way","osm_id":"512532802"}},{"type":"Feature","geometry":{"type":"Point","coordinates":[-3.03323,54.73695]},"properties":{"name":"Mapped water infrastructure","category":"water_works","osm_type":"way","osm_id":"512807081"}},{"type":"Feature","geometry":{"type":"Point","coordinates":[-3.31467,54.62594]},"properties":{"name":"Mapped water infrastructure","category":"wastewater_plant","osm_type":"way","osm_id":"513864302"}},{"type":"Feature","geometry":{"type":"Point","coordinates":[-3.20359,54.62401]},"properties":{"name":"Mapped water infrastructure","category":"wastewater_plant","osm_type":"way","osm_id":"514234020"}},{"type":"Feature","geometry":{"type":"Point","coordinates":[-3.48919,54.51405]},"properties":{"name":"Mapped water infrastructure","category":"reservoir_covered","osm_type":"way","osm_id":"514240559"}},{"type":"Feature","geometry":{"type":"Point","coordinates":[-3.38263,54.73224]},"properties":{"name":"Mapped water infrastructure","category":"wastewater_plant","osm_type":"way","osm_id":"520309682"}},{"type":"Feature","geometry":{"type":"Point","coordinates":[-3.37894,54.74672]},"properties":{"name":"Mapped water infrastructure","category":"wastewater_plant","osm_type":"way","osm_id":"520556386"}},{"type":"Feature","geometry":{"type":"Point","coordinates":[-3.35268,54.73406]},"properties":{"name":"Mapped water infrastructure","category":"wastewater_plant","osm_type":"way","osm_id":"521237128"}},{"type":"Feature","geometry":{"type":"Point","coordinates":[-3.33741,54.74852]},"properties":{"name":"Mapped water infrastructure","category":"wastewater_plant","osm_type":"way","osm_id":"521246003"}},{"type":"Feature","geometry":{"type":"Point","coordinates":[-3.29041,54.76177]},"properties":{"name":"Blind Crake WwTW","category":"wastewater_plant","osm_type":"way","osm_id":"521290235","operator":"United Utilities","ref":"UU-BLIND-WW1"}},{"type":"Feature","geometry":{"type":"Point","coordinates":[-3.22673,54.78014]},"properties":{"name":"Mapped water infrastructure","category":"wastewater_plant","osm_type":"way","osm_id":"521484910"}},{"type":"Feature","geometry":{"type":"Point","coordinates":[-3.28012,54.85165]},"properties":{"name":"Mapped water infrastructure","category":"wastewater_plant","osm_type":"way","osm_id":"521527929"}},{"type":"Feature","geometry":{"type":"Point","coordinates":[-3.25441,54.88712]},"properties":{"name":"Mapped water infrastructure","category":"wastewater_plant","osm_type":"way","osm_id":"521527944"}},{"type":"Feature","geometry":{"type":"Point","coordinates":[-3.19807,54.89871]},"properties":{"name":"Mapped water infrastructure","category":"wastewater_plant","osm_type":"way","osm_id":"521578054"}},{"type":"Feature","geometry":{"type":"Point","coordinates":[-3.18472,54.84517]},"properties":{"name":"Mapped water infrastructure","category":"wastewater_plant","osm_type":"way","osm_id":"521763610"}},{"type":"Feature","geometry":{"type":"Point","coordinates":[-3.15668,54.83509]},"properties":{"name":"Wigton STW","category":"wastewater_plant","osm_type":"way","osm_id":"521823673","operator":"United Utilities"}},{"type":"Feature","geometry":{"type":"Point","coordinates":[-3.14045,54.88362]},"properties":{"name":"Mapped water infrastructure","category":"wastewater_plant","osm_type":"way","osm_id":"521851451"}},{"type":"Feature","geometry":{"type":"Point","coordinates":[-3.06374,54.8431]},"properties":{"name":"Mapped water infrastructure","category":"wastewater_plant","osm_type":"way","osm_id":"522071681"}},{"type":"Feature","geometry":{"type":"Point","coordinates":[-3.08844,54.90239]},"properties":{"name":"Mapped water infrastructure","category":"wastewater_plant","osm_type":"way","osm_id":"522106603"}},{"type":"Feature","geometry":{"type":"Point","coordinates":[-3.1064,54.87443]},"properties":{"name":"Mapped water infrastructure","category":"reservoir_covered","osm_type":"way","osm_id":"523770961"}},{"type":"Feature","geometry":{"type":"Point","coordinates":[-3.35623,54.65348]},"properties":{"name":"Mapped water infrastructure","category":"reservoir_covered","osm_type":"way","osm_id":"524589868"}},{"type":"Feature","geometry":{"type":"Point","coordinates":[-3.2137,54.73861]},"properties":{"name":"Mapped water infrastructure","category":"reservoir_covered","osm_type":"way","osm_id":"524650718"}},{"type":"Feature","geometry":{"type":"Point","coordinates":[-3.20203,54.67893]},"properties":{"name":"Mapped water infrastructure","category":"wastewater_plant","osm_type":"way","osm_id":"524663993"}},{"type":"Feature","geometry":{"type":"Point","coordinates":[-3.19003,54.7352]},"properties":{"name":"Mapped water infrastructure","category":"reservoir_covered","osm_type":"way","osm_id":"524664055"}},{"type":"Feature","geometry":{"type":"Point","coordinates":[-3.21503,54.76018]},"properties":{"name":"Quarry Hill Water Treatment Works","category":"water_works","osm_type":"way","osm_id":"524668621","operator":"United Utilities"}},{"type":"Feature","geometry":{"type":"Point","coordinates":[-3.18356,54.69104]},"properties":{"name":"Mapped water infrastructure","category":"reservoir_covered","osm_type":"way","osm_id":"525570285"}},{"type":"Feature","geometry":{"type":"Point","coordinates":[-3.12936,54.78826]},"properties":{"name":"Mapped water infrastructure","category":"reservoir_covered","osm_type":"way","osm_id":"525620885"}},{"type":"Feature","geometry":{"type":"Point","coordinates":[-3.19902,54.72295]},"properties":{"name":"Mapped water infrastructure","category":"reservoir_covered","osm_type":"way","osm_id":"527781542"}},{"type":"Feature","geometry":{"type":"Point","coordinates":[-3.23658,54.74965]},"properties":{"name":"Mapped water infrastructure","category":"wastewater_plant","osm_type":"way","osm_id":"527803412"}},{"type":"Feature","geometry":{"type":"Point","coordinates":[-3.06677,54.80405]},"properties":{"name":"Mapped water infrastructure","category":"reservoir_covered","osm_type":"way","osm_id":"528144083"}},{"type":"Feature","geometry":{"type":"Point","coordinates":[-3.50191,54.65756]},"properties":{"name":"Mapped water infrastructure","category":"wastewater_plant","osm_type":"way","osm_id":"529700061"}},{"type":"Feature","geometry":{"type":"Point","coordinates":[-3.46179,54.70792]},"properties":{"name":"Mapped water infrastructure","category":"reservoir_covered","osm_type":"way","osm_id":"530000331"}},{"type":"Feature","geometry":{"type":"Point","coordinates":[-3.42388,54.66293]},"properties":{"name":"Mapped water infrastructure","category":"wastewater_plant","osm_type":"way","osm_id":"530319781"}},{"type":"Feature","geometry":{"type":"Point","coordinates":[-3.44713,54.65083]},"properties":{"name":"Mapped water infrastructure","category":"wastewater_plant","osm_type":"way","osm_id":"530329833"}},{"type":"Feature","geometry":{"type":"Point","coordinates":[-3.46342,54.64825]},"properties":{"name":"Mapped water infrastructure","category":"wastewater_plant","osm_type":"way","osm_id":"530333929"}},{"type":"Feature","geometry":{"type":"Point","coordinates":[-3.47768,54.55979]},"properties":{"name":"Mapped water infrastructure","category":"wastewater_plant","osm_type":"way","osm_id":"533547683"}},{"type":"Feature","geometry":{"type":"Point","coordinates":[-3.33423,54.68895]},"properties":{"name":"Mapped water infrastructure","category":"wastewater_plant","osm_type":"way","osm_id":"610547934"}},{"type":"Feature","geometry":{"type":"Point","coordinates":[-3.27534,54.70399]},"properties":{"name":"Mapped water infrastructure","category":"wastewater_plant","osm_type":"way","osm_id":"610566695"}},{"type":"Feature","geometry":{"type":"Point","coordinates":[-3.30183,54.72153]},"properties":{"name":"Mapped water infrastructure","category":"wastewater_plant","osm_type":"way","osm_id":"610566745"}},{"type":"Feature","geometry":{"type":"Point","coordinates":[-3.08049,54.61882]},"properties":{"name":"Mapped water infrastructure","category":"wastewater_plant","osm_type":"way","osm_id":"616562676"}},{"type":"Feature","geometry":{"type":"Point","coordinates":[-3.31281,54.74285]},"properties":{"name":"Mapped water infrastructure","category":"wastewater_plant","osm_type":"way","osm_id":"618523379"}},{"type":"Feature","geometry":{"type":"Point","coordinates":[-3.18772,54.79075]},"properties":{"name":"Mapped water infrastructure","category":"wastewater_plant","osm_type":"way","osm_id":"626168666"}},{"type":"Feature","geometry":{"type":"Point","coordinates":[-3.44505,54.71743]},"properties":{"name":"Dearham STW","category":"wastewater_plant","osm_type":"way","osm_id":"626674934","operator":"United Utilities","ref":"UU-DEARH-WW1"}},{"type":"Feature","geometry":{"type":"Point","coordinates":[-3.3264,54.75883]},"properties":{"name":"Mapped water infrastructure","category":"wastewater_plant","osm_type":"way","osm_id":"626688887"}},{"type":"Feature","geometry":{"type":"Point","coordinates":[-3.3887,54.7631]},"properties":{"name":"Mapped water infrastructure","category":"wastewater_plant","osm_type":"way","osm_id":"628041940"}},{"type":"Feature","geometry":{"type":"Point","coordinates":[-3.27861,54.5406]},"properties":{"name":"Mapped water infrastructure","category":"wastewater_plant","osm_type":"way","osm_id":"667234045"}},{"type":"Feature","geometry":{"type":"Point","coordinates":[-3.32726,54.62042]},"properties":{"name":"Mapped water infrastructure","category":"reservoir_covered","osm_type":"way","osm_id":"715340026"}},{"type":"Feature","geometry":{"type":"Point","coordinates":[-3.16039,54.73102]},"properties":{"name":"Mapped water infrastructure","category":"reservoir_covered","osm_type":"way","osm_id":"777319772"}},{"type":"Feature","geometry":{"type":"Point","coordinates":[-3.46321,54.68316]},"properties":{"name":"Mapped water infrastructure","category":"reservoir_covered","osm_type":"way","osm_id":"787425408"}},{"type":"Feature","geometry":{"type":"Point","coordinates":[-3.46175,54.66201]},"properties":{"name":"Mapped water infrastructure","category":"reservoir_covered","osm_type":"way","osm_id":"789218592"}},{"type":"Feature","geometry":{"type":"Point","coordinates":[-3.43793,54.60221]},"properties":{"name":"Mapped water infrastructure","category":"wastewater_plant","osm_type":"way","osm_id":"796367700"}},{"type":"Feature","geometry":{"type":"Point","coordinates":[-3.44675,54.61274]},"properties":{"name":"Mapped water infrastructure","category":"pumping_station","osm_type":"way","osm_id":"797847464"}},{"type":"Feature","geometry":{"type":"Point","coordinates":[-3.4595,54.61265]},"properties":{"name":"Mapped water infrastructure","category":"wastewater_plant","osm_type":"way","osm_id":"798271437"}},{"type":"Feature","geometry":{"type":"Point","coordinates":[-3.40744,54.62507]},"properties":{"name":"Mapped water infrastructure","category":"wastewater_plant","osm_type":"way","osm_id":"798644814"}},{"type":"Feature","geometry":{"type":"Point","coordinates":[-3.39743,54.60938]},"properties":{"name":"Pardshaw WwTW","category":"wastewater_plant","osm_type":"way","osm_id":"799582986","operator":"United Utilities","ref":"UU-PARDS-WW1"}},{"type":"Feature","geometry":{"type":"Point","coordinates":[-3.41616,54.73935]},"properties":{"name":"Mapped water infrastructure","category":"wastewater_plant","osm_type":"way","osm_id":"807071585"}},{"type":"Feature","geometry":{"type":"Point","coordinates":[-3.09523,54.74717]},"properties":{"name":"Mapped water infrastructure","category":"reservoir_covered","osm_type":"way","osm_id":"810253481"}},{"type":"Feature","geometry":{"type":"Point","coordinates":[-3.29814,54.62532]},"properties":{"name":"Mapped water infrastructure","category":"reservoir_covered","osm_type":"way","osm_id":"815809087"}},{"type":"Feature","geometry":{"type":"Point","coordinates":[-3.40237,54.79647]},"properties":{"name":"Mapped water infrastructure","category":"wastewater_plant","osm_type":"way","osm_id":"821322950"}},{"type":"Feature","geometry":{"type":"Point","coordinates":[-3.0295,54.74217]},"properties":{"name":"Mapped water infrastructure","category":"reservoir_covered","osm_type":"way","osm_id":"823719658"}},{"type":"Feature","geometry":{"type":"Point","coordinates":[-3.54468,54.66275]},"properties":{"name":"Mapped water infrastructure","category":"wastewater_plant","osm_type":"way","osm_id":"825987860"}},{"type":"Feature","geometry":{"type":"Point","coordinates":[-3.49976,54.6543]},"properties":{"name":"Mapped water infrastructure","category":"wastewater_plant","osm_type":"way","osm_id":"828938632"}},{"type":"Feature","geometry":{"type":"Point","coordinates":[-3.16224,54.51408]},"properties":{"name":"Mapped water infrastructure","category":"wastewater_plant","osm_type":"way","osm_id":"840848293"}},{"type":"Feature","geometry":{"type":"Point","coordinates":[-3.2449,54.91357]},"properties":{"name":"Anthorn WwTW","category":"wastewater_plant","osm_type":"way","osm_id":"1037941972","operator":"United Utilities","ref":"UU-ANTHO-WW1"}},{"type":"Feature","geometry":{"type":"Point","coordinates":[-3.13226,54.86385]},"properties":{"name":"Aikton WwTW","category":"wastewater_plant","osm_type":"way","osm_id":"1049149229","operator":"United Utilities","ref":"UU-AIKTN-WW1"}},{"type":"Feature","geometry":{"type":"Point","coordinates":[-3.51382,54.59077]},"properties":{"name":"Pica WwTW","category":"wastewater_plant","osm_type":"way","osm_id":"1049583165","operator":"United Utilities","ref":"UU-PICAZ-WW1"}},{"type":"Feature","geometry":{"type":"Point","coordinates":[-3.57872,54.5752]},"properties":{"name":"Whitehaven WwTW","category":"wastewater_plant","osm_type":"way","osm_id":"1049587023","operator":"United Utilities","ref":"UU-WHTHA-WW1"}},{"type":"Feature","geometry":{"type":"Point","coordinates":[-3.44759,54.57233]},"properties":{"name":"Asby WwTW","category":"wastewater_plant","osm_type":"way","osm_id":"1049618741","operator":"United Utilities","ref":"UU-ASBYZ-WW1"}},{"type":"Feature","geometry":{"type":"Point","coordinates":[-3.41179,54.59918]},"properties":{"name":"Mockerkin WwTW","category":"wastewater_plant","osm_type":"way","osm_id":"1049619345","operator":"United Utilities","ref":"UU-MOCKR-WW1"}},{"type":"Feature","geometry":{"type":"Point","coordinates":[-3.39317,54.72466]},"properties":{"name":"Greengill WwTW","category":"wastewater_plant","osm_type":"way","osm_id":"1049620154","operator":"United Utilities","ref":"UU-GRNGL-WW1"}},{"type":"Feature","geometry":{"type":"Point","coordinates":[-3.39832,54.74595]},"properties":{"name":"Westmoor End WwTW","category":"wastewater_plant","osm_type":"way","osm_id":"1049620493","operator":"United Utilities","ref":"UU-WESTM-WW1"}},{"type":"Feature","geometry":{"type":"Point","coordinates":[-3.17316,54.72195]},"properties":{"name":"Uldale WwTW","category":"wastewater_plant","osm_type":"way","osm_id":"1049909306","operator":"United Utilities","ref":"UU-ULDLE-WW1"}},{"type":"Feature","geometry":{"type":"Point","coordinates":[-3.4943,54.51686]},"properties":{"name":"Mapped water infrastructure","category":"pumping_station","osm_type":"way","osm_id":"1073279794","operator":"United Utilities"}},{"type":"Feature","geometry":{"type":"Point","coordinates":[-3.47119,54.54219]},"properties":{"name":"Mapped water infrastructure","category":"wastewater_plant","osm_type":"way","osm_id":"1075131620","operator":"United Utilities"}},{"type":"Feature","geometry":{"type":"Point","coordinates":[-3.46211,54.56114]},"properties":{"name":"High Leys","category":"reservoir_covered","osm_type":"way","osm_id":"1090430634"}},{"type":"Feature","geometry":{"type":"Point","coordinates":[-3.32198,54.69689]},"properties":{"name":"Redmain WwTW","category":"wastewater_plant","osm_type":"way","osm_id":"1111023809","operator":"United Utilities","ref":"UU-REDMA-WW1"}},{"type":"Feature","geometry":{"type":"Point","coordinates":[-3.21589,54.68368]},"properties":{"name":"Bassenfell WwTW","category":"wastewater_plant","osm_type":"way","osm_id":"1112712939","operator":"United Utilities","ref":"UU-BASSE-WW1"}},{"type":"Feature","geometry":{"type":"Point","coordinates":[-3.46634,54.72274]},"properties":{"name":"Birkby WwTW","category":"wastewater_plant","osm_type":"way","osm_id":"1112713348","operator":"United Utilities","ref":"UU-BIRKB-WW1"}},{"type":"Feature","geometry":{"type":"Point","coordinates":[-3.11103,54.65185]},"properties":{"name":"Mapped water infrastructure","category":"reservoir_covered","osm_type":"way","osm_id":"1115952847","operator":"YHA Skiddaw House"}},{"type":"Feature","geometry":{"type":"Point","coordinates":[-3.20659,54.95362]},"properties":{"name":"Mapped water infrastructure","category":"wastewater_plant","osm_type":"way","osm_id":"1157145717"}},{"type":"Feature","geometry":{"type":"Point","coordinates":[-3.61497,54.51784]},"properties":{"name":"Mapped water infrastructure","category":"water_works","osm_type":"way","osm_id":"1209070438","operator":"United Utilities"}},{"type":"Feature","geometry":{"type":"Point","coordinates":[-3.38718,54.65979]},"properties":{"name":"Harrot Hill Pumping Station","category":"pumping_station","osm_type":"way","osm_id":"1242188212"}},{"type":"Feature","geometry":{"type":"Point","coordinates":[-3.31641,54.71572]},"properties":{"name":"Moota Hill Reservoir","category":"reservoir_covered","osm_type":"way","osm_id":"1242248134"}},{"type":"Feature","geometry":{"type":"Point","coordinates":[-3.40409,54.73429]},"properties":{"name":"Bullgill WwTW","category":"wastewater_plant","osm_type":"way","osm_id":"1242838274","operator":"United Utilities","ref":"UU-BULLG-WW1"}},{"type":"Feature","geometry":{"type":"Point","coordinates":[-3.4309,54.57603]},"properties":{"name":"Crossgate WwTW","category":"wastewater_plant","osm_type":"way","osm_id":"1242838399","operator":"United Utilities","ref":"UU-CROSS-WW1"}},{"type":"Feature","geometry":{"type":"Point","coordinates":[-3.09637,54.60827]},"properties":{"name":"Mapped water infrastructure","category":"reservoir_covered","osm_type":"way","osm_id":"1467603514"}},{"type":"Feature","geometry":{"type":"Point","coordinates":[-3.04998,54.52488]},"properties":{"name":"Mapped water infrastructure","category":"water_works","osm_type":"way","osm_id":"1473932298"}},{"type":"Feature","geometry":{"type":"Point","coordinates":[-3.18536,54.60752]},"properties":{"name":"Mapped water infrastructure","category":"wastewater_plant","osm_type":"way","osm_id":"1482211167"}},{"type":"Feature","geometry":{"type":"Point","coordinates":[-3.1683,54.60523]},"properties":{"name":"Mapped water infrastructure","category":"water_works","osm_type":"way","osm_id":"1482471227"}},{"type":"Feature","geometry":{"type":"Point","coordinates":[-3.56096,54.55934]},"properties":{"name":"Mapped water infrastructure","category":"reservoir_covered","osm_type":"way","osm_id":"333477607"}},{"type":"Feature","geometry":{"type":"Point","coordinates":[-3.04457,54.75016]},"properties":{"name":"Caldbeck Wastewater Treatment Works","category":"wastewater_plant","osm_type":"way","osm_id":"432991891","operator":"United Utilities"}},{"type":"Feature","geometry":{"type":"Point","coordinates":[-3.38008,54.59101]},"properties":{"name":"Loweswater SR","category":"reservoir_covered","osm_type":"way","osm_id":"492364098","operator":"United Utilities"}},{"type":"Feature","geometry":{"type":"Point","coordinates":[-3.2706,54.54396]},"properties":{"name":"Mapped water infrastructure","category":"reservoir_covered","osm_type":"way","osm_id":"492526951"}},{"type":"Feature","geometry":{"type":"Point","coordinates":[-3.14071,54.71229]},"properties":{"name":"Mapped water infrastructure","category":"wastewater_plant","osm_type":"way","osm_id":"495480014"}},{"type":"Feature","geometry":{"type":"Point","coordinates":[-3.33191,54.63238]},"properties":{"name":"Stanger Spa","category":"water_well","osm_type":"way","osm_id":"510789894"}},{"type":"Feature","geometry":{"type":"Point","coordinates":[-3.42517,54.54923]},"properties":{"name":"Mapped water infrastructure","category":"reservoir_covered","osm_type":"way","osm_id":"513622007"}},{"type":"Feature","geometry":{"type":"Point","coordinates":[-3.3222,54.73495]},"properties":{"name":"Mapped water infrastructure","category":"reservoir_covered","osm_type":"way","osm_id":"521245994"}},{"type":"Feature","geometry":{"type":"Point","coordinates":[-3.23775,54.78739]},"properties":{"name":"Mapped water infrastructure","category":"reservoir_covered","osm_type":"way","osm_id":"521484850"}},{"type":"Feature","geometry":{"type":"Point","coordinates":[-3.5356,54.65793]},"properties":{"name":"Seaton Reservoir","category":"reservoir_covered","osm_type":"way","osm_id":"529907843"}},{"type":"Feature","geometry":{"type":"Point","coordinates":[-3.51453,54.64996]},"properties":{"name":"Mapped water infrastructure","category":"reservoir_covered","osm_type":"way","osm_id":"529936340"}},{"type":"Feature","geometry":{"type":"Point","coordinates":[-3.42973,54.6612]},"properties":{"name":"Mapped water infrastructure","category":"reservoir_covered","osm_type":"way","osm_id":"530319797"}},{"type":"Feature","geometry":{"type":"Point","coordinates":[-3.50852,54.62289]},"properties":{"name":"Mapped water infrastructure","category":"reservoir_covered","osm_type":"way","osm_id":"533347828"}},{"type":"Feature","geometry":{"type":"Point","coordinates":[-3.46286,54.56003]},"properties":{"name":"Mapped water infrastructure","category":"reservoir_covered","osm_type":"way","osm_id":"535550858"}},{"type":"Feature","geometry":{"type":"Point","coordinates":[-3.08404,54.72414]},"properties":{"name":"Mapped water infrastructure","category":"reservoir_covered","osm_type":"way","osm_id":"537692136"}},{"type":"Feature","geometry":{"type":"Point","coordinates":[-3.03408,54.62838]},"properties":{"name":"Mapped water infrastructure","category":"reservoir_covered","osm_type":"way","osm_id":"537753612"}},{"type":"Feature","geometry":{"type":"Point","coordinates":[-3.05602,54.56244]},"properties":{"name":"Mapped water infrastructure","category":"reservoir_covered","osm_type":"way","osm_id":"547922928"}},{"type":"Feature","geometry":{"type":"Point","coordinates":[-3.2895,54.64519]},"properties":{"name":"Mapped water infrastructure","category":"reservoir_covered","osm_type":"way","osm_id":"604553392"}},{"type":"Feature","geometry":{"type":"Point","coordinates":[-3.07662,54.59135]},"properties":{"name":"Mapped water infrastructure","category":"reservoir_covered","osm_type":"way","osm_id":"609742745"}},{"type":"Feature","geometry":{"type":"Point","coordinates":[-3.30492,54.71771]},"properties":{"name":"Mapped water infrastructure","category":"reservoir_covered","osm_type":"way","osm_id":"610566743"}},{"type":"Feature","geometry":{"type":"Point","coordinates":[-3.4361,54.73119]},"properties":{"name":"Mapped water infrastructure","category":"pumping_station","osm_type":"way","osm_id":"612320524"}},{"type":"Feature","geometry":{"type":"Point","coordinates":[-3.31356,54.70919]},"properties":{"name":"Mapped water infrastructure","category":"reservoir_covered","osm_type":"way","osm_id":"612580336"}},{"type":"Feature","geometry":{"type":"Point","coordinates":[-3.37038,54.70751]},"properties":{"name":"Mapped water infrastructure","category":"reservoir_covered","osm_type":"way","osm_id":"626674960"}},{"type":"Feature","geometry":{"type":"Point","coordinates":[-3.05912,54.59744]},"properties":{"name":"Mapped water infrastructure","category":"reservoir_covered","osm_type":"way","osm_id":"666243998"}},{"type":"Feature","geometry":{"type":"Point","coordinates":[-3.36407,54.70535]},"properties":{"name":"Mapped water infrastructure","category":"reservoir_covered","osm_type":"way","osm_id":"807070209"}},{"type":"Feature","geometry":{"type":"Point","coordinates":[-3.14285,54.59948]},"properties":{"name":"Greta Court","category":"pumping_station","osm_type":"way","osm_id":"1396181033","operator":"United Utilities","ref":"02507"}}]}