{"type":"FeatureCollection","features":[{"type":"Feature","geometry":{"type":"Point","coordinates":[-3.10134,53.33333]},"properties":{"name":"Mapped water infrastructure","category":"water_tower","osm_type":"node","osm_id":"3309721279"}},{"type":"Feature","geometry":{"type":"Point","coordinates":[-3.08792,53.35154]},"properties":{"name":"Crosshill No. 2 Reservoir","category":"reservoir_covered","osm_type":"way","osm_id":"40809247"}},{"type":"Feature","geometry":{"type":"Point","coordinates":[-3.05023,53.43388]},"properties":{"name":"Mapped water infrastructure","category":"reservoir_covered","osm_type":"way","osm_id":"154470904"}},{"type":"Feature","geometry":{"type":"Point","coordinates":[-3.06309,53.39311]},"properties":{"name":"Flaybrick Water Tower","category":"water_tower","osm_type":"way","osm_id":"235259928"}},{"type":"Feature","geometry":{"type":"Point","coordinates":[-3.04486,53.28577]},"properties":{"name":"Gorstons Reservoir","category":"water_works","osm_type":"way","osm_id":"275403261"}},{"type":"Feature","geometry":{"type":"Point","coordinates":[-3.07082,53.28496]},"properties":{"name":"Neston WwTW","category":"wastewater_plant","osm_type":"way","osm_id":"275439233","operator":"Dŵr Cymru - Welsh Water","ref":"881"}},{"type":"Feature","geometry":{"type":"Point","coordinates":[-3.04448,53.2854]},"properties":{"name":"Mapped water infrastructure","category":"reservoir_covered","osm_type":"way","osm_id":"321225232"}},{"type":"Feature","geometry":{"type":"Point","coordinates":[-3.10278,53.33286]},"properties":{"name":"Poll Hill Reservoir","category":"reservoir_covered","osm_type":"way","osm_id":"324248416"}},{"type":"Feature","geometry":{"type":"Point","coordinates":[-3.0894,53.39268]},"properties":{"name":"Upton Stormwater Tanks","category":"water_works","osm_type":"way","osm_id":"532500021"}},{"type":"Feature","geometry":{"type":"Point","coordinates":[-3.00338,53.42665]},"properties":{"name":"Liverpool Wastewater Treatment Works","category":"wastewater_plant","osm_type":"way","osm_id":"584268390","operator":"United Utilities"}},{"type":"Feature","geometry":{"type":"Point","coordinates":[-3.12674,53.32824]},"properties":{"name":"Heswall Waste Water Treatment Works","category":"wastewater_plant","osm_type":"way","osm_id":"975266854","operator":"Dŵr Cymru Welsh Water","ref":"665"}},{"type":"Feature","geometry":{"type":"Point","coordinates":[-3.01356,53.39787]},"properties":{"name":"Birkhenhead Morpeth Dock Wastewater Treatment Works","category":"wastewater_plant","osm_type":"way","osm_id":"1022849303","operator":"United Utilities"}},{"type":"Feature","geometry":{"type":"Point","coordinates":[-3.1418,53.40281]},"properties":{"name":"North Wirral (Meols) WwTW","category":"wastewater_plant","osm_type":"way","osm_id":"1045540389","operator":"United Utilities","ref":"UU-MEOLS-WW1"}},{"type":"Feature","geometry":{"type":"Point","coordinates":[-3.08398,53.35004]},"properties":{"name":"Crosshill No. 1 Reservoir","category":"reservoir_covered","osm_type":"way","osm_id":"1089922061"}},{"type":"Feature","geometry":{"type":"Point","coordinates":[-3.07046,53.29065]},"properties":{"name":"Mapped water infrastructure","category":"pumping_station","osm_type":"way","osm_id":"1203881769","operator":"Welsh Water","addr:city":"Neston"}},{"type":"Feature","geometry":{"type":"Point","coordinates":[-3.03222,53.25767]},"properties":{"name":"Burton (N Of Queensferry) WwTW","category":"wastewater_plant","osm_type":"way","osm_id":"1207707696","operator":"Dŵr Cymru Welsh Water","ref":"1047"}},{"type":"Feature","geometry":{"type":"Point","coordinates":[-3.01695,53.4078]},"properties":{"name":"Wallasey Wastewater Pumping Station","category":"pumping_station","osm_type":"way","osm_id":"1434376359","operator":"United Utilities"}},{"type":"Feature","geometry":{"type":"Point","coordinates":[-3.00691,53.29138]},"properties":{"name":"Mapped water infrastructure","category":"pumping_station","osm_type":"way","osm_id":"1534008558","operator":"United Utilities"}},{"type":"Feature","geometry":{"type":"Point","coordinates":[-3.06339,53.39371]},"properties":{"name":"Flaybrick Hill Reservoir","category":"reservoir_covered","osm_type":"way","osm_id":"41484002"}},{"type":"Feature","geometry":{"type":"Point","coordinates":[-3.03921,53.36736]},"properties":{"name":"Mapped water infrastructure","category":"water_tower","osm_type":"way","osm_id":"68300845","operator":"United Utilities"}},{"type":"Feature","geometry":{"type":"Point","coordinates":[-3.03684,53.4397]},"properties":{"name":"New Brighton Pumping Station","category":"pumping_station","osm_type":"way","osm_id":"278979340","operator":"United Utilities"}},{"type":"Feature","geometry":{"type":"Point","coordinates":[-3.04941,53.43391]},"properties":{"name":"Mapped water infrastructure","category":"water_tower","osm_type":"way","osm_id":"974438457"}},{"type":"Feature","geometry":{"type":"Point","coordinates":[-3.04306,53.36066]},"properties":{"name":"Mapped water infrastructure","category":"wastewater_plant","osm_type":"way","osm_id":"1167852966"}},{"type":"Feature","geometry":{"type":"Point","coordinates":[-3.04069,53.3173]},"properties":{"name":"Mapped water infrastructure","category":"wastewater_plant","osm_type":"way","osm_id":"1170948594"}}]}