{"type":"FeatureCollection","features":[{"type":"Feature","geometry":{"type":"Point","coordinates":[-4.46354,50.4545]},"properties":{"name":"Pipe Well","category":"water_well","osm_type":"node","osm_id":"996659702"}},{"type":"Feature","geometry":{"type":"Point","coordinates":[-4.45004,50.45397]},"properties":{"name":"Lake Lane Waste Water treatment","category":"wastewater_plant","osm_type":"node","osm_id":"1701534438"}},{"type":"Feature","geometry":{"type":"Point","coordinates":[-4.81013,50.285]},"properties":{"name":"Wishing Well","category":"water_well","osm_type":"node","osm_id":"2381389847"}},{"type":"Feature","geometry":{"type":"Point","coordinates":[-4.1953,50.49605]},"properties":{"name":"Mapped water infrastructure","category":"wastewater_plant","osm_type":"node","osm_id":"2696832872"}},{"type":"Feature","geometry":{"type":"Point","coordinates":[-4.61739,50.38345]},"properties":{"name":"Mapped water infrastructure","category":"drinking_water","osm_type":"node","osm_id":"3518990771"}},{"type":"Feature","geometry":{"type":"Point","coordinates":[-4.92968,50.29142]},"properties":{"name":"litle lake","category":"water_point","osm_type":"node","osm_id":"5102026121"}},{"type":"Feature","geometry":{"type":"Point","coordinates":[-4.79566,50.34557]},"properties":{"name":"Menacuddle Well","category":"water_well","osm_type":"node","osm_id":"7088042694","website":"https://ancientmonuments.uk/117364-menacuddle-well-treverbyn#.XgXcgUf7RMs"}},{"type":"Feature","geometry":{"type":"Point","coordinates":[-4.71745,50.4714]},"properties":{"name":"St. Guron's Well","category":"water_well","osm_type":"node","osm_id":"8781893834"}},{"type":"Feature","geometry":{"type":"Point","coordinates":[-4.56178,50.48394]},"properties":{"name":"St Neot's Well","category":"water_well","osm_type":"node","osm_id":"8968180882"}},{"type":"Feature","geometry":{"type":"Point","coordinates":[-4.13998,50.36537]},"properties":{"name":"Mapped water infrastructure","category":"drinking_water","osm_type":"node","osm_id":"9412484818","wheelchair":"yes"}},{"type":"Feature","geometry":{"type":"Point","coordinates":[-4.46355,50.34836]},"properties":{"name":"Mapped water infrastructure","category":"reservoir_covered","osm_type":"node","osm_id":"9883106367","operator":"South West Water"}},{"type":"Feature","geometry":{"type":"Point","coordinates":[-4.20838,50.37259]},"properties":{"name":"Borough Farm SPS","category":"pumping_station","osm_type":"node","osm_id":"9908008632"}},{"type":"Feature","geometry":{"type":"Point","coordinates":[-4.11215,50.35351]},"properties":{"name":"Mapped water infrastructure","category":"pumping_station","osm_type":"node","osm_id":"9910527336"}},{"type":"Feature","geometry":{"type":"Point","coordinates":[-4.47655,50.39535]},"properties":{"name":"St Cuby's Well","category":"water_well","osm_type":"node","osm_id":"10151571640"}},{"type":"Feature","geometry":{"type":"Point","coordinates":[-4.92286,50.21928]},"properties":{"name":"Mapped water infrastructure","category":"drinking_water","osm_type":"node","osm_id":"11034635883"}},{"type":"Feature","geometry":{"type":"Point","coordinates":[-4.15162,50.38558]},"properties":{"name":"Mapped water infrastructure","category":"drinking_water","osm_type":"node","osm_id":"11136078306"}},{"type":"Feature","geometry":{"type":"Point","coordinates":[-4.16161,50.36171]},"properties":{"name":"Mapped water infrastructure","category":"drinking_water","osm_type":"node","osm_id":"11136097205"}},{"type":"Feature","geometry":{"type":"Point","coordinates":[-4.03167,50.31577]},"properties":{"name":"Mapped water infrastructure","category":"pumping_station","osm_type":"node","osm_id":"11557775958"}},{"type":"Feature","geometry":{"type":"Point","coordinates":[-4.74301,50.35963]},"properties":{"name":"Mapped water infrastructure","category":"drinking_water","osm_type":"node","osm_id":"12960833656"}},{"type":"Feature","geometry":{"type":"Point","coordinates":[-4.74302,50.35964]},"properties":{"name":"Mapped water infrastructure","category":"drinking_water","osm_type":"node","osm_id":"12960842250"}},{"type":"Feature","geometry":{"type":"Point","coordinates":[-4.743,50.35963]},"properties":{"name":"Mapped water infrastructure","category":"drinking_water","osm_type":"node","osm_id":"12960852839"}},{"type":"Feature","geometry":{"type":"Point","coordinates":[-4.93658,50.20823]},"properties":{"name":"Mapped water infrastructure","category":"drinking_water","osm_type":"node","osm_id":"13096786608","operator":"Our Only World"}},{"type":"Feature","geometry":{"type":"Point","coordinates":[-4.45271,50.35188]},"properties":{"name":"Mapped water infrastructure","category":"drinking_water","osm_type":"node","osm_id":"13324364063"}},{"type":"Feature","geometry":{"type":"Point","coordinates":[-4.14988,50.36953]},"properties":{"name":"Mapped water infrastructure","category":"drinking_water","osm_type":"node","osm_id":"13888603116"}},{"type":"Feature","geometry":{"type":"Point","coordinates":[-4.07954,50.38822]},"properties":{"name":"Marsh Mills Sewage Treatment Works","category":"wastewater_plant","osm_type":"way","osm_id":"40147435","operator":"South West Water"}},{"type":"Feature","geometry":{"type":"Point","coordinates":[-4.12762,50.41665]},"properties":{"name":"Crownhill Water Treatment Works","category":"water_works","osm_type":"way","osm_id":"40463506","operator":"South West Water"}},{"type":"Feature","geometry":{"type":"Point","coordinates":[-4.19022,50.42058]},"properties":{"name":"Ernesettle Sewage Treatment Works","category":"wastewater_plant","osm_type":"way","osm_id":"40523432","operator":"South West Water"}},{"type":"Feature","geometry":{"type":"Point","coordinates":[-4.17524,50.39252]},"properties":{"name":"Mapped water infrastructure","category":"wastewater_plant","osm_type":"way","osm_id":"40545158"}},{"type":"Feature","geometry":{"type":"Point","coordinates":[-4.1061,50.35569]},"properties":{"name":"Radford Waste Water Treatment Plant","category":"wastewater_plant","osm_type":"way","osm_id":"41178618","operator":"South West Water"}},{"type":"Feature","geometry":{"type":"Point","coordinates":[-4.22943,50.36643]},"properties":{"name":"Torpoint STW","category":"wastewater_plant","osm_type":"way","osm_id":"41201966","ref":"UKENSW_SWS_TP000076"}},{"type":"Feature","geometry":{"type":"Point","coordinates":[-4.17722,50.40844]},"properties":{"name":"Kings Tamerton Reservoir","category":"reservoir_covered","osm_type":"way","osm_id":"49998568"}},{"type":"Feature","geometry":{"type":"Point","coordinates":[-4.13466,50.49584]},"properties":{"name":"Mapped water infrastructure","category":"wastewater_plant","osm_type":"way","osm_id":"131770035"}},{"type":"Feature","geometry":{"type":"Point","coordinates":[-4.61793,50.38011]},"properties":{"name":"Mapped water infrastructure","category":"wastewater_plant","osm_type":"way","osm_id":"163366190"}},{"type":"Feature","geometry":{"type":"Point","coordinates":[-4.66485,50.39723]},"properties":{"name":"Mapped water infrastructure","category":"wastewater_plant","osm_type":"way","osm_id":"163383423"}},{"type":"Feature","geometry":{"type":"Point","coordinates":[-4.64695,50.34672]},"properties":{"name":"Fowey Wastewater Treatment Works","category":"wastewater_plant","osm_type":"way","osm_id":"178560364","operator":"South West Water"}},{"type":"Feature","geometry":{"type":"Point","coordinates":[-4.74103,50.47364]},"properties":{"name":"Mapped water infrastructure","category":"wastewater_plant","osm_type":"way","osm_id":"185898823"}},{"type":"Feature","geometry":{"type":"Point","coordinates":[-4.62655,50.32628]},"properties":{"name":"Reservoir (covered)","category":"reservoir_covered","osm_type":"way","osm_id":"188928331"}},{"type":"Feature","geometry":{"type":"Point","coordinates":[-4.62837,50.32613]},"properties":{"name":"Mapped water infrastructure","category":"reservoir_covered","osm_type":"way","osm_id":"188928334"}},{"type":"Feature","geometry":{"type":"Point","coordinates":[-4.47863,50.4404]},"properties":{"name":"Lodgehill STW Liskeard","category":"wastewater_plant","osm_type":"way","osm_id":"198501584","operator":"South West Water","ref":"000000052326"}},{"type":"Feature","geometry":{"type":"Point","coordinates":[-4.03368,50.34276]},"properties":{"name":"Mapped water infrastructure","category":"wastewater_plant","osm_type":"way","osm_id":"210938275","operator":"South West Water","addr:postcode":"PL8 2DJ"}},{"type":"Feature","geometry":{"type":"Point","coordinates":[-4.00188,50.34552]},"properties":{"name":"Yealmpton STW Yealmpton","category":"wastewater_plant","osm_type":"way","osm_id":"257306384","operator":"South West Water","ref":"000000052562"}},{"type":"Feature","geometry":{"type":"Point","coordinates":[-4.19987,50.4762]},"properties":{"name":"Mapped water infrastructure","category":"wastewater_plant","osm_type":"way","osm_id":"261213366","addr:postcode":"PL20 7BN"}},{"type":"Feature","geometry":{"type":"Point","coordinates":[-4.19565,50.49614]},"properties":{"name":"Mapped water infrastructure","category":"wastewater_plant","osm_type":"way","osm_id":"261747681"}},{"type":"Feature","geometry":{"type":"Point","coordinates":[-4.46221,50.41165]},"properties":{"name":"Mapped water infrastructure","category":"wastewater_plant","osm_type":"way","osm_id":"266290795"}},{"type":"Feature","geometry":{"type":"Point","coordinates":[-4.7578,50.47119]},"properties":{"name":"Mapped water infrastructure","category":"wastewater_plant","osm_type":"way","osm_id":"279952675"}},{"type":"Feature","geometry":{"type":"Point","coordinates":[-4.68166,50.43159]},"properties":{"name":"Restormel Water Treament Works","category":"water_works","osm_type":"way","osm_id":"280964874","operator":"South West Water"}},{"type":"Feature","geometry":{"type":"Point","coordinates":[-4.66625,50.41125]},"properties":{"name":"Lostwithiel Sewerage Treatment Works","category":"wastewater_plant","osm_type":"way","osm_id":"282447709"}},{"type":"Feature","geometry":{"type":"Point","coordinates":[-4.64559,50.36517]},"properties":{"name":"Golant STW Lostwithiel","category":"wastewater_plant","osm_type":"way","osm_id":"286556576","operator":"South West Water","ref":"000010431589"}},{"type":"Feature","geometry":{"type":"Point","coordinates":[-4.75377,50.39099]},"properties":{"name":"Mapped water infrastructure","category":"wastewater_plant","osm_type":"way","osm_id":"289861956"}},{"type":"Feature","geometry":{"type":"Point","coordinates":[-4.94916,50.43846]},"properties":{"name":"Mapped water infrastructure","category":"wastewater_plant","osm_type":"way","osm_id":"306741915"}},{"type":"Feature","geometry":{"type":"Point","coordinates":[-4.2057,50.35196]},"properties":{"name":"Millbrook STW Millbrook","category":"wastewater_plant","osm_type":"way","osm_id":"308260231","operator":"South West Water","ref":"000000053859"}},{"type":"Feature","geometry":{"type":"Point","coordinates":[-4.76606,50.35742]},"properties":{"name":"Mapped water infrastructure","category":"reservoir_covered","osm_type":"way","osm_id":"332771307"}},{"type":"Feature","geometry":{"type":"Point","coordinates":[-4.71833,50.34225]},"properties":{"name":"Par Sewage Treatment Works","category":"wastewater_plant","osm_type":"way","osm_id":"332773244","operator":"South West Water"}},{"type":"Feature","geometry":{"type":"Point","coordinates":[-4.30926,50.36473]},"properties":{"name":"Mapped water infrastructure","category":"wastewater_plant","osm_type":"way","osm_id":"447007354"}},{"type":"Feature","geometry":{"type":"Point","coordinates":[-4.08063,50.43682]},"properties":{"name":"Mapped water infrastructure","category":"water_works","osm_type":"way","osm_id":"491382584"}},{"type":"Feature","geometry":{"type":"Point","coordinates":[-4.06267,50.38107]},"properties":{"name":"Service Reservoir","category":"reservoir_covered","osm_type":"way","osm_id":"507999370","operator":"South West Water"}},{"type":"Feature","geometry":{"type":"Point","coordinates":[-4.45277,50.48514]},"properties":{"name":"Mapped water infrastructure","category":"wastewater_plant","osm_type":"way","osm_id":"562053643"}},{"type":"Feature","geometry":{"type":"Point","coordinates":[-4.51369,50.33075]},"properties":{"name":"Mapped water infrastructure","category":"wastewater_plant","osm_type":"way","osm_id":"608139080"}},{"type":"Feature","geometry":{"type":"Point","coordinates":[-4.79521,50.32387]},"properties":{"name":"Menagwins Sewage Treatment Works","category":"wastewater_plant","osm_type":"way","osm_id":"631647298","operator":"South West Water"}},{"type":"Feature","geometry":{"type":"Point","coordinates":[-4.3092,50.391]},"properties":{"name":"Mapped water infrastructure","category":"wastewater_plant","osm_type":"way","osm_id":"663938168"}},{"type":"Feature","geometry":{"type":"Point","coordinates":[-4.05698,50.35901]},"properties":{"name":"Elburton South","category":"wastewater_plant","osm_type":"way","osm_id":"682715187","operator":"South West Water"}},{"type":"Feature","geometry":{"type":"Point","coordinates":[-4.47234,50.35489]},"properties":{"name":"Looe STW West Looe","category":"wastewater_plant","osm_type":"way","osm_id":"688919919","operator":"South West Water","ref":"000000052328"}},{"type":"Feature","geometry":{"type":"Point","coordinates":[-4.10783,50.4863]},"properties":{"name":"Mapped water infrastructure","category":"wastewater_plant","osm_type":"way","osm_id":"688996255"}},{"type":"Feature","geometry":{"type":"Point","coordinates":[-4.97584,50.17681]},"properties":{"name":"Portscatho STW Portscatho","category":"wastewater_plant","osm_type":"way","osm_id":"699182837","operator":"South West Water"}},{"type":"Feature","geometry":{"type":"Point","coordinates":[-4.03199,50.32208]},"properties":{"name":"Mapped water infrastructure","category":"water_tower","osm_type":"way","osm_id":"740931846"}},{"type":"Feature","geometry":{"type":"Point","coordinates":[-4.92107,50.26302]},"properties":{"name":"Mapped water infrastructure","category":"wastewater_plant","osm_type":"way","osm_id":"923153653"}},{"type":"Feature","geometry":{"type":"Point","coordinates":[-4.2826,50.4261]},"properties":{"name":"Mapped water infrastructure","category":"wastewater_plant","osm_type":"way","osm_id":"945996524"}},{"type":"Feature","geometry":{"type":"Point","coordinates":[-4.36886,50.36064]},"properties":{"name":"Mapped water infrastructure","category":"water_works","osm_type":"way","osm_id":"996061040"}},{"type":"Feature","geometry":{"type":"Point","coordinates":[-4.22375,50.33719]},"properties":{"name":"Mapped water infrastructure","category":"wastewater_plant","osm_type":"way","osm_id":"998195571"}},{"type":"Feature","geometry":{"type":"Point","coordinates":[-4.15848,50.42831]},"properties":{"name":"Mapped water infrastructure","category":"pumping_station","osm_type":"way","osm_id":"1013169037"}},{"type":"Feature","geometry":{"type":"Point","coordinates":[-4.72219,50.43715]},"properties":{"name":"Foxpark Service Reservoir","category":"reservoir_covered","osm_type":"way","osm_id":"1024014977","operator":"South West Water"}},{"type":"Feature","geometry":{"type":"Point","coordinates":[-4.72175,50.43638]},"properties":{"name":"Foxpark Service Reservoir","category":"reservoir_covered","osm_type":"way","osm_id":"1024014978","operator":"South West Water"}},{"type":"Feature","geometry":{"type":"Point","coordinates":[-4.35348,50.37471]},"properties":{"name":"Mapped water infrastructure","category":"reservoir_covered","osm_type":"way","osm_id":"1026186742"}},{"type":"Feature","geometry":{"type":"Point","coordinates":[-4.35297,50.37494]},"properties":{"name":"Mapped water infrastructure","category":"reservoir_covered","osm_type":"way","osm_id":"1026186743"}},{"type":"Feature","geometry":{"type":"Point","coordinates":[-4.80483,50.2412]},"properties":{"name":"Gorran Haven STW","category":"wastewater_plant","osm_type":"way","osm_id":"1031699910","operator":"South West Water","ref":"000000054060"}},{"type":"Feature","geometry":{"type":"Point","coordinates":[-4.39305,50.3768]},"properties":{"name":"Seaton And Downderry STW","category":"wastewater_plant","osm_type":"way","osm_id":"1033772433","operator":"South West Water","ref":"000000054156"}},{"type":"Feature","geometry":{"type":"Point","coordinates":[-4.89698,50.38292]},"properties":{"name":"St Dennis STW","category":"wastewater_plant","osm_type":"way","osm_id":"1036256541","operator":"South West Water","ref":"000000052303"}},{"type":"Feature","geometry":{"type":"Point","coordinates":[-4.98511,50.28406]},"properties":{"name":"Ladock Valley STW Tresillian","category":"wastewater_plant","osm_type":"way","osm_id":"1039930181","operator":"South West Water","ref":"000000052947"}},{"type":"Feature","geometry":{"type":"Point","coordinates":[-4.37804,50.45698]},"properties":{"name":"Quethiock STW Quethiock","category":"wastewater_plant","osm_type":"way","osm_id":"1040005013","operator":"South West Water","ref":"000000053931"}},{"type":"Feature","geometry":{"type":"Point","coordinates":[-4.40926,50.42421]},"properties":{"name":"Station Road STW Menheniot","category":"wastewater_plant","osm_type":"way","osm_id":"1040154378","operator":"South West Water","ref":"000010524124"}},{"type":"Feature","geometry":{"type":"Point","coordinates":[-4.89259,50.3218]},"properties":{"name":"North Fal STW St Stephens","category":"wastewater_plant","osm_type":"way","osm_id":"1040764466","operator":"South West Water","ref":"000000052337"}},{"type":"Feature","geometry":{"type":"Point","coordinates":[-4.33284,50.4431]},"properties":{"name":"Blunts S T STW Tideford","category":"wastewater_plant","osm_type":"way","osm_id":"1041801268","operator":"South West Water","ref":"000000052299"}},{"type":"Feature","geometry":{"type":"Point","coordinates":[-4.0929,50.3184]},"properties":{"name":"Mapped water infrastructure","category":"wastewater_plant","osm_type":"way","osm_id":"1068155958"}},{"type":"Feature","geometry":{"type":"Point","coordinates":[-4.10511,50.33085]},"properties":{"name":"Mapped water infrastructure","category":"reservoir_covered","osm_type":"way","osm_id":"1071304912"}},{"type":"Feature","geometry":{"type":"Point","coordinates":[-4.01518,50.31899]},"properties":{"name":"Newton Ferrers Waste Water Treatment Works","category":"wastewater_plant","osm_type":"way","osm_id":"1072265616"}},{"type":"Feature","geometry":{"type":"Point","coordinates":[-4.41234,50.39167]},"properties":{"name":"Widegates STW Looe","category":"wastewater_plant","osm_type":"way","osm_id":"1106720972","operator":"South West Water","ref":"000000052313"}},{"type":"Feature","geometry":{"type":"Point","coordinates":[-4.53281,50.44195]},"properties":{"name":"Trevelmond STW Dobwalls","category":"wastewater_plant","osm_type":"way","osm_id":"1106720973","operator":"South West Water","ref":"000000052310"}},{"type":"Feature","geometry":{"type":"Point","coordinates":[-4.65256,50.48958]},"properties":{"name":"Cardinham STW Cardinham","category":"wastewater_plant","osm_type":"way","osm_id":"1106721027","operator":"South West Water","ref":"000000052314"}},{"type":"Feature","geometry":{"type":"Point","coordinates":[-4.20963,50.38546]},"properties":{"name":"Wilcove STW Torpoint","category":"wastewater_plant","osm_type":"way","osm_id":"1106774571","operator":"South West Water","ref":"000000020397"}},{"type":"Feature","geometry":{"type":"Point","coordinates":[-4.41614,50.4343]},"properties":{"name":"Menheniot STW Menheniot","category":"wastewater_plant","osm_type":"way","osm_id":"1123469570","operator":"South West Water","ref":"000000052331"}},{"type":"Feature","geometry":{"type":"Point","coordinates":[-4.13297,50.46908]},"properties":{"name":"Milton Combe STW Milton Combe","category":"wastewater_plant","osm_type":"way","osm_id":"1125604705","operator":"South West Water","ref":"000000053888"}},{"type":"Feature","geometry":{"type":"Point","coordinates":[-4.03473,50.43711]},"properties":{"name":"Wotter STW Lee Moor","category":"wastewater_plant","osm_type":"way","osm_id":"1125802476","operator":"South West Water","ref":"000000052561"}},{"type":"Feature","geometry":{"type":"Point","coordinates":[-4.56616,50.33872]},"properties":{"name":"Lansallos Resevoir","category":"reservoir_covered","osm_type":"way","osm_id":"1126058603"}},{"type":"Feature","geometry":{"type":"Point","coordinates":[-4.4902,50.49661]},"properties":{"name":"Common Moor STW Common Moor","category":"wastewater_plant","osm_type":"way","osm_id":"1126348472","operator":"South West Water","ref":"000000052315"}},{"type":"Feature","geometry":{"type":"Point","coordinates":[-4.60814,50.48177]},"properties":{"name":"Mount STW Mount","category":"wastewater_plant","osm_type":"way","osm_id":"1155970832","operator":"South West Water","ref":"000000052335"}},{"type":"Feature","geometry":{"type":"Point","coordinates":[-4.9005,50.29651]},"properties":{"name":"Pumping station for The Tannery","category":"pumping_station","osm_type":"way","osm_id":"1169952608","operator":"Vistry"}},{"type":"Feature","geometry":{"type":"Point","coordinates":[-4.90402,50.29913]},"properties":{"name":"Mapped water infrastructure","category":"pumping_station","osm_type":"way","osm_id":"1179841859","operator":"South West Water"}},{"type":"Feature","geometry":{"type":"Point","coordinates":[-4.89026,50.29956]},"properties":{"name":"Mapped water infrastructure","category":"reservoir_covered","osm_type":"way","osm_id":"1190021192","operator":"South West Water"}},{"type":"Feature","geometry":{"type":"Point","coordinates":[-4.80509,50.24812]},"properties":{"name":"Gorran Churchtown STW St Austell","category":"wastewater_plant","osm_type":"way","osm_id":"1207575124","operator":"South West Water","ref":"000000052322"}},{"type":"Feature","geometry":{"type":"Point","coordinates":[-4.17026,50.45406]},"properties":{"name":"Mapped water infrastructure","category":"water_works","osm_type":"way","osm_id":"1264607374"}},{"type":"Feature","geometry":{"type":"Point","coordinates":[-4.11356,50.36609]},"properties":{"name":"Plymouth Central Wastewater Treatment Works","category":"wastewater_plant","osm_type":"way","osm_id":"1293614034","operator":"South West Water","ref":"000000054149","addr:postcode":"PL4 0PX"}},{"type":"Feature","geometry":{"type":"Point","coordinates":[-4.95664,50.28312]},"properties":{"name":"Mapped water infrastructure","category":"water_tower","osm_type":"way","osm_id":"1306199668"}},{"type":"Feature","geometry":{"type":"Point","coordinates":[-4.10549,50.44954]},"properties":{"name":"Mayflower WTW","category":"water_works","osm_type":"way","osm_id":"1332949367","operator":"South West Water"}},{"type":"Feature","geometry":{"type":"Point","coordinates":[-4.15016,50.46486]},"properties":{"name":"Lopwell Raw Water Pump Station","category":"pumping_station","osm_type":"way","osm_id":"1354416516","operator":"South West Water"}},{"type":"Feature","geometry":{"type":"Point","coordinates":[-4.64766,50.34131]},"properties":{"name":"Mapped water infrastructure","category":"reservoir_covered","osm_type":"way","osm_id":"1368348226"}},{"type":"Feature","geometry":{"type":"Point","coordinates":[-4.22042,50.47334]},"properties":{"name":"Mapped water infrastructure","category":"pumping_station","osm_type":"way","osm_id":"1382350486"}},{"type":"Feature","geometry":{"type":"Point","coordinates":[-4.01111,50.43733]},"properties":{"name":"Lee Moor STW Lee Moor","category":"wastewater_plant","osm_type":"way","osm_id":"1388758176","operator":"South West Water","ref":"000000052546"}},{"type":"Feature","geometry":{"type":"Point","coordinates":[-4.06098,50.48557]},"properties":{"name":"Meavy STW Dousland","category":"wastewater_plant","osm_type":"way","osm_id":"1388758576","operator":"South West Water","ref":"000000053885"}},{"type":"Feature","geometry":{"type":"Point","coordinates":[-4.27515,50.47038]},"properties":{"name":"St Mellion STW St Mellion","category":"wastewater_plant","osm_type":"way","osm_id":"1420925606","operator":"South West Water","ref":"000010273655"}},{"type":"Feature","geometry":{"type":"Point","coordinates":[-4.60724,50.35924]},"properties":{"name":"Lanteglos STW Lanteglos","category":"wastewater_plant","osm_type":"way","osm_id":"1421577288","operator":"South West Water","ref":"000000052324"}},{"type":"Feature","geometry":{"type":"Point","coordinates":[-4.70132,50.37781]},"properties":{"name":"Mapped water infrastructure","category":"reservoir_covered","osm_type":"way","osm_id":"1424612413"}},{"type":"Feature","geometry":{"type":"Point","coordinates":[-4.92644,50.22161]},"properties":{"name":"Veryan STW Veryan","category":"wastewater_plant","osm_type":"way","osm_id":"1426404442","operator":"South West Water","ref":"000000052962"}},{"type":"Feature","geometry":{"type":"Point","coordinates":[-4.09807,50.34783]},"properties":{"name":"Mapped water infrastructure","category":"water_well","osm_type":"way","osm_id":"1459874255","operator":"Disused"}},{"type":"Feature","geometry":{"type":"Point","coordinates":[-4.86744,50.32838]},"properties":{"name":"Coombe Mine Water Treatment Scheme","category":"water_works","osm_type":"way","osm_id":"1527553343","operator":"Mining Remediation Authority"}},{"type":"Feature","geometry":{"type":"Point","coordinates":[-4.99853,50.45525]},"properties":{"name":"Mapped water infrastructure","category":"wastewater_plant","osm_type":"way","osm_id":"307487362"}},{"type":"Feature","geometry":{"type":"Point","coordinates":[-4.69996,50.44132]},"properties":{"name":"Mapped water infrastructure","category":"water_well","osm_type":"way","osm_id":"429846107"}},{"type":"Feature","geometry":{"type":"Point","coordinates":[-4.61807,50.38129]},"properties":{"name":"Mapped water infrastructure","category":"reservoir_covered","osm_type":"way","osm_id":"787973776"}},{"type":"Feature","geometry":{"type":"Point","coordinates":[-4.10633,50.44969]},"properties":{"name":"Mapped water infrastructure","category":"reservoir_covered","osm_type":"way","osm_id":"874013605"}},{"type":"Feature","geometry":{"type":"Point","coordinates":[-4.10564,50.44997]},"properties":{"name":"Mapped water infrastructure","category":"reservoir_covered","osm_type":"way","osm_id":"874013606"}},{"type":"Feature","geometry":{"type":"Point","coordinates":[-4.52999,50.36662]},"properties":{"name":"Mapped water infrastructure","category":"wastewater_plant","osm_type":"way","osm_id":"1076536938"}},{"type":"Feature","geometry":{"type":"Point","coordinates":[-4.34075,50.49648]},"properties":{"name":"Callington (new) STW","category":"wastewater_plant","osm_type":"way","osm_id":"1088759245","operator":"South West Water"}},{"type":"Feature","geometry":{"type":"Point","coordinates":[-4.94886,50.38156]},"properties":{"name":"Fraddon STW","category":"wastewater_plant","osm_type":"way","osm_id":"1092081044","operator":"South West Water"}},{"type":"Feature","geometry":{"type":"Point","coordinates":[-4.03592,50.31267]},"properties":{"name":"Mapped water infrastructure","category":"pumping_station","osm_type":"way","osm_id":"1224907067","operator":"South West Water"}},{"type":"Feature","geometry":{"type":"Point","coordinates":[-4.10146,50.36559]},"properties":{"name":"Billacombe Sewage Pumping Station","category":"pumping_station","osm_type":"way","osm_id":"1241650243","operator":"South West Water"}},{"type":"Feature","geometry":{"type":"Point","coordinates":[-4.70689,50.347]},"properties":{"name":"Mapped water infrastructure","category":"pumping_station","osm_type":"way","osm_id":"1363612845","operator":"South West Water"}}]}