{"type":"FeatureCollection","features":[{"type":"Feature","geometry":{"type":"Point","coordinates":[-4.17327,51.18634]},"properties":{"name":"Mapped water infrastructure","category":"water_well","osm_type":"node","osm_id":"1779813926"}},{"type":"Feature","geometry":{"type":"Point","coordinates":[-4.20571,51.18795]},"properties":{"name":"Wishing Well","category":"drinking_water","osm_type":"node","osm_id":"3050854456"}},{"type":"Feature","geometry":{"type":"Point","coordinates":[-4.06639,51.04959]},"properties":{"name":"Tawstock Holy Well","category":"water_well","osm_type":"node","osm_id":"11503368926"}},{"type":"Feature","geometry":{"type":"Point","coordinates":[-4.24752,51.01699]},"properties":{"name":"Mapped water infrastructure","category":"water_well","osm_type":"node","osm_id":"11863337702"}},{"type":"Feature","geometry":{"type":"Point","coordinates":[-4.15196,51.11068]},"properties":{"name":"Mapped water infrastructure","category":"reservoir_covered","osm_type":"way","osm_id":"142862194"}},{"type":"Feature","geometry":{"type":"Point","coordinates":[-4.25121,51.02694]},"properties":{"name":"Cornborough Sewage Treatment Works","category":"wastewater_plant","osm_type":"way","osm_id":"169822967"}},{"type":"Feature","geometry":{"type":"Point","coordinates":[-4.20505,51.16783]},"properties":{"name":"Mapped water infrastructure","category":"wastewater_plant","osm_type":"way","osm_id":"180803242"}},{"type":"Feature","geometry":{"type":"Point","coordinates":[-4.22832,51.03801]},"properties":{"name":"Mapped water infrastructure","category":"reservoir_covered","osm_type":"way","osm_id":"400480857"}},{"type":"Feature","geometry":{"type":"Point","coordinates":[-4.09426,51.08854]},"properties":{"name":"Ashford Sewage Treatment Works","category":"wastewater_plant","osm_type":"way","osm_id":"722489658","operator":"South West Water"}},{"type":"Feature","geometry":{"type":"Point","coordinates":[-4.16206,51.09846]},"properties":{"name":"Mapped water infrastructure","category":"pumping_station","osm_type":"way","osm_id":"723516127"}},{"type":"Feature","geometry":{"type":"Point","coordinates":[-4.07325,51.08101]},"properties":{"name":"Pottington Pumping Station","category":"pumping_station","osm_type":"way","osm_id":"975615138"}},{"type":"Feature","geometry":{"type":"Point","coordinates":[-4.03414,51.20104]},"properties":{"name":"Combe Martin STW","category":"wastewater_plant","osm_type":"way","osm_id":"1030341306","operator":"South West Water","ref":"000000053939"}},{"type":"Feature","geometry":{"type":"Point","coordinates":[-4.00275,51.08795]},"properties":{"name":"Goodleigh STW","category":"wastewater_plant","osm_type":"way","osm_id":"1034811169","operator":"South West Water","ref":"000000052661"}},{"type":"Feature","geometry":{"type":"Point","coordinates":[-4.12681,51.15998]},"properties":{"name":"West Down STW","category":"wastewater_plant","osm_type":"way","osm_id":"1036256540","operator":"South West Water","ref":"000000052737"}},{"type":"Feature","geometry":{"type":"Point","coordinates":[-4.11973,51.0123]},"properties":{"name":"Stony Cross STW Horwood","category":"wastewater_plant","osm_type":"way","osm_id":"1036257717","operator":"South West Water","ref":"000000053824"}},{"type":"Feature","geometry":{"type":"Point","coordinates":[-4.41386,51.00101]},"properties":{"name":"Higher Clovelly STW Clovelly Cross","category":"wastewater_plant","osm_type":"way","osm_id":"1039538549","operator":"South West Water","ref":"000000052672"}},{"type":"Feature","geometry":{"type":"Point","coordinates":[-4.10641,51.17774]},"properties":{"name":"Horedown S T STW Horedown","category":"wastewater_plant","osm_type":"way","osm_id":"1115950386","operator":"South West Water","ref":"000000054265"}},{"type":"Feature","geometry":{"type":"Point","coordinates":[-4.10856,51.17787]},"properties":{"name":"Mapped water infrastructure","category":"reservoir_covered","osm_type":"way","osm_id":"1115951636"}},{"type":"Feature","geometry":{"type":"Point","coordinates":[-4.15639,51.12513]},"properties":{"name":"Knowle STW Braunton","category":"wastewater_plant","osm_type":"way","osm_id":"1125802939","operator":"South West Water","ref":"000000052685"}},{"type":"Feature","geometry":{"type":"Point","coordinates":[-4.2403,51.13478]},"properties":{"name":"Croyde STW Croyde","category":"wastewater_plant","osm_type":"way","osm_id":"1126110014","operator":"South West Water","ref":"000000052777"}},{"type":"Feature","geometry":{"type":"Point","coordinates":[-4.17528,51.05461]},"properties":{"name":"Mapped water infrastructure","category":"reservoir_covered","osm_type":"way","osm_id":"1202821706"}},{"type":"Feature","geometry":{"type":"Point","coordinates":[-4.20296,51.02498]},"properties":{"name":"Mapped water infrastructure","category":"water_works","osm_type":"way","osm_id":"1203471807"}},{"type":"Feature","geometry":{"type":"Point","coordinates":[-4.19076,51.15349]},"properties":{"name":"Mapped water infrastructure","category":"reservoir_covered","osm_type":"way","osm_id":"1269086807"}},{"type":"Feature","geometry":{"type":"Point","coordinates":[-4.10824,51.17807]},"properties":{"name":"Mapped water infrastructure","category":"wastewater_plant","osm_type":"way","osm_id":"1274372457","operator":"Southern Water"}},{"type":"Feature","geometry":{"type":"Point","coordinates":[-4.10984,51.19825]},"properties":{"name":"Mapped water infrastructure","category":"reservoir_covered","osm_type":"way","osm_id":"1274372472"}},{"type":"Feature","geometry":{"type":"Point","coordinates":[-4.07862,51.19197]},"properties":{"name":"Mapped water infrastructure","category":"reservoir_covered","osm_type":"way","osm_id":"1275193534"}},{"type":"Feature","geometry":{"type":"Point","coordinates":[-4.01547,51.11387]},"properties":{"name":"Shirwell STW Shirwell","category":"wastewater_plant","osm_type":"way","osm_id":"1426688107","operator":"South West Water","ref":"000000052724"}},{"type":"Feature","geometry":{"type":"Point","coordinates":[-4.05325,51.06728]},"properties":{"name":"Mapped water infrastructure","category":"pumping_station","osm_type":"way","osm_id":"1087695949"}}]}