{"type":"FeatureCollection","features":[{"type":"Feature","geometry":{"type":"Point","coordinates":[0.09388,51.78142]},"properties":{"name":"Burnt Mill Water Point","category":"water_point","osm_type":"node","osm_id":"17633318","operator":"Canal and River Trust"}},{"type":"Feature","geometry":{"type":"Point","coordinates":[0.13224,51.79508]},"properties":{"name":"Harlow Mill Lock Water Point","category":"water_point","osm_type":"node","osm_id":"17633411","operator":"Canal and River Trust"}},{"type":"Feature","geometry":{"type":"Point","coordinates":[0.36342,51.65117]},"properties":{"name":"Mapped water infrastructure","category":"water_tower","osm_type":"node","osm_id":"282934516"}},{"type":"Feature","geometry":{"type":"Point","coordinates":[0.92317,51.7737]},"properties":{"name":"Mapped water infrastructure","category":"drinking_water","osm_type":"node","osm_id":"400906940"}},{"type":"Feature","geometry":{"type":"Point","coordinates":[0.92644,51.77375]},"properties":{"name":"Mapped water infrastructure","category":"drinking_water","osm_type":"node","osm_id":"400907016"}},{"type":"Feature","geometry":{"type":"Point","coordinates":[0.93135,51.77392]},"properties":{"name":"Mapped water infrastructure","category":"drinking_water","osm_type":"node","osm_id":"400907478"}},{"type":"Feature","geometry":{"type":"Point","coordinates":[0.93803,51.77587]},"properties":{"name":"Mapped water infrastructure","category":"wastewater_plant","osm_type":"node","osm_id":"418363932","operator":"Anglian Water"}},{"type":"Feature","geometry":{"type":"Point","coordinates":[0.93281,51.77398]},"properties":{"name":"Mapped water infrastructure","category":"drinking_water","osm_type":"node","osm_id":"419282107"}},{"type":"Feature","geometry":{"type":"Point","coordinates":[0.13186,51.61352]},"properties":{"name":"Mapped water infrastructure","category":"drinking_water","osm_type":"node","osm_id":"539063877"}},{"type":"Feature","geometry":{"type":"Point","coordinates":[0.43968,51.86169]},"properties":{"name":"Mapped water infrastructure","category":"water_tower","osm_type":"node","osm_id":"607522887"}},{"type":"Feature","geometry":{"type":"Point","coordinates":[0.36479,51.82532]},"properties":{"name":"Mapped water infrastructure","category":"water_tower","osm_type":"node","osm_id":"768945350"}},{"type":"Feature","geometry":{"type":"Point","coordinates":[0.09645,51.8461]},"properties":{"name":"Mapped water infrastructure","category":"water_well","osm_type":"node","osm_id":"849352281"}},{"type":"Feature","geometry":{"type":"Point","coordinates":[0.02998,51.90773]},"properties":{"name":"Mapped water infrastructure","category":"water_well","osm_type":"node","osm_id":"867465545"}},{"type":"Feature","geometry":{"type":"Point","coordinates":[0.01645,51.88875]},"properties":{"name":"Mapped water infrastructure","category":"water_well","osm_type":"node","osm_id":"894764122"}},{"type":"Feature","geometry":{"type":"Point","coordinates":[0.02627,51.94348]},"properties":{"name":"Mapped water infrastructure","category":"well","osm_type":"node","osm_id":"970860470"}},{"type":"Feature","geometry":{"type":"Point","coordinates":[0.62833,51.93489]},"properties":{"name":"Mapped water infrastructure","category":"water_tower","osm_type":"node","osm_id":"1051748733"}},{"type":"Feature","geometry":{"type":"Point","coordinates":[0.63273,51.59919]},"properties":{"name":"Mapped water infrastructure","category":"water_tower","osm_type":"node","osm_id":"1417976412"}},{"type":"Feature","geometry":{"type":"Point","coordinates":[0.71488,51.84954]},"properties":{"name":"Mapped water infrastructure","category":"pumping_station","osm_type":"node","osm_id":"1449345525","operator":"Essex & Suffolk Water"}},{"type":"Feature","geometry":{"type":"Point","coordinates":[0.57501,51.9048]},"properties":{"name":"Mapped water infrastructure","category":"water_tower","osm_type":"node","osm_id":"1607428799"}},{"type":"Feature","geometry":{"type":"Point","coordinates":[0.84473,51.70124]},"properties":{"name":"Mapped water infrastructure","category":"water_tower","osm_type":"node","osm_id":"1626592313"}},{"type":"Feature","geometry":{"type":"Point","coordinates":[0.16219,51.86776]},"properties":{"name":"Bishops Stortford Water Point","category":"drinking_water","osm_type":"node","osm_id":"1735864287","operator":"Canal and River Trust"}},{"type":"Feature","geometry":{"type":"Point","coordinates":[0.31542,51.99248]},"properties":{"name":"Mapped water infrastructure","category":"water_tower","osm_type":"node","osm_id":"1800498743"}},{"type":"Feature","geometry":{"type":"Point","coordinates":[0.069,51.57278]},"properties":{"name":"Jacob's Well","category":"water_well","osm_type":"node","osm_id":"1853112649"}},{"type":"Feature","geometry":{"type":"Point","coordinates":[0.27647,51.65366]},"properties":{"name":"Mapped water infrastructure","category":"drinking_water","osm_type":"node","osm_id":"1921870691"}},{"type":"Feature","geometry":{"type":"Point","coordinates":[0.27816,51.65412]},"properties":{"name":"Mapped water infrastructure","category":"drinking_water","osm_type":"node","osm_id":"1921870778"}},{"type":"Feature","geometry":{"type":"Point","coordinates":[0.39416,51.87522]},"properties":{"name":"Gussetts Water Tower","category":"water_tower","osm_type":"node","osm_id":"2098455374"}},{"type":"Feature","geometry":{"type":"Point","coordinates":[0.67061,51.71976]},"properties":{"name":"Mapped water infrastructure","category":"drinking_water","osm_type":"node","osm_id":"3982563357"}},{"type":"Feature","geometry":{"type":"Point","coordinates":[0.76115,51.79343]},"properties":{"name":"Mapped water infrastructure","category":"water_tower","osm_type":"node","osm_id":"4113679163"}},{"type":"Feature","geometry":{"type":"Point","coordinates":[0.65462,51.67392]},"properties":{"name":"Mapped water infrastructure","category":"water_tower","osm_type":"node","osm_id":"4130345619"}},{"type":"Feature","geometry":{"type":"Point","coordinates":[0.78584,51.85941]},"properties":{"name":"Mapped water infrastructure","category":"drinking_water","osm_type":"node","osm_id":"4191793005"}},{"type":"Feature","geometry":{"type":"Point","coordinates":[0.391,51.67006]},"properties":{"name":"Mapped water infrastructure","category":"water_well","osm_type":"node","osm_id":"4193017797"}},{"type":"Feature","geometry":{"type":"Point","coordinates":[0.06961,51.56741]},"properties":{"name":"Mapped water infrastructure","category":"water_well","osm_type":"node","osm_id":"4972060177"}},{"type":"Feature","geometry":{"type":"Point","coordinates":[0.02113,51.53873]},"properties":{"name":"Mapped water infrastructure","category":"drinking_water","osm_type":"node","osm_id":"4974949721","wheelchair":"yes"}},{"type":"Feature","geometry":{"type":"Point","coordinates":[0.44584,51.60138]},"properties":{"name":"Wishing Well","category":"water_well","osm_type":"node","osm_id":"5032800622"}},{"type":"Feature","geometry":{"type":"Point","coordinates":[0.2598,51.89309]},"properties":{"name":"Mapped water infrastructure","category":"drinking_water","osm_type":"node","osm_id":"5224483581"}},{"type":"Feature","geometry":{"type":"Point","coordinates":[0.7593,51.55105]},"properties":{"name":"Mapped water infrastructure","category":"water_well","osm_type":"node","osm_id":"5739049677"}},{"type":"Feature","geometry":{"type":"Point","coordinates":[0.25424,51.8892]},"properties":{"name":"Mapped water infrastructure","category":"drinking_water","osm_type":"node","osm_id":"5766416494"}},{"type":"Feature","geometry":{"type":"Point","coordinates":[0.21503,51.92179]},"properties":{"name":"Mapped water infrastructure","category":"water_well","osm_type":"node","osm_id":"5810244385"}},{"type":"Feature","geometry":{"type":"Point","coordinates":[0.0022,51.67598]},"properties":{"name":"Mapped water infrastructure","category":"drinking_water","osm_type":"node","osm_id":"6565796834"}},{"type":"Feature","geometry":{"type":"Point","coordinates":[0.09643,51.78261]},"properties":{"name":"Harlow Marina Water Point","category":"water_point","osm_type":"node","osm_id":"6638798993","operator":"Canal and River Trust"}},{"type":"Feature","geometry":{"type":"Point","coordinates":[0.63953,51.80603]},"properties":{"name":"Mapped water infrastructure","category":"drinking_water","osm_type":"node","osm_id":"6702471972"}},{"type":"Feature","geometry":{"type":"Point","coordinates":[0.04006,51.66473]},"properties":{"name":"Mapped water infrastructure","category":"drinking_water","osm_type":"node","osm_id":"7592389126"}},{"type":"Feature","geometry":{"type":"Point","coordinates":[0.08344,51.62095]},"properties":{"name":"Mapped water infrastructure","category":"water_well","osm_type":"node","osm_id":"7845762205"}},{"type":"Feature","geometry":{"type":"Point","coordinates":[0.09598,51.90457]},"properties":{"name":"Mapped water infrastructure","category":"water_well","osm_type":"node","osm_id":"8384453545"}},{"type":"Feature","geometry":{"type":"Point","coordinates":[0.08472,51.87631]},"properties":{"name":"Mapped water infrastructure","category":"water_well","osm_type":"node","osm_id":"8530252242"}},{"type":"Feature","geometry":{"type":"Point","coordinates":[0.10885,51.92962]},"properties":{"name":"Mapped water infrastructure","category":"water_well","osm_type":"node","osm_id":"8555299595"}},{"type":"Feature","geometry":{"type":"Point","coordinates":[0.1512,51.81203]},"properties":{"name":"Mapped water infrastructure","category":"water_well","osm_type":"node","osm_id":"8576772679"}},{"type":"Feature","geometry":{"type":"Point","coordinates":[0.24781,51.9333]},"properties":{"name":"Mapped water infrastructure","category":"water_well","osm_type":"node","osm_id":"8593112369"}},{"type":"Feature","geometry":{"type":"Point","coordinates":[0.01465,51.5256]},"properties":{"name":"Mapped water infrastructure","category":"water_well","osm_type":"node","osm_id":"8618242905"}},{"type":"Feature","geometry":{"type":"Point","coordinates":[0.32814,51.83437]},"properties":{"name":"Mapped water infrastructure","category":"water_well","osm_type":"node","osm_id":"8685776860"}},{"type":"Feature","geometry":{"type":"Point","coordinates":[0.35426,51.8088]},"properties":{"name":"Mapped water infrastructure","category":"water_well","osm_type":"node","osm_id":"8686059767"}},{"type":"Feature","geometry":{"type":"Point","coordinates":[0.29117,51.84463]},"properties":{"name":"Mapped water infrastructure","category":"water_well","osm_type":"node","osm_id":"8703286447"}},{"type":"Feature","geometry":{"type":"Point","coordinates":[0.18921,51.90796]},"properties":{"name":"Mapped water infrastructure","category":"water_well","osm_type":"node","osm_id":"8710966655"}},{"type":"Feature","geometry":{"type":"Point","coordinates":[0.23817,51.96291]},"properties":{"name":"Mapped water infrastructure","category":"water_well","osm_type":"node","osm_id":"8807743997"}},{"type":"Feature","geometry":{"type":"Point","coordinates":[0.1978,51.79022]},"properties":{"name":"Mapped water infrastructure","category":"water_well","osm_type":"node","osm_id":"8917766313"}},{"type":"Feature","geometry":{"type":"Point","coordinates":[0.08636,51.95628]},"properties":{"name":"Mapped water infrastructure","category":"water_well","osm_type":"node","osm_id":"8969267611"}},{"type":"Feature","geometry":{"type":"Point","coordinates":[0.09093,51.56359]},"properties":{"name":"Mapped water infrastructure","category":"water_tower","osm_type":"node","osm_id":"8983990317"}},{"type":"Feature","geometry":{"type":"Point","coordinates":[0.34402,51.9516]},"properties":{"name":"Mapped water infrastructure","category":"water_well","osm_type":"node","osm_id":"8991488451"}},{"type":"Feature","geometry":{"type":"Point","coordinates":[0.34455,51.9534]},"properties":{"name":"Mapped water infrastructure","category":"water_well","osm_type":"node","osm_id":"9311483707"}},{"type":"Feature","geometry":{"type":"Point","coordinates":[0.3323,51.91702]},"properties":{"name":"Mapped water infrastructure","category":"water_well","osm_type":"node","osm_id":"9313405387"}},{"type":"Feature","geometry":{"type":"Point","coordinates":[0.02403,51.92822]},"properties":{"name":"Mapped water infrastructure","category":"water_well","osm_type":"node","osm_id":"9350911001"}},{"type":"Feature","geometry":{"type":"Point","coordinates":[0.0554,51.80797]},"properties":{"name":"Mapped water infrastructure","category":"water_well","osm_type":"node","osm_id":"9355792577"}},{"type":"Feature","geometry":{"type":"Point","coordinates":[0.42664,51.72937]},"properties":{"name":"Mapped water infrastructure","category":"water_well","osm_type":"node","osm_id":"9377398234"}},{"type":"Feature","geometry":{"type":"Point","coordinates":[0.24911,51.86799]},"properties":{"name":"Mapped water infrastructure","category":"pumping_station","osm_type":"node","osm_id":"9403860110"}},{"type":"Feature","geometry":{"type":"Point","coordinates":[0.30083,51.86789]},"properties":{"name":"Mapped water infrastructure","category":"pumping_station","osm_type":"node","osm_id":"9403886822"}},{"type":"Feature","geometry":{"type":"Point","coordinates":[0.16276,51.52366]},"properties":{"name":"Mapped water infrastructure","category":"pumping_station","osm_type":"node","osm_id":"9474351286"}},{"type":"Feature","geometry":{"type":"Point","coordinates":[0.09434,51.98843]},"properties":{"name":"Mapped water infrastructure","category":"pumping_station","osm_type":"node","osm_id":"9579552671"}},{"type":"Feature","geometry":{"type":"Point","coordinates":[0.00864,51.56827]},"properties":{"name":"Mapped water infrastructure","category":"drinking_water","osm_type":"node","osm_id":"9597783982","operator":"Thames Water"}},{"type":"Feature","geometry":{"type":"Point","coordinates":[0.00446,51.54334]},"properties":{"name":"Mapped water infrastructure","category":"drinking_water","osm_type":"node","osm_id":"9713799172"}},{"type":"Feature","geometry":{"type":"Point","coordinates":[0.00069,51.54287]},"properties":{"name":"Mapped water infrastructure","category":"drinking_water","osm_type":"node","osm_id":"9713799173"}},{"type":"Feature","geometry":{"type":"Point","coordinates":[0.25987,51.88957]},"properties":{"name":"Mapped water infrastructure","category":"drinking_water","osm_type":"node","osm_id":"9805607419"}},{"type":"Feature","geometry":{"type":"Point","coordinates":[0.47128,51.73452]},"properties":{"name":"Mapped water infrastructure","category":"drinking_water","osm_type":"node","osm_id":"9853776754"}},{"type":"Feature","geometry":{"type":"Point","coordinates":[0.46593,51.73688]},"properties":{"name":"Mapped water infrastructure","category":"drinking_water","osm_type":"node","osm_id":"9853909138"}},{"type":"Feature","geometry":{"type":"Point","coordinates":[0.02859,51.57571]},"properties":{"name":"Mapped water infrastructure","category":"drinking_water","osm_type":"node","osm_id":"9937929095"}},{"type":"Feature","geometry":{"type":"Point","coordinates":[0.18077,51.90728]},"properties":{"name":"Mapped water infrastructure","category":"pumping_station","osm_type":"node","osm_id":"9966750558"}},{"type":"Feature","geometry":{"type":"Point","coordinates":[0.46877,51.7365]},"properties":{"name":"Mapped water infrastructure","category":"drinking_water","osm_type":"node","osm_id":"9976517456"}},{"type":"Feature","geometry":{"type":"Point","coordinates":[0.69134,51.53741]},"properties":{"name":"Mapped water infrastructure","category":"drinking_water","osm_type":"node","osm_id":"9981872485"}},{"type":"Feature","geometry":{"type":"Point","coordinates":[0.85286,51.80483]},"properties":{"name":"Great Wigborough Church","category":"drinking_water","osm_type":"node","osm_id":"10001539017"}},{"type":"Feature","geometry":{"type":"Point","coordinates":[0.00204,51.64993]},"properties":{"name":"Mapped water infrastructure","category":"drinking_water","osm_type":"node","osm_id":"10005142264"}},{"type":"Feature","geometry":{"type":"Point","coordinates":[0.01702,51.50794]},"properties":{"name":"Mapped water infrastructure","category":"drinking_water","osm_type":"node","osm_id":"10011566886"}},{"type":"Feature","geometry":{"type":"Point","coordinates":[0.08206,51.97251]},"properties":{"name":"Mapped water infrastructure","category":"water_tower","osm_type":"node","osm_id":"10566637535"}},{"type":"Feature","geometry":{"type":"Point","coordinates":[0.21966,51.7391]},"properties":{"name":"Mapped water infrastructure","category":"pumping_station","osm_type":"node","osm_id":"10582900618"}},{"type":"Feature","geometry":{"type":"Point","coordinates":[0.06955,51.56802]},"properties":{"name":"Mapped water infrastructure","category":"drinking_water","osm_type":"node","osm_id":"10680961455"}},{"type":"Feature","geometry":{"type":"Point","coordinates":[0.06952,51.56799]},"properties":{"name":"Mapped water infrastructure","category":"drinking_water","osm_type":"node","osm_id":"10680961457"}},{"type":"Feature","geometry":{"type":"Point","coordinates":[0.5565,51.71283]},"properties":{"name":"Mapped water infrastructure","category":"drinking_water","osm_type":"node","osm_id":"10860499106"}},{"type":"Feature","geometry":{"type":"Point","coordinates":[0.01283,51.76336]},"properties":{"name":"Feildes Lock Water Point","category":"water_point","osm_type":"node","osm_id":"10915998099","operator":"Canal and River Trust"}},{"type":"Feature","geometry":{"type":"Point","coordinates":[0.02624,51.50832]},"properties":{"name":"Mapped water infrastructure","category":"drinking_water","osm_type":"node","osm_id":"10931584162"}},{"type":"Feature","geometry":{"type":"Point","coordinates":[0.02885,51.50804]},"properties":{"name":"Mapped water infrastructure","category":"drinking_water","osm_type":"node","osm_id":"10931584163"}},{"type":"Feature","geometry":{"type":"Point","coordinates":[0.03293,51.50823]},"properties":{"name":"Mapped water infrastructure","category":"drinking_water","osm_type":"node","osm_id":"10931786570"}},{"type":"Feature","geometry":{"type":"Point","coordinates":[0.03016,51.50803]},"properties":{"name":"Mapped water infrastructure","category":"drinking_water","osm_type":"node","osm_id":"10931801184"}},{"type":"Feature","geometry":{"type":"Point","coordinates":[0.05238,51.52953]},"properties":{"name":"Mapped water infrastructure","category":"drinking_water","osm_type":"node","osm_id":"11010501994"}},{"type":"Feature","geometry":{"type":"Point","coordinates":[0.0541,51.52862]},"properties":{"name":"Mapped water infrastructure","category":"drinking_water","osm_type":"node","osm_id":"11010501995"}},{"type":"Feature","geometry":{"type":"Point","coordinates":[0.91822,51.95373]},"properties":{"name":"Mapped water infrastructure","category":"drinking_water","osm_type":"node","osm_id":"11301150898"}},{"type":"Feature","geometry":{"type":"Point","coordinates":[0.06972,51.56746]},"properties":{"name":"Valentines Wishing Well","category":"water_well","osm_type":"node","osm_id":"11396792597","ref":"Valentines Wishing Well"}},{"type":"Feature","geometry":{"type":"Point","coordinates":[0.08387,51.58653]},"properties":{"name":"Mapped water infrastructure","category":"drinking_water","osm_type":"node","osm_id":"11516934130"}},{"type":"Feature","geometry":{"type":"Point","coordinates":[0.52148,51.81348]},"properties":{"name":"Mapped water infrastructure","category":"water_well","osm_type":"node","osm_id":"11557047530"}},{"type":"Feature","geometry":{"type":"Point","coordinates":[0.51856,51.81085]},"properties":{"name":"Mapped water infrastructure","category":"water_well","osm_type":"node","osm_id":"11557073899"}},{"type":"Feature","geometry":{"type":"Point","coordinates":[0.00096,51.64794]},"properties":{"name":"Mapped water infrastructure","category":"drinking_water","osm_type":"node","osm_id":"11561841289"}},{"type":"Feature","geometry":{"type":"Point","coordinates":[0.00198,51.65133]},"properties":{"name":"Mapped water infrastructure","category":"drinking_water","osm_type":"node","osm_id":"11561841290"}},{"type":"Feature","geometry":{"type":"Point","coordinates":[0.00498,51.65079]},"properties":{"name":"Mapped water infrastructure","category":"drinking_water","osm_type":"node","osm_id":"11561841294"}},{"type":"Feature","geometry":{"type":"Point","coordinates":[0.00165,51.64784]},"properties":{"name":"Mapped water infrastructure","category":"drinking_water","osm_type":"node","osm_id":"11561841297"}},{"type":"Feature","geometry":{"type":"Point","coordinates":[0.00121,51.6521]},"properties":{"name":"Mapped water infrastructure","category":"drinking_water","osm_type":"node","osm_id":"11561841298"}},{"type":"Feature","geometry":{"type":"Point","coordinates":[0.00145,51.64864]},"properties":{"name":"Mapped water infrastructure","category":"drinking_water","osm_type":"node","osm_id":"11561841303"}},{"type":"Feature","geometry":{"type":"Point","coordinates":[0.00056,51.64846]},"properties":{"name":"Mapped water infrastructure","category":"drinking_water","osm_type":"node","osm_id":"11561841308"}},{"type":"Feature","geometry":{"type":"Point","coordinates":[0.00221,51.6514]},"properties":{"name":"Mapped water infrastructure","category":"drinking_water","osm_type":"node","osm_id":"11561841318"}},{"type":"Feature","geometry":{"type":"Point","coordinates":[0.00155,51.64939]},"properties":{"name":"Mapped water infrastructure","category":"drinking_water","osm_type":"node","osm_id":"11561841326"}},{"type":"Feature","geometry":{"type":"Point","coordinates":[0.00215,51.6481]},"properties":{"name":"Mapped water infrastructure","category":"drinking_water","osm_type":"node","osm_id":"11561841337"}},{"type":"Feature","geometry":{"type":"Point","coordinates":[0.00116,51.65216]},"properties":{"name":"Mapped water infrastructure","category":"drinking_water","osm_type":"node","osm_id":"11561841354"}},{"type":"Feature","geometry":{"type":"Point","coordinates":[0.00497,51.65089]},"properties":{"name":"Mapped water infrastructure","category":"drinking_water","osm_type":"node","osm_id":"11561841355"}},{"type":"Feature","geometry":{"type":"Point","coordinates":[0.00206,51.54124]},"properties":{"name":"Mapped water infrastructure","category":"drinking_water","osm_type":"node","osm_id":"11637930762"}},{"type":"Feature","geometry":{"type":"Point","coordinates":[0.00478,51.6526]},"properties":{"name":"Mapped water infrastructure","category":"drinking_water","osm_type":"node","osm_id":"11658483054"}},{"type":"Feature","geometry":{"type":"Point","coordinates":[0.04631,51.50415]},"properties":{"name":"Mapped water infrastructure","category":"drinking_water","osm_type":"node","osm_id":"11772130102"}},{"type":"Feature","geometry":{"type":"Point","coordinates":[0.06892,51.58945]},"properties":{"name":"Tiptree Crescent (Ilford) Sewage Pumping Station","category":"pumping_station","osm_type":"node","osm_id":"11820152702","operator":"Thames Water Utilities Limited","ref":"TIPTP1ZZ"}},{"type":"Feature","geometry":{"type":"Point","coordinates":[0.88582,51.732]},"properties":{"name":"Mapped water infrastructure","category":"water_point","osm_type":"node","osm_id":"11883782257"}},{"type":"Feature","geometry":{"type":"Point","coordinates":[0.0034,51.65199]},"properties":{"name":"Mapped water infrastructure","category":"drinking_water","osm_type":"node","osm_id":"12043899991"}},{"type":"Feature","geometry":{"type":"Point","coordinates":[0.00417,51.65201]},"properties":{"name":"Mapped water infrastructure","category":"drinking_water","osm_type":"node","osm_id":"12043899992"}},{"type":"Feature","geometry":{"type":"Point","coordinates":[0.00353,51.65128]},"properties":{"name":"Mapped water infrastructure","category":"drinking_water","osm_type":"node","osm_id":"12046409658"}},{"type":"Feature","geometry":{"type":"Point","coordinates":[0.26149,51.89068]},"properties":{"name":"Mapped water infrastructure","category":"drinking_water","osm_type":"node","osm_id":"12079663569"}},{"type":"Feature","geometry":{"type":"Point","coordinates":[0.07549,51.54303]},"properties":{"name":"Mapped water infrastructure","category":"water_works","osm_type":"node","osm_id":"12239943422"}},{"type":"Feature","geometry":{"type":"Point","coordinates":[0.07474,51.54289]},"properties":{"name":"Mapped water infrastructure","category":"water_works","osm_type":"node","osm_id":"12239943423"}},{"type":"Feature","geometry":{"type":"Point","coordinates":[0.80159,51.53137]},"properties":{"name":"Mapped water infrastructure","category":"drinking_water","osm_type":"node","osm_id":"12244184004","wheelchair":"yes"}},{"type":"Feature","geometry":{"type":"Point","coordinates":[0.04359,51.55261]},"properties":{"name":"Mapped water infrastructure","category":"water_point","osm_type":"node","osm_id":"12441833568"}},{"type":"Feature","geometry":{"type":"Point","coordinates":[0.03715,51.55205]},"properties":{"name":"Mapped water infrastructure","category":"water_point","osm_type":"node","osm_id":"12441833569"}},{"type":"Feature","geometry":{"type":"Point","coordinates":[0.03595,51.5517]},"properties":{"name":"Mapped water infrastructure","category":"water_point","osm_type":"node","osm_id":"12441833570"}},{"type":"Feature","geometry":{"type":"Point","coordinates":[0.47517,51.58748]},"properties":{"name":"Mapped water infrastructure","category":"water_tower","osm_type":"node","osm_id":"12523284535","operator":"CNH"}},{"type":"Feature","geometry":{"type":"Point","coordinates":[0.01021,51.63365]},"properties":{"name":"Mapped water infrastructure","category":"drinking_water","osm_type":"node","osm_id":"12532575728"}},{"type":"Feature","geometry":{"type":"Point","coordinates":[0.90153,51.99248]},"properties":{"name":"Mapped water infrastructure","category":"pumping_station","osm_type":"node","osm_id":"12695224660"}},{"type":"Feature","geometry":{"type":"Point","coordinates":[0.23025,51.91898]},"properties":{"name":"Mapped water infrastructure","category":"pumping_station","osm_type":"node","osm_id":"12734194697"}},{"type":"Feature","geometry":{"type":"Point","coordinates":[0.00688,51.51593]},"properties":{"name":"Mapped water infrastructure","category":"drinking_water","osm_type":"node","osm_id":"12861044051"}},{"type":"Feature","geometry":{"type":"Point","coordinates":[0.7952,51.53111]},"properties":{"name":"Mapped water infrastructure","category":"drinking_water","osm_type":"node","osm_id":"13092362976","wheelchair":"yes"}},{"type":"Feature","geometry":{"type":"Point","coordinates":[0.00443,51.60779]},"properties":{"name":"Mapped water infrastructure","category":"drinking_water","osm_type":"node","osm_id":"13114564465"}},{"type":"Feature","geometry":{"type":"Point","coordinates":[0.03766,51.50734]},"properties":{"name":"Mapped water infrastructure","category":"drinking_water","osm_type":"node","osm_id":"13158312389"}},{"type":"Feature","geometry":{"type":"Point","coordinates":[0.00192,51.65035]},"properties":{"name":"Mapped water infrastructure","category":"drinking_water","osm_type":"node","osm_id":"13256855462"}},{"type":"Feature","geometry":{"type":"Point","coordinates":[0.26015,51.89289]},"properties":{"name":"Mapped water infrastructure","category":"drinking_water","osm_type":"node","osm_id":"13316096001"}},{"type":"Feature","geometry":{"type":"Point","coordinates":[0.55375,51.88379]},"properties":{"name":"Mapped water infrastructure","category":"water_well","osm_type":"node","osm_id":"13343297503"}},{"type":"Feature","geometry":{"type":"Point","coordinates":[0.57756,51.88377]},"properties":{"name":"Mapped water infrastructure","category":"water_well","osm_type":"node","osm_id":"13357809168"}},{"type":"Feature","geometry":{"type":"Point","coordinates":[0.04647,51.5526]},"properties":{"name":"Mapped water infrastructure","category":"drinking_water","osm_type":"node","osm_id":"13584390322"}},{"type":"Feature","geometry":{"type":"Point","coordinates":[0.00843,51.50142]},"properties":{"name":"Mapped water infrastructure","category":"drinking_water","osm_type":"node","osm_id":"13731059027"}},{"type":"Feature","geometry":{"type":"Point","coordinates":[0.00469,51.6518]},"properties":{"name":"Mapped water infrastructure","category":"drinking_water","osm_type":"node","osm_id":"13942708100"}},{"type":"Feature","geometry":{"type":"Point","coordinates":[0.00568,51.65056]},"properties":{"name":"Mapped water infrastructure","category":"drinking_water","osm_type":"node","osm_id":"13942751102"}},{"type":"Feature","geometry":{"type":"Point","coordinates":[0.00385,51.65031]},"properties":{"name":"Mapped water infrastructure","category":"drinking_water","osm_type":"node","osm_id":"13942751103"}},{"type":"Feature","geometry":{"type":"Point","coordinates":[0.00514,51.65089]},"properties":{"name":"Mapped water infrastructure","category":"drinking_water","osm_type":"node","osm_id":"13942751109"}},{"type":"Feature","geometry":{"type":"Point","coordinates":[0.00515,51.65079]},"properties":{"name":"Mapped water infrastructure","category":"drinking_water","osm_type":"node","osm_id":"13942751110"}},{"type":"Feature","geometry":{"type":"Point","coordinates":[0.7738,51.52422]},"properties":{"name":"Mapped water infrastructure","category":"drinking_water","osm_type":"node","osm_id":"13961164090","wheelchair":"yes"}},{"type":"Feature","geometry":{"type":"Point","coordinates":[0.09823,51.595]},"properties":{"name":"Mapped water infrastructure","category":"drinking_water","osm_type":"node","osm_id":"14001053565"}},{"type":"Feature","geometry":{"type":"Point","coordinates":[0.01708,51.63461]},"properties":{"name":"Mapped water infrastructure","category":"drinking_water","osm_type":"node","osm_id":"14021755034"}},{"type":"Feature","geometry":{"type":"Point","coordinates":[0.17957,51.96174]},"properties":{"name":"Mapped water infrastructure","category":"drinking_water","osm_type":"node","osm_id":"14023083698"}},{"type":"Feature","geometry":{"type":"Point","coordinates":[0.69091,51.72619]},"properties":{"name":"Mapped water infrastructure","category":"drinking_water","osm_type":"node","osm_id":"14023891160"}},{"type":"Feature","geometry":{"type":"Point","coordinates":[0.24226,51.82463]},"properties":{"name":"Mapped water infrastructure","category":"water_well","osm_type":"node","osm_id":"14106223029"}},{"type":"Feature","geometry":{"type":"Point","coordinates":[0.24244,51.8242]},"properties":{"name":"Cage End (Hatfield Broadoak) Sewage Pumping Station","category":"pumping_station","osm_type":"node","osm_id":"14112560275","operator":"Thames Water"}},{"type":"Feature","geometry":{"type":"Point","coordinates":[0.24769,51.82514]},"properties":{"name":"Mapped water infrastructure","category":"water_well","osm_type":"node","osm_id":"14114572613"}},{"type":"Feature","geometry":{"type":"Point","coordinates":[0.24146,51.82593]},"properties":{"name":"Village Pump","category":"water_well","osm_type":"node","osm_id":"14120627236","website":"https://historicengland.org.uk/listing/the-list/list-entry/1299271?section=official-list-entry"}},{"type":"Feature","geometry":{"type":"Point","coordinates":[0.87396,51.92925]},"properties":{"name":"Mapped water infrastructure","category":"drinking_water","osm_type":"node","osm_id":"14142840583"}},{"type":"Feature","geometry":{"type":"Point","coordinates":[0.00152,51.57905]},"properties":{"name":"Mapped water infrastructure","category":"drinking_water","osm_type":"node","osm_id":"14142878003"}},{"type":"Feature","geometry":{"type":"Point","coordinates":[0.18179,51.52029]},"properties":{"name":"Riverside Sewage Treatment Works","category":"wastewater_plant","osm_type":"way","osm_id":"23070525","operator":"Thames Water"}},{"type":"Feature","geometry":{"type":"Point","coordinates":[0.14305,51.50793]},"properties":{"name":"Crossness Sewage Treatment Works","category":"wastewater_plant","osm_type":"way","osm_id":"29120021","operator":"Thames Water"}},{"type":"Feature","geometry":{"type":"Point","coordinates":[0.1526,51.76697]},"properties":{"name":"Church Langley Water Tower","category":"water_tower","osm_type":"way","osm_id":"29147615","website":"http://m11watertower.org.uk/"}},{"type":"Feature","geometry":{"type":"Point","coordinates":[0.57861,51.88988]},"properties":{"name":"Bocking STW","category":"wastewater_plant","osm_type":"way","osm_id":"31970029","operator":"Anglian Water","ref":"BOCKST"}},{"type":"Feature","geometry":{"type":"Point","coordinates":[0.01174,51.83594]},"properties":{"name":"Mapped water infrastructure","category":"reservoir_covered","osm_type":"way","osm_id":"36964205"}},{"type":"Feature","geometry":{"type":"Point","coordinates":[0.02626,51.92243]},"properties":{"name":"Braughing Wastewater Treatment Works","category":"wastewater_plant","osm_type":"way","osm_id":"90155226","operator":"Thames Water"}},{"type":"Feature","geometry":{"type":"Point","coordinates":[0.51841,51.73521]},"properties":{"name":"Chelmsford Water Recycling Centre","category":"wastewater_plant","osm_type":"way","osm_id":"93172290","operator":"Anglian Water"}},{"type":"Feature","geometry":{"type":"Point","coordinates":[0.69361,51.78963]},"properties":{"name":"Mapped water infrastructure","category":"reservoir_covered","osm_type":"way","osm_id":"100681848"}},{"type":"Feature","geometry":{"type":"Point","coordinates":[0.29421,51.98915]},"properties":{"name":"Carver Barracks STW","category":"wastewater_plant","osm_type":"way","osm_id":"101053562","operator":"Severn Trent"}},{"type":"Feature","geometry":{"type":"Point","coordinates":[0.25886,51.60151]},"properties":{"name":"Nags Head Lane Sewage Works","category":"wastewater_plant","osm_type":"way","osm_id":"102950669","operator":"Thames Water","ref":"NAGSS1ZZ"}},{"type":"Feature","geometry":{"type":"Point","coordinates":[0.57556,51.51167]},"properties":{"name":"Canvey Island Sewage Treatment Works","category":"wastewater_plant","osm_type":"way","osm_id":"103852973","operator":"Anglian"}},{"type":"Feature","geometry":{"type":"Point","coordinates":[0.94283,51.95364]},"properties":{"name":"Langham STW (Essex)","category":"wastewater_plant","osm_type":"way","osm_id":"104127603","operator":"Anglian Water","ref":"LANMST"}},{"type":"Feature","geometry":{"type":"Point","coordinates":[0.698,51.85752]},"properties":{"name":"Mapped water infrastructure","category":"wastewater_plant","osm_type":"way","osm_id":"106156356"}},{"type":"Feature","geometry":{"type":"Point","coordinates":[0.65968,51.7322]},"properties":{"name":"Mapped water infrastructure","category":"reservoir_covered","osm_type":"way","osm_id":"110961228"}},{"type":"Feature","geometry":{"type":"Point","coordinates":[0.09753,51.7398]},"properties":{"name":"Rye Hill Water Tower & Masts","category":"water_tower","osm_type":"way","osm_id":"121770576"}},{"type":"Feature","geometry":{"type":"Point","coordinates":[0.08972,51.92549]},"properties":{"name":"Furneux Pelham Wastewater Treatment Works","category":"wastewater_plant","osm_type":"way","osm_id":"126139486","operator":"Thames Water"}},{"type":"Feature","geometry":{"type":"Point","coordinates":[0.35391,51.59773]},"properties":{"name":"Mapped water infrastructure","category":"reservoir_covered","osm_type":"way","osm_id":"126641804"}},{"type":"Feature","geometry":{"type":"Point","coordinates":[0.35381,51.59911]},"properties":{"name":"Mapped water infrastructure","category":"reservoir_covered","osm_type":"way","osm_id":"126641807"}},{"type":"Feature","geometry":{"type":"Point","coordinates":[0.29498,51.60039]},"properties":{"name":"Mapped water infrastructure","category":"reservoir_covered","osm_type":"way","osm_id":"127581075"}},{"type":"Feature","geometry":{"type":"Point","coordinates":[0.20315,51.60278]},"properties":{"name":"Mapped water infrastructure","category":"reservoir_covered","osm_type":"way","osm_id":"132387033"}},{"type":"Feature","geometry":{"type":"Point","coordinates":[0.19862,51.60472]},"properties":{"name":"Mapped water infrastructure","category":"reservoir_covered","osm_type":"way","osm_id":"132387034"}},{"type":"Feature","geometry":{"type":"Point","coordinates":[0.05467,51.82768]},"properties":{"name":"Widford WwTW","category":"wastewater_plant","osm_type":"way","osm_id":"134825580","operator":"Thames Water","ref":"WIDFS1ZZ"}},{"type":"Feature","geometry":{"type":"Point","coordinates":[0.54955,51.54909]},"properties":{"name":"Benfleet STW","category":"wastewater_plant","osm_type":"way","osm_id":"134922205","addr:city":"Benfleet"}},{"type":"Feature","geometry":{"type":"Point","coordinates":[0.4215,51.85838]},"properties":{"name":"Felsted STW","category":"wastewater_plant","osm_type":"way","osm_id":"136095199","operator":"Anglian Water","ref":"FELSST"}},{"type":"Feature","geometry":{"type":"Point","coordinates":[0.97201,51.92343]},"properties":{"name":"Mapped water infrastructure","category":"reservoir_covered","osm_type":"way","osm_id":"140872507"}},{"type":"Feature","geometry":{"type":"Point","coordinates":[0.66047,51.73175]},"properties":{"name":"Mapped water infrastructure","category":"reservoir_covered","osm_type":"way","osm_id":"142932602"}},{"type":"Feature","geometry":{"type":"Point","coordinates":[0.71224,51.93183]},"properties":{"name":"Earls Colne STW","category":"wastewater_plant","osm_type":"way","osm_id":"143741554","operator":"Anglian Water"}},{"type":"Feature","geometry":{"type":"Point","coordinates":[0.32053,51.90069]},"properties":{"name":"Great Easton Water Recycling Centre","category":"wastewater_plant","osm_type":"way","osm_id":"145072820"}},{"type":"Feature","geometry":{"type":"Point","coordinates":[0.50643,51.93591]},"properties":{"name":"Shalford STW","category":"wastewater_plant","osm_type":"way","osm_id":"146095240","operator":"Anglian Water","ref":"SHALST"}},{"type":"Feature","geometry":{"type":"Point","coordinates":[0.20784,51.80519]},"properties":{"name":"Hatfield Heath WwTW","category":"wastewater_plant","osm_type":"way","osm_id":"146943201","operator":"Thames Water","ref":"HATFS1ZZ"}},{"type":"Feature","geometry":{"type":"Point","coordinates":[0.28226,51.77561]},"properties":{"name":"Abbess Roding Wastewater Treatment Works","category":"wastewater_plant","osm_type":"way","osm_id":"147726798","operator":"Thames Water"}},{"type":"Feature","geometry":{"type":"Point","coordinates":[0.74531,51.89439]},"properties":{"name":"Mapped water infrastructure","category":"wastewater_plant","osm_type":"way","osm_id":"148069929"}},{"type":"Feature","geometry":{"type":"Point","coordinates":[0.96201,51.91575]},"properties":{"name":"Ardleigh Reservoir Treatment Plant","category":"water_works","osm_type":"way","osm_id":"148202214","addr:postcode":"CO7 7PT"}},{"type":"Feature","geometry":{"type":"Point","coordinates":[0.38372,51.6365]},"properties":{"name":"Shenfield and Hutton STW","category":"wastewater_plant","osm_type":"way","osm_id":"148986946","operator":"Anglian Water","ref":"SHEHST"}},{"type":"Feature","geometry":{"type":"Point","coordinates":[0.24804,51.86717]},"properties":{"name":"Takeley Wastewater Treatment Works","category":"wastewater_plant","osm_type":"way","osm_id":"153052020","operator":"Thames Water","ref":"TAKES1ZZ"}},{"type":"Feature","geometry":{"type":"Point","coordinates":[0.22219,51.73836]},"properties":{"name":"Moreton Wastewater Treatment Works","category":"wastewater_plant","osm_type":"way","osm_id":"155558698","operator":"Thames Water","ref":"MORES1ZZ"}},{"type":"Feature","geometry":{"type":"Point","coordinates":[0.96012,51.85012]},"properties":{"name":"Mapped water infrastructure","category":"wastewater_plant","osm_type":"way","osm_id":"158375293"}},{"type":"Feature","geometry":{"type":"Point","coordinates":[0.71616,51.68302]},"properties":{"name":"Latchingdon STW","category":"wastewater_plant","osm_type":"way","osm_id":"159756805","operator":"Anglian Water","ref":"LATCST"}},{"type":"Feature","geometry":{"type":"Point","coordinates":[0.32056,51.66677]},"properties":{"name":"Doddinghurst STW","category":"wastewater_plant","osm_type":"way","osm_id":"161757079","operator":"Anglian Water","ref":"DODHST"}},{"type":"Feature","geometry":{"type":"Point","coordinates":[0.02905,51.87617]},"properties":{"name":"Mapped water infrastructure","category":"wastewater_plant","osm_type":"way","osm_id":"162543692"}},{"type":"Feature","geometry":{"type":"Point","coordinates":[0.4182,51.80531]},"properties":{"name":"Pleshey WwPS","category":"pumping_station","osm_type":"way","osm_id":"162550761","operator":"Anglian Water","ref":"PLESST"}},{"type":"Feature","geometry":{"type":"Point","coordinates":[0.4666,51.69923]},"properties":{"name":"Galleywood Reservoir","category":"reservoir_covered","osm_type":"way","osm_id":"164975673"}},{"type":"Feature","geometry":{"type":"Point","coordinates":[0.6078,51.96461]},"properties":{"name":"Sible Hedingham STW","category":"wastewater_plant","osm_type":"way","osm_id":"166285432","operator":"Anglian Water","ref":"SIBLST"}},{"type":"Feature","geometry":{"type":"Point","coordinates":[0.79129,51.96602]},"properties":{"name":"Mapped water infrastructure","category":"wastewater_plant","osm_type":"way","osm_id":"167807061"}},{"type":"Feature","geometry":{"type":"Point","coordinates":[0.63808,51.58263]},"properties":{"name":"Mapped water infrastructure","category":"wastewater_plant","osm_type":"way","osm_id":"178016776"}},{"type":"Feature","geometry":{"type":"Point","coordinates":[0.60243,51.64507]},"properties":{"name":"Woodham Ferrers Sewage Treatment Works","category":"wastewater_plant","osm_type":"way","osm_id":"182695327"}},{"type":"Feature","geometry":{"type":"Point","coordinates":[0.1644,51.72069]},"properties":{"name":"North Weald WWTW","category":"wastewater_plant","osm_type":"way","osm_id":"201686910","operator":"Thames Water","ref":"NWEAS1ZZ"}},{"type":"Feature","geometry":{"type":"Point","coordinates":[0.00261,51.84093]},"properties":{"name":"Mapped water infrastructure","category":"pumping_station","osm_type":"way","osm_id":"202333028"}},{"type":"Feature","geometry":{"type":"Point","coordinates":[0.17883,51.8569]},"properties":{"name":"Bishops Stortford Wastewater Treatment Works","category":"wastewater_plant","osm_type":"way","osm_id":"207002625","operator":"Thames Water"}},{"type":"Feature","geometry":{"type":"Point","coordinates":[0.50455,51.81926]},"properties":{"name":"Great Leighs STW","category":"wastewater_plant","osm_type":"way","osm_id":"212008072","operator":"Anglian Water","ref":"GLEIST"}},{"type":"Feature","geometry":{"type":"Point","coordinates":[0.59752,51.83594]},"properties":{"name":"Mapped water infrastructure","category":"wastewater_plant","osm_type":"way","osm_id":"220273532"}},{"type":"Feature","geometry":{"type":"Point","coordinates":[0.00742,51.59266]},"properties":{"name":"Woodford Forest Reservoir","category":"reservoir_covered","osm_type":"way","osm_id":"225599303","operator":"Thames Water"}},{"type":"Feature","geometry":{"type":"Point","coordinates":[0.16862,51.83587]},"properties":{"name":"Little Hallingbury Wastewater Treatment Works","category":"wastewater_plant","osm_type":"way","osm_id":"228057649","operator":"Thames Water"}},{"type":"Feature","geometry":{"type":"Point","coordinates":[0.13618,51.68361]},"properties":{"name":"Fiddlers Hamlet WWTW","category":"wastewater_plant","osm_type":"way","osm_id":"231426068","operator":"Thames Water"}},{"type":"Feature","geometry":{"type":"Point","coordinates":[0.1467,51.96408]},"properties":{"name":"Clavering Wastewater Treatment Works","category":"wastewater_plant","osm_type":"way","osm_id":"233501032","operator":"Thames Water"}},{"type":"Feature","geometry":{"type":"Point","coordinates":[0.0509,51.62317]},"properties":{"name":"Mapped water infrastructure","category":"water_works","osm_type":"way","osm_id":"235168545"}},{"type":"Feature","geometry":{"type":"Point","coordinates":[0.59076,51.93097]},"properties":{"name":"Gosfield STW","category":"wastewater_plant","osm_type":"way","osm_id":"246707885","operator":"Anglian Water","ref":"GOSFST"}},{"type":"Feature","geometry":{"type":"Point","coordinates":[0.78059,51.75982]},"properties":{"name":"Tolleshunt-D Arcy STW","category":"wastewater_plant","osm_type":"way","osm_id":"248122697","operator":"Anglian Water","ref":"TOLHST"}},{"type":"Feature","geometry":{"type":"Point","coordinates":[0.39401,51.71409]},"properties":{"name":"Highwood STW","category":"wastewater_plant","osm_type":"way","osm_id":"254506224","operator":"Anglian Water","ref":"HIGHST"}},{"type":"Feature","geometry":{"type":"Point","coordinates":[0.61858,51.88864]},"properties":{"name":"Stisted STW","category":"wastewater_plant","osm_type":"way","osm_id":"257239305","operator":"Anglian Water","ref":"STISST"}},{"type":"Feature","geometry":{"type":"Point","coordinates":[0.59264,51.61821]},"properties":{"name":"Rayleigh Western STW","category":"wastewater_plant","osm_type":"way","osm_id":"261278375","operator":"Anglian Water"}},{"type":"Feature","geometry":{"type":"Point","coordinates":[0.73127,51.76873]},"properties":{"name":"Lt Totham STW","category":"wastewater_plant","osm_type":"way","osm_id":"261921933","operator":"Anglian Water","ref":"LTOTST"}},{"type":"Feature","geometry":{"type":"Point","coordinates":[0.84744,51.90315]},"properties":{"name":"Mapped water infrastructure","category":"wastewater_plant","osm_type":"way","osm_id":"285805131"}},{"type":"Feature","geometry":{"type":"Point","coordinates":[0.48058,51.9473]},"properties":{"name":"Mapped water infrastructure","category":"wastewater_plant","osm_type":"way","osm_id":"306774401"}},{"type":"Feature","geometry":{"type":"Point","coordinates":[0.80473,51.87598]},"properties":{"name":"Copford STW","category":"wastewater_plant","osm_type":"way","osm_id":"308627227","operator":"Anglian Water","ref":"COPFST"}},{"type":"Feature","geometry":{"type":"Point","coordinates":[0.69746,51.85938]},"properties":{"name":"Water Works","category":"water_works","osm_type":"way","osm_id":"327158394"}},{"type":"Feature","geometry":{"type":"Point","coordinates":[0.13615,51.72382]},"properties":{"name":"Thornwood Wastewater Treatment Works","category":"wastewater_plant","osm_type":"way","osm_id":"331981373","operator":"Thames Water","addr:city":"Epping"}},{"type":"Feature","geometry":{"type":"Point","coordinates":[0.26417,51.97034]},"properties":{"name":"Debden STW","category":"wastewater_plant","osm_type":"way","osm_id":"364731995","operator":"Anglian Water","ref":"DEBDST"}},{"type":"Feature","geometry":{"type":"Point","coordinates":[0.19168,51.6144]},"properties":{"name":"Mapped water infrastructure","category":"reservoir_covered","osm_type":"way","osm_id":"388151523"}},{"type":"Feature","geometry":{"type":"Point","coordinates":[0.51637,51.8843]},"properties":{"name":"Rayne STW","category":"wastewater_plant","osm_type":"way","osm_id":"405174862","operator":"Anglian Water","ref":"RAYNST"}},{"type":"Feature","geometry":{"type":"Point","coordinates":[0.08503,51.52792]},"properties":{"name":"Mapped water infrastructure","category":"pumping_station","osm_type":"way","osm_id":"439347077","operator":"Thames Water"}},{"type":"Feature","geometry":{"type":"Point","coordinates":[0.56397,51.86741]},"properties":{"name":"Braintree STW","category":"wastewater_plant","osm_type":"way","osm_id":"451617202","operator":"Anglian Water","ref":"BRAIST"}},{"type":"Feature","geometry":{"type":"Point","coordinates":[0.00857,51.59442]},"properties":{"name":"The Donut","category":"reservoir_covered","osm_type":"way","osm_id":"461536475","operator":"Thames Water"}},{"type":"Feature","geometry":{"type":"Point","coordinates":[0.13997,51.87786]},"properties":{"name":"Mapped water infrastructure","category":"reservoir_covered","osm_type":"way","osm_id":"471558809"}},{"type":"Feature","geometry":{"type":"Point","coordinates":[0.37463,51.86603]},"properties":{"name":"Great Dunmow STW","category":"wastewater_plant","osm_type":"way","osm_id":"478820140","operator":"Anglian Water","ref":"GDUNST"}},{"type":"Feature","geometry":{"type":"Point","coordinates":[0.99701,51.96189]},"properties":{"name":"Dedham STW","category":"wastewater_plant","osm_type":"way","osm_id":"488837686","operator":"Anglian Water","ref":"DEDHST"}},{"type":"Feature","geometry":{"type":"Point","coordinates":[0.88838,51.97431]},"properties":{"name":"Mapped water infrastructure","category":"wastewater_plant","osm_type":"way","osm_id":"526529043"}},{"type":"Feature","geometry":{"type":"Point","coordinates":[0.16926,51.88563]},"properties":{"name":"Mapped water infrastructure","category":"pumping_station","osm_type":"way","osm_id":"547610586"}},{"type":"Feature","geometry":{"type":"Point","coordinates":[0.09136,51.51558]},"properties":{"name":"Thames Gateway Water Treatment Works","category":"water_works","osm_type":"way","osm_id":"646316450","operator":"Thames Water"}},{"type":"Feature","geometry":{"type":"Point","coordinates":[0.18273,51.89621]},"properties":{"name":"Mapped water infrastructure","category":"wastewater_plant","osm_type":"way","osm_id":"674316174"}},{"type":"Feature","geometry":{"type":"Point","coordinates":[0.91519,51.89842]},"properties":{"name":"Mapped water infrastructure","category":"water_works","osm_type":"way","osm_id":"732958250","operator":"Anglia Water"}},{"type":"Feature","geometry":{"type":"Point","coordinates":[0.64788,51.79581]},"properties":{"name":"Mapped water infrastructure","category":"wastewater_plant","osm_type":"way","osm_id":"743192763"}},{"type":"Feature","geometry":{"type":"Point","coordinates":[0.16876,51.85958]},"properties":{"name":"Mapped water infrastructure","category":"wastewater_plant","osm_type":"way","osm_id":"768134889"}},{"type":"Feature","geometry":{"type":"Point","coordinates":[0.08794,51.51386]},"properties":{"name":"Beckton Activated Sludge Plant","category":"wastewater_plant","osm_type":"way","osm_id":"820401226","operator":"Thames Water"}},{"type":"Feature","geometry":{"type":"Point","coordinates":[0.67293,51.81629]},"properties":{"name":"Mapped water infrastructure","category":"wastewater_plant","osm_type":"way","osm_id":"860108285"}},{"type":"Feature","geometry":{"type":"Point","coordinates":[0.51234,51.91159]},"properties":{"name":"Mapped water infrastructure","category":"wastewater_plant","osm_type":"way","osm_id":"860178626"}},{"type":"Feature","geometry":{"type":"Point","coordinates":[0.0765,51.50582]},"properties":{"name":"Mapped water infrastructure","category":"water_well","osm_type":"way","osm_id":"886540943"}},{"type":"Feature","geometry":{"type":"Point","coordinates":[0.87526,51.70199]},"properties":{"name":"Mapped water infrastructure","category":"wastewater_plant","osm_type":"way","osm_id":"899188599"}},{"type":"Feature","geometry":{"type":"Point","coordinates":[0.04629,51.7726]},"properties":{"name":"Roydon Water Treatment Works","category":"wastewater_plant","osm_type":"way","osm_id":"904878790"}},{"type":"Feature","geometry":{"type":"Point","coordinates":[0.06922,51.50008]},"properties":{"name":"Barge House Road SPS","category":"pumping_station","osm_type":"way","osm_id":"906236201","operator":"Thames Water","ref":"BARGP2ZZ"}},{"type":"Feature","geometry":{"type":"Point","coordinates":[0.14331,51.78227]},"properties":{"name":"Gilden Way Pump Station","category":"pumping_station","osm_type":"way","osm_id":"906569968"}},{"type":"Feature","geometry":{"type":"Point","coordinates":[0.05188,51.50097]},"properties":{"name":"Mapped water infrastructure","category":"pumping_station","osm_type":"way","osm_id":"917169514"}},{"type":"Feature","geometry":{"type":"Point","coordinates":[0.06733,51.90011]},"properties":{"name":"Albury Water Tower","category":"water_tower","osm_type":"way","osm_id":"918469641"}},{"type":"Feature","geometry":{"type":"Point","coordinates":[0.82785,51.71386]},"properties":{"name":"Mapped water infrastructure","category":"water_works","osm_type":"way","osm_id":"919960965"}},{"type":"Feature","geometry":{"type":"Point","coordinates":[0.13614,51.90722]},"properties":{"name":"Mapped water infrastructure","category":"water_works","osm_type":"way","osm_id":"921504226","operator":"Thames Water"}},{"type":"Feature","geometry":{"type":"Point","coordinates":[0.21102,51.95802]},"properties":{"name":"Mapped water infrastructure","category":"wastewater_plant","osm_type":"way","osm_id":"925999743"}},{"type":"Feature","geometry":{"type":"Point","coordinates":[0.26507,51.84992]},"properties":{"name":"Mapped water infrastructure","category":"water_tower","osm_type":"way","osm_id":"937866548"}},{"type":"Feature","geometry":{"type":"Point","coordinates":[0.43967,51.86173]},"properties":{"name":"Mapped water infrastructure","category":"water_tower","osm_type":"way","osm_id":"947935300"}},{"type":"Feature","geometry":{"type":"Point","coordinates":[0.12774,51.93727]},"properties":{"name":"Mapped water infrastructure","category":"water_tower","osm_type":"way","osm_id":"949553004"}},{"type":"Feature","geometry":{"type":"Point","coordinates":[0.04749,51.54846]},"properties":{"name":"Woodgrange Pumping Station","category":"pumping_station","osm_type":"way","osm_id":"955377171","operator":"Thames Water"}},{"type":"Feature","geometry":{"type":"Point","coordinates":[0.13616,51.85462]},"properties":{"name":"Mapped water infrastructure","category":"water_works","osm_type":"way","osm_id":"962749263","operator":"Thames Water"}},{"type":"Feature","geometry":{"type":"Point","coordinates":[0.48653,51.75378]},"properties":{"name":"Mapped water infrastructure","category":"pumping_station","osm_type":"way","osm_id":"988874653"}},{"type":"Feature","geometry":{"type":"Point","coordinates":[0.1596,51.51278]},"properties":{"name":"Mapped water infrastructure","category":"pumping_station","osm_type":"way","osm_id":"1000510645"}},{"type":"Feature","geometry":{"type":"Point","coordinates":[0.35399,51.88707]},"properties":{"name":"Mapped water infrastructure","category":"pumping_station","osm_type":"way","osm_id":"1020144280"}},{"type":"Feature","geometry":{"type":"Point","coordinates":[0.1572,51.51644]},"properties":{"name":"Mapped water infrastructure","category":"water_tower","osm_type":"way","osm_id":"1027522955"}},{"type":"Feature","geometry":{"type":"Point","coordinates":[0.15993,51.85135]},"properties":{"name":"Mapped water infrastructure","category":"pumping_station","osm_type":"way","osm_id":"1028695510"}},{"type":"Feature","geometry":{"type":"Point","coordinates":[0.85269,51.79656]},"properties":{"name":"Great Wigborough STW","category":"wastewater_plant","osm_type":"way","osm_id":"1033064992","operator":"Anglian Water","ref":"GWIGST"}},{"type":"Feature","geometry":{"type":"Point","coordinates":[0.88941,51.60032]},"properties":{"name":"Foulness-Church End STW","category":"wastewater_plant","osm_type":"way","osm_id":"1033093659","operator":"Anglian Water","ref":"FOULST"}},{"type":"Feature","geometry":{"type":"Point","coordinates":[0.34766,51.8113]},"properties":{"name":"Mapped water infrastructure","category":"wastewater_plant","osm_type":"way","osm_id":"1034578676"}},{"type":"Feature","geometry":{"type":"Point","coordinates":[0.27714,51.88888]},"properties":{"name":"Mapped water infrastructure","category":"water_tower","osm_type":"way","osm_id":"1036685464"}},{"type":"Feature","geometry":{"type":"Point","coordinates":[0.19759,51.91312]},"properties":{"name":"Mapped water infrastructure","category":"pumping_station","osm_type":"way","osm_id":"1038015561"}},{"type":"Feature","geometry":{"type":"Point","coordinates":[0.2001,51.91266]},"properties":{"name":"Mapped water infrastructure","category":"pumping_station","osm_type":"way","osm_id":"1038015562"}},{"type":"Feature","geometry":{"type":"Point","coordinates":[0.2157,51.96657]},"properties":{"name":"Mapped water infrastructure","category":"pumping_station","osm_type":"way","osm_id":"1038015568"}},{"type":"Feature","geometry":{"type":"Point","coordinates":[0.88369,51.84738]},"properties":{"name":"Layer De La Haye STW","category":"wastewater_plant","osm_type":"way","osm_id":"1038354372","operator":"Anglian Water","ref":"LAYEST"}},{"type":"Feature","geometry":{"type":"Point","coordinates":[0.22778,51.93228]},"properties":{"name":"Mapped water infrastructure","category":"wastewater_plant","osm_type":"way","osm_id":"1038856155","operator":"Thames Water"}},{"type":"Feature","geometry":{"type":"Point","coordinates":[0.81222,51.84259]},"properties":{"name":"Birch STW","category":"wastewater_plant","osm_type":"way","osm_id":"1040005112","operator":"Anglian Water","ref":"BIRCST"}},{"type":"Feature","geometry":{"type":"Point","coordinates":[0.20428,51.87034]},"properties":{"name":"Mapped water infrastructure","category":"pumping_station","osm_type":"way","osm_id":"1040065976"}},{"type":"Feature","geometry":{"type":"Point","coordinates":[0.19974,51.87488]},"properties":{"name":"Mapped water infrastructure","category":"pumping_station","osm_type":"way","osm_id":"1040065979"}},{"type":"Feature","geometry":{"type":"Point","coordinates":[0.62414,51.71097]},"properties":{"name":"W'ham Mortimer Post Office Rd WwTW","category":"wastewater_plant","osm_type":"way","osm_id":"1040556559","operator":"Anglian Water","ref":"WMPOST"}},{"type":"Feature","geometry":{"type":"Point","coordinates":[0.27537,51.94642]},"properties":{"name":"Mapped water infrastructure","category":"water_tower","osm_type":"way","osm_id":"1040672578"}},{"type":"Feature","geometry":{"type":"Point","coordinates":[0.82611,51.6235]},"properties":{"name":"Burnham On Crouch STW","category":"wastewater_plant","osm_type":"way","osm_id":"1041166289","operator":"Anglian Water","ref":"BUHMST","addr:city":"Burnham-On-Crouch"}},{"type":"Feature","geometry":{"type":"Point","coordinates":[0.8101,51.59526]},"properties":{"name":"Paglesham-East End STW","category":"wastewater_plant","osm_type":"way","osm_id":"1041173935","operator":"Anglian Water","ref":"PAGLST"}},{"type":"Feature","geometry":{"type":"Point","coordinates":[0.63349,51.97228]},"properties":{"name":"Great Maplestead STW","category":"wastewater_plant","osm_type":"way","osm_id":"1043528534","operator":"Anglian Water","ref":"GMAPST"}},{"type":"Feature","geometry":{"type":"Point","coordinates":[0.63164,51.94927]},"properties":{"name":"Halstead - Boxmill La STW","category":"wastewater_plant","osm_type":"way","osm_id":"1043539438","operator":"Anglian Water","ref":"BOXMST"}},{"type":"Feature","geometry":{"type":"Point","coordinates":[0.49443,51.85252]},"properties":{"name":"Willows Green STW","category":"wastewater_plant","osm_type":"way","osm_id":"1043545298","operator":"Anglian Water","ref":"WILGST"}},{"type":"Feature","geometry":{"type":"Point","coordinates":[0.66976,51.93516]},"properties":{"name":"Halstead STW","category":"wastewater_plant","osm_type":"way","osm_id":"1043546166","operator":"Anglian Water","ref":"HALSST"}},{"type":"Feature","geometry":{"type":"Point","coordinates":[0.65354,51.91748]},"properties":{"name":"Greenstead Green STW","category":"wastewater_plant","osm_type":"way","osm_id":"1043546828","operator":"Anglian Water","ref":"GREEST"}},{"type":"Feature","geometry":{"type":"Point","coordinates":[0.69524,51.96357]},"properties":{"name":"Pebmarsh STW","category":"wastewater_plant","osm_type":"way","osm_id":"1043546996","operator":"Anglian Water","ref":"PEBMST"}},{"type":"Feature","geometry":{"type":"Point","coordinates":[0.29175,51.91462]},"properties":{"name":"Broxted STW","category":"wastewater_plant","osm_type":"way","osm_id":"1043548137","operator":"Anglian Water","ref":"BROXST"}},{"type":"Feature","geometry":{"type":"Point","coordinates":[0.21756,51.98879]},"properties":{"name":"Newport STW","category":"wastewater_plant","osm_type":"way","osm_id":"1043559664","operator":"Anglian Water","ref":"NEWPST"}},{"type":"Feature","geometry":{"type":"Point","coordinates":[0.36155,51.78472]},"properties":{"name":"Good Easter STW","category":"wastewater_plant","osm_type":"way","osm_id":"1043584127","operator":"Anglian Water","ref":"GOODST"}},{"type":"Feature","geometry":{"type":"Point","coordinates":[0.38713,51.75396]},"properties":{"name":"Roxwell STW","category":"wastewater_plant","osm_type":"way","osm_id":"1043584879","operator":"Anglian Water","ref":"ROXWST"}},{"type":"Feature","geometry":{"type":"Point","coordinates":[0.27409,51.94698]},"properties":{"name":"Mapped water infrastructure","category":"reservoir_covered","osm_type":"way","osm_id":"1053387786"}},{"type":"Feature","geometry":{"type":"Point","coordinates":[0.27369,51.94607]},"properties":{"name":"Mapped water infrastructure","category":"water_works","osm_type":"way","osm_id":"1053387791"}},{"type":"Feature","geometry":{"type":"Point","coordinates":[0.27655,51.94554]},"properties":{"name":"Mapped water infrastructure","category":"reservoir_covered","osm_type":"way","osm_id":"1053388203"}},{"type":"Feature","geometry":{"type":"Point","coordinates":[0.27598,51.94634]},"properties":{"name":"Mapped water infrastructure","category":"water_works","osm_type":"way","osm_id":"1053388204"}},{"type":"Feature","geometry":{"type":"Point","coordinates":[0.0588,51.8304]},"properties":{"name":"Mapped water infrastructure","category":"water_works","osm_type":"way","osm_id":"1056455012"}},{"type":"Feature","geometry":{"type":"Point","coordinates":[0.36447,51.86198]},"properties":{"name":"Mapped water infrastructure","category":"pumping_station","osm_type":"way","osm_id":"1056647446"}},{"type":"Feature","geometry":{"type":"Point","coordinates":[0.18955,51.85233]},"properties":{"name":"Mapped water infrastructure","category":"pumping_station","osm_type":"way","osm_id":"1064913999","operator":"Thames Water"}},{"type":"Feature","geometry":{"type":"Point","coordinates":[0.15851,51.84677]},"properties":{"name":"Mapped water infrastructure","category":"pumping_station","osm_type":"way","osm_id":"1065956215"}},{"type":"Feature","geometry":{"type":"Point","coordinates":[0.31283,51.94834]},"properties":{"name":"Mapped water infrastructure","category":"water_tower","osm_type":"way","osm_id":"1066902960"}},{"type":"Feature","geometry":{"type":"Point","coordinates":[0.33567,51.95226]},"properties":{"name":"Mapped water infrastructure","category":"pumping_station","osm_type":"way","osm_id":"1066902965"}},{"type":"Feature","geometry":{"type":"Point","coordinates":[0.40141,51.66469]},"properties":{"name":"Ingatestone STW","category":"wastewater_plant","osm_type":"way","osm_id":"1070426457","operator":"Anglian Water"}},{"type":"Feature","geometry":{"type":"Point","coordinates":[0.73367,51.81756]},"properties":{"name":"Mapped water infrastructure","category":"reservoir_covered","osm_type":"way","osm_id":"1075055308","operator":"Essex and Suffolk Water"}},{"type":"Feature","geometry":{"type":"Point","coordinates":[0.79202,51.96269]},"properties":{"name":"Wormingford Pumping Station","category":"pumping_station","osm_type":"way","osm_id":"1083443289"}},{"type":"Feature","geometry":{"type":"Point","coordinates":[0.23904,51.54199]},"properties":{"name":"Mapped water infrastructure","category":"pumping_station","osm_type":"way","osm_id":"1093229641"}},{"type":"Feature","geometry":{"type":"Point","coordinates":[0.52487,51.66154]},"properties":{"name":"Hanningfield Treated Water","category":"reservoir_covered","osm_type":"way","osm_id":"1098866701"}},{"type":"Feature","geometry":{"type":"Point","coordinates":[0.17186,51.88747]},"properties":{"name":"Mapped water infrastructure","category":"pumping_station","osm_type":"way","osm_id":"1104808459"}},{"type":"Feature","geometry":{"type":"Point","coordinates":[0.58255,51.99551]},"properties":{"name":"Mapped water infrastructure","category":"water_tower","osm_type":"way","osm_id":"1105034615"}},{"type":"Feature","geometry":{"type":"Point","coordinates":[0.09338,51.52889]},"properties":{"name":"Waverley Gardens SPS","category":"pumping_station","osm_type":"way","osm_id":"1106715746","operator":"Thames Water"}},{"type":"Feature","geometry":{"type":"Point","coordinates":[0.15534,51.84853]},"properties":{"name":"Mapped water infrastructure","category":"pumping_station","osm_type":"way","osm_id":"1108275830"}},{"type":"Feature","geometry":{"type":"Point","coordinates":[0.85344,51.95419]},"properties":{"name":"Lt Horkesley - Gdn Cottages, Water Lane WwTW","category":"wastewater_plant","osm_type":"way","osm_id":"1110090793","operator":"Anglian Water","ref":"LLGCST"}},{"type":"Feature","geometry":{"type":"Point","coordinates":[0.81707,51.96272]},"properties":{"name":"Wormingford STW","category":"wastewater_plant","osm_type":"way","osm_id":"1113115664","operator":"Anglian Water","ref":"WORMST"}},{"type":"Feature","geometry":{"type":"Point","coordinates":[0.92164,51.98521]},"properties":{"name":"Thorington Street STW","category":"wastewater_plant","osm_type":"way","osm_id":"1113175089","operator":"Anglian Water","ref":"THOSST"}},{"type":"Feature","geometry":{"type":"Point","coordinates":[0.8285,51.7082]},"properties":{"name":"Stone St Lawrence Sewage Treatment Works","category":"wastewater_plant","osm_type":"way","osm_id":"1114727211","operator":"Anglian Water","ref":"STSLST"}},{"type":"Feature","geometry":{"type":"Point","coordinates":[0.64999,51.60518]},"properties":{"name":"Mapped water infrastructure","category":"pumping_station","osm_type":"way","osm_id":"1116548725"}},{"type":"Feature","geometry":{"type":"Point","coordinates":[0.24965,51.90493]},"properties":{"name":"Mapped water infrastructure","category":"wastewater_plant","osm_type":"way","osm_id":"1118791004"}},{"type":"Feature","geometry":{"type":"Point","coordinates":[0.28734,51.86665]},"properties":{"name":"Mapped water infrastructure","category":"pumping_station","osm_type":"way","osm_id":"1118791006"}},{"type":"Feature","geometry":{"type":"Point","coordinates":[0.96033,51.91561]},"properties":{"name":"Mapped water infrastructure","category":"reservoir_covered","osm_type":"way","osm_id":"1119238973"}},{"type":"Feature","geometry":{"type":"Point","coordinates":[0.96101,51.91626]},"properties":{"name":"Mapped water infrastructure","category":"reservoir_covered","osm_type":"way","osm_id":"1119238974"}},{"type":"Feature","geometry":{"type":"Point","coordinates":[0.96062,51.91583]},"properties":{"name":"Mapped water infrastructure","category":"reservoir_covered","osm_type":"way","osm_id":"1119238975"}},{"type":"Feature","geometry":{"type":"Point","coordinates":[0.96116,51.91651]},"properties":{"name":"Mapped water infrastructure","category":"reservoir_covered","osm_type":"way","osm_id":"1119238976"}},{"type":"Feature","geometry":{"type":"Point","coordinates":[0.91144,51.82713]},"properties":{"name":"Mapped water infrastructure","category":"pumping_station","osm_type":"way","osm_id":"1119359896","operator":"Anglian Water"}},{"type":"Feature","geometry":{"type":"Point","coordinates":[0.8309,51.78463]},"properties":{"name":"Salcott STW","category":"wastewater_plant","osm_type":"way","osm_id":"1122968727","operator":"Anglian Water","ref":"SALCST"}},{"type":"Feature","geometry":{"type":"Point","coordinates":[0.28446,51.88295]},"properties":{"name":"Mapped water infrastructure","category":"wastewater_plant","osm_type":"way","osm_id":"1130927080"}},{"type":"Feature","geometry":{"type":"Point","coordinates":[0.22042,51.73715]},"properties":{"name":"Mapped water infrastructure","category":"wastewater_plant","osm_type":"way","osm_id":"1135311723"}},{"type":"Feature","geometry":{"type":"Point","coordinates":[0.22666,51.91787]},"properties":{"name":"Mapped water infrastructure","category":"wastewater_plant","osm_type":"way","osm_id":"1156166234"}},{"type":"Feature","geometry":{"type":"Point","coordinates":[0.04131,51.57441]},"properties":{"name":"Wanstead Pumping Station","category":"pumping_station","osm_type":"way","osm_id":"1158488461","operator":"Thames Water Utilities Ltd"}},{"type":"Feature","geometry":{"type":"Point","coordinates":[0.04165,51.58279]},"properties":{"name":"Mapped water infrastructure","category":"pumping_station","osm_type":"way","osm_id":"1159053576"}},{"type":"Feature","geometry":{"type":"Point","coordinates":[0.34352,51.87209]},"properties":{"name":"Mapped water infrastructure","category":"pumping_station","osm_type":"way","osm_id":"1173547604"}},{"type":"Feature","geometry":{"type":"Point","coordinates":[0.25433,51.72032]},"properties":{"name":"Mapped water infrastructure","category":"pumping_station","osm_type":"way","osm_id":"1177980028"}},{"type":"Feature","geometry":{"type":"Point","coordinates":[0.14076,51.87352]},"properties":{"name":"Mapped water infrastructure","category":"pumping_station","osm_type":"way","osm_id":"1183705878"}},{"type":"Feature","geometry":{"type":"Point","coordinates":[0.09248,51.84842]},"properties":{"name":"Mapped water infrastructure","category":"reservoir_covered","osm_type":"way","osm_id":"1185122380"}},{"type":"Feature","geometry":{"type":"Point","coordinates":[0.41699,51.62151]},"properties":{"name":"Mapped water infrastructure","category":"water_tower","osm_type":"way","osm_id":"1187671982"}},{"type":"Feature","geometry":{"type":"Point","coordinates":[0.15661,51.83561]},"properties":{"name":"Mapped water infrastructure","category":"pumping_station","osm_type":"way","osm_id":"1197830622"}},{"type":"Feature","geometry":{"type":"Point","coordinates":[0.88496,51.73002]},"properties":{"name":"Bradwell On Sea STW","category":"wastewater_plant","osm_type":"way","osm_id":"1207140456","operator":"Anglian Water","ref":"BRADST"}},{"type":"Feature","geometry":{"type":"Point","coordinates":[0.06662,51.54608]},"properties":{"name":"Little Ilford Sewage Pumping Station","category":"pumping_station","osm_type":"way","osm_id":"1249078878","operator":"Thames Water"}},{"type":"Feature","geometry":{"type":"Point","coordinates":[0.06798,51.52867]},"properties":{"name":"Jenkins Lane Sewage Treatment Works","category":"pumping_station","osm_type":"way","osm_id":"1262366974"}},{"type":"Feature","geometry":{"type":"Point","coordinates":[0.33869,51.87689]},"properties":{"name":"Mapped water infrastructure","category":"pumping_station","osm_type":"way","osm_id":"1267895998"}},{"type":"Feature","geometry":{"type":"Point","coordinates":[0.09157,51.90356]},"properties":{"name":"Mapped water infrastructure","category":"pumping_station","osm_type":"way","osm_id":"1281300239"}},{"type":"Feature","geometry":{"type":"Point","coordinates":[0.09621,51.90341]},"properties":{"name":"Mapped water infrastructure","category":"wastewater_plant","osm_type":"way","osm_id":"1282201900"}},{"type":"Feature","geometry":{"type":"Point","coordinates":[0.62203,51.69339]},"properties":{"name":"Cock Clarks Hackmans Lane WwTW","category":"wastewater_plant","osm_type":"way","osm_id":"1294583073","operator":"Anglian Water","ref":"CCHLST"}},{"type":"Feature","geometry":{"type":"Point","coordinates":[0.07827,51.5056]},"properties":{"name":"Impounding Culvert","category":"water_works","osm_type":"way","osm_id":"1299802728","operator":"Environment Agency"}},{"type":"Feature","geometry":{"type":"Point","coordinates":[0.60661,51.86387]},"properties":{"name":"Mapped water infrastructure","category":"water_tower","osm_type":"way","osm_id":"1303177069"}},{"type":"Feature","geometry":{"type":"Point","coordinates":[0.32311,51.82532]},"properties":{"name":"High Roding STW","category":"wastewater_plant","osm_type":"way","osm_id":"1308635907","operator":"Anglian Water","ref":"HRODST"}},{"type":"Feature","geometry":{"type":"Point","coordinates":[0.48754,51.76779]},"properties":{"name":"Sewage Pump","category":"pumping_station","osm_type":"way","osm_id":"1323295308","operator":"Anglian Water"}},{"type":"Feature","geometry":{"type":"Point","coordinates":[0.12282,51.79839]},"properties":{"name":"Mapped water infrastructure","category":"reservoir_covered","osm_type":"way","osm_id":"1335230755"}},{"type":"Feature","geometry":{"type":"Point","coordinates":[0.55394,51.8747]},"properties":{"name":"Mapped water infrastructure","category":"water_works","osm_type":"way","osm_id":"1338848907"}},{"type":"Feature","geometry":{"type":"Point","coordinates":[0.11066,51.78773]},"properties":{"name":"Mapped water infrastructure","category":"pumping_station","osm_type":"way","osm_id":"1341317434"}},{"type":"Feature","geometry":{"type":"Point","coordinates":[0.13563,51.72427]},"properties":{"name":"Mapped water infrastructure","category":"wastewater_plant","osm_type":"way","osm_id":"1354651307"}},{"type":"Feature","geometry":{"type":"Point","coordinates":[0.90724,51.83377]},"properties":{"name":"Mapped water infrastructure","category":"water_tower","osm_type":"way","osm_id":"1355683476"}},{"type":"Feature","geometry":{"type":"Point","coordinates":[0.90873,51.83511]},"properties":{"name":"Mapped water infrastructure","category":"reservoir_covered","osm_type":"way","osm_id":"1355684966"}},{"type":"Feature","geometry":{"type":"Point","coordinates":[0.93528,51.97006]},"properties":{"name":"Langham Water Treatment Works","category":"water_works","osm_type":"way","osm_id":"1362051912"}},{"type":"Feature","geometry":{"type":"Point","coordinates":[0.24812,51.87338]},"properties":{"name":"Mapped water infrastructure","category":"pumping_station","osm_type":"way","osm_id":"1365007221"}},{"type":"Feature","geometry":{"type":"Point","coordinates":[0.00042,51.53665]},"properties":{"name":"Pumping Station North Building","category":"pumping_station","osm_type":"way","osm_id":"1366721683"}},{"type":"Feature","geometry":{"type":"Point","coordinates":[0.63428,51.70335]},"properties":{"name":"Hazeleigh Goat Lodge Lane WwTW","category":"wastewater_plant","osm_type":"way","osm_id":"1388477115","operator":"Anglian Water","ref":"HAGHST"}},{"type":"Feature","geometry":{"type":"Point","coordinates":[0.66183,51.69192]},"properties":{"name":"Purleigh STW","category":"wastewater_plant","osm_type":"way","osm_id":"1391647029","operator":"Anglian Water","ref":"PURLST"}},{"type":"Feature","geometry":{"type":"Point","coordinates":[0.6217,51.73664]},"properties":{"name":"Woodham Walter STW","category":"wastewater_plant","osm_type":"way","osm_id":"1391780452","operator":"Anglian Water","ref":"WOOWST"}},{"type":"Feature","geometry":{"type":"Point","coordinates":[0.12179,51.52692]},"properties":{"name":"Choats Road (Barking) SPS","category":"wastewater_plant","osm_type":"way","osm_id":"1419913745","operator":"Thames Water","ref":"CHOAP0ZZ"}},{"type":"Feature","geometry":{"type":"Point","coordinates":[0.16457,51.88344]},"properties":{"name":"Mapped water infrastructure","category":"pumping_station","osm_type":"way","osm_id":"1426719130"}},{"type":"Feature","geometry":{"type":"Point","coordinates":[0.26031,51.87327]},"properties":{"name":"Mapped water infrastructure","category":"pumping_station","osm_type":"way","osm_id":"1431387404"}},{"type":"Feature","geometry":{"type":"Point","coordinates":[0.03855,51.52372]},"properties":{"name":"Humberstone Road Pumping Station","category":"wastewater_plant","osm_type":"way","osm_id":"1441835006","operator":"Thames Water"}},{"type":"Feature","geometry":{"type":"Point","coordinates":[0.87868,51.91639]},"properties":{"name":"Mapped water infrastructure","category":"pumping_station","osm_type":"way","osm_id":"1488680973"}},{"type":"Feature","geometry":{"type":"Point","coordinates":[0.22291,51.91805]},"properties":{"name":"Mapped water infrastructure","category":"pumping_station","osm_type":"way","osm_id":"1502287194"}},{"type":"Feature","geometry":{"type":"Point","coordinates":[0.81657,51.88628]},"properties":{"name":"Mapped water infrastructure","category":"pumping_station","osm_type":"way","osm_id":"1502883449"}},{"type":"Feature","geometry":{"type":"Point","coordinates":[0.82494,51.88774]},"properties":{"name":"Mapped water infrastructure","category":"pumping_station","osm_type":"way","osm_id":"1502910293"}},{"type":"Feature","geometry":{"type":"Point","coordinates":[0.54806,51.57476]},"properties":{"name":"Mapped water infrastructure","category":"pumping_station","osm_type":"way","osm_id":"1521274933"}},{"type":"Feature","geometry":{"type":"Point","coordinates":[0.93591,51.87831]},"properties":{"name":"Mapped water infrastructure","category":"pumping_station","osm_type":"way","osm_id":"1525518403"}},{"type":"Feature","geometry":{"type":"Point","coordinates":[0.78941,51.64712]},"properties":{"name":"Mapped water infrastructure","category":"pumping_station","osm_type":"way","osm_id":"1527088478"}},{"type":"Feature","geometry":{"type":"Point","coordinates":[0.78859,51.64763]},"properties":{"name":"Mapped water infrastructure","category":"reservoir_covered","osm_type":"way","osm_id":"1527088480"}},{"type":"Feature","geometry":{"type":"Point","coordinates":[0.78987,51.64723]},"properties":{"name":"Mapped water infrastructure","category":"reservoir_covered","osm_type":"way","osm_id":"1527088481"}},{"type":"Feature","geometry":{"type":"Point","coordinates":[0.55232,51.87948]},"properties":{"name":"Mapped water infrastructure","category":"water_tower","osm_type":"way","osm_id":"1533320831","operator":"The Old Water Tower"}},{"type":"Feature","geometry":{"type":"Point","coordinates":[0.54901,51.65333]},"properties":{"name":"Mapped water infrastructure","category":"pumping_station","osm_type":"way","osm_id":"1535592683","operator":"Anglian Water"}},{"type":"Feature","geometry":{"type":"Point","coordinates":[0.69259,51.88641]},"properties":{"name":"Mapped water infrastructure","category":"pumping_station","osm_type":"way","osm_id":"1545638145","operator":"Anglian Water"}},{"type":"Feature","geometry":{"type":"Point","coordinates":[0.14959,51.72315]},"properties":{"name":"Mapped water infrastructure","category":"wastewater_plant","osm_type":"way","osm_id":"1551941457"}},{"type":"Feature","geometry":{"type":"Point","coordinates":[0.17081,51.91668]},"properties":{"name":"Manuden Wastewater Treatment Works","category":"wastewater_plant","osm_type":"relation","osm_id":"15600892","operator":"Thames Water","ref":"MANUS1ZZ"}},{"type":"Feature","geometry":{"type":"Point","coordinates":[0.08382,51.51971]},"properties":{"name":"Beckton Sewage Treatment Works","category":"wastewater_plant","osm_type":"way","osm_id":"17506884","operator":"Thames Water","ref":"BECKS1ZZ"}},{"type":"Feature","geometry":{"type":"Point","coordinates":[0.89509,51.88954]},"properties":{"name":"Jumbo (Balkerne Water Tower)","category":"water_tower","osm_type":"way","osm_id":"33492503"}},{"type":"Feature","geometry":{"type":"Point","coordinates":[0.91581,51.78068]},"properties":{"name":"Mapped water infrastructure","category":"water_tower","osm_type":"way","osm_id":"34550352"}},{"type":"Feature","geometry":{"type":"Point","coordinates":[0.05915,51.51829]},"properties":{"name":"Manorway Sewage Pumping Station","category":"pumping_station","osm_type":"way","osm_id":"41742359","operator":"Thames Water"}},{"type":"Feature","geometry":{"type":"Point","coordinates":[0.07117,51.53868]},"properties":{"name":"East Ham Water Treatment Works","category":"water_works","osm_type":"way","osm_id":"58476180","operator":"Thames Water"}},{"type":"Feature","geometry":{"type":"Point","coordinates":[0.66833,51.72945]},"properties":{"name":"Mapped water infrastructure","category":"water_tower","osm_type":"way","osm_id":"100478263"}},{"type":"Feature","geometry":{"type":"Point","coordinates":[0.69971,51.77226]},"properties":{"name":"GT.Totham STW","category":"wastewater_plant","osm_type":"way","osm_id":"102304984","operator":"Anglian Water"}},{"type":"Feature","geometry":{"type":"Point","coordinates":[0.12142,51.70344]},"properties":{"name":"Covered Reservoir","category":"reservoir_covered","osm_type":"way","osm_id":"118042686"}},{"type":"Feature","geometry":{"type":"Point","coordinates":[0.09303,51.52934]},"properties":{"name":"Pumphouse","category":"pumping_station","osm_type":"way","osm_id":"120476099","operator":"Thames Water","website":"http://www.depaor.com/projects/a13-pump.php"}},{"type":"Feature","geometry":{"type":"Point","coordinates":[0.09743,51.73885]},"properties":{"name":"Mapped water infrastructure","category":"reservoir_covered","osm_type":"way","osm_id":"121770197"}},{"type":"Feature","geometry":{"type":"Point","coordinates":[0.09868,51.73991]},"properties":{"name":"Mapped water infrastructure","category":"reservoir_covered","osm_type":"way","osm_id":"121770198"}},{"type":"Feature","geometry":{"type":"Point","coordinates":[0.29583,51.60012]},"properties":{"name":"Mapped water infrastructure","category":"water_tower","osm_type":"way","osm_id":"127581032"}},{"type":"Feature","geometry":{"type":"Point","coordinates":[0.00591,51.51583]},"properties":{"name":"Canning Town Pumping Station","category":"pumping_station","osm_type":"way","osm_id":"132958058","operator":"Thames Water","addr:city":"London","addr:postcode":"E16 4SA"}},{"type":"Feature","geometry":{"type":"Point","coordinates":[0.5517,51.61628]},"properties":{"name":"Wickford STW","category":"wastewater_plant","osm_type":"way","osm_id":"141149171","operator":"Anglian Water","ref":"BRAIST"}},{"type":"Feature","geometry":{"type":"Point","coordinates":[0.52081,51.66399]},"properties":{"name":"Hanningfield Water Treatment Works","category":"water_works","osm_type":"way","osm_id":"141569666"}},{"type":"Feature","geometry":{"type":"Point","coordinates":[0.3075,51.79443]},"properties":{"name":"Leaden Roding Wastewater Treatment Works","category":"wastewater_plant","osm_type":"way","osm_id":"147716138","operator":"Thames Water","ref":"LEADS1ZZ"}},{"type":"Feature","geometry":{"type":"Point","coordinates":[0.27487,51.79994]},"properties":{"name":"White Roding Wastewater Treatment Works","category":"wastewater_plant","osm_type":"way","osm_id":"147732743"}},{"type":"Feature","geometry":{"type":"Point","coordinates":[0.10497,51.62357]},"properties":{"name":"Chigwell Water Treatment Works","category":"water_works","osm_type":"way","osm_id":"149202051","operator":"Thames Water"}},{"type":"Feature","geometry":{"type":"Point","coordinates":[0.13353,51.66109]},"properties":{"name":"Theydon Bois WwTW","category":"wastewater_plant","osm_type":"way","osm_id":"158290039","operator":"Thames Water","ref":"THEYS1ZZ"}},{"type":"Feature","geometry":{"type":"Point","coordinates":[0.01696,51.50858]},"properties":{"name":"Mapped water infrastructure","category":"pumping_station","osm_type":"way","osm_id":"173430119"}},{"type":"Feature","geometry":{"type":"Point","coordinates":[0.59559,51.55042]},"properties":{"name":"Mapped water infrastructure","category":"water_tower","osm_type":"way","osm_id":"184791568"}},{"type":"Feature","geometry":{"type":"Point","coordinates":[0.44633,51.63712]},"properties":{"name":"Mapped water infrastructure","category":"water_tower","osm_type":"way","osm_id":"198223775"}},{"type":"Feature","geometry":{"type":"Point","coordinates":[0.45568,51.67141]},"properties":{"name":"Mapped water infrastructure","category":"water_tower","osm_type":"way","osm_id":"198378625"}},{"type":"Feature","geometry":{"type":"Point","coordinates":[0.00333,51.8383]},"properties":{"name":"Mapped water infrastructure","category":"pumping_station","osm_type":"way","osm_id":"202333020"}},{"type":"Feature","geometry":{"type":"Point","coordinates":[0.00351,51.83919]},"properties":{"name":"Mapped water infrastructure","category":"pumping_station","osm_type":"way","osm_id":"202333035"}},{"type":"Feature","geometry":{"type":"Point","coordinates":[0.23514,51.67598]},"properties":{"name":"Stanford Rivers WWTW","category":"wastewater_plant","osm_type":"way","osm_id":"218389293","operator":"Thames Water"}},{"type":"Feature","geometry":{"type":"Point","coordinates":[0.7652,51.81535]},"properties":{"name":"Water Works","category":"wastewater_plant","osm_type":"way","osm_id":"250922020"}},{"type":"Feature","geometry":{"type":"Point","coordinates":[0.7351,51.73353]},"properties":{"name":"Maldon STW","category":"wastewater_plant","osm_type":"way","osm_id":"272439504","operator":"Anglian Water","addr:city":"Maldon"}},{"type":"Feature","geometry":{"type":"Point","coordinates":[0.9608,51.86608]},"properties":{"name":"Mapped water infrastructure","category":"water_tower","osm_type":"way","osm_id":"280369082"}},{"type":"Feature","geometry":{"type":"Point","coordinates":[0.45142,51.62053]},"properties":{"name":"Billericay STW","category":"wastewater_plant","osm_type":"way","osm_id":"325987591","operator":"Anglian Water","ref":"BLCYST"}},{"type":"Feature","geometry":{"type":"Point","coordinates":[0.04087,51.57508]},"properties":{"name":"Mapped water infrastructure","category":"pumping_station","osm_type":"way","osm_id":"361474335"}},{"type":"Feature","geometry":{"type":"Point","coordinates":[0.57454,51.71573]},"properties":{"name":"Mapped water infrastructure","category":"water_tower","osm_type":"way","osm_id":"364027466"}},{"type":"Feature","geometry":{"type":"Point","coordinates":[0.18998,51.61658]},"properties":{"name":"Havering-Atte-Bower Water Tower","category":"water_tower","osm_type":"way","osm_id":"388152915","operator":"Essex & Suffolk Water","addr:postcode":"RM4 1QH"}},{"type":"Feature","geometry":{"type":"Point","coordinates":[0.84573,51.76295]},"properties":{"name":"Tollesbury STW","category":"wastewater_plant","osm_type":"way","osm_id":"396787215","operator":"Anglian Water","ref":"TOLLST"}},{"type":"Feature","geometry":{"type":"Point","coordinates":[0.13229,51.51932]},"properties":{"name":"Horseshoe Corner Sluice","category":"pumping_station","osm_type":"way","osm_id":"439439886"}},{"type":"Feature","geometry":{"type":"Point","coordinates":[0.00814,51.59328]},"properties":{"name":"Woodford Pumping Station","category":"pumping_station","osm_type":"way","osm_id":"461536470","operator":"Thames Water"}},{"type":"Feature","geometry":{"type":"Point","coordinates":[0.9086,51.91913]},"properties":{"name":"Mapped water infrastructure","category":"water_tower","osm_type":"way","osm_id":"498829335"}},{"type":"Feature","geometry":{"type":"Point","coordinates":[0.97218,51.96929]},"properties":{"name":"Mapped water infrastructure","category":"pumping_station","osm_type":"way","osm_id":"689749858"}},{"type":"Feature","geometry":{"type":"Point","coordinates":[0.9346,51.6656]},"properties":{"name":"Bridgewick Pumping Station","category":"pumping_station","osm_type":"way","osm_id":"704262116","operator":"Environment Agency"}},{"type":"Feature","geometry":{"type":"Point","coordinates":[0.16962,51.85929]},"properties":{"name":"Mapped water infrastructure","category":"pumping_station","osm_type":"way","osm_id":"767654323"}},{"type":"Feature","geometry":{"type":"Point","coordinates":[0.16918,51.85938]},"properties":{"name":"Mapped water infrastructure","category":"pumping_station","osm_type":"way","osm_id":"767654324"}},{"type":"Feature","geometry":{"type":"Point","coordinates":[0.10851,51.50921]},"properties":{"name":"Mapped water infrastructure","category":"pumping_station","osm_type":"way","osm_id":"797595261"}},{"type":"Feature","geometry":{"type":"Point","coordinates":[0.5038,51.55398]},"properties":{"name":"Pitsea STW","category":"wastewater_plant","osm_type":"way","osm_id":"798737668","operator":"Anglian Water","addr:city":"Pitsea"}},{"type":"Feature","geometry":{"type":"Point","coordinates":[0.36943,51.68383]},"properties":{"name":"Mapped water infrastructure","category":"water_tower","osm_type":"way","osm_id":"805116534"}},{"type":"Feature","geometry":{"type":"Point","coordinates":[0.1313,51.86556]},"properties":{"name":"Mapped water infrastructure","category":"wastewater_plant","osm_type":"way","osm_id":"865682899"}},{"type":"Feature","geometry":{"type":"Point","coordinates":[0.02465,51.54983]},"properties":{"name":"Mapped water infrastructure","category":"drinking_water","osm_type":"way","osm_id":"879875213"}},{"type":"Feature","geometry":{"type":"Point","coordinates":[0.27248,51.66556]},"properties":{"name":"Mapped water infrastructure","category":"water_tower","osm_type":"way","osm_id":"884145104"}},{"type":"Feature","geometry":{"type":"Point","coordinates":[0.10882,51.5217]},"properties":{"name":"Mallards Road SPS","category":"pumping_station","osm_type":"way","osm_id":"899223402","operator":"Thames Water"}},{"type":"Feature","geometry":{"type":"Point","coordinates":[0.09956,51.61778]},"properties":{"name":"Chigwell No 2 Reservoir","category":"reservoir_covered","osm_type":"way","osm_id":"931148585","operator":"Thames Water"}},{"type":"Feature","geometry":{"type":"Point","coordinates":[0.01866,51.99563]},"properties":{"name":"Barkway Wastewater Treatment Works","category":"wastewater_plant","osm_type":"way","osm_id":"947535832","operator":"Thames Water"}},{"type":"Feature","geometry":{"type":"Point","coordinates":[0.30138,51.73988]},"properties":{"name":"Willingale Wastewater Treatment Works","category":"wastewater_plant","osm_type":"way","osm_id":"976699356","operator":"Thames Water"}},{"type":"Feature","geometry":{"type":"Point","coordinates":[0.07042,51.50807]},"properties":{"name":"Thames Water Gallions Surface Water Pumping Station","category":"pumping_station","osm_type":"way","osm_id":"1000515562","operator":"Thames Water"}},{"type":"Feature","geometry":{"type":"Point","coordinates":[0.04076,51.55041]},"properties":{"name":"Clarence Road Sewage Pumping Station","category":"pumping_station","osm_type":"way","osm_id":"1005026338"}},{"type":"Feature","geometry":{"type":"Point","coordinates":[0.1469,51.52501]},"properties":{"name":"Chequers Lane Pumping Station","category":"pumping_station","osm_type":"way","osm_id":"1027667307"}},{"type":"Feature","geometry":{"type":"Point","coordinates":[0.7328,51.81758]},"properties":{"name":"Tiptree Pumping Station","category":"pumping_station","osm_type":"way","osm_id":"1075055311"}},{"type":"Feature","geometry":{"type":"Point","coordinates":[0.01701,51.50864]},"properties":{"name":"Tidal Basin Pumping Station","category":"pumping_station","osm_type":"way","osm_id":"1082709590","addr:city":"London","addr:postcode":"E16 1YL"}},{"type":"Feature","geometry":{"type":"Point","coordinates":[0.75756,51.59576]},"properties":{"name":"Rochford STW","category":"wastewater_plant","osm_type":"way","osm_id":"1088220501","operator":"Anglian Water","ref":"ROCHST"}},{"type":"Feature","geometry":{"type":"Point","coordinates":[0.31641,51.55606]},"properties":{"name":"Nags Head Lane STW","category":"wastewater_plant","osm_type":"way","osm_id":"1088407909","operator":"Thames Water"}},{"type":"Feature","geometry":{"type":"Point","coordinates":[0.80698,51.90735]},"properties":{"name":"Mapped water infrastructure","category":"wastewater_plant","osm_type":"way","osm_id":"1088429328"}},{"type":"Feature","geometry":{"type":"Point","coordinates":[0.83252,51.65369]},"properties":{"name":"Southminster new STW","category":"wastewater_plant","osm_type":"way","osm_id":"1088459550","operator":"Anglian Water"}},{"type":"Feature","geometry":{"type":"Point","coordinates":[0.9381,51.77539]},"properties":{"name":"West Mersea STW","category":"wastewater_plant","osm_type":"way","osm_id":"1088459551","operator":"Anglian Water"}},{"type":"Feature","geometry":{"type":"Point","coordinates":[0.71071,51.55536]},"properties":{"name":"Southend STW","category":"wastewater_plant","osm_type":"way","osm_id":"1088459552","operator":"Anglian Water"}},{"type":"Feature","geometry":{"type":"Point","coordinates":[0.77166,51.68684]},"properties":{"name":"Mayland STW","category":"wastewater_plant","osm_type":"way","osm_id":"1088459553","operator":"Anglian Water"}},{"type":"Feature","geometry":{"type":"Point","coordinates":[0.00485,51.64805]},"properties":{"name":"Sewardstone Green Reservoir","category":"reservoir_covered","osm_type":"way","osm_id":"1099397196","operator":"Thames Water"}},{"type":"Feature","geometry":{"type":"Point","coordinates":[0.50704,51.58891]},"properties":{"name":"Basildon STW","category":"wastewater_plant","osm_type":"way","osm_id":"1111623807","operator":"Anglian Water","ref":"BASIST","addr:city":"Basildon","addr:postcode":"SS13 1DB"}},{"type":"Feature","geometry":{"type":"Point","coordinates":[0.86582,51.94461]},"properties":{"name":"Mapped water infrastructure","category":"reservoir_covered","osm_type":"way","osm_id":"1115070221"}},{"type":"Feature","geometry":{"type":"Point","coordinates":[0.86475,51.94462]},"properties":{"name":"Mapped water infrastructure","category":"reservoir_covered","osm_type":"way","osm_id":"1115070222"}},{"type":"Feature","geometry":{"type":"Point","coordinates":[0.31538,51.50075]},"properties":{"name":"Mapped water infrastructure","category":"pumping_station","osm_type":"way","osm_id":"1117949436"}},{"type":"Feature","geometry":{"type":"Point","coordinates":[0.02414,51.88052]},"properties":{"name":"Mapped water infrastructure","category":"pumping_station","osm_type":"way","osm_id":"1159267667"}},{"type":"Feature","geometry":{"type":"Point","coordinates":[0.39284,51.50635]},"properties":{"name":"Mapped water infrastructure","category":"water_works","osm_type":"way","osm_id":"1199995769","operator":"Anglian Water"}},{"type":"Feature","geometry":{"type":"Point","coordinates":[0.93922,51.70308]},"properties":{"name":"Bridgewick Pumping Station","category":"pumping_station","osm_type":"way","osm_id":"1280199530","operator":"Environment Agency"}},{"type":"Feature","geometry":{"type":"Point","coordinates":[0.94745,51.97158]},"properties":{"name":"Langham Lowlift","category":"pumping_station","osm_type":"way","osm_id":"1289353391","addr:postcode":"CO4 5QA"}},{"type":"Feature","geometry":{"type":"Point","coordinates":[0.60591,51.86434]},"properties":{"name":"Cressing Reservoir and Booster","category":"reservoir_covered","osm_type":"way","osm_id":"1303177071"}},{"type":"Feature","geometry":{"type":"Point","coordinates":[0.00051,51.53226]},"properties":{"name":"Pumping Station (South Building)","category":"pumping_station","osm_type":"way","osm_id":"1366433314"}},{"type":"Feature","geometry":{"type":"Point","coordinates":[0.89421,51.99133]},"properties":{"name":"Mapped water infrastructure","category":"water_tower","osm_type":"way","osm_id":"1370716753"}},{"type":"Feature","geometry":{"type":"Point","coordinates":[0.16564,51.87134]},"properties":{"name":"KINGP6ZZ","category":"pumping_station","osm_type":"way","osm_id":"1391186058","operator":"Thames Water","ref":"KINGP6ZZ"}},{"type":"Feature","geometry":{"type":"Point","coordinates":[0.13989,51.87847]},"properties":{"name":"Mapped water infrastructure","category":"pumping_station","osm_type":"way","osm_id":"1421607960"}},{"type":"Feature","geometry":{"type":"Point","coordinates":[0.70029,51.86084]},"properties":{"name":"Mapped water infrastructure","category":"pumping_station","osm_type":"way","osm_id":"1553018140"}},{"type":"Feature","geometry":{"type":"Point","coordinates":[0.70237,51.85855]},"properties":{"name":"Mapped water infrastructure","category":"pumping_station","osm_type":"way","osm_id":"1553018157"}}]}