{"type":"FeatureCollection","features":[{"type":"Feature","geometry":{"type":"Point","coordinates":[0.89911,51.15212]},"properties":{"name":"Mapped water infrastructure","category":"water_tower","osm_type":"node","osm_id":"251222967"}},{"type":"Feature","geometry":{"type":"Point","coordinates":[0.4962,51.22807]},"properties":{"name":"Mapped water infrastructure","category":"water_tower","osm_type":"node","osm_id":"310654103"}},{"type":"Feature","geometry":{"type":"Point","coordinates":[0.20943,51.4574]},"properties":{"name":"Creek Works Storm Water Pumping Station","category":"pumping_station","osm_type":"node","osm_id":"449095964","operator":"Thames Water"}},{"type":"Feature","geometry":{"type":"Point","coordinates":[0.88214,51.15407]},"properties":{"name":"Mapped water infrastructure","category":"pumping_station","osm_type":"node","osm_id":"600045982","operator":"Southern Water"}},{"type":"Feature","geometry":{"type":"Point","coordinates":[0.72774,51.01417]},"properties":{"name":"Mapped water infrastructure","category":"water_tower","osm_type":"node","osm_id":"603941671"}},{"type":"Feature","geometry":{"type":"Point","coordinates":[0.88517,51.11253]},"properties":{"name":"Mapped water infrastructure","category":"pumping_station","osm_type":"node","osm_id":"1195499937"}},{"type":"Feature","geometry":{"type":"Point","coordinates":[0.87173,51.10781]},"properties":{"name":"Mapped water infrastructure","category":"pumping_station","osm_type":"node","osm_id":"1195576155"}},{"type":"Feature","geometry":{"type":"Point","coordinates":[0.91746,51.14248]},"properties":{"name":"Mapped water infrastructure","category":"water_tower","osm_type":"node","osm_id":"1479974377"}},{"type":"Feature","geometry":{"type":"Point","coordinates":[0.50194,51.34094]},"properties":{"name":"Mapped water infrastructure","category":"drinking_water","osm_type":"node","osm_id":"1762091180"}},{"type":"Feature","geometry":{"type":"Point","coordinates":[0.8801,51.18951]},"properties":{"name":"Mapped water infrastructure","category":"water_tower","osm_type":"node","osm_id":"1884205756"}},{"type":"Feature","geometry":{"type":"Point","coordinates":[0.39768,51.0993]},"properties":{"name":"Mapped water infrastructure","category":"drinking_water","osm_type":"node","osm_id":"1895509833"}},{"type":"Feature","geometry":{"type":"Point","coordinates":[0.35173,51.35106]},"properties":{"name":"Mapped water infrastructure","category":"drinking_water","osm_type":"node","osm_id":"2319882300"}},{"type":"Feature","geometry":{"type":"Point","coordinates":[0.35171,51.35171]},"properties":{"name":"Mapped water infrastructure","category":"drinking_water","osm_type":"node","osm_id":"2319882302"}},{"type":"Feature","geometry":{"type":"Point","coordinates":[0.02748,51.36296]},"properties":{"name":"Mapped water infrastructure","category":"drinking_water","osm_type":"node","osm_id":"2456996188"}},{"type":"Feature","geometry":{"type":"Point","coordinates":[0.00098,51.47621]},"properties":{"name":"Mapped water infrastructure","category":"drinking_water","osm_type":"node","osm_id":"2739829929"}},{"type":"Feature","geometry":{"type":"Point","coordinates":[0.67675,51.31178]},"properties":{"name":"Mapped water infrastructure","category":"reservoir_covered","osm_type":"node","osm_id":"3391228667"}},{"type":"Feature","geometry":{"type":"Point","coordinates":[0.04085,51.48089]},"properties":{"name":"Mapped water infrastructure","category":"drinking_water","osm_type":"node","osm_id":"4793207321"}},{"type":"Feature","geometry":{"type":"Point","coordinates":[0.06953,51.46647]},"properties":{"name":"Mapped water infrastructure","category":"drinking_water","osm_type":"node","osm_id":"4793229323"}},{"type":"Feature","geometry":{"type":"Point","coordinates":[0.50217,51.33189]},"properties":{"name":"South East Water","category":"water_tower","osm_type":"node","osm_id":"4829253116"}},{"type":"Feature","geometry":{"type":"Point","coordinates":[0.00134,51.48171]},"properties":{"name":"Mapped water infrastructure","category":"drinking_water","osm_type":"node","osm_id":"4838747676"}},{"type":"Feature","geometry":{"type":"Point","coordinates":[0.07699,51.47076]},"properties":{"name":"Mapped water infrastructure","category":"drinking_water","osm_type":"node","osm_id":"5082630953"}},{"type":"Feature","geometry":{"type":"Point","coordinates":[0.24847,51.17002]},"properties":{"name":"Great Bounds Service Reservoir","category":"water_works","osm_type":"node","osm_id":"5311911943","operator":"South East Water"}},{"type":"Feature","geometry":{"type":"Point","coordinates":[0.20818,51.11715]},"properties":{"name":"Mapped water infrastructure","category":"wastewater_plant","osm_type":"node","osm_id":"5792849067"}},{"type":"Feature","geometry":{"type":"Point","coordinates":[0.05319,51.0516]},"properties":{"name":"Mapped water infrastructure","category":"drinking_water","osm_type":"node","osm_id":"5988486831"}},{"type":"Feature","geometry":{"type":"Point","coordinates":[0.14625,51.45655]},"properties":{"name":"Mapped water infrastructure","category":"drinking_water","osm_type":"node","osm_id":"6128927703","operator":"London Drinking Fountain Fund"}},{"type":"Feature","geometry":{"type":"Point","coordinates":[0.07574,51.47117]},"properties":{"name":"Mapped water infrastructure","category":"drinking_water","osm_type":"node","osm_id":"6716333584"}},{"type":"Feature","geometry":{"type":"Point","coordinates":[0.69045,51.06848]},"properties":{"name":"Mapped water infrastructure","category":"drinking_water","osm_type":"node","osm_id":"8019190050"}},{"type":"Feature","geometry":{"type":"Point","coordinates":[0.89054,51.31514]},"properties":{"name":"Mapped water infrastructure","category":"drinking_water","osm_type":"node","osm_id":"8511018956"}},{"type":"Feature","geometry":{"type":"Point","coordinates":[0.4083,51.04658]},"properties":{"name":"Mapped water infrastructure","category":"water_well","osm_type":"node","osm_id":"9112074008"}},{"type":"Feature","geometry":{"type":"Point","coordinates":[0.02684,51.45459]},"properties":{"name":"Mapped water infrastructure","category":"drinking_water","osm_type":"node","osm_id":"9197863254"}},{"type":"Feature","geometry":{"type":"Point","coordinates":[0.14094,51.45917]},"properties":{"name":"Mapped water infrastructure","category":"water_point","osm_type":"node","osm_id":"9439791638"}},{"type":"Feature","geometry":{"type":"Point","coordinates":[0.1406,51.46095]},"properties":{"name":"Mapped water infrastructure","category":"water_point","osm_type":"node","osm_id":"9439815385"}},{"type":"Feature","geometry":{"type":"Point","coordinates":[0.64323,51.26764]},"properties":{"name":"Mapped water infrastructure","category":"drinking_water","osm_type":"node","osm_id":"9718113570"}},{"type":"Feature","geometry":{"type":"Point","coordinates":[0.0412,51.4951]},"properties":{"name":"Mapped water infrastructure","category":"drinking_water","osm_type":"node","osm_id":"9718437795","wheelchair":"yes"}},{"type":"Feature","geometry":{"type":"Point","coordinates":[0.21325,51.37054]},"properties":{"name":"Mapped water infrastructure","category":"water_well","osm_type":"node","osm_id":"9724633698"}},{"type":"Feature","geometry":{"type":"Point","coordinates":[0.2191,51.26181]},"properties":{"name":"Mapped water infrastructure","category":"drinking_water","osm_type":"node","osm_id":"9796435517"}},{"type":"Feature","geometry":{"type":"Point","coordinates":[0.31421,51.18653]},"properties":{"name":"Mapped water infrastructure","category":"pumping_station","osm_type":"node","osm_id":"10166928651"}},{"type":"Feature","geometry":{"type":"Point","coordinates":[0.19852,51.44636]},"properties":{"name":"Mapped water infrastructure","category":"water_point","osm_type":"node","osm_id":"10584105594"}},{"type":"Feature","geometry":{"type":"Point","coordinates":[0.04424,51.48964]},"properties":{"name":"Mapped water infrastructure","category":"drinking_water","osm_type":"node","osm_id":"10773573720"}},{"type":"Feature","geometry":{"type":"Point","coordinates":[0.60991,51.28507]},"properties":{"name":"Thurnham Borehole No. 13","category":"water_well","osm_type":"node","osm_id":"10797478728","operator":"south east water"}},{"type":"Feature","geometry":{"type":"Point","coordinates":[0.02261,51.46489]},"properties":{"name":"Mapped water infrastructure","category":"water_well","osm_type":"node","osm_id":"10822821397"}},{"type":"Feature","geometry":{"type":"Point","coordinates":[0.17842,51.45202]},"properties":{"name":"Mapped water infrastructure","category":"drinking_water","osm_type":"node","osm_id":"10939115686"}},{"type":"Feature","geometry":{"type":"Point","coordinates":[0.03143,51.48724]},"properties":{"name":"Mapped water infrastructure","category":"drinking_water","osm_type":"node","osm_id":"10974508473"}},{"type":"Feature","geometry":{"type":"Point","coordinates":[0.12804,51.48907]},"properties":{"name":"Mapped water infrastructure","category":"drinking_water","osm_type":"node","osm_id":"11111729555"}},{"type":"Feature","geometry":{"type":"Point","coordinates":[0.11018,51.10177]},"properties":{"name":"Mapped water infrastructure","category":"water_well","osm_type":"node","osm_id":"11362549717"}},{"type":"Feature","geometry":{"type":"Point","coordinates":[0.00598,51.4998]},"properties":{"name":"Mapped water infrastructure","category":"drinking_water","osm_type":"node","osm_id":"11632056862","opening_hours":"24/7"}},{"type":"Feature","geometry":{"type":"Point","coordinates":[0.00781,51.47642]},"properties":{"name":"Mapped water infrastructure","category":"drinking_water","osm_type":"node","osm_id":"11708123881"}},{"type":"Feature","geometry":{"type":"Point","coordinates":[0.5009,51.3408]},"properties":{"name":"Mapped water infrastructure","category":"drinking_water","osm_type":"node","osm_id":"11841268058"}},{"type":"Feature","geometry":{"type":"Point","coordinates":[0.50213,51.34122]},"properties":{"name":"Mapped water infrastructure","category":"drinking_water","osm_type":"node","osm_id":"11841268059"}},{"type":"Feature","geometry":{"type":"Point","coordinates":[0.08259,51.24357]},"properties":{"name":"Mapped water infrastructure","category":"drinking_water","osm_type":"node","osm_id":"11964486471"}},{"type":"Feature","geometry":{"type":"Point","coordinates":[0.01337,51.48412]},"properties":{"name":"Mapped water infrastructure","category":"drinking_water","osm_type":"node","osm_id":"12031690669"}},{"type":"Feature","geometry":{"type":"Point","coordinates":[0.01265,51.48485]},"properties":{"name":"Mapped water infrastructure","category":"drinking_water","osm_type":"node","osm_id":"12047789891"}},{"type":"Feature","geometry":{"type":"Point","coordinates":[0.49598,51.39445]},"properties":{"name":"Vanga Sports Water Hydration Station","category":"water_point","osm_type":"node","osm_id":"12218528901"}},{"type":"Feature","geometry":{"type":"Point","coordinates":[0.18881,51.1062]},"properties":{"name":"Mapped water infrastructure","category":"drinking_water","osm_type":"node","osm_id":"12463351523","operator":"Forestry England"}},{"type":"Feature","geometry":{"type":"Point","coordinates":[0.07202,51.43764]},"properties":{"name":"Mapped water infrastructure","category":"drinking_water","osm_type":"node","osm_id":"12684250701"}},{"type":"Feature","geometry":{"type":"Point","coordinates":[0.877,51.13749]},"properties":{"name":"Mapped water infrastructure","category":"drinking_water","osm_type":"node","osm_id":"13017541342"}},{"type":"Feature","geometry":{"type":"Point","coordinates":[0.00478,51.45777]},"properties":{"name":"Mapped water infrastructure","category":"drinking_water","osm_type":"node","osm_id":"13077600663","operator":"Thames Water"}},{"type":"Feature","geometry":{"type":"Point","coordinates":[0.63238,51.24486]},"properties":{"name":"Mapped water infrastructure","category":"drinking_water","osm_type":"node","osm_id":"13088973971"}},{"type":"Feature","geometry":{"type":"Point","coordinates":[0.01006,51.49991]},"properties":{"name":"Mapped water infrastructure","category":"drinking_water","osm_type":"node","osm_id":"13340401474"}},{"type":"Feature","geometry":{"type":"Point","coordinates":[0.12154,51.49086]},"properties":{"name":"Mapped water infrastructure","category":"drinking_water","osm_type":"node","osm_id":"13505172149","operator":"Thames Water"}},{"type":"Feature","geometry":{"type":"Point","coordinates":[0.86699,51.14742]},"properties":{"name":"Atherfield drive waste water pumping station","category":"wastewater_plant","osm_type":"node","osm_id":"13652794946"}},{"type":"Feature","geometry":{"type":"Point","coordinates":[0.4206,51.22942]},"properties":{"name":"Mapped water infrastructure","category":"pumping_station","osm_type":"node","osm_id":"13942351912"}},{"type":"Feature","geometry":{"type":"Point","coordinates":[0.50234,51.32487]},"properties":{"name":"Mapped water infrastructure","category":"water_point","osm_type":"node","osm_id":"13974232044"}},{"type":"Feature","geometry":{"type":"Point","coordinates":[0.54322,51.00206]},"properties":{"name":"Mapped water infrastructure","category":"water_well","osm_type":"node","osm_id":"13988128433"}},{"type":"Feature","geometry":{"type":"Point","coordinates":[0.26802,51.13021]},"properties":{"name":"Mapped water infrastructure","category":"drinking_water","osm_type":"node","osm_id":"14135544301"}},{"type":"Feature","geometry":{"type":"Point","coordinates":[0.88883,51.15599]},"properties":{"name":"Ashford Wastewater Treatment Works","category":"wastewater_plant","osm_type":"way","osm_id":"4732687","operator":"Southern Water","ref":"101753"}},{"type":"Feature","geometry":{"type":"Point","coordinates":[0.2373,51.46727]},"properties":{"name":"Long Reach Sewage Treatment Works","category":"wastewater_plant","osm_type":"way","osm_id":"5110847","operator":"Thames Water"}},{"type":"Feature","geometry":{"type":"Point","coordinates":[0.07926,51.20538]},"properties":{"name":"Edenbridge WTW","category":"wastewater_plant","osm_type":"way","osm_id":"22916881","operator":"Southern Water","ref":"100644"}},{"type":"Feature","geometry":{"type":"Point","coordinates":[0.58412,51.33973]},"properties":{"name":"Mapped water infrastructure","category":"reservoir_covered","osm_type":"way","osm_id":"31113316"}},{"type":"Feature","geometry":{"type":"Point","coordinates":[0.21845,51.43266]},"properties":{"name":"Wilmington water treatment works","category":"water_works","osm_type":"way","osm_id":"38681690","operator":"Thames Water"}},{"type":"Feature","geometry":{"type":"Point","coordinates":[0.67417,51.26941]},"properties":{"name":"Mapped water infrastructure","category":"water_tower","osm_type":"way","osm_id":"64305330"}},{"type":"Feature","geometry":{"type":"Point","coordinates":[0.67387,51.26881]},"properties":{"name":"Mapped water infrastructure","category":"water_tower","osm_type":"way","osm_id":"64305333"}},{"type":"Feature","geometry":{"type":"Point","coordinates":[0.71661,51.29806]},"properties":{"name":"Mapped water infrastructure","category":"pumping_station","osm_type":"way","osm_id":"65332170"}},{"type":"Feature","geometry":{"type":"Point","coordinates":[0.74007,51.31397]},"properties":{"name":"Mapped water infrastructure","category":"pumping_station","osm_type":"way","osm_id":"68303699"}},{"type":"Feature","geometry":{"type":"Point","coordinates":[0.767,51.33524]},"properties":{"name":"Mapped water infrastructure","category":"wastewater_plant","osm_type":"way","osm_id":"68999091"}},{"type":"Feature","geometry":{"type":"Point","coordinates":[0.84745,51.18501]},"properties":{"name":"Westwell WTW","category":"wastewater_plant","osm_type":"way","osm_id":"72712562","operator":"Southern Water"}},{"type":"Feature","geometry":{"type":"Point","coordinates":[0.83187,51.30209]},"properties":{"name":"Mapped water infrastructure","category":"water_works","osm_type":"way","osm_id":"78557152"}},{"type":"Feature","geometry":{"type":"Point","coordinates":[0.76896,51.2801]},"properties":{"name":"Mapped water infrastructure","category":"pumping_station","osm_type":"way","osm_id":"79428612"}},{"type":"Feature","geometry":{"type":"Point","coordinates":[0.84918,51.16417]},"properties":{"name":"Mapped water infrastructure","category":"reservoir_covered","osm_type":"way","osm_id":"88526669"}},{"type":"Feature","geometry":{"type":"Point","coordinates":[0.85003,51.16424]},"properties":{"name":"Mapped water infrastructure","category":"reservoir_covered","osm_type":"way","osm_id":"88526671"}},{"type":"Feature","geometry":{"type":"Point","coordinates":[0.55439,51.37115]},"properties":{"name":"Water Reservoir","category":"reservoir_covered","osm_type":"way","osm_id":"89298912"}},{"type":"Feature","geometry":{"type":"Point","coordinates":[0.55336,51.37103]},"properties":{"name":"Water Reservoir","category":"reservoir_covered","osm_type":"way","osm_id":"89298913"}},{"type":"Feature","geometry":{"type":"Point","coordinates":[0.78132,51.07141]},"properties":{"name":"Mapped water infrastructure","category":"wastewater_plant","osm_type":"way","osm_id":"90218728"}},{"type":"Feature","geometry":{"type":"Point","coordinates":[0.9795,51.10457]},"properties":{"name":"Mapped water infrastructure","category":"wastewater_plant","osm_type":"way","osm_id":"91004051"}},{"type":"Feature","geometry":{"type":"Point","coordinates":[0.45688,51.35669]},"properties":{"name":"Wouldham WTW","category":"wastewater_plant","osm_type":"way","osm_id":"91011602","operator":"Southern Water"}},{"type":"Feature","geometry":{"type":"Point","coordinates":[0.46549,51.30961]},"properties":{"name":"Mapped water infrastructure","category":"wastewater_plant","osm_type":"way","osm_id":"91293458"}},{"type":"Feature","geometry":{"type":"Point","coordinates":[0.74345,51.40083]},"properties":{"name":"Queenborough Water Treatment Works","category":"wastewater_plant","osm_type":"way","osm_id":"91385458","operator":"Southern Water","addr:city":"Queenborough","addr:postcode":"ME11 5DZ"}},{"type":"Feature","geometry":{"type":"Point","coordinates":[0.61137,51.25218]},"properties":{"name":"Leeds WTW","category":"wastewater_plant","osm_type":"way","osm_id":"91874701","operator":"Southern Water","ref":"102511"}},{"type":"Feature","geometry":{"type":"Point","coordinates":[0.51562,51.40317]},"properties":{"name":"Whitewall Creek WTW","category":"wastewater_plant","osm_type":"way","osm_id":"92024699","operator":"Southern Water","ref":"102535"}},{"type":"Feature","geometry":{"type":"Point","coordinates":[0.49766,51.36581]},"properties":{"name":"Mapped water infrastructure","category":"reservoir_covered","osm_type":"way","osm_id":"92124641"}},{"type":"Feature","geometry":{"type":"Point","coordinates":[0.4974,51.36541]},"properties":{"name":"Mapped water infrastructure","category":"reservoir_covered","osm_type":"way","osm_id":"92124651"}},{"type":"Feature","geometry":{"type":"Point","coordinates":[0.5065,51.34324]},"properties":{"name":"Mapped water infrastructure","category":"reservoir_covered","osm_type":"way","osm_id":"92130238"}},{"type":"Feature","geometry":{"type":"Point","coordinates":[0.50668,51.34371]},"properties":{"name":"Mapped water infrastructure","category":"reservoir_covered","osm_type":"way","osm_id":"92130243"}},{"type":"Feature","geometry":{"type":"Point","coordinates":[0.45124,51.39641]},"properties":{"name":"Mapped water infrastructure","category":"reservoir_covered","osm_type":"way","osm_id":"92210829"}},{"type":"Feature","geometry":{"type":"Point","coordinates":[0.4498,51.39732]},"properties":{"name":"Mapped water infrastructure","category":"reservoir_covered","osm_type":"way","osm_id":"92210834"}},{"type":"Feature","geometry":{"type":"Point","coordinates":[0.58827,51.20409]},"properties":{"name":"Sutton Valence WTW","category":"wastewater_plant","osm_type":"way","osm_id":"93474682","operator":"Southern Water"}},{"type":"Feature","geometry":{"type":"Point","coordinates":[0.9301,51.18198]},"properties":{"name":"Wye WTW","category":"wastewater_plant","osm_type":"way","osm_id":"93605661","operator":"Southern Water"}},{"type":"Feature","geometry":{"type":"Point","coordinates":[0.72553,51.22452]},"properties":{"name":"Mapped water infrastructure","category":"wastewater_plant","osm_type":"way","osm_id":"94411272"}},{"type":"Feature","geometry":{"type":"Point","coordinates":[0.40263,51.21661]},"properties":{"name":"East Peckham WTW","category":"wastewater_plant","osm_type":"way","osm_id":"94427665","operator":"Southern Water"}},{"type":"Feature","geometry":{"type":"Point","coordinates":[0.40585,51.39925]},"properties":{"name":"Mapped water infrastructure","category":"reservoir_covered","osm_type":"way","osm_id":"94460610"}},{"type":"Feature","geometry":{"type":"Point","coordinates":[0.20084,51.13029]},"properties":{"name":"Mapped water infrastructure","category":"reservoir_covered","osm_type":"way","osm_id":"94710649"}},{"type":"Feature","geometry":{"type":"Point","coordinates":[0.20575,51.12127]},"properties":{"name":"Tunbridge Wells South WwTW","category":"wastewater_plant","osm_type":"way","osm_id":"94712027","operator":"Southern Water","ref":"100248"}},{"type":"Feature","geometry":{"type":"Point","coordinates":[0.18966,51.17337]},"properties":{"name":"Penshurst Sewage Works","category":"wastewater_plant","osm_type":"way","osm_id":"94746282"}},{"type":"Feature","geometry":{"type":"Point","coordinates":[0.2306,51.16038]},"properties":{"name":"Bidborough WTW","category":"wastewater_plant","osm_type":"way","osm_id":"94747658","operator":"Southern Water","ref":"102931","addr:postcode":"TN3 0UB"}},{"type":"Feature","geometry":{"type":"Point","coordinates":[0.22315,51.15632]},"properties":{"name":"Speldhurst WTW","category":"wastewater_plant","osm_type":"way","osm_id":"94748368","operator":"Southern Water"}},{"type":"Feature","geometry":{"type":"Point","coordinates":[0.2904,51.15715]},"properties":{"name":"Tunbridge Wells North Wastewater Treatment Works","category":"wastewater_plant","osm_type":"way","osm_id":"94783343","operator":"Southern Water","ref":"102261"}},{"type":"Feature","geometry":{"type":"Point","coordinates":[0.34827,51.15968]},"properties":{"name":"Pembury WTW","category":"wastewater_plant","osm_type":"way","osm_id":"94810627","operator":"Southern Water","ref":"103159"}},{"type":"Feature","geometry":{"type":"Point","coordinates":[0.29096,51.13804]},"properties":{"name":"Mapped water infrastructure","category":"water_tower","osm_type":"way","osm_id":"94815188","operator":"South East Water"}},{"type":"Feature","geometry":{"type":"Point","coordinates":[0.40136,51.18189]},"properties":{"name":"Paddock Wood WTW","category":"wastewater_plant","osm_type":"way","osm_id":"94831939","operator":"Southern Water","ref":"100446"}},{"type":"Feature","geometry":{"type":"Point","coordinates":[0.55821,51.17238]},"properties":{"name":"Staplehurst WTW","category":"wastewater_plant","osm_type":"way","osm_id":"94831951"}},{"type":"Feature","geometry":{"type":"Point","coordinates":[0.45866,51.13802]},"properties":{"name":"Mapped water infrastructure","category":"wastewater_plant","osm_type":"way","osm_id":"95098791"}},{"type":"Feature","geometry":{"type":"Point","coordinates":[0.42918,51.04422]},"properties":{"name":"Mapped water infrastructure","category":"wastewater_plant","osm_type":"way","osm_id":"95140154"}},{"type":"Feature","geometry":{"type":"Point","coordinates":[0.5209,51.05288]},"properties":{"name":"Mapped water infrastructure","category":"wastewater_plant","osm_type":"way","osm_id":"95392384"}},{"type":"Feature","geometry":{"type":"Point","coordinates":[0.52252,51.03656]},"properties":{"name":"Mapped water infrastructure","category":"wastewater_plant","osm_type":"way","osm_id":"95392407"}},{"type":"Feature","geometry":{"type":"Point","coordinates":[0.47457,51.11688]},"properties":{"name":"Cherry Gardens Goudhurst WTW","category":"wastewater_plant","osm_type":"way","osm_id":"95437409","operator":"Southern Water","ref":"100316"}},{"type":"Feature","geometry":{"type":"Point","coordinates":[0.5454,51.0967]},"properties":{"name":"Cranbrook Wastewater Treatment Works","category":"wastewater_plant","osm_type":"way","osm_id":"95463592"}},{"type":"Feature","geometry":{"type":"Point","coordinates":[0.66367,51.06199]},"properties":{"name":"Tenterden Wastewater Treatment Plant","category":"wastewater_plant","osm_type":"way","osm_id":"95550607","ref":"101364"}},{"type":"Feature","geometry":{"type":"Point","coordinates":[0.59365,51.07166]},"properties":{"name":"Benenden WTW","category":"wastewater_plant","osm_type":"way","osm_id":"95566730"}},{"type":"Feature","geometry":{"type":"Point","coordinates":[0.63908,51.11837]},"properties":{"name":"Mapped water infrastructure","category":"wastewater_plant","osm_type":"way","osm_id":"95810340"}},{"type":"Feature","geometry":{"type":"Point","coordinates":[0.29021,51.19303]},"properties":{"name":"Tonbridge Wastewater Treatment Works","category":"wastewater_plant","osm_type":"way","osm_id":"95812518","operator":"Southern Water","ref":"100480"}},{"type":"Feature","geometry":{"type":"Point","coordinates":[0.64496,51.44686]},"properties":{"name":"Stoke Water Treatment Works","category":"wastewater_plant","osm_type":"way","osm_id":"96644386","operator":"Southern Water"}},{"type":"Feature","geometry":{"type":"Point","coordinates":[0.39712,51.43909]},"properties":{"name":"Gravesend Wastewater Treatment Works","category":"wastewater_plant","osm_type":"way","osm_id":"96647532","operator":"Southern Water","ref":"101794"}},{"type":"Feature","geometry":{"type":"Point","coordinates":[0.67462,51.2365]},"properties":{"name":"Harrietsham WTW","category":"wastewater_plant","osm_type":"way","osm_id":"97425024","operator":"Southern Water"}},{"type":"Feature","geometry":{"type":"Point","coordinates":[0.53586,51.00748]},"properties":{"name":"Levetts Lane Bodiam WTW","category":"wastewater_plant","osm_type":"way","osm_id":"98241597","operator":"Southern Water","ref":"100114"}},{"type":"Feature","geometry":{"type":"Point","coordinates":[0.33641,51.05481]},"properties":{"name":"Washwell Lane Wadhurst WTW","category":"wastewater_plant","osm_type":"way","osm_id":"98630501","operator":"Southern Water","ref":"100901"}},{"type":"Feature","geometry":{"type":"Point","coordinates":[0.28925,51.01705]},"properties":{"name":"Mapped water infrastructure","category":"wastewater_plant","osm_type":"way","osm_id":"98722924"}},{"type":"Feature","geometry":{"type":"Point","coordinates":[0.25086,51.00584]},"properties":{"name":"Meres Farm Mayfield WTW","category":"wastewater_plant","osm_type":"way","osm_id":"98802575","operator":"Southern Water","ref":"102471"}},{"type":"Feature","geometry":{"type":"Point","coordinates":[0.28469,51.0798]},"properties":{"name":"Frant WTW","category":"wastewater_plant","osm_type":"way","osm_id":"98941452","operator":"Southern Water","ref":"102493"}},{"type":"Feature","geometry":{"type":"Point","coordinates":[0.21491,51.0671]},"properties":{"name":"Redgate Mill Crowborough Wastewater Treatment Works","category":"wastewater_plant","osm_type":"way","osm_id":"99018836","operator":"Southern Water","ref":"102088"}},{"type":"Feature","geometry":{"type":"Point","coordinates":[0.11692,51.10488]},"properties":{"name":"Hartfield WTW","category":"wastewater_plant","osm_type":"way","osm_id":"99314938","operator":"Southern Water","ref":"101395","addr:city":"Hartfield"}},{"type":"Feature","geometry":{"type":"Point","coordinates":[0.14645,51.13552]},"properties":{"name":"Blackham WTW","category":"wastewater_plant","osm_type":"way","osm_id":"100467586","operator":"Southern Water","ref":"102861"}},{"type":"Feature","geometry":{"type":"Point","coordinates":[0.00871,51.10093]},"properties":{"name":"Weir Wood Treatment Works","category":"water_works","osm_type":"way","osm_id":"100543599","operator":"Southern Water"}},{"type":"Feature","geometry":{"type":"Point","coordinates":[0.00552,51.10858]},"properties":{"name":"Luxfords Lane East Grinstead WTW","category":"wastewater_plant","osm_type":"way","osm_id":"100712325","operator":"Southern Water","ref":"101662","addr:city":"East Grinstead"}},{"type":"Feature","geometry":{"type":"Point","coordinates":[0.13929,51.07841]},"properties":{"name":"St Johns Crowborough WTW","category":"wastewater_plant","osm_type":"way","osm_id":"101798990","operator":"Southern Water","ref":"101657"}},{"type":"Feature","geometry":{"type":"Point","coordinates":[0.07848,51.09879]},"properties":{"name":"Mapped water infrastructure","category":"wastewater_plant","osm_type":"way","osm_id":"102712796"}},{"type":"Feature","geometry":{"type":"Point","coordinates":[0.0534,51.03889]},"properties":{"name":"Nutley WTW","category":"wastewater_plant","osm_type":"way","osm_id":"103056283","operator":"Southern Water","ref":"100294"}},{"type":"Feature","geometry":{"type":"Point","coordinates":[0.00627,51.02834]},"properties":{"name":"Danehill WTW","category":"wastewater_plant","osm_type":"way","osm_id":"103126532","operator":"Southern Water","ref":"100112"}},{"type":"Feature","geometry":{"type":"Point","coordinates":[0.38065,51.45442]},"properties":{"name":"Tilbury Sewage Treatment Works","category":"wastewater_plant","osm_type":"way","osm_id":"103574523","operator":"Anglian Water"}},{"type":"Feature","geometry":{"type":"Point","coordinates":[0.72839,51.01419]},"properties":{"name":"Mapped water infrastructure","category":"reservoir_covered","osm_type":"way","osm_id":"103699365"}},{"type":"Feature","geometry":{"type":"Point","coordinates":[0.85121,51.06607]},"properties":{"name":"Mapped water infrastructure","category":"wastewater_plant","osm_type":"way","osm_id":"105020186"}},{"type":"Feature","geometry":{"type":"Point","coordinates":[0.44546,51.32171]},"properties":{"name":"Ham Hill WwTW","category":"wastewater_plant","osm_type":"way","osm_id":"105806152","operator":"Southern Water"}},{"type":"Feature","geometry":{"type":"Point","coordinates":[0.74913,51.12957]},"properties":{"name":"Bethersden Wastewater Treatment Works","category":"wastewater_plant","osm_type":"way","osm_id":"105857548"}},{"type":"Feature","geometry":{"type":"Point","coordinates":[0.94204,51.16127]},"properties":{"name":"Nats Lane Brook K WTW","category":"wastewater_plant","osm_type":"way","osm_id":"106792394","operator":"Southern Water","ref":"102032"}},{"type":"Feature","geometry":{"type":"Point","coordinates":[0.68265,51.14844]},"properties":{"name":"Smarden WTW","category":"wastewater_plant","osm_type":"way","osm_id":"106795069"}},{"type":"Feature","geometry":{"type":"Point","coordinates":[0.69709,51.1078]},"properties":{"name":"Mapped water infrastructure","category":"wastewater_plant","osm_type":"way","osm_id":"106827045"}},{"type":"Feature","geometry":{"type":"Point","coordinates":[0.62399,51.01744]},"properties":{"name":"Mapped water infrastructure","category":"wastewater_plant","osm_type":"way","osm_id":"106896967"}},{"type":"Feature","geometry":{"type":"Point","coordinates":[0.45917,51.10856]},"properties":{"name":"Underhill Goudhurst WTW","category":"wastewater_plant","osm_type":"way","osm_id":"120440811","operator":"Southern Water","ref":"100909"}},{"type":"Feature","geometry":{"type":"Point","coordinates":[0.5615,51.23029]},"properties":{"name":"Mapped water infrastructure","category":"pumping_station","osm_type":"way","osm_id":"120862487"}},{"type":"Feature","geometry":{"type":"Point","coordinates":[0.69085,51.00508]},"properties":{"name":"Mapped water infrastructure","category":"wastewater_plant","osm_type":"way","osm_id":"133533456"}},{"type":"Feature","geometry":{"type":"Point","coordinates":[0.29093,51.13924]},"properties":{"name":"Mapped water infrastructure","category":"reservoir_covered","osm_type":"way","osm_id":"139126059","operator":"South East Water"}},{"type":"Feature","geometry":{"type":"Point","coordinates":[0.90969,51.32433]},"properties":{"name":"Mapped water infrastructure","category":"wastewater_plant","osm_type":"way","osm_id":"152973840"}},{"type":"Feature","geometry":{"type":"Point","coordinates":[0.97826,51.34588]},"properties":{"name":"Mapped water infrastructure","category":"pumping_station","osm_type":"way","osm_id":"167293655","operator":"Envoronment Agency"}},{"type":"Feature","geometry":{"type":"Point","coordinates":[0.8569,51.11438]},"properties":{"name":"Mapped water infrastructure","category":"water_tower","osm_type":"way","osm_id":"183060086"}},{"type":"Feature","geometry":{"type":"Point","coordinates":[0.64138,51.03721]},"properties":{"name":"Mapped water infrastructure","category":"wastewater_plant","osm_type":"way","osm_id":"190623869"}},{"type":"Feature","geometry":{"type":"Point","coordinates":[0.19615,51.47094]},"properties":{"name":"Mapped water infrastructure","category":"pumping_station","osm_type":"way","osm_id":"197093402"}},{"type":"Feature","geometry":{"type":"Point","coordinates":[0.796,51.20277]},"properties":{"name":"Charing WTW","category":"wastewater_plant","osm_type":"way","osm_id":"198576929","operator":"Southern Water"}},{"type":"Feature","geometry":{"type":"Point","coordinates":[0.45433,51.11709]},"properties":{"name":"Smiths Lane Goudhurst WTW","category":"wastewater_plant","osm_type":"way","osm_id":"231371185","operator":"Southern Water","ref":"102907"}},{"type":"Feature","geometry":{"type":"Point","coordinates":[0.62823,51.38698]},"properties":{"name":"Motney Hill WTW","category":"wastewater_plant","osm_type":"way","osm_id":"235112601","operator":"Southern Water","ref":"100710"}},{"type":"Feature","geometry":{"type":"Point","coordinates":[0.85244,51.12229]},"properties":{"name":"Mapped water infrastructure","category":"pumping_station","osm_type":"way","osm_id":"238946587"}},{"type":"Feature","geometry":{"type":"Point","coordinates":[0.79729,51.20479]},"properties":{"name":"Mapped water infrastructure","category":"wastewater_plant","osm_type":"way","osm_id":"276867679"}},{"type":"Feature","geometry":{"type":"Point","coordinates":[0.75737,51.37169]},"properties":{"name":"Mapped water infrastructure","category":"wastewater_plant","osm_type":"way","osm_id":"342714069"}},{"type":"Feature","geometry":{"type":"Point","coordinates":[0.82138,51.05784]},"properties":{"name":"Mapped water infrastructure","category":"wastewater_plant","osm_type":"way","osm_id":"374229178"}},{"type":"Feature","geometry":{"type":"Point","coordinates":[0.17107,51.46974]},"properties":{"name":"Mapped water infrastructure","category":"reservoir_covered","osm_type":"way","osm_id":"393404269"}},{"type":"Feature","geometry":{"type":"Point","coordinates":[0.43021,51.2504]},"properties":{"name":"Mapped water infrastructure","category":"wastewater_plant","osm_type":"way","osm_id":"413461683"}},{"type":"Feature","geometry":{"type":"Point","coordinates":[0.0376,51.10039]},"properties":{"name":"Forest Row Water Treatment Works","category":"wastewater_plant","osm_type":"way","osm_id":"486194032","operator":"South East Water"}},{"type":"Feature","geometry":{"type":"Point","coordinates":[0.17578,51.14284]},"properties":{"name":"Fordcombe WTW","category":"wastewater_plant","osm_type":"way","osm_id":"493859532","operator":"Southern Water","ref":"100700"}},{"type":"Feature","geometry":{"type":"Point","coordinates":[0.10593,51.16417]},"properties":{"name":"Markbeech WTW","category":"wastewater_plant","osm_type":"way","osm_id":"493861944","operator":"Southern Water","ref":"100140"}},{"type":"Feature","geometry":{"type":"Point","coordinates":[0.14335,51.16247]},"properties":{"name":"Chiddingstone Hoath Sewage Works","category":"wastewater_plant","osm_type":"way","osm_id":"493867719","operator":"Southern Water","ref":"102563"}},{"type":"Feature","geometry":{"type":"Point","coordinates":[0.09508,51.14281]},"properties":{"name":"Cowden WTW","category":"wastewater_plant","osm_type":"way","osm_id":"503730624","operator":"Southern Water","ref":"100270"}},{"type":"Feature","geometry":{"type":"Point","coordinates":[0.05651,51.24497]},"properties":{"name":"Mapped water infrastructure","category":"reservoir_covered","osm_type":"way","osm_id":"505510822"}},{"type":"Feature","geometry":{"type":"Point","coordinates":[0.12731,51.05137]},"properties":{"name":"Mapped water infrastructure","category":"water_works","osm_type":"way","osm_id":"509889571"}},{"type":"Feature","geometry":{"type":"Point","coordinates":[0.4005,51.18279]},"properties":{"name":"Mapped water infrastructure","category":"water_tower","osm_type":"way","osm_id":"521294673"}},{"type":"Feature","geometry":{"type":"Point","coordinates":[0.05057,51.09377]},"properties":{"name":"Mapped water infrastructure","category":"pumping_station","osm_type":"way","osm_id":"542957771"}},{"type":"Feature","geometry":{"type":"Point","coordinates":[0.43092,51.4599]},"properties":{"name":"Mapped water infrastructure","category":"water_tower","osm_type":"way","osm_id":"553084005"}},{"type":"Feature","geometry":{"type":"Point","coordinates":[0.2308,51.46446]},"properties":{"name":"Mapped water infrastructure","category":"pumping_station","osm_type":"way","osm_id":"553127669"}},{"type":"Feature","geometry":{"type":"Point","coordinates":[0.22635,51.46432]},"properties":{"name":"Mapped water infrastructure","category":"pumping_station","osm_type":"way","osm_id":"553127670"}},{"type":"Feature","geometry":{"type":"Point","coordinates":[0.22325,51.46443]},"properties":{"name":"The Bridge, Dartford Binnie Road Pumping Station 6","category":"pumping_station","osm_type":"way","osm_id":"553127671","operator":"Independent Water Networks","ref":"N7045422"}},{"type":"Feature","geometry":{"type":"Point","coordinates":[0.43067,51.46558]},"properties":{"name":"Mapped water infrastructure","category":"pumping_station","osm_type":"way","osm_id":"554171612"}},{"type":"Feature","geometry":{"type":"Point","coordinates":[0.04799,51.28367]},"properties":{"name":"Mapped water infrastructure","category":"reservoir_covered","osm_type":"way","osm_id":"563085202"}},{"type":"Feature","geometry":{"type":"Point","coordinates":[0.51305,51.28487]},"properties":{"name":"Mapped water infrastructure","category":"water_works","osm_type":"way","osm_id":"614797862"}},{"type":"Feature","geometry":{"type":"Point","coordinates":[0.02547,51.06572]},"properties":{"name":"Mapped water infrastructure","category":"reservoir_covered","osm_type":"way","osm_id":"634141889"}},{"type":"Feature","geometry":{"type":"Point","coordinates":[0.4854,51.28006]},"properties":{"name":"Mapped water infrastructure","category":"reservoir_covered","osm_type":"way","osm_id":"651774054"}},{"type":"Feature","geometry":{"type":"Point","coordinates":[0.48142,51.27529]},"properties":{"name":"Mapped water infrastructure","category":"reservoir_covered","osm_type":"way","osm_id":"651779883"}},{"type":"Feature","geometry":{"type":"Point","coordinates":[0.48024,51.27518]},"properties":{"name":"Mapped water infrastructure","category":"reservoir_covered","osm_type":"way","osm_id":"651779884"}},{"type":"Feature","geometry":{"type":"Point","coordinates":[0.05467,51.35691]},"properties":{"name":"Mapped water infrastructure","category":"reservoir_covered","osm_type":"way","osm_id":"692089184"}},{"type":"Feature","geometry":{"type":"Point","coordinates":[0.32603,51.16033]},"properties":{"name":"Pembury Water Treatment Works","category":"wastewater_plant","osm_type":"way","osm_id":"754138374"}},{"type":"Feature","geometry":{"type":"Point","coordinates":[0.76724,51.01551]},"properties":{"name":"Stone Green Stone In Oxney WTW","category":"wastewater_plant","osm_type":"way","osm_id":"781771150","operator":"Southern Water","ref":"102806"}},{"type":"Feature","geometry":{"type":"Point","coordinates":[0.79128,51.03441]},"properties":{"name":"Appledore Wastewater Treatment Works","category":"wastewater_plant","osm_type":"way","osm_id":"782439480","operator":"Southern Water","ref":"101974"}},{"type":"Feature","geometry":{"type":"Point","coordinates":[0.79365,51.0318]},"properties":{"name":"Mapped water infrastructure","category":"pumping_station","osm_type":"way","osm_id":"783042679"}},{"type":"Feature","geometry":{"type":"Point","coordinates":[0.79144,51.03466]},"properties":{"name":"Mapped water infrastructure","category":"wastewater_plant","osm_type":"way","osm_id":"787499479"}},{"type":"Feature","geometry":{"type":"Point","coordinates":[0.73215,51.30986]},"properties":{"name":"Cromer's Wood Reservoir","category":"reservoir_covered","osm_type":"way","osm_id":"804894429"}},{"type":"Feature","geometry":{"type":"Point","coordinates":[0.23305,51.42484]},"properties":{"name":"Darenth water treatment works","category":"water_works","osm_type":"way","osm_id":"824380470","operator":"Thames Water"}},{"type":"Feature","geometry":{"type":"Point","coordinates":[0.72779,51.01412]},"properties":{"name":"Mapped water infrastructure","category":"water_tower","osm_type":"way","osm_id":"825975300"}},{"type":"Feature","geometry":{"type":"Point","coordinates":[0.21322,51.44982]},"properties":{"name":"Priory Road Vacuum Sewage Pumping Station","category":"pumping_station","osm_type":"way","osm_id":"832753371","operator":"Thames Water","ref":"PRIOP6ZZ"}},{"type":"Feature","geometry":{"type":"Point","coordinates":[0.54369,51.16849]},"properties":{"name":"Mapped water infrastructure","category":"pumping_station","osm_type":"way","osm_id":"837175747"}},{"type":"Feature","geometry":{"type":"Point","coordinates":[0.7576,51.2423]},"properties":{"name":"Mapped water infrastructure","category":"water_tower","osm_type":"way","osm_id":"839168047"}},{"type":"Feature","geometry":{"type":"Point","coordinates":[0.6594,51.02334]},"properties":{"name":"Mapped water infrastructure","category":"pumping_station","osm_type":"way","osm_id":"840483391"}},{"type":"Feature","geometry":{"type":"Point","coordinates":[0.66014,51.02302]},"properties":{"name":"Mapped water infrastructure","category":"pumping_station","osm_type":"way","osm_id":"840483393"}},{"type":"Feature","geometry":{"type":"Point","coordinates":[0.57967,51.03135]},"properties":{"name":"Mapped water infrastructure","category":"wastewater_plant","osm_type":"way","osm_id":"849890483"}},{"type":"Feature","geometry":{"type":"Point","coordinates":[0.00269,51.23395]},"properties":{"name":"Oxted WTW","category":"wastewater_plant","osm_type":"way","osm_id":"878150422","operator":"Southern Water","ref":"101679"}},{"type":"Feature","geometry":{"type":"Point","coordinates":[0.0101,51.13343]},"properties":{"name":"Mapped water infrastructure","category":"pumping_station","osm_type":"way","osm_id":"884185227","operator":"Hobdens Property Management Ltd"}},{"type":"Feature","geometry":{"type":"Point","coordinates":[0.00714,51.12818]},"properties":{"name":"Mapped water infrastructure","category":"pumping_station","osm_type":"way","osm_id":"889245566"}},{"type":"Feature","geometry":{"type":"Point","coordinates":[0.01041,51.12709]},"properties":{"name":"Mapped water infrastructure","category":"pumping_station","osm_type":"way","osm_id":"891031940"}},{"type":"Feature","geometry":{"type":"Point","coordinates":[0.27854,51.31789]},"properties":{"name":"Mapped water infrastructure","category":"reservoir_covered","osm_type":"way","osm_id":"917199876"}},{"type":"Feature","geometry":{"type":"Point","coordinates":[0.35136,51.31146]},"properties":{"name":"Mapped water infrastructure","category":"reservoir_covered","osm_type":"way","osm_id":"917202688"}},{"type":"Feature","geometry":{"type":"Point","coordinates":[0.21908,51.45114]},"properties":{"name":"Riverside Dartford (Dartford) sewage pumping station","category":"pumping_station","osm_type":"way","osm_id":"931873215","operator":"Thames Water","ref":"RIVEPBZZ"}},{"type":"Feature","geometry":{"type":"Point","coordinates":[0.15601,51.05615]},"properties":{"name":"Mapped water infrastructure","category":"reservoir_covered","osm_type":"way","osm_id":"933882121"}},{"type":"Feature","geometry":{"type":"Point","coordinates":[0.15575,51.05597]},"properties":{"name":"Mapped water infrastructure","category":"reservoir_covered","osm_type":"way","osm_id":"933882122"}},{"type":"Feature","geometry":{"type":"Point","coordinates":[0.22115,51.44542]},"properties":{"name":"Dartford Water Treatment Works","category":"water_works","osm_type":"way","osm_id":"934088222","operator":"Thames Water","ref":"DARTU1ZZ"}},{"type":"Feature","geometry":{"type":"Point","coordinates":[0.22063,51.4468]},"properties":{"name":"Overy Street Surface Water Pumping Station","category":"pumping_station","osm_type":"way","osm_id":"939112936","operator":"Thames Water"}},{"type":"Feature","geometry":{"type":"Point","coordinates":[0.45119,51.30337]},"properties":{"name":"Mapped water infrastructure","category":"wastewater_plant","osm_type":"way","osm_id":"946816439","operator":"South East Water"}},{"type":"Feature","geometry":{"type":"Point","coordinates":[0.80684,51.33534]},"properties":{"name":"Teynham WTW","category":"wastewater_plant","osm_type":"way","osm_id":"964244789","operator":"Southern Water"}},{"type":"Feature","geometry":{"type":"Point","coordinates":[0.26186,51.33715]},"properties":{"name":"Mapped water infrastructure","category":"water_well","osm_type":"way","osm_id":"965744532"}},{"type":"Feature","geometry":{"type":"Point","coordinates":[0.17273,51.44624]},"properties":{"name":"Mapped water infrastructure","category":"pumping_station","osm_type":"way","osm_id":"970621016","operator":"Thames Water"}},{"type":"Feature","geometry":{"type":"Point","coordinates":[0.00279,51.13263]},"properties":{"name":"Mapped water infrastructure","category":"pumping_station","osm_type":"way","osm_id":"972313676","operator":"Southern Water"}},{"type":"Feature","geometry":{"type":"Point","coordinates":[0.20459,51.38472]},"properties":{"name":"Farningham Hill Reservoir and Water Booster Station","category":"reservoir_covered","osm_type":"way","osm_id":"975479064"}},{"type":"Feature","geometry":{"type":"Point","coordinates":[0.36282,51.4451]},"properties":{"name":"Mapped water infrastructure","category":"pumping_station","osm_type":"way","osm_id":"988553568","operator":"Southern Water"}},{"type":"Feature","geometry":{"type":"Point","coordinates":[0.2199,51.44215]},"properties":{"name":"Mapped water infrastructure","category":"pumping_station","osm_type":"way","osm_id":"998130303"}},{"type":"Feature","geometry":{"type":"Point","coordinates":[0.49522,51.23012]},"properties":{"name":"Coxheath Water Tower","category":"water_tower","osm_type":"way","osm_id":"1016410004","operator":"EE"}},{"type":"Feature","geometry":{"type":"Point","coordinates":[0.72647,51.1913]},"properties":{"name":"Stone Hill Road Egerton WTW","category":"wastewater_plant","osm_type":"way","osm_id":"1025499330","operator":"Southern Water"}},{"type":"Feature","geometry":{"type":"Point","coordinates":[0.64113,51.20419]},"properties":{"name":"Ulcombe WTW","category":"wastewater_plant","osm_type":"way","osm_id":"1025501515","operator":"Southern Water"}},{"type":"Feature","geometry":{"type":"Point","coordinates":[0.50744,51.21372]},"properties":{"name":"Linton WTW","category":"wastewater_plant","osm_type":"way","osm_id":"1025502912","operator":"Southern Water"}},{"type":"Feature","geometry":{"type":"Point","coordinates":[0.97011,51.23914]},"properties":{"name":"Chilham STW","category":"wastewater_plant","osm_type":"way","osm_id":"1025504461","operator":"Southern Water"}},{"type":"Feature","geometry":{"type":"Point","coordinates":[0.36723,51.34541]},"properties":{"name":"Harvel WTW","category":"wastewater_plant","osm_type":"way","osm_id":"1025505982","operator":"Southern Water"}},{"type":"Feature","geometry":{"type":"Point","coordinates":[0.39935,51.37804]},"properties":{"name":"Luddesdown WTW","category":"wastewater_plant","osm_type":"way","osm_id":"1025507364","operator":"Southern Water"}},{"type":"Feature","geometry":{"type":"Point","coordinates":[0.37791,51.02945]},"properties":{"name":"Mapped water infrastructure","category":"wastewater_plant","osm_type":"way","osm_id":"1028324924"}},{"type":"Feature","geometry":{"type":"Point","coordinates":[0.3956,51.09877]},"properties":{"name":"Lamberhurst WTW","category":"wastewater_plant","osm_type":"way","osm_id":"1034859177","operator":"Southern Water","ref":"102356"}},{"type":"Feature","geometry":{"type":"Point","coordinates":[0.2356,51.45744]},"properties":{"name":"Mapped water infrastructure","category":"pumping_station","osm_type":"way","osm_id":"1036861327"}},{"type":"Feature","geometry":{"type":"Point","coordinates":[0.73504,51.19994]},"properties":{"name":"Good Intent Cottages Egerton WTW","category":"wastewater_plant","osm_type":"way","osm_id":"1041719073","operator":"Southern Water","ref":"101459"}},{"type":"Feature","geometry":{"type":"Point","coordinates":[0.88829,51.01291]},"properties":{"name":"Ivychurch WTW","category":"wastewater_plant","osm_type":"way","osm_id":"1042609436","operator":"Southern Water","ref":"101549"}},{"type":"Feature","geometry":{"type":"Point","coordinates":[0.12967,51.00939]},"properties":{"name":"High Hurstwood WTW","category":"wastewater_plant","osm_type":"way","osm_id":"1043424758","operator":"Southern Water","ref":"100470"}},{"type":"Feature","geometry":{"type":"Point","coordinates":[0.89919,51.06635]},"properties":{"name":"Bilsington WTW","category":"wastewater_plant","osm_type":"way","osm_id":"1043483264","operator":"Southern Water","ref":"100333"}},{"type":"Feature","geometry":{"type":"Point","coordinates":[0.83037,51.00003]},"properties":{"name":"Brookland WTW","category":"wastewater_plant","osm_type":"way","osm_id":"1043483848","operator":"Southern Water","ref":"103115"}},{"type":"Feature","geometry":{"type":"Point","coordinates":[0.74053,51.04129]},"properties":{"name":"Reading Street WTW","category":"wastewater_plant","osm_type":"way","osm_id":"1043484748","operator":"Southern Water","ref":"109253"}},{"type":"Feature","geometry":{"type":"Point","coordinates":[0.74105,51.01213]},"properties":{"name":"Quarry Cottages Stone In Oxney WTW","category":"wastewater_plant","osm_type":"way","osm_id":"1043485302","operator":"Southern Water","ref":"101668"}},{"type":"Feature","geometry":{"type":"Point","coordinates":[0.56595,51.11153]},"properties":{"name":"Sissinghurst Wastewater Treatment Works","category":"wastewater_plant","osm_type":"way","osm_id":"1055163692","operator":"Southern Water"}},{"type":"Feature","geometry":{"type":"Point","coordinates":[0.10452,51.38587]},"properties":{"name":"North Orpington Water Treatment Works","category":"water_works","osm_type":"way","osm_id":"1073298587","operator":"Thames Water","ref":"NORPU1ZZ"}},{"type":"Feature","geometry":{"type":"Point","coordinates":[0.79811,51.21607]},"properties":{"name":"Mapped water infrastructure","category":"reservoir_covered","osm_type":"way","osm_id":"1086806230"}},{"type":"Feature","geometry":{"type":"Point","coordinates":[0.05373,51.4677]},"properties":{"name":"Mapped water infrastructure","category":"pumping_station","osm_type":"way","osm_id":"1089626396","operator":"Thames Water"}},{"type":"Feature","geometry":{"type":"Point","coordinates":[0.05771,51.46755]},"properties":{"name":"Mapped water infrastructure","category":"pumping_station","osm_type":"way","osm_id":"1089626406","operator":"Thames Water"}},{"type":"Feature","geometry":{"type":"Point","coordinates":[0.05857,51.46703]},"properties":{"name":"Mapped water infrastructure","category":"reservoir_covered","osm_type":"way","osm_id":"1089626408","operator":"Thames Water"}},{"type":"Feature","geometry":{"type":"Point","coordinates":[0.63337,51.27146]},"properties":{"name":"Mapped water infrastructure","category":"pumping_station","osm_type":"way","osm_id":"1094337122"}},{"type":"Feature","geometry":{"type":"Point","coordinates":[0.50976,51.08721]},"properties":{"name":"Mapped water infrastructure","category":"reservoir_covered","osm_type":"way","osm_id":"1098886566"}},{"type":"Feature","geometry":{"type":"Point","coordinates":[0.51033,51.08702]},"properties":{"name":"Mapped water infrastructure","category":"reservoir_covered","osm_type":"way","osm_id":"1098886567"}},{"type":"Feature","geometry":{"type":"Point","coordinates":[0.29757,51.44974]},"properties":{"name":"Mapped water infrastructure","category":"pumping_station","osm_type":"way","osm_id":"1104183575"}},{"type":"Feature","geometry":{"type":"Point","coordinates":[0.40045,51.0091]},"properties":{"name":"Burwash Village WTW","category":"wastewater_plant","osm_type":"way","osm_id":"1114743735","operator":"Southern Water","ref":"103185"}},{"type":"Feature","geometry":{"type":"Point","coordinates":[0.11201,51.49728]},"properties":{"name":"Abbeywood Terminal SPS","category":"pumping_station","osm_type":"way","osm_id":"1120681587","operator":"Thames Water","ref":"ABBEP1ZZ"}},{"type":"Feature","geometry":{"type":"Point","coordinates":[0.4503,51.30364]},"properties":{"name":"Mapped water infrastructure","category":"pumping_station","osm_type":"way","osm_id":"1126056189"}},{"type":"Feature","geometry":{"type":"Point","coordinates":[0.26949,51.47929]},"properties":{"name":"Mapped water infrastructure","category":"pumping_station","osm_type":"way","osm_id":"1131149174"}},{"type":"Feature","geometry":{"type":"Point","coordinates":[0.99001,51.16909]},"properties":{"name":"Hastingleigh Service Reservoir","category":"reservoir_covered","osm_type":"way","osm_id":"1157900869","operator":"South East Water"}},{"type":"Feature","geometry":{"type":"Point","coordinates":[0.46367,51.42274]},"properties":{"name":"Water Supply Works","category":"water_works","osm_type":"way","osm_id":"1199388604","operator":"Southern Water"}},{"type":"Feature","geometry":{"type":"Point","coordinates":[0.83332,51.41536]},"properties":{"name":"Mapped water infrastructure","category":"reservoir_covered","osm_type":"way","osm_id":"1208911983"}},{"type":"Feature","geometry":{"type":"Point","coordinates":[0.83279,51.41562]},"properties":{"name":"Mapped water infrastructure","category":"reservoir_covered","osm_type":"way","osm_id":"1208911984"}},{"type":"Feature","geometry":{"type":"Point","coordinates":[0.45938,51.00911]},"properties":{"name":"Hurst Green WTW","category":"wastewater_plant","osm_type":"way","osm_id":"1209213244","operator":"Southern Water","ref":"100056"}},{"type":"Feature","geometry":{"type":"Point","coordinates":[0.59213,51.14423]},"properties":{"name":"Frittenden WTW","category":"wastewater_plant","osm_type":"way","osm_id":"1209214405","operator":"Southern Water","ref":"100910"}},{"type":"Feature","geometry":{"type":"Point","coordinates":[0.85335,51.16191]},"properties":{"name":"Mapped water infrastructure","category":"pumping_station","osm_type":"way","osm_id":"1212149073"}},{"type":"Feature","geometry":{"type":"Point","coordinates":[0.85933,51.16002]},"properties":{"name":"Mapped water infrastructure","category":"pumping_station","osm_type":"way","osm_id":"1212258790"}},{"type":"Feature","geometry":{"type":"Point","coordinates":[0.86365,51.1592]},"properties":{"name":"Mapped water infrastructure","category":"pumping_station","osm_type":"way","osm_id":"1212353941"}},{"type":"Feature","geometry":{"type":"Point","coordinates":[0.85889,51.15223]},"properties":{"name":"Mapped water infrastructure","category":"pumping_station","osm_type":"way","osm_id":"1217452205"}},{"type":"Feature","geometry":{"type":"Point","coordinates":[0.6114,51.4359]},"properties":{"name":"Mapped water infrastructure","category":"pumping_station","osm_type":"way","osm_id":"1222470427"}},{"type":"Feature","geometry":{"type":"Point","coordinates":[0.7968,51.42941]},"properties":{"name":"Sewage Pumping Station","category":"wastewater_plant","osm_type":"way","osm_id":"1239903612","operator":"Southern Water"}},{"type":"Feature","geometry":{"type":"Point","coordinates":[0.73389,51.3099]},"properties":{"name":"Mapped water infrastructure","category":"reservoir_covered","osm_type":"way","osm_id":"1246822858"}},{"type":"Feature","geometry":{"type":"Point","coordinates":[0.64023,51.35783]},"properties":{"name":"Gore WSW","category":"water_works","osm_type":"way","osm_id":"1253294612"}},{"type":"Feature","geometry":{"type":"Point","coordinates":[0.55462,51.36333]},"properties":{"name":"Capstone Road Chatham Wastewater Pumping Station","category":"pumping_station","osm_type":"way","osm_id":"1255982915","operator":"Southern Water","ref":"108600"}},{"type":"Feature","geometry":{"type":"Point","coordinates":[0.07181,51.4632]},"properties":{"name":"Mapped water infrastructure","category":"reservoir_covered","osm_type":"way","osm_id":"1264143641","operator":"Thames Water"}},{"type":"Feature","geometry":{"type":"Point","coordinates":[0.89837,51.12551]},"properties":{"name":"Sewage Pumping Station","category":"pumping_station","osm_type":"way","osm_id":"1264333878"}},{"type":"Feature","geometry":{"type":"Point","coordinates":[0.16819,51.48419]},"properties":{"name":"SANDP3ZZ","category":"pumping_station","osm_type":"way","osm_id":"1265236381","operator":"Thames Water","ref":"SANDP3ZZ"}},{"type":"Feature","geometry":{"type":"Point","coordinates":[0.16811,51.48393]},"properties":{"name":"Mapped water infrastructure","category":"reservoir_covered","osm_type":"way","osm_id":"1265236385"}},{"type":"Feature","geometry":{"type":"Point","coordinates":[0.24951,51.45655]},"properties":{"name":"Mapped water infrastructure","category":"pumping_station","osm_type":"way","osm_id":"1265406102","operator":"Thames Water"}},{"type":"Feature","geometry":{"type":"Point","coordinates":[0.17706,51.48208]},"properties":{"name":"Stonewood Road SPS","category":"pumping_station","osm_type":"way","osm_id":"1266169167","operator":"Thames Water","ref":"STONP7ZZ"}},{"type":"Feature","geometry":{"type":"Point","coordinates":[0.17015,51.48138]},"properties":{"name":"Fraser Road SPS","category":"pumping_station","osm_type":"way","osm_id":"1267021817","operator":"Thames Water","ref":"FRASP2ZZ"}},{"type":"Feature","geometry":{"type":"Point","coordinates":[0.00735,51.49464]},"properties":{"name":"Mapped water infrastructure","category":"pumping_station","osm_type":"way","osm_id":"1289498550"}},{"type":"Feature","geometry":{"type":"Point","coordinates":[0.74849,51.36955]},"properties":{"name":"Mapped water infrastructure","category":"pumping_station","osm_type":"way","osm_id":"1291182248"}},{"type":"Feature","geometry":{"type":"Point","coordinates":[0.74686,51.36864]},"properties":{"name":"Mapped water infrastructure","category":"pumping_station","osm_type":"way","osm_id":"1291182250"}},{"type":"Feature","geometry":{"type":"Point","coordinates":[0.74545,51.36558]},"properties":{"name":"Mapped water infrastructure","category":"pumping_station","osm_type":"way","osm_id":"1291182252"}},{"type":"Feature","geometry":{"type":"Point","coordinates":[0.75885,51.36329]},"properties":{"name":"Mapped water infrastructure","category":"pumping_station","osm_type":"way","osm_id":"1291184325"}},{"type":"Feature","geometry":{"type":"Point","coordinates":[0.04827,51.49443]},"properties":{"name":"Mapped water infrastructure","category":"pumping_station","osm_type":"way","osm_id":"1292238416"}},{"type":"Feature","geometry":{"type":"Point","coordinates":[0.57705,51.0562]},"properties":{"name":"Iden Green WTW","category":"wastewater_plant","osm_type":"way","osm_id":"1294489514","operator":"Southern Water","ref":"101388"}},{"type":"Feature","geometry":{"type":"Point","coordinates":[0.5438,51.30635]},"properties":{"name":"Mapped water infrastructure","category":"reservoir_covered","osm_type":"way","osm_id":"1305748223"}},{"type":"Feature","geometry":{"type":"Point","coordinates":[0.54353,51.30599]},"properties":{"name":"Boxley Treatment Works","category":"water_works","osm_type":"way","osm_id":"1305748224","operator":"South East Water","addr:city":"Maidstone"}},{"type":"Feature","geometry":{"type":"Point","coordinates":[0.19442,51.26153]},"properties":{"name":"Mapped water infrastructure","category":"water_works","osm_type":"way","osm_id":"1322489688"}},{"type":"Feature","geometry":{"type":"Point","coordinates":[0.53293,51.40185]},"properties":{"name":"Dock Head Road Wastewater Pumping Station","category":"pumping_station","osm_type":"way","osm_id":"1342482938","operator":"Southern Water","ref":"110259"}},{"type":"Feature","geometry":{"type":"Point","coordinates":[0.2708,51.19521]},"properties":{"name":"Tonbridge Water Treatment Works","category":"water_works","osm_type":"way","osm_id":"1348683228","operator":"South East Water"}},{"type":"Feature","geometry":{"type":"Point","coordinates":[0.27105,51.19483]},"properties":{"name":"Mapped water infrastructure","category":"water_works","osm_type":"way","osm_id":"1348683229","operator":"South East Water"}},{"type":"Feature","geometry":{"type":"Point","coordinates":[0.27127,51.19471]},"properties":{"name":"Mapped water infrastructure","category":"water_works","osm_type":"way","osm_id":"1348683230"}},{"type":"Feature","geometry":{"type":"Point","coordinates":[0.50519,51.24051]},"properties":{"name":"Coxheath WTW","category":"wastewater_plant","osm_type":"way","osm_id":"1348697840","operator":"Southern Water","ref":"102519"}},{"type":"Feature","geometry":{"type":"Point","coordinates":[0.85475,51.18208]},"properties":{"name":"Mapped water infrastructure","category":"water_works","osm_type":"way","osm_id":"1349954537"}},{"type":"Feature","geometry":{"type":"Point","coordinates":[0.83712,51.27901]},"properties":{"name":"Mapped water infrastructure","category":"water_works","osm_type":"way","osm_id":"1353943703"}},{"type":"Feature","geometry":{"type":"Point","coordinates":[0.85836,51.26746]},"properties":{"name":"Mapped water infrastructure","category":"water_works","osm_type":"way","osm_id":"1354181463"}},{"type":"Feature","geometry":{"type":"Point","coordinates":[0.79854,51.28202]},"properties":{"name":"Mapped water infrastructure","category":"water_works","osm_type":"way","osm_id":"1359024779"}},{"type":"Feature","geometry":{"type":"Point","coordinates":[0.67675,51.31163]},"properties":{"name":"Mapped water infrastructure","category":"reservoir_covered","osm_type":"way","osm_id":"1360119199"}},{"type":"Feature","geometry":{"type":"Point","coordinates":[0.65105,51.31792]},"properties":{"name":"Stockbury Water Treatment Works","category":"water_works","osm_type":"way","osm_id":"1360382173"}},{"type":"Feature","geometry":{"type":"Point","coordinates":[0.60226,51.27323]},"properties":{"name":"Mapped water infrastructure","category":"pumping_station","osm_type":"way","osm_id":"1361698365"}},{"type":"Feature","geometry":{"type":"Point","coordinates":[0.76194,51.2753]},"properties":{"name":"Mapped water infrastructure","category":"pumping_station","osm_type":"way","osm_id":"1364763955"}},{"type":"Feature","geometry":{"type":"Point","coordinates":[0.77063,51.26137]},"properties":{"name":"Mapped water infrastructure","category":"reservoir_covered","osm_type":"way","osm_id":"1364960591"}},{"type":"Feature","geometry":{"type":"Point","coordinates":[0.75827,51.24203]},"properties":{"name":"Mapped water infrastructure","category":"reservoir_covered","osm_type":"way","osm_id":"1366194986"}},{"type":"Feature","geometry":{"type":"Point","coordinates":[0.97278,51.01269]},"properties":{"name":"Mapped water infrastructure","category":"pumping_station","osm_type":"way","osm_id":"1372451825"}},{"type":"Feature","geometry":{"type":"Point","coordinates":[0.57404,51.30253]},"properties":{"name":"Mapped water infrastructure","category":"reservoir_covered","osm_type":"way","osm_id":"1372719321"}},{"type":"Feature","geometry":{"type":"Point","coordinates":[0.57377,51.30211]},"properties":{"name":"Mapped water infrastructure","category":"reservoir_covered","osm_type":"way","osm_id":"1372719322"}},{"type":"Feature","geometry":{"type":"Point","coordinates":[0.7492,51.44437]},"properties":{"name":"Mapped water infrastructure","category":"water_tower","osm_type":"way","osm_id":"1374916739"}},{"type":"Feature","geometry":{"type":"Point","coordinates":[0.78053,51.42908]},"properties":{"name":"Sewage Pumping Station","category":"pumping_station","osm_type":"way","osm_id":"1377223300","operator":"Southern Water"}},{"type":"Feature","geometry":{"type":"Point","coordinates":[0.76322,51.41866]},"properties":{"name":"Sewage Pumping Station","category":"pumping_station","osm_type":"way","osm_id":"1378248277","operator":"Southern Water","addr:city":"Minster-on-Sea"}},{"type":"Feature","geometry":{"type":"Point","coordinates":[0.44803,51.40948]},"properties":{"name":"Mapped water infrastructure","category":"reservoir_covered","osm_type":"way","osm_id":"1378291667"}},{"type":"Feature","geometry":{"type":"Point","coordinates":[0.59802,51.45572]},"properties":{"name":"St Mary Hoo WTW","category":"wastewater_plant","osm_type":"way","osm_id":"1391646676","operator":"Southern Water","ref":"101790"}},{"type":"Feature","geometry":{"type":"Point","coordinates":[0.43327,51.09001]},"properties":{"name":"Kilndown WTW","category":"wastewater_plant","osm_type":"way","osm_id":"1391648078","operator":"Southern Water","ref":"100207"}},{"type":"Feature","geometry":{"type":"Point","coordinates":[0.38551,51.05097]},"properties":{"name":"Wallcrouch WTW","category":"wastewater_plant","osm_type":"way","osm_id":"1391781117","operator":"Southern Water","ref":"101922"}},{"type":"Feature","geometry":{"type":"Point","coordinates":[0.77868,51.41932]},"properties":{"name":"Southdown Reservoir","category":"reservoir_covered","osm_type":"way","osm_id":"1408448276"}},{"type":"Feature","geometry":{"type":"Point","coordinates":[0.7788,51.41877]},"properties":{"name":"Southdown Reservoir","category":"reservoir_covered","osm_type":"way","osm_id":"1408448277"}},{"type":"Feature","geometry":{"type":"Point","coordinates":[0.34266,51.32584]},"properties":{"name":"Mapped water infrastructure","category":"reservoir_covered","osm_type":"way","osm_id":"1411917764"}},{"type":"Feature","geometry":{"type":"Point","coordinates":[0.3054,51.34234]},"properties":{"name":"Mapped water infrastructure","category":"pumping_station","osm_type":"way","osm_id":"1415620636"}},{"type":"Feature","geometry":{"type":"Point","coordinates":[0.32839,51.37182]},"properties":{"name":"Mapped water infrastructure","category":"water_tower","osm_type":"way","osm_id":"1418361563"}},{"type":"Feature","geometry":{"type":"Point","coordinates":[0.2983,51.42788]},"properties":{"name":"Mapped water infrastructure","category":"reservoir_covered","osm_type":"way","osm_id":"1420335068"}},{"type":"Feature","geometry":{"type":"Point","coordinates":[0.33768,51.39078]},"properties":{"name":"Mapped water infrastructure","category":"reservoir_covered","osm_type":"way","osm_id":"1422086686"}},{"type":"Feature","geometry":{"type":"Point","coordinates":[0.85419,51.06317]},"properties":{"name":"Mapped water infrastructure","category":"pumping_station","osm_type":"way","osm_id":"1433539444"}},{"type":"Feature","geometry":{"type":"Point","coordinates":[0.40726,51.09341]},"properties":{"name":"Mapped water infrastructure","category":"wastewater_plant","osm_type":"way","osm_id":"1445430098"}},{"type":"Feature","geometry":{"type":"Point","coordinates":[0.06403,51.19472]},"properties":{"name":"Mapped water infrastructure","category":"pumping_station","osm_type":"way","osm_id":"1447529004"}},{"type":"Feature","geometry":{"type":"Point","coordinates":[0.91928,51.06834]},"properties":{"name":"Mapped water infrastructure","category":"pumping_station","osm_type":"way","osm_id":"1449403617"}},{"type":"Feature","geometry":{"type":"Point","coordinates":[0.04264,51.40945]},"properties":{"name":"Mapped water infrastructure","category":"reservoir_covered","osm_type":"way","osm_id":"1453436891"}},{"type":"Feature","geometry":{"type":"Point","coordinates":[0.39972,51.37764]},"properties":{"name":"Mapped water infrastructure","category":"wastewater_plant","osm_type":"way","osm_id":"1471641123","operator":"Southern Water"}},{"type":"Feature","geometry":{"type":"Point","coordinates":[0.48737,51.13772]},"properties":{"name":"Mapped water infrastructure","category":"reservoir_covered","osm_type":"way","osm_id":"1476466660"}},{"type":"Feature","geometry":{"type":"Point","coordinates":[0.37886,51.16042]},"properties":{"name":"Mapped water infrastructure","category":"reservoir_covered","osm_type":"way","osm_id":"1484296839"}},{"type":"Feature","geometry":{"type":"Point","coordinates":[0.52256,51.22707]},"properties":{"name":"Mapped water infrastructure","category":"reservoir_covered","osm_type":"way","osm_id":"1498210292"}},{"type":"Feature","geometry":{"type":"Point","coordinates":[0.06365,51.19525]},"properties":{"name":"Mont St Aignan Way Edenbridge WWPS","category":"pumping_station","osm_type":"way","osm_id":"1523387254","operator":"Southern Water","ref":"109100"}},{"type":"Feature","geometry":{"type":"Point","coordinates":[0.06822,51.18671]},"properties":{"name":"Marsh Green Edenbridge WWPS","category":"pumping_station","osm_type":"way","osm_id":"1523392773","operator":"Southern Water","ref":"102031"}},{"type":"Feature","geometry":{"type":"Point","coordinates":[0.13151,51.20588]},"properties":{"name":"Mapped water infrastructure","category":"wastewater_plant","osm_type":"way","osm_id":"1526802787"}},{"type":"Feature","geometry":{"type":"Point","coordinates":[0.01972,51.27001]},"properties":{"name":"South Green Pumping Station","category":"pumping_station","osm_type":"way","osm_id":"1531564593","operator":"SES Water"}},{"type":"Feature","geometry":{"type":"Point","coordinates":[0.26749,51.20371]},"properties":{"name":"Hilden Bridge WwPS","category":"pumping_station","osm_type":"way","osm_id":"1531816660","operator":"Southern Water","ref":"100017"}},{"type":"Feature","geometry":{"type":"Point","coordinates":[0.25283,51.22071]},"properties":{"name":"Coldharbour Lane Hildenborough WwPS","category":"pumping_station","osm_type":"way","osm_id":"1531816834","operator":"Southern Water","ref":"101615"}},{"type":"Feature","geometry":{"type":"Point","coordinates":[0.32455,51.19735]},"properties":{"name":"Hartlake Boreholes","category":"pumping_station","osm_type":"way","osm_id":"1531856074","operator":"South East Water"}},{"type":"Feature","geometry":{"type":"Point","coordinates":[0.3243,51.19747]},"properties":{"name":"Mapped water infrastructure","category":"water_well","osm_type":"way","osm_id":"1531856081","operator":"South East Water"}},{"type":"Feature","geometry":{"type":"Point","coordinates":[0.32341,51.19809]},"properties":{"name":"Hartlake Boreholes","category":"pumping_station","osm_type":"way","osm_id":"1531856084","operator":"South East Water"}},{"type":"Feature","geometry":{"type":"Point","coordinates":[0.32458,51.19889]},"properties":{"name":"Hartlake Boreholes","category":"pumping_station","osm_type":"way","osm_id":"1531856087","operator":"South East Water"}},{"type":"Feature","geometry":{"type":"Point","coordinates":[0.32468,51.19887]},"properties":{"name":"Mapped water infrastructure","category":"water_well","osm_type":"way","osm_id":"1531856090","operator":"South East Water"}},{"type":"Feature","geometry":{"type":"Point","coordinates":[0.32088,51.1985]},"properties":{"name":"Hartlake Boreholes","category":"pumping_station","osm_type":"way","osm_id":"1531856092","operator":"South East Water"}},{"type":"Feature","geometry":{"type":"Point","coordinates":[0.32233,51.19892]},"properties":{"name":"Hartlake Boreholes","category":"pumping_station","osm_type":"way","osm_id":"1531856094","operator":"South East Water"}},{"type":"Feature","geometry":{"type":"Point","coordinates":[0.32219,51.19886]},"properties":{"name":"Mapped water infrastructure","category":"water_well","osm_type":"way","osm_id":"1531856098","operator":"South East Water"}},{"type":"Feature","geometry":{"type":"Point","coordinates":[0.32349,51.19813]},"properties":{"name":"Mapped water infrastructure","category":"water_well","osm_type":"way","osm_id":"1531856099","operator":"South East Water"}},{"type":"Feature","geometry":{"type":"Point","coordinates":[0.32079,51.19843]},"properties":{"name":"Mapped water infrastructure","category":"water_well","osm_type":"way","osm_id":"1531856101","operator":"South East Water"}},{"type":"Feature","geometry":{"type":"Point","coordinates":[0.32733,51.18741]},"properties":{"name":"Mapped water infrastructure","category":"reservoir_covered","osm_type":"way","osm_id":"1534313120"}},{"type":"Feature","geometry":{"type":"Point","coordinates":[0.39969,51.22208]},"properties":{"name":"Mapped water infrastructure","category":"pumping_station","osm_type":"way","osm_id":"1535285114"}},{"type":"Feature","geometry":{"type":"Point","coordinates":[0.28213,51.23789]},"properties":{"name":"Mapped water infrastructure","category":"reservoir_covered","osm_type":"way","osm_id":"1546545304"}},{"type":"Feature","geometry":{"type":"Point","coordinates":[0.2534,51.27369]},"properties":{"name":"Mapped water infrastructure","category":"reservoir_covered","osm_type":"way","osm_id":"1552230765"}},{"type":"Feature","geometry":{"type":"Point","coordinates":[0.27187,51.18269]},"properties":{"name":"Mapped water infrastructure","category":"reservoir_covered","osm_type":"way","osm_id":"1553937278"}},{"type":"Feature","geometry":{"type":"Point","coordinates":[0.27182,51.18301]},"properties":{"name":"Mapped water infrastructure","category":"reservoir_covered","osm_type":"way","osm_id":"1553937279"}},{"type":"Feature","geometry":{"type":"Point","coordinates":[0.37914,51.09932]},"properties":{"name":"Mapped water infrastructure","category":"pumping_station","osm_type":"way","osm_id":"1556582204"}},{"type":"Feature","geometry":{"type":"Point","coordinates":[0.35336,51.13146]},"properties":{"name":"Mapped water infrastructure","category":"reservoir_covered","osm_type":"way","osm_id":"1556823881"}},{"type":"Feature","geometry":{"type":"Point","coordinates":[0.35296,51.13116]},"properties":{"name":"Mapped water infrastructure","category":"reservoir_covered","osm_type":"way","osm_id":"1556823882"}},{"type":"Feature","geometry":{"type":"Point","coordinates":[0.01621,51.42366]},"properties":{"name":"Bromley Reservoir","category":"reservoir_covered","osm_type":"way","osm_id":"4074720"}},{"type":"Feature","geometry":{"type":"Point","coordinates":[0.06128,51.45145]},"properties":{"name":"Mapped water infrastructure","category":"reservoir_covered","osm_type":"way","osm_id":"14118890"}},{"type":"Feature","geometry":{"type":"Point","coordinates":[0.32765,51.43782]},"properties":{"name":"Northfleet Wastewater Treatment Works","category":"wastewater_plant","osm_type":"way","osm_id":"38229103","operator":"Southern Water"}},{"type":"Feature","geometry":{"type":"Point","coordinates":[0.86394,51.41201]},"properties":{"name":"Mapped water infrastructure","category":"pumping_station","osm_type":"way","osm_id":"60486132"}},{"type":"Feature","geometry":{"type":"Point","coordinates":[0.89891,51.39853]},"properties":{"name":"Mapped water infrastructure","category":"pumping_station","osm_type":"way","osm_id":"60492351"}},{"type":"Feature","geometry":{"type":"Point","coordinates":[0.49671,51.43698]},"properties":{"name":"Mapped water infrastructure","category":"pumping_station","osm_type":"way","osm_id":"88503717","operator":"Southern Water"}},{"type":"Feature","geometry":{"type":"Point","coordinates":[0.20089,51.12977]},"properties":{"name":"Mapped water infrastructure","category":"water_tower","osm_type":"way","osm_id":"94710643"}},{"type":"Feature","geometry":{"type":"Point","coordinates":[0.61384,51.00153]},"properties":{"name":"Mapped water infrastructure","category":"wastewater_plant","osm_type":"way","osm_id":"119735454"}},{"type":"Feature","geometry":{"type":"Point","coordinates":[0.06035,51.49967]},"properties":{"name":"Store Road Pumping Station","category":"pumping_station","osm_type":"way","osm_id":"196384564","operator":"Thames Water"}},{"type":"Feature","geometry":{"type":"Point","coordinates":[0.415,51.47735]},"properties":{"name":"Mapped water infrastructure","category":"water_tower","osm_type":"way","osm_id":"203537680"}},{"type":"Feature","geometry":{"type":"Point","coordinates":[0.62957,51.04922]},"properties":{"name":"Mapped water infrastructure","category":"water_tower","osm_type":"way","osm_id":"233095901"}},{"type":"Feature","geometry":{"type":"Point","coordinates":[0.65203,51.46626]},"properties":{"name":"Mapped water infrastructure","category":"pumping_station","osm_type":"way","osm_id":"235461781"}},{"type":"Feature","geometry":{"type":"Point","coordinates":[0.75372,51.36327]},"properties":{"name":"Mapped water infrastructure","category":"water_tower","osm_type":"way","osm_id":"342258432"}},{"type":"Feature","geometry":{"type":"Point","coordinates":[0.33856,51.44551]},"properties":{"name":"Mapped water infrastructure","category":"water_tower","osm_type":"way","osm_id":"424798169"}},{"type":"Feature","geometry":{"type":"Point","coordinates":[0.13113,51.18173]},"properties":{"name":"Threshers Field Hever WTW","category":"wastewater_plant","osm_type":"way","osm_id":"493866908","operator":"Southern Water","ref":"111189"}},{"type":"Feature","geometry":{"type":"Point","coordinates":[0.14527,51.18837]},"properties":{"name":"Chiddingstone Castle WTW","category":"wastewater_plant","osm_type":"way","osm_id":"493866910","operator":"Southern Water","ref":"102871"}},{"type":"Feature","geometry":{"type":"Point","coordinates":[0.13198,51.04658]},"properties":{"name":"Abseil Tower","category":"water_tower","osm_type":"way","osm_id":"509889570"}},{"type":"Feature","geometry":{"type":"Point","coordinates":[0.33412,51.21789]},"properties":{"name":"Hadlow WTW","category":"wastewater_plant","osm_type":"way","osm_id":"521287970","operator":"Southern Water"}},{"type":"Feature","geometry":{"type":"Point","coordinates":[0.0041,51.26883]},"properties":{"name":"Mapped water infrastructure","category":"pumping_station","osm_type":"way","osm_id":"557919507"}},{"type":"Feature","geometry":{"type":"Point","coordinates":[0.0041,51.269]},"properties":{"name":"Mapped water infrastructure","category":"reservoir_covered","osm_type":"way","osm_id":"557919511"}},{"type":"Feature","geometry":{"type":"Point","coordinates":[0.10257,51.30573]},"properties":{"name":"Mapped water infrastructure","category":"reservoir_covered","osm_type":"way","osm_id":"569024334"}},{"type":"Feature","geometry":{"type":"Point","coordinates":[0.66004,51.27672]},"properties":{"name":"Mapped water infrastructure","category":"water_tower","osm_type":"way","osm_id":"633989849"}},{"type":"Feature","geometry":{"type":"Point","coordinates":[0.13593,51.43432]},"properties":{"name":"Bexley Pumping Station","category":"pumping_station","osm_type":"way","osm_id":"716671860","addr:city":"Sidcup","addr:postcode":"DA14 4PT"}},{"type":"Feature","geometry":{"type":"Point","coordinates":[0.91325,51.13813]},"properties":{"name":"Mapped water infrastructure","category":"pumping_station","osm_type":"way","osm_id":"800130759"}},{"type":"Feature","geometry":{"type":"Point","coordinates":[0.30647,51.45328]},"properties":{"name":"Mapped water infrastructure","category":"pumping_station","osm_type":"way","osm_id":"808590426","operator":"Southern Water"}},{"type":"Feature","geometry":{"type":"Point","coordinates":[0.23926,51.44051]},"properties":{"name":"Watling Street Sewage Pumping Station","category":"pumping_station","osm_type":"way","osm_id":"821257090","operator":"Thames Water","ref":"WATLP1ZZ"}},{"type":"Feature","geometry":{"type":"Point","coordinates":[0.19671,51.45572]},"properties":{"name":"Jolly Farmers Trunk Sewers Compound","category":"wastewater_plant","osm_type":"way","osm_id":"860416998","operator":"Thames Water","ref":"GREEP1ZZ"}},{"type":"Feature","geometry":{"type":"Point","coordinates":[0.72107,51.45268]},"properties":{"name":"Grain WTW","category":"wastewater_plant","osm_type":"way","osm_id":"963787907","operator":"Southern Water"}},{"type":"Feature","geometry":{"type":"Point","coordinates":[0.32774,51.08259]},"properties":{"name":"Whitegates Lane Wadhurst WTW","category":"wastewater_plant","osm_type":"way","osm_id":"1009983486","operator":"Southern Water","ref":"102893"}},{"type":"Feature","geometry":{"type":"Point","coordinates":[0.19177,51.47782]},"properties":{"name":"Manor Road SPS","category":"pumping_station","osm_type":"way","osm_id":"1087376624","ref":"MANOP9ZZ"}},{"type":"Feature","geometry":{"type":"Point","coordinates":[0.84098,51.38833]},"properties":{"name":"Eastchurch Water Treatment Works","category":"wastewater_plant","osm_type":"way","osm_id":"1088429332","operator":"Southern Water","ref":"100505","addr:city":"Eastchurch"}},{"type":"Feature","geometry":{"type":"Point","coordinates":[0.74477,51.35053]},"properties":{"name":"Sittingbourne WTW","category":"wastewater_plant","osm_type":"way","osm_id":"1088429333","operator":"Southern Water","ref":"103224"}},{"type":"Feature","geometry":{"type":"Point","coordinates":[0.4552,51.32645]},"properties":{"name":"Ham Hill STW","category":"wastewater_plant","osm_type":"way","osm_id":"1088429334","operator":"Southern Water"}},{"type":"Feature","geometry":{"type":"Point","coordinates":[0.59964,51.16942]},"properties":{"name":"Headcorn STW","category":"wastewater_plant","osm_type":"way","osm_id":"1088429335","operator":"Southern Water"}},{"type":"Feature","geometry":{"type":"Point","coordinates":[0.26088,51.45279]},"properties":{"name":"Stone Pumping Station","category":"pumping_station","osm_type":"way","osm_id":"1094331591","operator":"Thames Water"}},{"type":"Feature","geometry":{"type":"Point","coordinates":[0.83266,51.41622]},"properties":{"name":"Mapped water infrastructure","category":"water_tower","osm_type":"way","osm_id":"1208909244"}},{"type":"Feature","geometry":{"type":"Point","coordinates":[0.83251,51.41616]},"properties":{"name":"Mapped water infrastructure","category":"pumping_station","osm_type":"way","osm_id":"1208909245"}},{"type":"Feature","geometry":{"type":"Point","coordinates":[0.84115,51.41672]},"properties":{"name":"Mapped water infrastructure","category":"pumping_station","osm_type":"way","osm_id":"1208913193","addr:city":"Eastchurch"}},{"type":"Feature","geometry":{"type":"Point","coordinates":[0.76092,51.43514]},"properties":{"name":"Mapped water infrastructure","category":"pumping_station","osm_type":"way","osm_id":"1235156326","operator":"Southern Water","addr:city":"Sheerness","addr:postcode":"ME12 1QT"}},{"type":"Feature","geometry":{"type":"Point","coordinates":[0.48081,51.33403]},"properties":{"name":"Burham Service Reservoir","category":"reservoir_covered","osm_type":"way","osm_id":"1258593255"}},{"type":"Feature","geometry":{"type":"Point","coordinates":[0.43608,51.35274]},"properties":{"name":"Halling Chalk Water Treatment Works","category":"water_works","osm_type":"way","osm_id":"1392707874","operator":"South East Water"}},{"type":"Feature","geometry":{"type":"Point","coordinates":[0.20836,51.25023]},"properties":{"name":"Riverhill Reservoir","category":"reservoir_covered","osm_type":"way","osm_id":"1467326328"}},{"type":"Feature","geometry":{"type":"Point","coordinates":[0.24574,51.20003]},"properties":{"name":"Mapped water infrastructure","category":"pumping_station","osm_type":"way","osm_id":"1486245948"}}]}