{"type":"FeatureCollection","features":[{"type":"Feature","geometry":{"type":"Point","coordinates":[0.21386,50.79197]},"properties":{"name":"Mapped water infrastructure","category":"drinking_water","osm_type":"node","osm_id":"379662992"}},{"type":"Feature","geometry":{"type":"Point","coordinates":[0.01943,50.82945]},"properties":{"name":"Mapped water infrastructure","category":"drinking_water","osm_type":"node","osm_id":"477275771"}},{"type":"Feature","geometry":{"type":"Point","coordinates":[0.01918,50.84102]},"properties":{"name":"Mapped water infrastructure","category":"wastewater_plant","osm_type":"node","osm_id":"567999554"}},{"type":"Feature","geometry":{"type":"Point","coordinates":[0.91911,50.97892]},"properties":{"name":"Mapped water infrastructure","category":"drinking_water","osm_type":"node","osm_id":"768940992"}},{"type":"Feature","geometry":{"type":"Point","coordinates":[0.15782,50.80733]},"properties":{"name":"Mapped water infrastructure","category":"water_works","osm_type":"node","osm_id":"836652847"}},{"type":"Feature","geometry":{"type":"Point","coordinates":[0.16082,50.79772]},"properties":{"name":"Mapped water infrastructure","category":"drinking_water","osm_type":"node","osm_id":"1543246076"}},{"type":"Feature","geometry":{"type":"Point","coordinates":[0.55321,50.85068]},"properties":{"name":"Mapped water infrastructure","category":"drinking_water","osm_type":"node","osm_id":"1575950761"}},{"type":"Feature","geometry":{"type":"Point","coordinates":[0.43176,50.94349]},"properties":{"name":"Mapped water infrastructure","category":"water_tower","osm_type":"node","osm_id":"1965673035"}},{"type":"Feature","geometry":{"type":"Point","coordinates":[0.05886,50.89417]},"properties":{"name":"Well House","category":"water_well","osm_type":"node","osm_id":"2588181897"}},{"type":"Feature","geometry":{"type":"Point","coordinates":[0.05545,50.8931]},"properties":{"name":"Village well","category":"water_well","osm_type":"node","osm_id":"2588387012"}},{"type":"Feature","geometry":{"type":"Point","coordinates":[0.96837,50.98106]},"properties":{"name":"Mapped water infrastructure","category":"drinking_water","osm_type":"node","osm_id":"2919241321"}},{"type":"Feature","geometry":{"type":"Point","coordinates":[0.04703,50.85543]},"properties":{"name":"Mapped water infrastructure","category":"pumping_station","osm_type":"node","osm_id":"4010300085"}},{"type":"Feature","geometry":{"type":"Point","coordinates":[0.47932,50.84475]},"properties":{"name":"Mapped water infrastructure","category":"water_well","osm_type":"node","osm_id":"4764828802"}},{"type":"Feature","geometry":{"type":"Point","coordinates":[0.4739,50.84577]},"properties":{"name":"Mapped water infrastructure","category":"water_well","osm_type":"node","osm_id":"4966099752"}},{"type":"Feature","geometry":{"type":"Point","coordinates":[0.4788,50.84525]},"properties":{"name":"Mapped water infrastructure","category":"water_well","osm_type":"node","osm_id":"4970871720"}},{"type":"Feature","geometry":{"type":"Point","coordinates":[0.44783,50.84569]},"properties":{"name":"Mapped water infrastructure","category":"water_well","osm_type":"node","osm_id":"4993013219"}},{"type":"Feature","geometry":{"type":"Point","coordinates":[0.20153,50.74331]},"properties":{"name":"Mapped water infrastructure","category":"drinking_water","osm_type":"node","osm_id":"5909662585"}},{"type":"Feature","geometry":{"type":"Point","coordinates":[0.03417,50.83183]},"properties":{"name":"Mapped water infrastructure","category":"drinking_water","osm_type":"node","osm_id":"5913658185"}},{"type":"Feature","geometry":{"type":"Point","coordinates":[0.01247,50.87145]},"properties":{"name":"Southern Water Works","category":"water_works","osm_type":"node","osm_id":"6141200901","operator":"Southern Water"}},{"type":"Feature","geometry":{"type":"Point","coordinates":[0.20303,50.86688]},"properties":{"name":"Mapped water infrastructure","category":"water_well","osm_type":"node","osm_id":"7963930553"}},{"type":"Feature","geometry":{"type":"Point","coordinates":[0.37016,50.91209]},"properties":{"name":"Mapped water infrastructure","category":"water_well","osm_type":"node","osm_id":"8184596815"}},{"type":"Feature","geometry":{"type":"Point","coordinates":[0.10422,50.76688]},"properties":{"name":"Mapped water infrastructure","category":"drinking_water","osm_type":"node","osm_id":"8780064635","opening_hours":"24/7"}},{"type":"Feature","geometry":{"type":"Point","coordinates":[0.0988,50.76968]},"properties":{"name":"Mapped water infrastructure","category":"drinking_water","osm_type":"node","osm_id":"8780064636","opening_hours":"24/7"}},{"type":"Feature","geometry":{"type":"Point","coordinates":[0.37949,50.82322]},"properties":{"name":"Mapped water infrastructure","category":"water_point","osm_type":"node","osm_id":"9366150557"}},{"type":"Feature","geometry":{"type":"Point","coordinates":[0.37869,50.8227]},"properties":{"name":"Mapped water infrastructure","category":"water_point","osm_type":"node","osm_id":"9366150558"}},{"type":"Feature","geometry":{"type":"Point","coordinates":[0.37953,50.82239]},"properties":{"name":"Mapped water infrastructure","category":"water_point","osm_type":"node","osm_id":"9366150559"}},{"type":"Feature","geometry":{"type":"Point","coordinates":[0.08809,50.77499]},"properties":{"name":"Mapped water infrastructure","category":"drinking_water","osm_type":"node","osm_id":"9672547791","opening_hours":"24/7"}},{"type":"Feature","geometry":{"type":"Point","coordinates":[0.95379,50.99964]},"properties":{"name":"Mapped water infrastructure","category":"drinking_water","osm_type":"node","osm_id":"9742070770"}},{"type":"Feature","geometry":{"type":"Point","coordinates":[0.28729,50.76272]},"properties":{"name":"Mapped water infrastructure","category":"drinking_water","osm_type":"node","osm_id":"9923296093","opening_hours":"24/7"}},{"type":"Feature","geometry":{"type":"Point","coordinates":[0.44513,50.86587]},"properties":{"name":"Mapped water infrastructure","category":"water_point","osm_type":"node","osm_id":"9971272281"}},{"type":"Feature","geometry":{"type":"Point","coordinates":[0.44455,50.8651]},"properties":{"name":"Mapped water infrastructure","category":"water_point","osm_type":"node","osm_id":"9971272282"}},{"type":"Feature","geometry":{"type":"Point","coordinates":[0.44576,50.86515]},"properties":{"name":"Mapped water infrastructure","category":"water_point","osm_type":"node","osm_id":"9971272283"}},{"type":"Feature","geometry":{"type":"Point","coordinates":[0.37903,50.98752]},"properties":{"name":"Mapped water infrastructure","category":"water_well","osm_type":"node","osm_id":"10799138183"}},{"type":"Feature","geometry":{"type":"Point","coordinates":[0.20112,50.74303]},"properties":{"name":"Mapped water infrastructure","category":"drinking_water","osm_type":"node","osm_id":"11014602609"}},{"type":"Feature","geometry":{"type":"Point","coordinates":[0.47146,50.83692]},"properties":{"name":"Mapped water infrastructure","category":"drinking_water","osm_type":"node","osm_id":"11034165271","operator":"Sea-Changers"}},{"type":"Feature","geometry":{"type":"Point","coordinates":[0.47551,50.92781]},"properties":{"name":"Mapped water infrastructure","category":"water_well","osm_type":"node","osm_id":"11043757403"}},{"type":"Feature","geometry":{"type":"Point","coordinates":[0.52171,50.8516]},"properties":{"name":"Cappagh Browne","category":"wastewater_plant","osm_type":"node","osm_id":"11172010626","operator":"Cappagh Browne (on behalf of Southern Water)","addr:city":"St. Leonards-on-Sea","addr:postcode":"TN38 8AL"}},{"type":"Feature","geometry":{"type":"Point","coordinates":[0.42516,50.85988]},"properties":{"name":"Mapped water infrastructure","category":"water_well","osm_type":"node","osm_id":"11776441705"}},{"type":"Feature","geometry":{"type":"Point","coordinates":[0.73277,50.95606]},"properties":{"name":"Mapped water infrastructure","category":"water_well","osm_type":"node","osm_id":"12096819323"}},{"type":"Feature","geometry":{"type":"Point","coordinates":[0.10589,50.76704]},"properties":{"name":"Mapped water infrastructure","category":"drinking_water","osm_type":"node","osm_id":"12133849444"}},{"type":"Feature","geometry":{"type":"Point","coordinates":[0.72105,50.97158]},"properties":{"name":"Mapped water infrastructure","category":"pumping_station","osm_type":"node","osm_id":"12145968921"}},{"type":"Feature","geometry":{"type":"Point","coordinates":[0.2721,50.75313]},"properties":{"name":"Mapped water infrastructure","category":"drinking_water","osm_type":"node","osm_id":"12302314105"}},{"type":"Feature","geometry":{"type":"Point","coordinates":[0.28432,50.76262]},"properties":{"name":"Mapped water infrastructure","category":"drinking_water","osm_type":"node","osm_id":"12307578804"}},{"type":"Feature","geometry":{"type":"Point","coordinates":[0.59461,50.85625]},"properties":{"name":"Mapped water infrastructure","category":"drinking_water","osm_type":"node","osm_id":"12323574486"}},{"type":"Feature","geometry":{"type":"Point","coordinates":[0.00047,50.79383]},"properties":{"name":"Mapped water infrastructure","category":"water_well","osm_type":"node","osm_id":"13022617610"}},{"type":"Feature","geometry":{"type":"Point","coordinates":[0.52087,50.89522]},"properties":{"name":"Mapped water infrastructure","category":"water_tower","osm_type":"node","osm_id":"13301656336","operator":"Crowhurst Park (private)"}},{"type":"Feature","geometry":{"type":"Point","coordinates":[0.9083,50.93172]},"properties":{"name":"Mapped water infrastructure","category":"drinking_water","osm_type":"node","osm_id":"13447265172"}},{"type":"Feature","geometry":{"type":"Point","coordinates":[0.90949,50.94879]},"properties":{"name":"Mapped water infrastructure","category":"drinking_water","osm_type":"node","osm_id":"13447267886"}},{"type":"Feature","geometry":{"type":"Point","coordinates":[0.01725,50.87271]},"properties":{"name":"Mapped water infrastructure","category":"water_well","osm_type":"node","osm_id":"13458482116"}},{"type":"Feature","geometry":{"type":"Point","coordinates":[0.10115,50.77227]},"properties":{"name":"Mapped water infrastructure","category":"drinking_water","osm_type":"node","osm_id":"13721058562","operator":"Seaford Town Council","wheelchair":"yes"}},{"type":"Feature","geometry":{"type":"Point","coordinates":[0.21386,50.86251]},"properties":{"name":"Mapped water infrastructure","category":"water_well","osm_type":"node","osm_id":"13746219886"}},{"type":"Feature","geometry":{"type":"Point","coordinates":[0.75535,50.98781]},"properties":{"name":"Boonshill Pumping Station","category":"pumping_station","osm_type":"node","osm_id":"13812272579","operator":"Environment Agency"}},{"type":"Feature","geometry":{"type":"Point","coordinates":[0.2222,50.80689]},"properties":{"name":"Mapped water infrastructure","category":"reservoir_covered","osm_type":"node","osm_id":"14081723870"}},{"type":"Feature","geometry":{"type":"Point","coordinates":[0.01519,50.7944]},"properties":{"name":"Peacehaven Waste Water Treatment Works","category":"wastewater_plant","osm_type":"way","osm_id":"26400748","operator":"Southern Water"}},{"type":"Feature","geometry":{"type":"Point","coordinates":[0.48266,50.85536]},"properties":{"name":"Mapped water infrastructure","category":"reservoir_covered","osm_type":"way","osm_id":"28944520"}},{"type":"Feature","geometry":{"type":"Point","coordinates":[0.58745,50.90903]},"properties":{"name":"Westfield Wastewater Treatment Works","category":"wastewater_plant","osm_type":"way","osm_id":"34282459","operator":"Southern Water","ref":"102818"}},{"type":"Feature","geometry":{"type":"Point","coordinates":[0.2705,50.85399]},"properties":{"name":"Hailsham South Wastewater Treatment Works","category":"wastewater_plant","osm_type":"way","osm_id":"38444533","operator":"Southern Water","ref":"103000"}},{"type":"Feature","geometry":{"type":"Point","coordinates":[0.88831,50.94799]},"properties":{"name":"Lydd WTW","category":"wastewater_plant","osm_type":"way","osm_id":"91004048","operator":"Southern Water","ref":"102466"}},{"type":"Feature","geometry":{"type":"Point","coordinates":[0.02359,50.97852]},"properties":{"name":"Mapped water infrastructure","category":"wastewater_plant","osm_type":"way","osm_id":"91082445"}},{"type":"Feature","geometry":{"type":"Point","coordinates":[0.43917,50.89447]},"properties":{"name":"Mapped water infrastructure","category":"wastewater_plant","osm_type":"way","osm_id":"91087977"}},{"type":"Feature","geometry":{"type":"Point","coordinates":[0.74363,50.94465]},"properties":{"name":"Rye Wastewater Treatment Works","category":"wastewater_plant","osm_type":"way","osm_id":"93641250","operator":"Southern Water","ref":"103192"}},{"type":"Feature","geometry":{"type":"Point","coordinates":[0.94256,50.94371]},"properties":{"name":"Mapped water infrastructure","category":"water_tower","osm_type":"way","osm_id":"94943800"}},{"type":"Feature","geometry":{"type":"Point","coordinates":[0.12937,50.99235]},"properties":{"name":"Mapped water infrastructure","category":"wastewater_plant","osm_type":"way","osm_id":"99239092"}},{"type":"Feature","geometry":{"type":"Point","coordinates":[0.08432,50.96614]},"properties":{"name":"Uckfield Waste Water Treatment Plant","category":"wastewater_plant","osm_type":"way","osm_id":"99313893","operator":"Southern Water","ref":"102603"}},{"type":"Feature","geometry":{"type":"Point","coordinates":[0.01108,50.9332]},"properties":{"name":"Barcombe New WTW","category":"wastewater_plant","osm_type":"way","osm_id":"104668561","operator":"Southern Water","ref":"101886"}},{"type":"Feature","geometry":{"type":"Point","coordinates":[0.08107,50.89323]},"properties":{"name":"Mapped water infrastructure","category":"wastewater_plant","osm_type":"way","osm_id":"104670688"}},{"type":"Feature","geometry":{"type":"Point","coordinates":[0.70501,50.92843]},"properties":{"name":"Mapped water infrastructure","category":"wastewater_plant","osm_type":"way","osm_id":"104969463"}},{"type":"Feature","geometry":{"type":"Point","coordinates":[0.0604,50.78809]},"properties":{"name":"Newhaven Wastewater Treatment Works","category":"wastewater_plant","osm_type":"way","osm_id":"105613231","operator":"Southern Water"}},{"type":"Feature","geometry":{"type":"Point","coordinates":[0.00057,50.87247]},"properties":{"name":"Mapped water infrastructure","category":"reservoir_covered","osm_type":"way","osm_id":"150639927"}},{"type":"Feature","geometry":{"type":"Point","coordinates":[0.50878,50.85683]},"properties":{"name":"Pebsham Waste Water Treatment Works","category":"wastewater_plant","osm_type":"way","osm_id":"205219357","operator":"Southern Water","ref":"107431"}},{"type":"Feature","geometry":{"type":"Point","coordinates":[0.50115,50.91812]},"properties":{"name":"Battle Wastewater Treatment Works","category":"wastewater_plant","osm_type":"way","osm_id":"276465787","operator":"Southern Water","ref":"102534","addr:city":"Battle","addr:postcode":"TN33 0GD"}},{"type":"Feature","geometry":{"type":"Point","coordinates":[0.54425,50.93386]},"properties":{"name":"Mapped water infrastructure","category":"wastewater_plant","osm_type":"way","osm_id":"288901550"}},{"type":"Feature","geometry":{"type":"Point","coordinates":[0.48189,50.91682]},"properties":{"name":"Mapped water infrastructure","category":"water_works","osm_type":"way","osm_id":"298481867"}},{"type":"Feature","geometry":{"type":"Point","coordinates":[0.15521,50.79808]},"properties":{"name":"Mapped water infrastructure","category":"wastewater_plant","osm_type":"way","osm_id":"317706286"}},{"type":"Feature","geometry":{"type":"Point","coordinates":[0.26753,50.9306]},"properties":{"name":"Herstmonceux Windmill Hill STW","category":"wastewater_plant","osm_type":"way","osm_id":"342577979","operator":"Southern Water"}},{"type":"Feature","geometry":{"type":"Point","coordinates":[0.17966,50.81016]},"properties":{"name":"Mapped water infrastructure","category":"reservoir_covered","osm_type":"way","osm_id":"429089644"}},{"type":"Feature","geometry":{"type":"Point","coordinates":[0.10299,50.97916]},"properties":{"name":"Uckfield Service Reservoir","category":"reservoir_covered","osm_type":"way","osm_id":"482693180","operator":"South East Water"}},{"type":"Feature","geometry":{"type":"Point","coordinates":[0.20654,50.7453]},"properties":{"name":"Mapped water infrastructure","category":"wastewater_plant","osm_type":"way","osm_id":"522536449"}},{"type":"Feature","geometry":{"type":"Point","coordinates":[0.42705,50.83985]},"properties":{"name":"Mapped water infrastructure","category":"reservoir_covered","osm_type":"way","osm_id":"532279128"}},{"type":"Feature","geometry":{"type":"Point","coordinates":[0.16323,50.97011]},"properties":{"name":"Mapped water infrastructure","category":"wastewater_plant","osm_type":"way","osm_id":"589066240"}},{"type":"Feature","geometry":{"type":"Point","coordinates":[0.15183,50.98921]},"properties":{"name":"Mapped water infrastructure","category":"reservoir_covered","osm_type":"way","osm_id":"591195419"}},{"type":"Feature","geometry":{"type":"Point","coordinates":[0.18912,50.76591]},"properties":{"name":"Mapped water infrastructure","category":"water_works","osm_type":"way","osm_id":"638566269"}},{"type":"Feature","geometry":{"type":"Point","coordinates":[0.18396,50.84084]},"properties":{"name":"Mapped water infrastructure","category":"wastewater_plant","osm_type":"way","osm_id":"638735559"}},{"type":"Feature","geometry":{"type":"Point","coordinates":[0.1839,50.84001]},"properties":{"name":"Mapped water infrastructure","category":"water_works","osm_type":"way","osm_id":"638735564"}},{"type":"Feature","geometry":{"type":"Point","coordinates":[0.18171,50.84109]},"properties":{"name":"Mapped water infrastructure","category":"water_works","osm_type":"way","osm_id":"638735565"}},{"type":"Feature","geometry":{"type":"Point","coordinates":[0.18169,50.84146]},"properties":{"name":"Mapped water infrastructure","category":"pumping_station","osm_type":"way","osm_id":"638735566"}},{"type":"Feature","geometry":{"type":"Point","coordinates":[0.16253,50.91759]},"properties":{"name":"East Hoathly WTW","category":"wastewater_plant","osm_type":"way","osm_id":"672397747","operator":"Southern Water","ref":"100669"}},{"type":"Feature","geometry":{"type":"Point","coordinates":[0.68939,50.91719]},"properties":{"name":"Mapped water infrastructure","category":"wastewater_plant","osm_type":"way","osm_id":"760847433"}},{"type":"Feature","geometry":{"type":"Point","coordinates":[0.38493,50.82348]},"properties":{"name":"101779","category":"pumping_station","osm_type":"way","osm_id":"783679801","operator":"Southern Water","ref":"101779"}},{"type":"Feature","geometry":{"type":"Point","coordinates":[0.57962,50.93131]},"properties":{"name":"Mapped water infrastructure","category":"water_works","osm_type":"way","osm_id":"784621838","operator":"Southern Water"}},{"type":"Feature","geometry":{"type":"Point","coordinates":[0.00023,50.8811]},"properties":{"name":"Mapped water infrastructure","category":"pumping_station","osm_type":"way","osm_id":"787154151"}},{"type":"Feature","geometry":{"type":"Point","coordinates":[0.20303,50.86687]},"properties":{"name":"Mapped water infrastructure","category":"water_well","osm_type":"way","osm_id":"853868748"}},{"type":"Feature","geometry":{"type":"Point","coordinates":[0.72546,50.99198]},"properties":{"name":"Mapped water infrastructure","category":"wastewater_plant","osm_type":"way","osm_id":"856263942"}},{"type":"Feature","geometry":{"type":"Point","coordinates":[0.46795,50.83781]},"properties":{"name":"Mapped water infrastructure","category":"reservoir_covered","osm_type":"way","osm_id":"859948745"}},{"type":"Feature","geometry":{"type":"Point","coordinates":[0.72879,50.96925]},"properties":{"name":"Mapped water infrastructure","category":"pumping_station","osm_type":"way","osm_id":"860428883"}},{"type":"Feature","geometry":{"type":"Point","coordinates":[0.42988,50.84266]},"properties":{"name":"109023","category":"pumping_station","osm_type":"way","osm_id":"866447451","operator":"Southern Water","ref":"109023"}},{"type":"Feature","geometry":{"type":"Point","coordinates":[0.27385,50.8744]},"properties":{"name":"Hailsham North STW","category":"wastewater_plant","osm_type":"way","osm_id":"876522119","operator":"Southern Water"}},{"type":"Feature","geometry":{"type":"Point","coordinates":[0.82824,50.93182]},"properties":{"name":"Mapped water infrastructure","category":"wastewater_plant","osm_type":"way","osm_id":"878397996"}},{"type":"Feature","geometry":{"type":"Point","coordinates":[0.94255,50.94369]},"properties":{"name":"Mapped water infrastructure","category":"water_tower","osm_type":"way","osm_id":"882071426"}},{"type":"Feature","geometry":{"type":"Point","coordinates":[0.21853,50.81107]},"properties":{"name":"Folkington Reservoir","category":"reservoir_covered","osm_type":"way","osm_id":"894571112","operator":"South East Water","capacity":"27300"}},{"type":"Feature","geometry":{"type":"Point","coordinates":[0.07377,50.99048]},"properties":{"name":"Maresfield WTW","category":"wastewater_plant","osm_type":"way","osm_id":"907811440","operator":"Southern Water","ref":"101558"}},{"type":"Feature","geometry":{"type":"Point","coordinates":[0.42089,50.83684]},"properties":{"name":"103161","category":"pumping_station","osm_type":"way","osm_id":"923570039","operator":"Southern Water","ref":"103161"}},{"type":"Feature","geometry":{"type":"Point","coordinates":[0.44601,50.84839]},"properties":{"name":"Mapped water infrastructure","category":"reservoir_covered","osm_type":"way","osm_id":"942354755"}},{"type":"Feature","geometry":{"type":"Point","coordinates":[0.56755,50.86643]},"properties":{"name":"Mapped water infrastructure","category":"pumping_station","osm_type":"way","osm_id":"945774286"}},{"type":"Feature","geometry":{"type":"Point","coordinates":[0.64222,50.89715]},"properties":{"name":"Mapped water infrastructure","category":"wastewater_plant","osm_type":"way","osm_id":"997669283"}},{"type":"Feature","geometry":{"type":"Point","coordinates":[0.38408,50.88093]},"properties":{"name":"Mapped water infrastructure","category":"pumping_station","osm_type":"way","osm_id":"1001269315"}},{"type":"Feature","geometry":{"type":"Point","coordinates":[0.32511,50.88441]},"properties":{"name":"Lime Park Herstmonceux WTW","category":"wastewater_plant","osm_type":"way","osm_id":"1034853103","operator":"Southern Water","ref":"102078"}},{"type":"Feature","geometry":{"type":"Point","coordinates":[0.31623,50.93894]},"properties":{"name":"Rushlake Green WTW","category":"wastewater_plant","osm_type":"way","osm_id":"1037842741","operator":"Southern Water","ref":"111819"}},{"type":"Feature","geometry":{"type":"Point","coordinates":[0.10599,50.85402]},"properties":{"name":"Stamford Buildings Firle WTW","category":"wastewater_plant","osm_type":"way","osm_id":"1039016613","operator":"Southern Water","ref":"103009"}},{"type":"Feature","geometry":{"type":"Point","coordinates":[0.03004,50.99217]},"properties":{"name":"Fletching WTW","category":"wastewater_plant","osm_type":"way","osm_id":"1040780121","operator":"Southern Water","ref":"102042"}},{"type":"Feature","geometry":{"type":"Point","coordinates":[0.48267,50.98418]},"properties":{"name":"Robertsbridge WTW","category":"wastewater_plant","osm_type":"way","osm_id":"1040933754","operator":"Southern Water","ref":"102222"}},{"type":"Feature","geometry":{"type":"Point","coordinates":[0.02159,50.91431]},"properties":{"name":"Barcombe Church WTW","category":"wastewater_plant","osm_type":"way","osm_id":"1043431555","operator":"Southern Water","ref":"102919"}},{"type":"Feature","geometry":{"type":"Point","coordinates":[0.13751,50.93346]},"properties":{"name":"Halland WTW","category":"wastewater_plant","osm_type":"way","osm_id":"1043432297","operator":"Southern Water","ref":"103210"}},{"type":"Feature","geometry":{"type":"Point","coordinates":[0.04502,50.90307]},"properties":{"name":"Smallholdings Ringmer WTW","category":"wastewater_plant","osm_type":"way","osm_id":"1043433261","operator":"Southern Water","ref":"102081"}},{"type":"Feature","geometry":{"type":"Point","coordinates":[0.61575,50.8781]},"properties":{"name":"Mapped water infrastructure","category":"reservoir_covered","osm_type":"way","osm_id":"1066388168"}},{"type":"Feature","geometry":{"type":"Point","coordinates":[0.61687,50.87864]},"properties":{"name":"Mapped water infrastructure","category":"reservoir_covered","osm_type":"way","osm_id":"1066388169"}},{"type":"Feature","geometry":{"type":"Point","coordinates":[0.12466,50.90349]},"properties":{"name":"Mapped water infrastructure","category":"water_tower","osm_type":"way","osm_id":"1070626055"}},{"type":"Feature","geometry":{"type":"Point","coordinates":[0.26054,50.75463]},"properties":{"name":"Meads Service Reservoir","category":"reservoir_covered","osm_type":"way","osm_id":"1094240247","operator":"Southern Water"}},{"type":"Feature","geometry":{"type":"Point","coordinates":[0.57892,50.93072]},"properties":{"name":"Brede Waterworks WTW","category":"wastewater_plant","osm_type":"way","osm_id":"1111894725","operator":"Southern Water","ref":"102968"}},{"type":"Feature","geometry":{"type":"Point","coordinates":[0.34426,50.89073]},"properties":{"name":"Windmill Hill Herstmonceux WTW","category":"wastewater_plant","osm_type":"way","osm_id":"1114742941","operator":"Southern Water","ref":"101645"}},{"type":"Feature","geometry":{"type":"Point","coordinates":[0.35339,50.85987]},"properties":{"name":"Wartling WTW","category":"wastewater_plant","osm_type":"way","osm_id":"1114743928","operator":"Southern Water","ref":"100483"}},{"type":"Feature","geometry":{"type":"Point","coordinates":[0.1121,50.80009]},"properties":{"name":"Blackstone Service Reservoir","category":"reservoir_covered","osm_type":"way","osm_id":"1126216938"}},{"type":"Feature","geometry":{"type":"Point","coordinates":[0.73261,50.95966]},"properties":{"name":"Mapped water infrastructure","category":"water_tower","osm_type":"way","osm_id":"1150504302"}},{"type":"Feature","geometry":{"type":"Point","coordinates":[0.12763,50.98948]},"properties":{"name":"Mapped water infrastructure","category":"pumping_station","osm_type":"way","osm_id":"1187344084"}},{"type":"Feature","geometry":{"type":"Point","coordinates":[0.33419,50.81906]},"properties":{"name":"Mapped water infrastructure","category":"water_well","osm_type":"way","osm_id":"1188274560"}},{"type":"Feature","geometry":{"type":"Point","coordinates":[0.47763,50.91736]},"properties":{"name":"Mapped water infrastructure","category":"pumping_station","osm_type":"way","osm_id":"1190617692"}},{"type":"Feature","geometry":{"type":"Point","coordinates":[0.43368,50.91345]},"properties":{"name":"Mapped water infrastructure","category":"wastewater_plant","osm_type":"way","osm_id":"1204139952"}},{"type":"Feature","geometry":{"type":"Point","coordinates":[0.26947,50.82221]},"properties":{"name":"Sunflower Lane Polegate Wastewater Pumping Station","category":"pumping_station","osm_type":"way","osm_id":"1263891027","operator":"Southern Water","ref":"114431"}},{"type":"Feature","geometry":{"type":"Point","coordinates":[0.43254,50.84844]},"properties":{"name":"102576","category":"pumping_station","osm_type":"way","osm_id":"1267986895","operator":"Southern Water","ref":"102576"}},{"type":"Feature","geometry":{"type":"Point","coordinates":[0.436,50.8481]},"properties":{"name":"Peartree Lane WPS","category":"pumping_station","osm_type":"way","osm_id":"1267986896","operator":"Southern Water"}},{"type":"Feature","geometry":{"type":"Point","coordinates":[0.0064,50.81129]},"properties":{"name":"Mapped water infrastructure","category":"reservoir_covered","osm_type":"way","osm_id":"1287234111"}},{"type":"Feature","geometry":{"type":"Point","coordinates":[0.43023,50.84829]},"properties":{"name":"Mapped water infrastructure","category":"pumping_station","osm_type":"way","osm_id":"1287498756","operator":"Southern Water"}},{"type":"Feature","geometry":{"type":"Point","coordinates":[0.58736,50.90938]},"properties":{"name":"Mapped water infrastructure","category":"wastewater_plant","osm_type":"way","osm_id":"1290883898"}},{"type":"Feature","geometry":{"type":"Point","coordinates":[0.58759,50.90953]},"properties":{"name":"Mapped water infrastructure","category":"wastewater_plant","osm_type":"way","osm_id":"1290883899"}},{"type":"Feature","geometry":{"type":"Point","coordinates":[0.40585,50.86629]},"properties":{"name":"Hooe WTW","category":"wastewater_plant","osm_type":"way","osm_id":"1294489069","operator":"Southern Water","ref":"101090"}},{"type":"Feature","geometry":{"type":"Point","coordinates":[0.14365,50.86752]},"properties":{"name":"Ripe WTW","category":"wastewater_plant","osm_type":"way","osm_id":"1294489720","operator":"Southern Water","ref":"101447"}},{"type":"Feature","geometry":{"type":"Point","coordinates":[0.34953,50.9078]},"properties":{"name":"Bodle Street Green WTW","category":"wastewater_plant","osm_type":"way","osm_id":"1294562578","operator":"Southern Water","ref":"101757"}},{"type":"Feature","geometry":{"type":"Point","coordinates":[0.60269,50.98373]},"properties":{"name":"Mill Corner Northiam WTW","category":"wastewater_plant","osm_type":"way","osm_id":"1294568361","operator":"Southern Water","ref":"102716"}},{"type":"Feature","geometry":{"type":"Point","coordinates":[0.55452,50.97177]},"properties":{"name":"Staplecross WTW","category":"wastewater_plant","osm_type":"way","osm_id":"1294568723","operator":"Southern Water","ref":"103026"}},{"type":"Feature","geometry":{"type":"Point","coordinates":[0.73077,50.95954]},"properties":{"name":"Mapped water infrastructure","category":"pumping_station","osm_type":"way","osm_id":"1307212700"}},{"type":"Feature","geometry":{"type":"Point","coordinates":[0.17085,50.83941]},"properties":{"name":"Berwick WTW","category":"wastewater_plant","osm_type":"way","osm_id":"1311765053","operator":"Southern Water","ref":"102467"}},{"type":"Feature","geometry":{"type":"Point","coordinates":[0.42204,50.8489]},"properties":{"name":"Mapped water infrastructure","category":"pumping_station","osm_type":"way","osm_id":"1314189315","operator":"Southern Water"}},{"type":"Feature","geometry":{"type":"Point","coordinates":[0.56611,50.86342]},"properties":{"name":"Hastings Newgate West Water Service Reservoir","category":"reservoir_covered","osm_type":"way","osm_id":"1314642294","operator":"Southern Water"}},{"type":"Feature","geometry":{"type":"Point","coordinates":[0.41544,50.88954]},"properties":{"name":"Ninfield Reservoir","category":"reservoir_covered","osm_type":"way","osm_id":"1315978367"}},{"type":"Feature","geometry":{"type":"Point","coordinates":[0.41484,50.88875]},"properties":{"name":"Mapped water infrastructure","category":"water_tower","osm_type":"way","osm_id":"1315978368"}},{"type":"Feature","geometry":{"type":"Point","coordinates":[0.19371,50.82827]},"properties":{"name":"Wilmington WTW","category":"wastewater_plant","osm_type":"way","osm_id":"1316728883","operator":"Southern Water","ref":"103200"}},{"type":"Feature","geometry":{"type":"Point","coordinates":[0.72519,50.95038]},"properties":{"name":"Mapped water infrastructure","category":"pumping_station","osm_type":"way","osm_id":"1355363437"}},{"type":"Feature","geometry":{"type":"Point","coordinates":[0.55725,50.99183]},"properties":{"name":"Ewhurst Green WTW","category":"wastewater_plant","osm_type":"way","osm_id":"1391648543","operator":"Southern Water","ref":"100030"}},{"type":"Feature","geometry":{"type":"Point","coordinates":[0.36151,50.98055]},"properties":{"name":"Burwash Common WTW","category":"wastewater_plant","osm_type":"way","osm_id":"1391649283","operator":"Southern Water","ref":"100476"}},{"type":"Feature","geometry":{"type":"Point","coordinates":[0.50853,50.94498]},"properties":{"name":"Whatlington WTW","category":"wastewater_plant","osm_type":"way","osm_id":"1391781571","operator":"Southern Water","ref":"101792"}},{"type":"Feature","geometry":{"type":"Point","coordinates":[0.6081,50.89917]},"properties":{"name":"Three Oaks WTW","category":"wastewater_plant","osm_type":"way","osm_id":"1391782267","operator":"Southern Water","ref":"113633"}},{"type":"Feature","geometry":{"type":"Point","coordinates":[0.48269,50.95168]},"properties":{"name":"Mountfield WTW","category":"wastewater_plant","osm_type":"way","osm_id":"1391783273","operator":"Southern Water","ref":"113632"}},{"type":"Feature","geometry":{"type":"Point","coordinates":[0.19818,50.76415]},"properties":{"name":"Mapped water infrastructure","category":"reservoir_covered","osm_type":"way","osm_id":"1408575668"}},{"type":"Feature","geometry":{"type":"Point","coordinates":[0.54489,50.89047]},"properties":{"name":"Beauport Hastings Water Supply Works","category":"wastewater_plant","osm_type":"way","osm_id":"1417547333"}},{"type":"Feature","geometry":{"type":"Point","coordinates":[0.46037,50.85578]},"properties":{"name":"Mapped water infrastructure","category":"pumping_station","osm_type":"way","osm_id":"1429787416","operator":"Southern Water"}},{"type":"Feature","geometry":{"type":"Point","coordinates":[0.74399,50.96491]},"properties":{"name":"Mapped water infrastructure","category":"pumping_station","osm_type":"way","osm_id":"1477800709"}},{"type":"Feature","geometry":{"type":"Point","coordinates":[0.53627,50.88713]},"properties":{"name":"Highbeech Glade Wastewater Pumping Station","category":"pumping_station","osm_type":"way","osm_id":"1498757377"}},{"type":"Feature","geometry":{"type":"Point","coordinates":[0.52504,50.898]},"properties":{"name":"Mapped water infrastructure","category":"water_tower","osm_type":"way","osm_id":"1517414414"}},{"type":"Feature","geometry":{"type":"Point","coordinates":[0.59306,50.86428]},"properties":{"name":"Mapped water infrastructure","category":"reservoir_covered","osm_type":"way","osm_id":"1526163390"}},{"type":"Feature","geometry":{"type":"Point","coordinates":[0.26017,50.76015]},"properties":{"name":"Mapped water infrastructure","category":"reservoir_covered","osm_type":"way","osm_id":"1542833337"}},{"type":"Feature","geometry":{"type":"Point","coordinates":[0.4939,50.84086]},"properties":{"name":"Galley Hill Treatment Works","category":"wastewater_plant","osm_type":"way","osm_id":"28941222","operator":"Southern Water","addr:city":"Bexhill-on-Sea"}},{"type":"Feature","geometry":{"type":"Point","coordinates":[0.95234,50.97791]},"properties":{"name":"New Romney Wastewater Treatment Plant","category":"wastewater_plant","osm_type":"way","osm_id":"91004548","operator":"Southern Water","ref":"101165"}},{"type":"Feature","geometry":{"type":"Point","coordinates":[0.30965,50.83965]},"properties":{"name":"Mapped water infrastructure","category":"pumping_station","osm_type":"way","osm_id":"106404773"}},{"type":"Feature","geometry":{"type":"Point","coordinates":[0.72878,50.92958]},"properties":{"name":"Winchelsea Beach Water Treatment Works","category":"wastewater_plant","osm_type":"way","osm_id":"121943368"}},{"type":"Feature","geometry":{"type":"Point","coordinates":[0.32631,50.78477]},"properties":{"name":"Eastbourne Wastewater Treatment Works","category":"wastewater_plant","osm_type":"way","osm_id":"181677070","operator":"Southern Water","ref":"100174","addr:city":"Eastbourne","addr:postcode":"BN23 6LW"}},{"type":"Feature","geometry":{"type":"Point","coordinates":[0.04912,50.85404]},"properties":{"name":"Beddingham Pumping Station","category":"pumping_station","osm_type":"way","osm_id":"188498629"}},{"type":"Feature","geometry":{"type":"Point","coordinates":[0.09126,50.96913]},"properties":{"name":"Mapped water infrastructure","category":"water_works","osm_type":"way","osm_id":"274789621","operator":"Southern Water"}},{"type":"Feature","geometry":{"type":"Point","coordinates":[0.4959,50.84217]},"properties":{"name":"Mapped water infrastructure","category":"pumping_station","osm_type":"way","osm_id":"353952105"}},{"type":"Feature","geometry":{"type":"Point","coordinates":[0.4644,50.84478]},"properties":{"name":"Mapped water infrastructure","category":"pumping_station","osm_type":"way","osm_id":"397253113","operator":"Southern Water"}},{"type":"Feature","geometry":{"type":"Point","coordinates":[0.42796,50.83385]},"properties":{"name":"103061","category":"pumping_station","osm_type":"way","osm_id":"403299503","operator":"Southern Water","ref":"103061"}},{"type":"Feature","geometry":{"type":"Point","coordinates":[0.38776,50.8305]},"properties":{"name":"Mapped water infrastructure","category":"pumping_station","osm_type":"way","osm_id":"419249628"}},{"type":"Feature","geometry":{"type":"Point","coordinates":[0.5056,50.84636]},"properties":{"name":"Mapped water infrastructure","category":"pumping_station","osm_type":"way","osm_id":"425975183"}},{"type":"Feature","geometry":{"type":"Point","coordinates":[0.44741,50.8571]},"properties":{"name":"Mapped water infrastructure","category":"pumping_station","osm_type":"way","osm_id":"463871507","operator":"Southern Water"}},{"type":"Feature","geometry":{"type":"Point","coordinates":[0.40844,50.84956]},"properties":{"name":"Mapped water infrastructure","category":"pumping_station","osm_type":"way","osm_id":"465447659"}},{"type":"Feature","geometry":{"type":"Point","coordinates":[0.4694,50.86189]},"properties":{"name":"Mapped water infrastructure","category":"pumping_station","osm_type":"way","osm_id":"507858473"}},{"type":"Feature","geometry":{"type":"Point","coordinates":[0.42745,50.86632]},"properties":{"name":"Sweet Willow Pumping Station","category":"pumping_station","osm_type":"way","osm_id":"588818616"}},{"type":"Feature","geometry":{"type":"Point","coordinates":[0.97006,50.98855]},"properties":{"name":"Littlestone Tower","category":"water_tower","osm_type":"way","osm_id":"620579826","website":"https://www.historicengland.org.uk/listing/the-list/list-entry/1069002","addr:postcode":"TN28 8QX"}},{"type":"Feature","geometry":{"type":"Point","coordinates":[0.52201,50.85145]},"properties":{"name":"Mapped water infrastructure","category":"pumping_station","osm_type":"way","osm_id":"669447432"}},{"type":"Feature","geometry":{"type":"Point","coordinates":[0.01483,50.79564]},"properties":{"name":"Mapped water infrastructure","category":"wastewater_plant","osm_type":"way","osm_id":"674253306","operator":"Southern Water"}},{"type":"Feature","geometry":{"type":"Point","coordinates":[0.56124,50.8547]},"properties":{"name":"Mapped water infrastructure","category":"pumping_station","osm_type":"way","osm_id":"806898826","operator":"Southern Water","addr:city":"St. Leonards-On-Sea","addr:postcode":"TN37 6DJ"}},{"type":"Feature","geometry":{"type":"Point","coordinates":[0.97133,50.99441]},"properties":{"name":"Mapped water infrastructure","category":"water_tower","osm_type":"way","osm_id":"844062446"}},{"type":"Feature","geometry":{"type":"Point","coordinates":[0.47894,50.91883]},"properties":{"name":"Mapped water infrastructure","category":"pumping_station","osm_type":"way","osm_id":"851406557"}},{"type":"Feature","geometry":{"type":"Point","coordinates":[0.01942,50.86569]},"properties":{"name":"Lewes Transfer Pumping Station","category":"pumping_station","osm_type":"way","osm_id":"1064462027"}},{"type":"Feature","geometry":{"type":"Point","coordinates":[0.60585,50.95086]},"properties":{"name":"Mapped water infrastructure","category":"pumping_station","osm_type":"way","osm_id":"1157706531"}},{"type":"Feature","geometry":{"type":"Point","coordinates":[0.47305,50.92933]},"properties":{"name":"Mapped water infrastructure","category":"pumping_station","osm_type":"way","osm_id":"1187595954"}},{"type":"Feature","geometry":{"type":"Point","coordinates":[0.56632,50.86328]},"properties":{"name":"Mapped water infrastructure","category":"pumping_station","osm_type":"way","osm_id":"1227994865"}},{"type":"Feature","geometry":{"type":"Point","coordinates":[0.38431,50.88102]},"properties":{"name":"Mapped water infrastructure","category":"pumping_station","osm_type":"way","osm_id":"1253216831"}},{"type":"Feature","geometry":{"type":"Point","coordinates":[0.47107,50.84954]},"properties":{"name":"Mapped water infrastructure","category":"pumping_station","osm_type":"way","osm_id":"1276257270"}},{"type":"Feature","geometry":{"type":"Point","coordinates":[0.82999,50.96922]},"properties":{"name":"Mapped water infrastructure","category":"pumping_station","osm_type":"way","osm_id":"1295677382"}},{"type":"Feature","geometry":{"type":"Point","coordinates":[0.25998,50.75496]},"properties":{"name":"Mapped water infrastructure","category":"reservoir_covered","osm_type":"way","osm_id":"1372818943"}},{"type":"Feature","geometry":{"type":"Point","coordinates":[0.26065,50.75523]},"properties":{"name":"Mapped water infrastructure","category":"reservoir_covered","osm_type":"way","osm_id":"1372818944"}},{"type":"Feature","geometry":{"type":"Point","coordinates":[0.20136,50.76501]},"properties":{"name":"Friston Water Tower","category":"reservoir_covered","osm_type":"way","osm_id":"1408557481","operator":"Southern Water"}},{"type":"Feature","geometry":{"type":"Point","coordinates":[0.4767,50.90289]},"properties":{"name":"Powdermill Water Treatment Works","category":"wastewater_plant","osm_type":"way","osm_id":"1426432916"}},{"type":"Feature","geometry":{"type":"Point","coordinates":[0.68269,50.96536]},"properties":{"name":"Mapped water infrastructure","category":"water_tower","osm_type":"way","osm_id":"1447132825"}},{"type":"Feature","geometry":{"type":"Point","coordinates":[0.72057,50.94868]},"properties":{"name":"Mapped water infrastructure","category":"pumping_station","osm_type":"way","osm_id":"1453574088","addr:postcode":"TN31 7DY"}},{"type":"Feature","geometry":{"type":"Point","coordinates":[0.67292,50.88448]},"properties":{"name":"Mapped water infrastructure","category":"wastewater_plant","osm_type":"way","osm_id":"1478723168"}}]}