{"type":"FeatureCollection","features":[{"type":"Feature","geometry":{"type":"Point","coordinates":[1.38238,51.20817]},"properties":{"name":"St Richards Road Pumping Station","category":"water_tower","osm_type":"node","osm_id":"252635747","operator":"Southern Water"}},{"type":"Feature","geometry":{"type":"Point","coordinates":[1.2683,51.16866]},"properties":{"name":"Mapped water infrastructure","category":"water_tower","osm_type":"node","osm_id":"813706635"}},{"type":"Feature","geometry":{"type":"Point","coordinates":[1.31004,51.13537]},"properties":{"name":"Mapped water infrastructure","category":"drinking_water","osm_type":"node","osm_id":"819908108"}},{"type":"Feature","geometry":{"type":"Point","coordinates":[1.16347,51.23726]},"properties":{"name":"Mapped water infrastructure","category":"water_tower","osm_type":"node","osm_id":"1735567828"}},{"type":"Feature","geometry":{"type":"Point","coordinates":[1.11186,51.27572]},"properties":{"name":"Mapped water infrastructure","category":"drinking_water","osm_type":"node","osm_id":"2931585486"}},{"type":"Feature","geometry":{"type":"Point","coordinates":[1.08799,51.12653]},"properties":{"name":"Lyminge Well","category":"water_well","osm_type":"node","osm_id":"4610649859"}},{"type":"Feature","geometry":{"type":"Point","coordinates":[1.20666,51.09391]},"properties":{"name":"Mapped water infrastructure","category":"drinking_water","osm_type":"node","osm_id":"4911788774"}},{"type":"Feature","geometry":{"type":"Point","coordinates":[1.05246,51.28269]},"properties":{"name":"Black Prince’s Well","category":"water_well","osm_type":"node","osm_id":"5557523019"}},{"type":"Feature","geometry":{"type":"Point","coordinates":[1.07632,51.27514]},"properties":{"name":"Mapped water infrastructure","category":"drinking_water","osm_type":"node","osm_id":"5658599225","wheelchair":"yes"}},{"type":"Feature","geometry":{"type":"Point","coordinates":[1.07744,51.08047]},"properties":{"name":"Mapped water infrastructure","category":"drinking_water","osm_type":"node","osm_id":"5690147034"}},{"type":"Feature","geometry":{"type":"Point","coordinates":[1.13955,51.11998]},"properties":{"name":"Mapped water infrastructure","category":"water_point","osm_type":"node","osm_id":"6566622116"}},{"type":"Feature","geometry":{"type":"Point","coordinates":[1.0235,51.36077]},"properties":{"name":"Mapped water infrastructure","category":"drinking_water","osm_type":"node","osm_id":"6697242344"}},{"type":"Feature","geometry":{"type":"Point","coordinates":[1.14491,51.0732]},"properties":{"name":"Mapped water infrastructure","category":"drinking_water","osm_type":"node","osm_id":"7939008093"}},{"type":"Feature","geometry":{"type":"Point","coordinates":[1.02514,51.3573]},"properties":{"name":"Mapped water infrastructure","category":"drinking_water","osm_type":"node","osm_id":"8935633717"}},{"type":"Feature","geometry":{"type":"Point","coordinates":[1.02925,51.36306]},"properties":{"name":"Mapped water infrastructure","category":"drinking_water","osm_type":"node","osm_id":"8935717317"}},{"type":"Feature","geometry":{"type":"Point","coordinates":[1.03284,51.36503]},"properties":{"name":"Mapped water infrastructure","category":"drinking_water","osm_type":"node","osm_id":"8935807517"}},{"type":"Feature","geometry":{"type":"Point","coordinates":[1.19073,51.08191]},"properties":{"name":"The Stade Wastewater Pumping Station","category":"pumping_station","osm_type":"node","osm_id":"9379269974","operator":"Southern Water","ref":"103626"}},{"type":"Feature","geometry":{"type":"Point","coordinates":[1.13666,51.37275]},"properties":{"name":"Mapped water infrastructure","category":"drinking_water","osm_type":"node","osm_id":"9913125669"}},{"type":"Feature","geometry":{"type":"Point","coordinates":[1.06256,51.36596]},"properties":{"name":"Mapped water infrastructure","category":"drinking_water","osm_type":"node","osm_id":"9913125671"}},{"type":"Feature","geometry":{"type":"Point","coordinates":[1.12716,51.24458]},"properties":{"name":"Mapped water infrastructure","category":"drinking_water","osm_type":"node","osm_id":"10963035905","wheelchair":"yes"}},{"type":"Feature","geometry":{"type":"Point","coordinates":[1.22364,51.17901]},"properties":{"name":"Mapped water infrastructure","category":"water_point","osm_type":"node","osm_id":"11137267107"}},{"type":"Feature","geometry":{"type":"Point","coordinates":[1.04185,51.36476]},"properties":{"name":"Mapped water infrastructure","category":"drinking_water","osm_type":"node","osm_id":"11159287207","operator":"Canterbury City Council"}},{"type":"Feature","geometry":{"type":"Point","coordinates":[1.37071,51.14054]},"properties":{"name":"Mapped water infrastructure","category":"drinking_water","osm_type":"node","osm_id":"11990179149"}},{"type":"Feature","geometry":{"type":"Point","coordinates":[1.36056,51.13638]},"properties":{"name":"Mapped water infrastructure","category":"drinking_water","osm_type":"node","osm_id":"11990179150"}},{"type":"Feature","geometry":{"type":"Point","coordinates":[1.11134,51.27593]},"properties":{"name":"Mapped water infrastructure","category":"drinking_water","osm_type":"node","osm_id":"12116441342"}},{"type":"Feature","geometry":{"type":"Point","coordinates":[1.11134,51.27593]},"properties":{"name":"Mapped water infrastructure","category":"water_point","osm_type":"node","osm_id":"12116441343"}},{"type":"Feature","geometry":{"type":"Point","coordinates":[1.37715,51.38694]},"properties":{"name":"Mapped water infrastructure","category":"drinking_water","osm_type":"node","osm_id":"12248860744","wheelchair":"no"}},{"type":"Feature","geometry":{"type":"Point","coordinates":[1.42447,51.33211]},"properties":{"name":"Mapped water infrastructure","category":"drinking_water","osm_type":"node","osm_id":"12255004354","wheelchair":"yes"}},{"type":"Feature","geometry":{"type":"Point","coordinates":[1.11409,51.30681]},"properties":{"name":"Mapped water infrastructure","category":"wastewater_plant","osm_type":"node","osm_id":"12445625858"}},{"type":"Feature","geometry":{"type":"Point","coordinates":[1.07931,51.28004]},"properties":{"name":"Mapped water infrastructure","category":"drinking_water","osm_type":"node","osm_id":"12487215500","wheelchair":"yes"}},{"type":"Feature","geometry":{"type":"Point","coordinates":[1.0815,51.27831]},"properties":{"name":"Rotary Club of Canterbury","category":"drinking_water","osm_type":"node","osm_id":"12806523230"}},{"type":"Feature","geometry":{"type":"Point","coordinates":[1.18753,51.21096]},"properties":{"name":"Mapped water infrastructure","category":"drinking_water","osm_type":"node","osm_id":"12833062996"}},{"type":"Feature","geometry":{"type":"Point","coordinates":[1.01946,51.35789]},"properties":{"name":"Mapped water infrastructure","category":"drinking_water","osm_type":"node","osm_id":"13138357899","wheelchair":"no"}},{"type":"Feature","geometry":{"type":"Point","coordinates":[1.12577,51.09592]},"properties":{"name":"Mapped water infrastructure","category":"drinking_water","osm_type":"node","osm_id":"13296963551"}},{"type":"Feature","geometry":{"type":"Point","coordinates":[1.03343,51.05755]},"properties":{"name":"Hythe WWTW","category":"wastewater_plant","osm_type":"way","osm_id":"90632795","operator":"Southern Water"}},{"type":"Feature","geometry":{"type":"Point","coordinates":[1.13083,51.07635]},"properties":{"name":"Mapped water infrastructure","category":"water_tower","osm_type":"way","osm_id":"90634256"}},{"type":"Feature","geometry":{"type":"Point","coordinates":[1.10944,51.29651]},"properties":{"name":"Canterbury WTW","category":"wastewater_plant","osm_type":"way","osm_id":"91007217","operator":"Southern Water","ref":"101631"}},{"type":"Feature","geometry":{"type":"Point","coordinates":[1.20557,51.30456]},"properties":{"name":"Mapped water infrastructure","category":"wastewater_plant","osm_type":"way","osm_id":"92889105"}},{"type":"Feature","geometry":{"type":"Point","coordinates":[1.32229,51.25029]},"properties":{"name":"Eastry STW","category":"wastewater_plant","osm_type":"way","osm_id":"92890766","operator":"Southern Water"}},{"type":"Feature","geometry":{"type":"Point","coordinates":[1.38211,51.20824]},"properties":{"name":"Mapped water infrastructure","category":"reservoir_covered","osm_type":"way","osm_id":"93709806"}},{"type":"Feature","geometry":{"type":"Point","coordinates":[1.15549,51.30759]},"properties":{"name":"Westbere WwTW","category":"wastewater_plant","osm_type":"way","osm_id":"94905191","operator":"Southern Water","addr:city":"Canterbury","addr:postcode":"CT3 4JD"}},{"type":"Feature","geometry":{"type":"Point","coordinates":[1.1743,51.36364]},"properties":{"name":"May Street Herne Bay WTW","category":"wastewater_plant","osm_type":"way","osm_id":"94930986","operator":"Southern Water","ref":"100070"}},{"type":"Feature","geometry":{"type":"Point","coordinates":[1.02316,51.25529]},"properties":{"name":"Effluent Plant","category":"wastewater_plant","osm_type":"way","osm_id":"96704458","operator":"Arjo Wiggins"}},{"type":"Feature","geometry":{"type":"Point","coordinates":[1.03371,51.25947]},"properties":{"name":"Mapped water infrastructure","category":"wastewater_plant","osm_type":"way","osm_id":"96704459"}},{"type":"Feature","geometry":{"type":"Point","coordinates":[1.34154,51.17546]},"properties":{"name":"Mapped water infrastructure","category":"reservoir_covered","osm_type":"way","osm_id":"103387564"}},{"type":"Feature","geometry":{"type":"Point","coordinates":[1.41369,51.35928]},"properties":{"name":"Mapped water infrastructure","category":"water_tower","osm_type":"way","osm_id":"103977407","addr:city":"Broadstairs","addr:postcode":"CT10 2PH"}},{"type":"Feature","geometry":{"type":"Point","coordinates":[1.06407,51.36601]},"properties":{"name":"Mapped water infrastructure","category":"wastewater_plant","osm_type":"way","osm_id":"120288257"}},{"type":"Feature","geometry":{"type":"Point","coordinates":[1.01507,51.33663]},"properties":{"name":"Mapped water infrastructure","category":"reservoir_covered","osm_type":"way","osm_id":"120289736"}},{"type":"Feature","geometry":{"type":"Point","coordinates":[1.06547,51.32726]},"properties":{"name":"Mapped water infrastructure","category":"reservoir_covered","osm_type":"way","osm_id":"120851763"}},{"type":"Feature","geometry":{"type":"Point","coordinates":[1.15645,51.09753]},"properties":{"name":"U1080 Tunnel Fire Fighting Pump House.","category":"pumping_station","osm_type":"way","osm_id":"131996234"}},{"type":"Feature","geometry":{"type":"Point","coordinates":[1.43325,51.35982]},"properties":{"name":"Beehive Reservoir","category":"water_tower","osm_type":"way","osm_id":"142481929"}},{"type":"Feature","geometry":{"type":"Point","coordinates":[1.22987,51.27078]},"properties":{"name":"Mapped water infrastructure","category":"wastewater_plant","osm_type":"way","osm_id":"146947127"}},{"type":"Feature","geometry":{"type":"Point","coordinates":[1.36718,51.35554]},"properties":{"name":"Mapped water infrastructure","category":"reservoir_covered","osm_type":"way","osm_id":"154099366"}},{"type":"Feature","geometry":{"type":"Point","coordinates":[1.3695,51.35535]},"properties":{"name":"Mapped water infrastructure","category":"reservoir_covered","osm_type":"way","osm_id":"154099368"}},{"type":"Feature","geometry":{"type":"Point","coordinates":[1.06358,51.36555]},"properties":{"name":"Mapped water infrastructure","category":"reservoir_covered","osm_type":"way","osm_id":"167367897"}},{"type":"Feature","geometry":{"type":"Point","coordinates":[1.06367,51.36582]},"properties":{"name":"Mapped water infrastructure","category":"reservoir_covered","osm_type":"way","osm_id":"167367898"}},{"type":"Feature","geometry":{"type":"Point","coordinates":[1.34787,51.29627]},"properties":{"name":"Weatherlees Hill WwTW","category":"wastewater_plant","osm_type":"way","osm_id":"184272966","operator":"Southern Water","addr:city":"Weatherlees Hill","addr:postcode":"CT12 5DJ"}},{"type":"Feature","geometry":{"type":"Point","coordinates":[1.07948,51.10088]},"properties":{"name":"Bluehouse Reservoir","category":"reservoir_covered","osm_type":"way","osm_id":"192154206"}},{"type":"Feature","geometry":{"type":"Point","coordinates":[1.33749,51.29242]},"properties":{"name":"Mapped water infrastructure","category":"wastewater_plant","osm_type":"way","osm_id":"197079245"}},{"type":"Feature","geometry":{"type":"Point","coordinates":[1.31168,51.32032]},"properties":{"name":"Mapped water infrastructure","category":"wastewater_plant","osm_type":"way","osm_id":"198478919"}},{"type":"Feature","geometry":{"type":"Point","coordinates":[1.34201,51.31691]},"properties":{"name":"Weatherlees Hill A & B Wastewater Treatment Works","category":"wastewater_plant","osm_type":"way","osm_id":"199532286","operator":"Southern Water","ref":"110654"}},{"type":"Feature","geometry":{"type":"Point","coordinates":[1.15561,51.09792]},"properties":{"name":"Mapped water infrastructure","category":"pumping_station","osm_type":"way","osm_id":"220884583"}},{"type":"Feature","geometry":{"type":"Point","coordinates":[1.01731,51.0483]},"properties":{"name":"Dymchurch WWTW","category":"wastewater_plant","osm_type":"way","osm_id":"471550147","operator":"Southern Water","ref":"102993"}},{"type":"Feature","geometry":{"type":"Point","coordinates":[1.42561,51.39341]},"properties":{"name":"Margate Wastewater Pumping Station","category":"pumping_station","osm_type":"way","osm_id":"590600503","operator":"Southern Water"}},{"type":"Feature","geometry":{"type":"Point","coordinates":[1.35122,51.23006]},"properties":{"name":"Mapped water infrastructure","category":"pumping_station","osm_type":"way","osm_id":"663038122"}},{"type":"Feature","geometry":{"type":"Point","coordinates":[1.14175,51.11266]},"properties":{"name":"Mapped water infrastructure","category":"pumping_station","osm_type":"way","osm_id":"699015644"}},{"type":"Feature","geometry":{"type":"Point","coordinates":[1.12988,51.07649]},"properties":{"name":"Mapped water infrastructure","category":"water_tower","osm_type":"way","osm_id":"699100289"}},{"type":"Feature","geometry":{"type":"Point","coordinates":[1.31761,51.13135]},"properties":{"name":"Mapped water infrastructure","category":"water_works","osm_type":"way","osm_id":"849348323"}},{"type":"Feature","geometry":{"type":"Point","coordinates":[1.16081,51.10119]},"properties":{"name":"Mapped water infrastructure","category":"reservoir_covered","osm_type":"way","osm_id":"849348342","operator":"Affinity Water"}},{"type":"Feature","geometry":{"type":"Point","coordinates":[1.41369,51.35956]},"properties":{"name":"Mapped water infrastructure","category":"reservoir_covered","osm_type":"way","osm_id":"881740321"}},{"type":"Feature","geometry":{"type":"Point","coordinates":[1.06509,51.26884]},"properties":{"name":"Mapped water infrastructure","category":"reservoir_covered","osm_type":"way","osm_id":"889269537"}},{"type":"Feature","geometry":{"type":"Point","coordinates":[1.02012,51.0395]},"properties":{"name":"Environmental protection organization","category":"water_works","osm_type":"way","osm_id":"915573004","addr:city":"Dymchurch","addr:postcode":"TN29 0TW"}},{"type":"Feature","geometry":{"type":"Point","coordinates":[1.26387,51.11486]},"properties":{"name":"Dover and Folkestone Wastewater Treatment Works","category":"wastewater_plant","osm_type":"way","osm_id":"938103525","operator":"Southern Water","ref":"100206"}},{"type":"Feature","geometry":{"type":"Point","coordinates":[1.13226,51.34836]},"properties":{"name":"Mapped water infrastructure","category":"pumping_station","osm_type":"way","osm_id":"1033790462"}},{"type":"Feature","geometry":{"type":"Point","coordinates":[1.32893,51.35952]},"properties":{"name":"Manston Road Pumping Station","category":"pumping_station","osm_type":"way","osm_id":"1041198283"}},{"type":"Feature","geometry":{"type":"Point","coordinates":[1.30717,51.37382]},"properties":{"name":"Mapped water infrastructure","category":"water_well","osm_type":"way","osm_id":"1136982170"}},{"type":"Feature","geometry":{"type":"Point","coordinates":[1.01277,51.20588]},"properties":{"name":"Mapped water infrastructure","category":"pumping_station","osm_type":"way","osm_id":"1160552433"}},{"type":"Feature","geometry":{"type":"Point","coordinates":[1.1795,51.21348]},"properties":{"name":"Mapped water infrastructure","category":"reservoir_covered","osm_type":"way","osm_id":"1207905177"}},{"type":"Feature","geometry":{"type":"Point","coordinates":[1.07551,51.0644]},"properties":{"name":"Mapped water infrastructure","category":"pumping_station","osm_type":"way","osm_id":"1225659519"}},{"type":"Feature","geometry":{"type":"Point","coordinates":[1.03772,51.30779]},"properties":{"name":"Mapped water infrastructure","category":"reservoir_covered","osm_type":"way","osm_id":"1236576954"}},{"type":"Feature","geometry":{"type":"Point","coordinates":[1.06775,51.09925]},"properties":{"name":"Mapped water infrastructure","category":"pumping_station","osm_type":"way","osm_id":"1237335403"}},{"type":"Feature","geometry":{"type":"Point","coordinates":[1.32029,51.14161]},"properties":{"name":"Mapped water infrastructure","category":"reservoir_covered","osm_type":"way","osm_id":"1288055930"}},{"type":"Feature","geometry":{"type":"Point","coordinates":[1.36454,51.24579]},"properties":{"name":"Mapped water infrastructure","category":"pumping_station","osm_type":"way","osm_id":"1291247402"}},{"type":"Feature","geometry":{"type":"Point","coordinates":[1.32713,51.28123]},"properties":{"name":"Mapped water infrastructure","category":"pumping_station","osm_type":"way","osm_id":"1291722072"}},{"type":"Feature","geometry":{"type":"Point","coordinates":[1.31183,51.29012]},"properties":{"name":"Mapped water infrastructure","category":"pumping_station","osm_type":"way","osm_id":"1292580511"}},{"type":"Feature","geometry":{"type":"Point","coordinates":[1.21303,51.25284]},"properties":{"name":"Wingham","category":"water_works","osm_type":"way","osm_id":"1299295163"}},{"type":"Feature","geometry":{"type":"Point","coordinates":[1.30121,51.26589]},"properties":{"name":"Mapped water infrastructure","category":"reservoir_covered","osm_type":"way","osm_id":"1300235397"}},{"type":"Feature","geometry":{"type":"Point","coordinates":[1.30082,51.26596]},"properties":{"name":"Mapped water infrastructure","category":"reservoir_covered","osm_type":"way","osm_id":"1300235398"}},{"type":"Feature","geometry":{"type":"Point","coordinates":[1.37526,51.19022]},"properties":{"name":"Mapped water infrastructure","category":"reservoir_covered","osm_type":"way","osm_id":"1313932802"}},{"type":"Feature","geometry":{"type":"Point","coordinates":[1.05762,51.29156]},"properties":{"name":"St Thomas Hill Water Tower","category":"water_tower","osm_type":"way","osm_id":"1314883590"}},{"type":"Feature","geometry":{"type":"Point","coordinates":[1.20093,51.11893]},"properties":{"name":"Mapped water infrastructure","category":"pumping_station","osm_type":"way","osm_id":"1317542364","operator":"Affinity"}},{"type":"Feature","geometry":{"type":"Point","coordinates":[1.20477,51.12569]},"properties":{"name":"Mapped water infrastructure","category":"pumping_station","osm_type":"way","osm_id":"1317542372","operator":"Affinity"}},{"type":"Feature","geometry":{"type":"Point","coordinates":[1.11651,51.131]},"properties":{"name":"Mapped water infrastructure","category":"pumping_station","osm_type":"way","osm_id":"1332452122"}},{"type":"Feature","geometry":{"type":"Point","coordinates":[1.10397,51.14056]},"properties":{"name":"Mapped water infrastructure","category":"water_works","osm_type":"way","osm_id":"1332635839"}},{"type":"Feature","geometry":{"type":"Point","coordinates":[1.1037,51.14039]},"properties":{"name":"Mapped water infrastructure","category":"water_works","osm_type":"way","osm_id":"1332635840"}},{"type":"Feature","geometry":{"type":"Point","coordinates":[1.00838,51.09936]},"properties":{"name":"Mapped water infrastructure","category":"water_works","osm_type":"way","osm_id":"1340802320"}},{"type":"Feature","geometry":{"type":"Point","coordinates":[1.03695,51.26503]},"properties":{"name":"Mapped water infrastructure","category":"water_works","osm_type":"way","osm_id":"1351531031"}},{"type":"Feature","geometry":{"type":"Point","coordinates":[1.02046,51.03993]},"properties":{"name":"Mapped water infrastructure","category":"water_works","osm_type":"way","osm_id":"1361986031","operator":"Environmental protection organization"}},{"type":"Feature","geometry":{"type":"Point","coordinates":[1.01965,51.03968]},"properties":{"name":"Willop Depot","category":"water_works","osm_type":"way","osm_id":"1365800725","operator":"Environmental Agency","addr:city":"Dymchurch","addr:postcode":"TN29 0TW"}},{"type":"Feature","geometry":{"type":"Point","coordinates":[1.08767,51.07355]},"properties":{"name":"Mapped water infrastructure","category":"pumping_station","osm_type":"way","osm_id":"1417026863"}},{"type":"Feature","geometry":{"type":"Point","coordinates":[1.07787,51.08594]},"properties":{"name":"Mapped water infrastructure","category":"reservoir_covered","osm_type":"way","osm_id":"1429901821"}},{"type":"Feature","geometry":{"type":"Point","coordinates":[1.02443,51.09241]},"properties":{"name":"Mapped water infrastructure","category":"pumping_station","osm_type":"way","osm_id":"1430236957"}},{"type":"Feature","geometry":{"type":"Point","coordinates":[1.16171,51.12222]},"properties":{"name":"Mapped water infrastructure","category":"pumping_station","osm_type":"way","osm_id":"1462365601"}},{"type":"Feature","geometry":{"type":"Point","coordinates":[1.05978,51.29586]},"properties":{"name":"Parkwood Pumping Station","category":"pumping_station","osm_type":"way","osm_id":"1466466754","operator":"University of Kent"}},{"type":"Feature","geometry":{"type":"Point","coordinates":[1.09489,51.36394]},"properties":{"name":"Mapped water infrastructure","category":"pumping_station","osm_type":"way","osm_id":"1556754032"}},{"type":"Feature","geometry":{"type":"Point","coordinates":[1.02896,51.36248]},"properties":{"name":"Gorrell Tank","category":"parking","osm_type":"way","osm_id":"31961219","operator":"Canterbury City Council","capacity":"245"}},{"type":"Feature","geometry":{"type":"Point","coordinates":[1.27976,51.10661]},"properties":{"name":"Channel Tunnel Pumping Station","category":"pumping_station","osm_type":"way","osm_id":"147445719","operator":"Eurotunnel"}},{"type":"Feature","geometry":{"type":"Point","coordinates":[1.14058,51.36807]},"properties":{"name":"Mapped water infrastructure","category":"water_tower","osm_type":"way","osm_id":"612331001"}},{"type":"Feature","geometry":{"type":"Point","coordinates":[1.18788,51.08692]},"properties":{"name":"Mapped water infrastructure","category":"pumping_station","osm_type":"way","osm_id":"668775526"}},{"type":"Feature","geometry":{"type":"Point","coordinates":[1.18812,51.08673]},"properties":{"name":"Southern Water","category":"pumping_station","osm_type":"way","osm_id":"668775527"}},{"type":"Feature","geometry":{"type":"Point","coordinates":[1.14114,51.11275]},"properties":{"name":"Paddlesworth Reservoir","category":"reservoir_covered","osm_type":"way","osm_id":"699015640"}},{"type":"Feature","geometry":{"type":"Point","coordinates":[1.30795,51.11691]},"properties":{"name":"Elizabeth Street Pumping Station","category":"pumping_station","osm_type":"way","osm_id":"937338159","operator":"Southern Water"}},{"type":"Feature","geometry":{"type":"Point","coordinates":[1.16347,51.23726]},"properties":{"name":"Adisham Water Tower","category":"water_tower","osm_type":"way","osm_id":"1211637327"}},{"type":"Feature","geometry":{"type":"Point","coordinates":[1.36564,51.3264]},"properties":{"name":"Foads Lane Pumping Station","category":"pumping_station","osm_type":"way","osm_id":"1354405068","operator":"Southern Water","addr:postcode":"CT12 5JZ"}}]}