{"type":"FeatureCollection","features":[{"type":"Feature","geometry":{"type":"Point","coordinates":[1.23153,52.81603]},"properties":{"name":"The Mount","category":"water_tower","osm_type":"node","osm_id":"1117123220"}},{"type":"Feature","geometry":{"type":"Point","coordinates":[1.20791,52.94572]},"properties":{"name":"Mapped water infrastructure","category":"drinking_water","osm_type":"node","osm_id":"1531403177"}},{"type":"Feature","geometry":{"type":"Point","coordinates":[1.3261,52.8311]},"properties":{"name":"Mapped water infrastructure","category":"drinking_water","osm_type":"node","osm_id":"2571524384"}},{"type":"Feature","geometry":{"type":"Point","coordinates":[1.12197,52.69873]},"properties":{"name":"Mapped water infrastructure","category":"water_well","osm_type":"node","osm_id":"3224064831"}},{"type":"Feature","geometry":{"type":"Point","coordinates":[1.43137,52.68849]},"properties":{"name":"Mapped water infrastructure","category":"drinking_water","osm_type":"node","osm_id":"3605221468"}},{"type":"Feature","geometry":{"type":"Point","coordinates":[1.56167,52.52905]},"properties":{"name":"Mapped water infrastructure","category":"drinking_water","osm_type":"node","osm_id":"3682523560"}},{"type":"Feature","geometry":{"type":"Point","coordinates":[1.29075,52.63112]},"properties":{"name":"Gybson's Conduit","category":"water_well","osm_type":"node","osm_id":"3804730042","website":"http://norwichpreservationtrust.co.uk/gybsons-conduit-westwick-st-scheduled-ancient-monument/"}},{"type":"Feature","geometry":{"type":"Point","coordinates":[1.38108,52.56914]},"properties":{"name":"Mapped water infrastructure","category":"drinking_water","osm_type":"node","osm_id":"3982017724"}},{"type":"Feature","geometry":{"type":"Point","coordinates":[1.47714,52.65034]},"properties":{"name":"Mapped water infrastructure","category":"drinking_water","osm_type":"node","osm_id":"3984791804"}},{"type":"Feature","geometry":{"type":"Point","coordinates":[1.13386,52.80227]},"properties":{"name":"Jubilee Memorial","category":"water_well","osm_type":"node","osm_id":"4625201132"}},{"type":"Feature","geometry":{"type":"Point","coordinates":[1.18865,52.93153]},"properties":{"name":"Mapped water infrastructure","category":"water_well","osm_type":"node","osm_id":"4894887047"}},{"type":"Feature","geometry":{"type":"Point","coordinates":[1.07336,52.6595]},"properties":{"name":"Mapped water infrastructure","category":"water_well","osm_type":"node","osm_id":"4895672594"}},{"type":"Feature","geometry":{"type":"Point","coordinates":[1.63877,52.74186]},"properties":{"name":"Mapped water infrastructure","category":"water_point","osm_type":"node","osm_id":"4938278726"}},{"type":"Feature","geometry":{"type":"Point","coordinates":[1.65207,52.72176]},"properties":{"name":"Mapped water infrastructure","category":"water_point","osm_type":"node","osm_id":"4938278763"}},{"type":"Feature","geometry":{"type":"Point","coordinates":[1.55147,52.66003]},"properties":{"name":"Mapped water infrastructure","category":"water_point","osm_type":"node","osm_id":"5044655979"}},{"type":"Feature","geometry":{"type":"Point","coordinates":[1.50942,52.69991]},"properties":{"name":"Mapped water infrastructure","category":"water_point","osm_type":"node","osm_id":"5062528116"}},{"type":"Feature","geometry":{"type":"Point","coordinates":[1.49137,52.7485]},"properties":{"name":"Mapped water infrastructure","category":"water_point","osm_type":"node","osm_id":"5062529033"}},{"type":"Feature","geometry":{"type":"Point","coordinates":[1.47172,52.73613]},"properties":{"name":"Mapped water infrastructure","category":"water_point","osm_type":"node","osm_id":"5062529038"}},{"type":"Feature","geometry":{"type":"Point","coordinates":[1.47146,52.73614]},"properties":{"name":"Mapped water infrastructure","category":"water_point","osm_type":"node","osm_id":"5062529039"}},{"type":"Feature","geometry":{"type":"Point","coordinates":[1.29664,52.62148]},"properties":{"name":"Mapped water infrastructure","category":"water_point","osm_type":"node","osm_id":"5237885608"}},{"type":"Feature","geometry":{"type":"Point","coordinates":[1.22538,52.50273]},"properties":{"name":"Mapped water infrastructure","category":"drinking_water","osm_type":"node","osm_id":"5374626257"}},{"type":"Feature","geometry":{"type":"Point","coordinates":[1.48993,52.69405]},"properties":{"name":"Essex & Suffolk Waterworks","category":"water_works","osm_type":"node","osm_id":"5468673920"}},{"type":"Feature","geometry":{"type":"Point","coordinates":[1.30631,52.93056]},"properties":{"name":"Mapped water infrastructure","category":"water_point","osm_type":"node","osm_id":"5543804510"}},{"type":"Feature","geometry":{"type":"Point","coordinates":[1.35396,52.54996]},"properties":{"name":"Mapped water infrastructure","category":"drinking_water","osm_type":"node","osm_id":"5744138770"}},{"type":"Feature","geometry":{"type":"Point","coordinates":[1.44805,52.68449]},"properties":{"name":"Mapped water infrastructure","category":"water_well","osm_type":"node","osm_id":"5804338271"}},{"type":"Feature","geometry":{"type":"Point","coordinates":[1.26686,52.6326]},"properties":{"name":"Mapped water infrastructure","category":"water_point","osm_type":"node","osm_id":"5820940554"}},{"type":"Feature","geometry":{"type":"Point","coordinates":[1.20145,52.55783]},"properties":{"name":"Mapped water infrastructure","category":"drinking_water","osm_type":"node","osm_id":"5957959989"}},{"type":"Feature","geometry":{"type":"Point","coordinates":[1.15921,52.7269]},"properties":{"name":"Mapped water infrastructure","category":"water_well","osm_type":"node","osm_id":"6359845733"}},{"type":"Feature","geometry":{"type":"Point","coordinates":[1.29114,52.62757]},"properties":{"name":"Mapped water infrastructure","category":"drinking_water","osm_type":"node","osm_id":"6942702586","wheelchair":"yes"}},{"type":"Feature","geometry":{"type":"Point","coordinates":[1.30665,52.62667]},"properties":{"name":"Mapped water infrastructure","category":"drinking_water","osm_type":"node","osm_id":"7006586114","operator":"Abellio Greater Anglia"}},{"type":"Feature","geometry":{"type":"Point","coordinates":[1.14885,52.92448]},"properties":{"name":"Mapped water infrastructure","category":"drinking_water","osm_type":"node","osm_id":"7850688285"}},{"type":"Feature","geometry":{"type":"Point","coordinates":[1.26133,52.63802]},"properties":{"name":"Mapped water infrastructure","category":"water_point","osm_type":"node","osm_id":"8242548589"}},{"type":"Feature","geometry":{"type":"Point","coordinates":[1.26044,52.63795]},"properties":{"name":"Mapped water infrastructure","category":"water_point","osm_type":"node","osm_id":"8242548590"}},{"type":"Feature","geometry":{"type":"Point","coordinates":[1.25994,52.63796]},"properties":{"name":"Mapped water infrastructure","category":"water_point","osm_type":"node","osm_id":"8242548591"}},{"type":"Feature","geometry":{"type":"Point","coordinates":[1.25973,52.63759]},"properties":{"name":"Mapped water infrastructure","category":"water_point","osm_type":"node","osm_id":"8242548592"}},{"type":"Feature","geometry":{"type":"Point","coordinates":[1.25996,52.6373]},"properties":{"name":"Mapped water infrastructure","category":"water_point","osm_type":"node","osm_id":"8242548593"}},{"type":"Feature","geometry":{"type":"Point","coordinates":[1.25872,52.63822]},"properties":{"name":"Mapped water infrastructure","category":"water_point","osm_type":"node","osm_id":"8242548594"}},{"type":"Feature","geometry":{"type":"Point","coordinates":[1.25826,52.63803]},"properties":{"name":"Mapped water infrastructure","category":"water_point","osm_type":"node","osm_id":"8242548595"}},{"type":"Feature","geometry":{"type":"Point","coordinates":[1.25868,52.63767]},"properties":{"name":"Mapped water infrastructure","category":"water_point","osm_type":"node","osm_id":"8242548596"}},{"type":"Feature","geometry":{"type":"Point","coordinates":[1.25818,52.63736]},"properties":{"name":"Mapped water infrastructure","category":"water_point","osm_type":"node","osm_id":"8242548597"}},{"type":"Feature","geometry":{"type":"Point","coordinates":[1.25783,52.63776]},"properties":{"name":"Mapped water infrastructure","category":"water_point","osm_type":"node","osm_id":"8242548598"}},{"type":"Feature","geometry":{"type":"Point","coordinates":[1.52306,52.57289]},"properties":{"name":"Mapped water infrastructure","category":"pumping_station","osm_type":"node","osm_id":"8464567328"}},{"type":"Feature","geometry":{"type":"Point","coordinates":[1.20401,52.94593]},"properties":{"name":"Mapped water infrastructure","category":"drinking_water","osm_type":"node","osm_id":"8949707617","wheelchair":"yes"}},{"type":"Feature","geometry":{"type":"Point","coordinates":[1.22031,52.61667]},"properties":{"name":"Feast Hydration Station","category":"drinking_water","osm_type":"node","osm_id":"9188104300"}},{"type":"Feature","geometry":{"type":"Point","coordinates":[1.47725,52.85308]},"properties":{"name":"Mapped water infrastructure","category":"drinking_water","osm_type":"node","osm_id":"9405379831"}},{"type":"Feature","geometry":{"type":"Point","coordinates":[1.43769,52.8781]},"properties":{"name":"Mapped water infrastructure","category":"drinking_water","osm_type":"node","osm_id":"9453778893"}},{"type":"Feature","geometry":{"type":"Point","coordinates":[1.38391,52.62765]},"properties":{"name":"Water","category":"water_point","osm_type":"node","osm_id":"9685697544"}},{"type":"Feature","geometry":{"type":"Point","coordinates":[1.56264,52.52924]},"properties":{"name":"Mapped water infrastructure","category":"pumping_station","osm_type":"node","osm_id":"10799396581","operator":"Anglian Water","addr:city":"Norwich","addr:postcode":"NR14 6SH"}},{"type":"Feature","geometry":{"type":"Point","coordinates":[1.7323,52.57009]},"properties":{"name":"Mapped water infrastructure","category":"water_point","osm_type":"node","osm_id":"11012782079"}},{"type":"Feature","geometry":{"type":"Point","coordinates":[1.21258,52.93943]},"properties":{"name":"Mapped water infrastructure","category":"drinking_water","osm_type":"node","osm_id":"11114711229"}},{"type":"Feature","geometry":{"type":"Point","coordinates":[1.29448,52.9337]},"properties":{"name":"Mapped water infrastructure","category":"drinking_water","osm_type":"node","osm_id":"11198302692"}},{"type":"Feature","geometry":{"type":"Point","coordinates":[1.54794,52.63495]},"properties":{"name":"Mapped water infrastructure","category":"pumping_station","osm_type":"node","osm_id":"11222357641","operator":"Anglian Water"}},{"type":"Feature","geometry":{"type":"Point","coordinates":[1.14954,52.93283]},"properties":{"name":"Mapped water infrastructure","category":"water_tower","osm_type":"node","osm_id":"11513602417"}},{"type":"Feature","geometry":{"type":"Point","coordinates":[1.13015,52.87641]},"properties":{"name":"Mapped water infrastructure","category":"water_tower","osm_type":"node","osm_id":"11543844716"}},{"type":"Feature","geometry":{"type":"Point","coordinates":[1.44333,52.62682]},"properties":{"name":"Mapped water infrastructure","category":"pumping_station","osm_type":"node","osm_id":"11645717463","operator":"Anglian Water"}},{"type":"Feature","geometry":{"type":"Point","coordinates":[1.15232,52.89921]},"properties":{"name":"Mapped water infrastructure","category":"water_well","osm_type":"node","osm_id":"11922992252"}},{"type":"Feature","geometry":{"type":"Point","coordinates":[1.15197,52.89899]},"properties":{"name":"Mapped water infrastructure","category":"water_well","osm_type":"node","osm_id":"11922992289"}},{"type":"Feature","geometry":{"type":"Point","coordinates":[1.25035,52.79622]},"properties":{"name":"Mapped water infrastructure","category":"drinking_water","osm_type":"node","osm_id":"12154718614"}},{"type":"Feature","geometry":{"type":"Point","coordinates":[1.73123,52.57153]},"properties":{"name":"Mapped water infrastructure","category":"water_well","osm_type":"node","osm_id":"12390576197"}},{"type":"Feature","geometry":{"type":"Point","coordinates":[1.38397,52.62792]},"properties":{"name":"Mapped water infrastructure","category":"drinking_water","osm_type":"node","osm_id":"12531984001"}},{"type":"Feature","geometry":{"type":"Point","coordinates":[1.49072,52.61883]},"properties":{"name":"Mapped water infrastructure","category":"drinking_water","osm_type":"node","osm_id":"12533990676"}},{"type":"Feature","geometry":{"type":"Point","coordinates":[1.5564,52.59175]},"properties":{"name":"Mapped water infrastructure","category":"water_well","osm_type":"node","osm_id":"12672980542"}},{"type":"Feature","geometry":{"type":"Point","coordinates":[1.16565,52.65228]},"properties":{"name":"Mapped water infrastructure","category":"pumping_station","osm_type":"node","osm_id":"12726905594"}},{"type":"Feature","geometry":{"type":"Point","coordinates":[1.56769,52.55925]},"properties":{"name":"Mapped water infrastructure","category":"drinking_water","osm_type":"node","osm_id":"12757717574"}},{"type":"Feature","geometry":{"type":"Point","coordinates":[1.56715,52.55921]},"properties":{"name":"Mapped water infrastructure","category":"drinking_water","osm_type":"node","osm_id":"12757737471"}},{"type":"Feature","geometry":{"type":"Point","coordinates":[1.55301,52.63821]},"properties":{"name":"Mapped water infrastructure","category":"pumping_station","osm_type":"node","osm_id":"12875407490"}},{"type":"Feature","geometry":{"type":"Point","coordinates":[1.71279,52.60556]},"properties":{"name":"Mapped water infrastructure","category":"pumping_station","osm_type":"node","osm_id":"12886820657","operator":"Anglia Water"}},{"type":"Feature","geometry":{"type":"Point","coordinates":[1.54588,52.63477]},"properties":{"name":"Mapped water infrastructure","category":"pumping_station","osm_type":"node","osm_id":"12905636639"}},{"type":"Feature","geometry":{"type":"Point","coordinates":[1.73032,52.57788]},"properties":{"name":"Mapped water infrastructure","category":"pumping_station","osm_type":"node","osm_id":"12909309927"}},{"type":"Feature","geometry":{"type":"Point","coordinates":[1.29408,52.90498]},"properties":{"name":"Mapped water infrastructure","category":"drinking_water","osm_type":"node","osm_id":"13072180496"}},{"type":"Feature","geometry":{"type":"Point","coordinates":[1.55623,52.74693]},"properties":{"name":"Mapped water infrastructure","category":"drinking_water","osm_type":"node","osm_id":"13081349620"}},{"type":"Feature","geometry":{"type":"Point","coordinates":[1.55638,52.74759]},"properties":{"name":"Mapped water infrastructure","category":"drinking_water","osm_type":"node","osm_id":"13081349621"}},{"type":"Feature","geometry":{"type":"Point","coordinates":[1.55727,52.74621]},"properties":{"name":"Mapped water infrastructure","category":"drinking_water","osm_type":"node","osm_id":"13081349645"}},{"type":"Feature","geometry":{"type":"Point","coordinates":[1.22375,52.67761]},"properties":{"name":"Mapped water infrastructure","category":"drinking_water","osm_type":"node","osm_id":"13277202295"}},{"type":"Feature","geometry":{"type":"Point","coordinates":[1.18029,52.63357]},"properties":{"name":"St Walstan's Well","category":"water_well","osm_type":"node","osm_id":"13437882077"}},{"type":"Feature","geometry":{"type":"Point","coordinates":[1.29689,52.63147]},"properties":{"name":"Mapped water infrastructure","category":"water_well","osm_type":"node","osm_id":"13873715005"}},{"type":"Feature","geometry":{"type":"Point","coordinates":[1.13224,52.92623]},"properties":{"name":"Mapped water infrastructure","category":"drinking_water","osm_type":"node","osm_id":"14118561836"}},{"type":"Feature","geometry":{"type":"Point","coordinates":[1.13101,52.92638]},"properties":{"name":"Mapped water infrastructure","category":"drinking_water","osm_type":"node","osm_id":"14118561837"}},{"type":"Feature","geometry":{"type":"Point","coordinates":[1.13404,52.92861]},"properties":{"name":"Mapped water infrastructure","category":"drinking_water","osm_type":"node","osm_id":"14118561838"}},{"type":"Feature","geometry":{"type":"Point","coordinates":[1.13248,52.92947]},"properties":{"name":"Mapped water infrastructure","category":"drinking_water","osm_type":"node","osm_id":"14118561843"}},{"type":"Feature","geometry":{"type":"Point","coordinates":[1.13212,52.92877]},"properties":{"name":"Mapped water infrastructure","category":"drinking_water","osm_type":"node","osm_id":"14118561844"}},{"type":"Feature","geometry":{"type":"Point","coordinates":[1.13143,52.92786]},"properties":{"name":"Mapped water infrastructure","category":"drinking_water","osm_type":"node","osm_id":"14118561850"}},{"type":"Feature","geometry":{"type":"Point","coordinates":[1.51072,52.57502]},"properties":{"name":"Cantley Sewage Works","category":"wastewater_plant","osm_type":"way","osm_id":"65612659","operator":"Anglian Water","ref":"CANTST"}},{"type":"Feature","geometry":{"type":"Point","coordinates":[1.21201,52.65154]},"properties":{"name":"East Hills Water Treatment Works","category":"water_works","osm_type":"way","osm_id":"97392329","operator":"Anglian Water"}},{"type":"Feature","geometry":{"type":"Point","coordinates":[1.40679,52.82516]},"properties":{"name":"North Walsham Sewage Treatment Works","category":"wastewater_plant","osm_type":"way","osm_id":"118219457","operator":"Anglian Water"}},{"type":"Feature","geometry":{"type":"Point","coordinates":[1.11828,52.76039]},"properties":{"name":"Reepham STW (Norfolk)","category":"wastewater_plant","osm_type":"way","osm_id":"119883443","operator":"Anglian Water","ref":"REEPST"}},{"type":"Feature","geometry":{"type":"Point","coordinates":[1.36403,52.61641]},"properties":{"name":"Whitlingham Trowse Sewage Treatment Works","category":"wastewater_plant","osm_type":"way","osm_id":"119909110","operator":"Anglian Water","ref":"WHITST"}},{"type":"Feature","geometry":{"type":"Point","coordinates":[1.34444,52.57589]},"properties":{"name":"Mapped water infrastructure","category":"water_tower","osm_type":"way","osm_id":"120546994"}},{"type":"Feature","geometry":{"type":"Point","coordinates":[1.34488,52.57573]},"properties":{"name":"Mapped water infrastructure","category":"water_tower","osm_type":"way","osm_id":"120547001"}},{"type":"Feature","geometry":{"type":"Point","coordinates":[1.29832,52.61635]},"properties":{"name":"Mapped water infrastructure","category":"reservoir_covered","osm_type":"way","osm_id":"129265922"}},{"type":"Feature","geometry":{"type":"Point","coordinates":[1.2981,52.61584]},"properties":{"name":"Mapped water infrastructure","category":"reservoir_covered","osm_type":"way","osm_id":"129265923"}},{"type":"Feature","geometry":{"type":"Point","coordinates":[1.04426,52.94022]},"properties":{"name":"Mapped water infrastructure","category":"wastewater_plant","osm_type":"way","osm_id":"131336257"}},{"type":"Feature","geometry":{"type":"Point","coordinates":[1.31656,52.63086]},"properties":{"name":"Mapped water infrastructure","category":"water_tower","osm_type":"way","osm_id":"133165681"}},{"type":"Feature","geometry":{"type":"Point","coordinates":[1.44105,52.8317]},"properties":{"name":"Mapped water infrastructure","category":"reservoir_covered","osm_type":"way","osm_id":"138778761"}},{"type":"Feature","geometry":{"type":"Point","coordinates":[1.36718,52.55744]},"properties":{"name":"Mapped water infrastructure","category":"wastewater_plant","osm_type":"way","osm_id":"147148438"}},{"type":"Feature","geometry":{"type":"Point","coordinates":[1.13066,52.62707]},"properties":{"name":"Barford-Chapel Street STW","category":"wastewater_plant","osm_type":"way","osm_id":"152440059","operator":"Anglian Water","ref":"BARFST"}},{"type":"Feature","geometry":{"type":"Point","coordinates":[1.72222,52.59437]},"properties":{"name":"Sewage Pumping Station","category":"pumping_station","osm_type":"way","osm_id":"206257676","operator":"Anglian Water"}},{"type":"Feature","geometry":{"type":"Point","coordinates":[1.7261,52.62104]},"properties":{"name":"Mapped water infrastructure","category":"pumping_station","osm_type":"way","osm_id":"210618973"}},{"type":"Feature","geometry":{"type":"Point","coordinates":[1.01477,52.72406]},"properties":{"name":"Bylaugh-Near Church STW","category":"wastewater_plant","osm_type":"way","osm_id":"223806328","operator":"Anglian Water","ref":"BYLAST"}},{"type":"Feature","geometry":{"type":"Point","coordinates":[1.72137,52.57117]},"properties":{"name":"Mapped water infrastructure","category":"reservoir_covered","osm_type":"way","osm_id":"227838072"}},{"type":"Feature","geometry":{"type":"Point","coordinates":[1.48514,52.7063]},"properties":{"name":"Mapped water infrastructure","category":"wastewater_plant","osm_type":"way","osm_id":"230535861"}},{"type":"Feature","geometry":{"type":"Point","coordinates":[1.48587,52.70793]},"properties":{"name":"Horning-Knackers Wood STW","category":"wastewater_plant","osm_type":"way","osm_id":"230580673","operator":"Anglian Water","ref":"HRNKST"}},{"type":"Feature","geometry":{"type":"Point","coordinates":[1.73535,52.52119]},"properties":{"name":"Mapped water infrastructure","category":"wastewater_plant","osm_type":"way","osm_id":"241538618","operator":"Anglian Water"}},{"type":"Feature","geometry":{"type":"Point","coordinates":[1.41989,52.85487]},"properties":{"name":"Mapped water infrastructure","category":"water_tower","osm_type":"way","osm_id":"243688998"}},{"type":"Feature","geometry":{"type":"Point","coordinates":[1.28822,52.57857]},"properties":{"name":"Stoke Holy Cross STW","category":"wastewater_plant","osm_type":"way","osm_id":"259798947","operator":"Anglian Water","ref":"STHXST"}},{"type":"Feature","geometry":{"type":"Point","coordinates":[1.19514,52.74717]},"properties":{"name":"Mapped water infrastructure","category":"wastewater_plant","osm_type":"way","osm_id":"275661631"}},{"type":"Feature","geometry":{"type":"Point","coordinates":[1.27036,52.5311]},"properties":{"name":"Saxlingham STW","category":"wastewater_plant","osm_type":"way","osm_id":"292636458","operator":"Anglian Water","ref":"SAXLST"}},{"type":"Feature","geometry":{"type":"Point","coordinates":[1.18342,52.66015]},"properties":{"name":"Mapped water infrastructure","category":"pumping_station","osm_type":"way","osm_id":"299884761"}},{"type":"Feature","geometry":{"type":"Point","coordinates":[1.3143,52.61497]},"properties":{"name":"Mapped water infrastructure","category":"water_works","osm_type":"way","osm_id":"322424815","operator":"Anglian Water"}},{"type":"Feature","geometry":{"type":"Point","coordinates":[1.24003,52.57761]},"properties":{"name":"Mapped water infrastructure","category":"wastewater_plant","osm_type":"way","osm_id":"345028189"}},{"type":"Feature","geometry":{"type":"Point","coordinates":[1.48584,52.558]},"properties":{"name":"Mapped water infrastructure","category":"wastewater_plant","osm_type":"way","osm_id":"352575145"}},{"type":"Feature","geometry":{"type":"Point","coordinates":[1.09183,52.5828]},"properties":{"name":"Mapped water infrastructure","category":"wastewater_plant","osm_type":"way","osm_id":"352999587"}},{"type":"Feature","geometry":{"type":"Point","coordinates":[1.26146,52.63488]},"properties":{"name":"Mapped water infrastructure","category":"water_tower","osm_type":"way","osm_id":"390237072"}},{"type":"Feature","geometry":{"type":"Point","coordinates":[1.57998,52.60014]},"properties":{"name":"Mapped water infrastructure","category":"wastewater_plant","osm_type":"way","osm_id":"408808606"}},{"type":"Feature","geometry":{"type":"Point","coordinates":[1.58077,52.59909]},"properties":{"name":"Mapped water infrastructure","category":"wastewater_plant","osm_type":"way","osm_id":"408808607"}},{"type":"Feature","geometry":{"type":"Point","coordinates":[1.14228,52.82486]},"properties":{"name":"Mapped water infrastructure","category":"wastewater_plant","osm_type":"way","osm_id":"409422696"}},{"type":"Feature","geometry":{"type":"Point","coordinates":[1.00892,52.77802]},"properties":{"name":"Foulsham-Station Rd STW","category":"wastewater_plant","osm_type":"way","osm_id":"438405116","operator":"Anglian Water","ref":"FOUSST"}},{"type":"Feature","geometry":{"type":"Point","coordinates":[1.55672,52.63331]},"properties":{"name":"Acle-Damgate Lane STW","category":"wastewater_plant","osm_type":"way","osm_id":"445281727","operator":"Anglian Water","ref":"ACLEST"}},{"type":"Feature","geometry":{"type":"Point","coordinates":[1.4547,52.541]},"properties":{"name":"Mapped water infrastructure","category":"wastewater_plant","osm_type":"way","osm_id":"459196808"}},{"type":"Feature","geometry":{"type":"Point","coordinates":[1.36362,52.8635]},"properties":{"name":"Southrepps-Lower St STW","category":"wastewater_plant","osm_type":"way","osm_id":"469382870","operator":"Anglian Water","ref":"SREPST"}},{"type":"Feature","geometry":{"type":"Point","coordinates":[1.18868,52.58157]},"properties":{"name":"Mapped water infrastructure","category":"water_tower","osm_type":"way","osm_id":"475524092"}},{"type":"Feature","geometry":{"type":"Point","coordinates":[1.15872,52.65288]},"properties":{"name":"Easton Water Tower","category":"water_tower","osm_type":"way","osm_id":"478465756"}},{"type":"Feature","geometry":{"type":"Point","coordinates":[1.29889,52.67238]},"properties":{"name":"Mapped water infrastructure","category":"pumping_station","osm_type":"way","osm_id":"624367981"}},{"type":"Feature","geometry":{"type":"Point","coordinates":[1.3436,52.62098]},"properties":{"name":"Mapped water infrastructure","category":"pumping_station","osm_type":"way","osm_id":"648434370"}},{"type":"Feature","geometry":{"type":"Point","coordinates":[1.30229,52.61617]},"properties":{"name":"Mapped water infrastructure","category":"pumping_station","osm_type":"way","osm_id":"679844204"}},{"type":"Feature","geometry":{"type":"Point","coordinates":[1.33433,52.75332]},"properties":{"name":"Mapped water infrastructure","category":"wastewater_plant","osm_type":"way","osm_id":"691275631"}},{"type":"Feature","geometry":{"type":"Point","coordinates":[1.20561,52.94187]},"properties":{"name":"Mapped water infrastructure","category":"water_tower","osm_type":"way","osm_id":"696406579","operator":"North Norfolk Railway"}},{"type":"Feature","geometry":{"type":"Point","coordinates":[1.55299,52.74135]},"properties":{"name":"Catfield Pumping Station","category":"pumping_station","osm_type":"way","osm_id":"761581708"}},{"type":"Feature","geometry":{"type":"Point","coordinates":[1.27159,52.56477]},"properties":{"name":"Mapped water infrastructure","category":"wastewater_plant","osm_type":"way","osm_id":"778589626"}},{"type":"Feature","geometry":{"type":"Point","coordinates":[1.06116,52.72136]},"properties":{"name":"Mapped water infrastructure","category":"pumping_station","osm_type":"way","osm_id":"816686911"}},{"type":"Feature","geometry":{"type":"Point","coordinates":[1.19129,52.6009]},"properties":{"name":"Mapped water infrastructure","category":"pumping_station","osm_type":"way","osm_id":"835773954"}},{"type":"Feature","geometry":{"type":"Point","coordinates":[1.17943,52.60366]},"properties":{"name":"Mapped water infrastructure","category":"pumping_station","osm_type":"way","osm_id":"858915867"}},{"type":"Feature","geometry":{"type":"Point","coordinates":[1.17184,52.60521]},"properties":{"name":"Mapped water infrastructure","category":"pumping_station","osm_type":"way","osm_id":"860026168"}},{"type":"Feature","geometry":{"type":"Point","coordinates":[1.07124,52.50033]},"properties":{"name":"Mapped water infrastructure","category":"water_works","osm_type":"way","osm_id":"862965720","operator":"Anglian Water","addr:city":"Attleborough","addr:postcode":"NR17 1PU"}},{"type":"Feature","geometry":{"type":"Point","coordinates":[1.35421,52.75927]},"properties":{"name":"Mapped water infrastructure","category":"wastewater_plant","osm_type":"way","osm_id":"875549187"}},{"type":"Feature","geometry":{"type":"Point","coordinates":[1.35649,52.61222]},"properties":{"name":"Mapped water infrastructure","category":"wastewater_plant","osm_type":"way","osm_id":"875556529"}},{"type":"Feature","geometry":{"type":"Point","coordinates":[1.2679,52.63814]},"properties":{"name":"Mapped water infrastructure","category":"water_works","osm_type":"way","osm_id":"875564699"}},{"type":"Feature","geometry":{"type":"Point","coordinates":[1.30688,52.6334]},"properties":{"name":"Pump Room","category":"pumping_station","osm_type":"way","osm_id":"968495388"}},{"type":"Feature","geometry":{"type":"Point","coordinates":[1.42343,52.53495]},"properties":{"name":"Seething Mill Lane STW","category":"wastewater_plant","osm_type":"way","osm_id":"988921403","operator":"Anglian Wqter","ref":"SEMLST"}},{"type":"Feature","geometry":{"type":"Point","coordinates":[1.28419,52.64824]},"properties":{"name":"Mapped water infrastructure","category":"pumping_station","osm_type":"way","osm_id":"1023714970","operator":"Anglian Water"}},{"type":"Feature","geometry":{"type":"Point","coordinates":[1.55463,52.53538]},"properties":{"name":"Norton Subcourse STW","category":"wastewater_plant","osm_type":"way","osm_id":"1035006922","operator":"Anglian Water","ref":"NORSST"}},{"type":"Feature","geometry":{"type":"Point","coordinates":[1.28688,52.50357]},"properties":{"name":"Hempnall-Fritton Rd STW","category":"wastewater_plant","osm_type":"way","osm_id":"1035022819","operator":"Anglian Water","ref":"HEMPST"}},{"type":"Feature","geometry":{"type":"Point","coordinates":[1.64482,52.51911]},"properties":{"name":"Somerleyton-Marsh La STW","category":"wastewater_plant","osm_type":"way","osm_id":"1036123591","operator":"Anglian Water","ref":"SOLYST"}},{"type":"Feature","geometry":{"type":"Point","coordinates":[1.06102,52.73579]},"properties":{"name":"Sparham-Wells Close Hsw WwTW","category":"wastewater_plant","osm_type":"way","osm_id":"1036671022","operator":"Anglian Water","ref":"SPAWST"}},{"type":"Feature","geometry":{"type":"Point","coordinates":[1.5857,52.70097]},"properties":{"name":"Reps With Bastwick St WwTW","category":"wastewater_plant","osm_type":"way","osm_id":"1038356406","operator":"Anglian Water","ref":"RPBAST"}},{"type":"Feature","geometry":{"type":"Point","coordinates":[1.06289,52.62648]},"properties":{"name":"Barnham Broom STW","category":"wastewater_plant","osm_type":"way","osm_id":"1038356860","operator":"Anglian Water","ref":"BARBST"}},{"type":"Feature","geometry":{"type":"Point","coordinates":[1.64263,52.64245]},"properties":{"name":"Mautby Runham Village STW","category":"wastewater_plant","osm_type":"way","osm_id":"1038718182","operator":"Anglian Water","ref":"MTBYST"}},{"type":"Feature","geometry":{"type":"Point","coordinates":[1.2998,52.87289]},"properties":{"name":"Roughton STW","category":"wastewater_plant","osm_type":"way","osm_id":"1038866176","operator":"Anglian Water","ref":"ROUGST"}},{"type":"Feature","geometry":{"type":"Point","coordinates":[1.0206,52.56444]},"properties":{"name":"Deopham STW","category":"wastewater_plant","osm_type":"way","osm_id":"1039538654","operator":"Anglian Water","ref":"DEOPST"}},{"type":"Feature","geometry":{"type":"Point","coordinates":[1.49554,52.77345]},"properties":{"name":"Stalham STW","category":"wastewater_plant","osm_type":"way","osm_id":"1039928531","operator":"Anglian Water","ref":"STALST"}},{"type":"Feature","geometry":{"type":"Point","coordinates":[1.41389,52.57884]},"properties":{"name":"Hellington Low Common STW","category":"wastewater_plant","osm_type":"way","osm_id":"1040040818","operator":"Anglian Water","ref":"HELCST"}},{"type":"Feature","geometry":{"type":"Point","coordinates":[1.34482,52.89644]},"properties":{"name":"Northrepps-Frogs Hall STW","category":"wastewater_plant","osm_type":"way","osm_id":"1040053939","operator":"Anglian Water","ref":"NREPST"}},{"type":"Feature","geometry":{"type":"Point","coordinates":[1.07325,52.67263]},"properties":{"name":"Hockering-By A47 STW","category":"wastewater_plant","osm_type":"way","osm_id":"1040287197","operator":"Anglian Water","ref":"HOCKST"}},{"type":"Feature","geometry":{"type":"Point","coordinates":[1.42586,52.73679]},"properties":{"name":"Ashmanaugh HSW WwTW","category":"wastewater_plant","osm_type":"way","osm_id":"1041170586","operator":"Anglian Water","ref":"ASHMST"}},{"type":"Feature","geometry":{"type":"Point","coordinates":[1.35707,52.77686]},"properties":{"name":"Swanton Abbott STW","category":"wastewater_plant","osm_type":"way","osm_id":"1041199796","operator":"Anglian Water","ref":"SWNAST"}},{"type":"Feature","geometry":{"type":"Point","coordinates":[1.15625,52.89374]},"properties":{"name":"Baconsthorpe-Hall Rd HSW WwTW","category":"wastewater_plant","osm_type":"way","osm_id":"1041522049","operator":"Anglian Water","ref":"BACOST"}},{"type":"Feature","geometry":{"type":"Point","coordinates":[1.24559,52.64267]},"properties":{"name":"Mapped water infrastructure","category":"pumping_station","osm_type":"way","osm_id":"1051222872","operator":"Anglian Water"}},{"type":"Feature","geometry":{"type":"Point","coordinates":[1.36847,52.65386]},"properties":{"name":"Mapped water infrastructure","category":"pumping_station","osm_type":"way","osm_id":"1060548317","operator":"Anglian Water"}},{"type":"Feature","geometry":{"type":"Point","coordinates":[1.4707,52.79783]},"properties":{"name":"Mapped water infrastructure","category":"water_works","osm_type":"way","osm_id":"1066416738"}},{"type":"Feature","geometry":{"type":"Point","coordinates":[1.34019,52.76362]},"properties":{"name":"Mapped water infrastructure","category":"pumping_station","osm_type":"way","osm_id":"1072268118","operator":"Anglian Water"}},{"type":"Feature","geometry":{"type":"Point","coordinates":[1.05402,52.53564]},"properties":{"name":"Besthorpe-Norwich Road STW","category":"wastewater_plant","osm_type":"way","osm_id":"1110235732","operator":"Anglian Water","ref":"BESNST"}},{"type":"Feature","geometry":{"type":"Point","coordinates":[1.03277,52.82402]},"properties":{"name":"Hindolveston STW","category":"wastewater_plant","osm_type":"way","osm_id":"1111899095","operator":"Anglian Water","ref":"HIN1ST"}},{"type":"Feature","geometry":{"type":"Point","coordinates":[1.58235,52.55914]},"properties":{"name":"Reedham STW","category":"wastewater_plant","osm_type":"way","osm_id":"1112296837","operator":"Anglian Water","ref":"REEDST"}},{"type":"Feature","geometry":{"type":"Point","coordinates":[1.2453,52.85565]},"properties":{"name":"Aldborough-Thwaite Hill Fm STW","category":"wastewater_plant","osm_type":"way","osm_id":"1113169700","operator":"Anglian Water","ref":"ALDBST"}},{"type":"Feature","geometry":{"type":"Point","coordinates":[1.17327,52.53402]},"properties":{"name":"Ashwellthorpe STW","category":"wastewater_plant","osm_type":"way","osm_id":"1113171990","operator":"Anglian Water","ref":"ASWTST"}},{"type":"Feature","geometry":{"type":"Point","coordinates":[1.00518,52.50338]},"properties":{"name":"Attleborough-Poplar Road STW","category":"wastewater_plant","osm_type":"way","osm_id":"1113172059","operator":"Anglian Water","ref":"ATTPST"}},{"type":"Feature","geometry":{"type":"Point","coordinates":[1.45463,52.57787]},"properties":{"name":"Claxton The Warren STW","category":"wastewater_plant","osm_type":"way","osm_id":"1126454543","operator":"Anglian Water","ref":"CLTWST"}},{"type":"Feature","geometry":{"type":"Point","coordinates":[1.44414,52.84191]},"properties":{"name":"Edingthope HSW Sigh Banks WwTW","category":"wastewater_plant","osm_type":"way","osm_id":"1126454593","operator":"Anglian Water","ref":"EDINST"}},{"type":"Feature","geometry":{"type":"Point","coordinates":[1.47946,52.7489]},"properties":{"name":"Barton Turf-School Rd HSW WwTW","category":"wastewater_plant","osm_type":"way","osm_id":"1126458464","operator":"Anglian Water","ref":"BTNTST"}},{"type":"Feature","geometry":{"type":"Point","coordinates":[1.45211,52.76709]},"properties":{"name":"Bro Smallburgh-Hillfields HSW WwTW","category":"wastewater_plant","osm_type":"way","osm_id":"1126460789","operator":"Anglian Water","ref":"SMALST"}},{"type":"Feature","geometry":{"type":"Point","coordinates":[1.42594,52.78814]},"properties":{"name":"Mapped water infrastructure","category":"pumping_station","osm_type":"way","osm_id":"1190347018","operator":"Anglian Water"}},{"type":"Feature","geometry":{"type":"Point","coordinates":[1.22801,52.65684]},"properties":{"name":"Mapped water infrastructure","category":"pumping_station","osm_type":"way","osm_id":"1199975403","operator":"National Grid"}},{"type":"Feature","geometry":{"type":"Point","coordinates":[1.4547,52.61304]},"properties":{"name":"Mapped water infrastructure","category":"pumping_station","osm_type":"way","osm_id":"1205233340","operator":"Anglian Water"}},{"type":"Feature","geometry":{"type":"Point","coordinates":[1.32011,52.5392]},"properties":{"name":"Shotesham The Grove STW","category":"wastewater_plant","osm_type":"way","osm_id":"1207281277","operator":"Anglian Water","ref":"SHTGST"}},{"type":"Feature","geometry":{"type":"Point","coordinates":[1.2506,52.66045]},"properties":{"name":"Mapped water infrastructure","category":"water_tower","osm_type":"way","osm_id":"1236850747"}},{"type":"Feature","geometry":{"type":"Point","coordinates":[1.10816,52.87159]},"properties":{"name":"Edgefield-Turkey Ln HSW WwTW","category":"wastewater_plant","osm_type":"way","osm_id":"1242960684","operator":"Anglian Water","ref":"EDGEST"}},{"type":"Feature","geometry":{"type":"Point","coordinates":[1.35337,52.67634]},"properties":{"name":"Mapped water infrastructure","category":"wastewater_plant","osm_type":"way","osm_id":"1243131395","operator":"Anglian Water"}},{"type":"Feature","geometry":{"type":"Point","coordinates":[1.47707,52.61244]},"properties":{"name":"Mapped water infrastructure","category":"reservoir_covered","osm_type":"way","osm_id":"1274617182"}},{"type":"Feature","geometry":{"type":"Point","coordinates":[1.2222,52.62663]},"properties":{"name":"Mapped water infrastructure","category":"reservoir_covered","osm_type":"way","osm_id":"1292617237"}},{"type":"Feature","geometry":{"type":"Point","coordinates":[1.22327,52.89588]},"properties":{"name":"Gresham Sewage Works","category":"wastewater_plant","osm_type":"way","osm_id":"1300552436"}},{"type":"Feature","geometry":{"type":"Point","coordinates":[1.25402,52.92076]},"properties":{"name":"Mapped water infrastructure","category":"reservoir_covered","osm_type":"way","osm_id":"1305097808"}},{"type":"Feature","geometry":{"type":"Point","coordinates":[1.39572,52.8639]},"properties":{"name":"N Walsham Rd Trunch","category":"pumping_station","osm_type":"way","osm_id":"1309806462","operator":"Cadent","ref":"196127"}},{"type":"Feature","geometry":{"type":"Point","coordinates":[1.47701,52.79931]},"properties":{"name":"East Ruston - The Furze HSW WwTW","category":"wastewater_plant","osm_type":"way","osm_id":"1315289768","operator":"Anglian Water","ref":"ERUFST"}},{"type":"Feature","geometry":{"type":"Point","coordinates":[1.23011,52.60533]},"properties":{"name":"Mapped water infrastructure","category":"pumping_station","osm_type":"way","osm_id":"1324634997"}},{"type":"Feature","geometry":{"type":"Point","coordinates":[1.71734,52.61293]},"properties":{"name":"Anglia Pumping Services","category":"pumping_station","osm_type":"way","osm_id":"1386589474"}},{"type":"Feature","geometry":{"type":"Point","coordinates":[1.08783,52.53637]},"properties":{"name":"Spooner Row-School Lane STW","category":"wastewater_plant","osm_type":"way","osm_id":"1393521216","operator":"Anglian Water","ref":"SPSLST"}},{"type":"Feature","geometry":{"type":"Point","coordinates":[1.15352,52.60663]},"properties":{"name":"Gt Melton The Croft STW","category":"wastewater_plant","osm_type":"way","osm_id":"1394002188","operator":"Anglian Water","ref":"GMTCST"}},{"type":"Feature","geometry":{"type":"Point","coordinates":[1.3234,52.79151]},"properties":{"name":"Skeyton HSW WwTW","category":"wastewater_plant","osm_type":"way","osm_id":"1394974057","operator":"Anglian Water","ref":"SKEYST"}},{"type":"Feature","geometry":{"type":"Point","coordinates":[1.20647,52.92161]},"properties":{"name":"Mapped water infrastructure","category":"reservoir_covered","osm_type":"way","osm_id":"1415414096","operator":"Anglia Water"}},{"type":"Feature","geometry":{"type":"Point","coordinates":[1.48103,52.82337]},"properties":{"name":"Ridlington HSW (Norfolk) WwTW","category":"wastewater_plant","osm_type":"way","osm_id":"1421987017","operator":"Anglian Water","ref":"RIDLST"}},{"type":"Feature","geometry":{"type":"Point","coordinates":[1.45246,52.79675]},"properties":{"name":"Honing-The Glebe HSW WwTW","category":"wastewater_plant","osm_type":"way","osm_id":"1421989789","operator":"Anglian Water","ref":"HONGST"}},{"type":"Feature","geometry":{"type":"Point","coordinates":[1.52536,52.56783]},"properties":{"name":"Mapped water infrastructure","category":"pumping_station","osm_type":"way","osm_id":"1452741128"}},{"type":"Feature","geometry":{"type":"Point","coordinates":[1.188,52.61787]},"properties":{"name":"Mapped water infrastructure","category":"pumping_station","osm_type":"way","osm_id":"1466035109"}},{"type":"Feature","geometry":{"type":"Point","coordinates":[1.18607,52.61546]},"properties":{"name":"Mapped water infrastructure","category":"pumping_station","osm_type":"way","osm_id":"1466042441"}},{"type":"Feature","geometry":{"type":"Point","coordinates":[1.71603,52.65861]},"properties":{"name":"Mapped water infrastructure","category":"reservoir_covered","osm_type":"way","osm_id":"1475140932"}},{"type":"Feature","geometry":{"type":"Point","coordinates":[1.24473,52.70597]},"properties":{"name":"Mapped water infrastructure","category":"pumping_station","osm_type":"relation","osm_id":"21322130","operator":"AnglianWater"}},{"type":"Feature","geometry":{"type":"Point","coordinates":[1.2388,52.79349]},"properties":{"name":"Mapped water infrastructure","category":"water_tower","osm_type":"way","osm_id":"99095014"}},{"type":"Feature","geometry":{"type":"Point","coordinates":[1.22241,52.62663]},"properties":{"name":"Pumping Station","category":"water_works","osm_type":"way","osm_id":"110970306","operator":"Anglian Water"}},{"type":"Feature","geometry":{"type":"Point","coordinates":[1.22821,52.63263]},"properties":{"name":"Mapped water infrastructure","category":"pumping_station","osm_type":"way","osm_id":"114105827"}},{"type":"Feature","geometry":{"type":"Point","coordinates":[1.63952,52.71278]},"properties":{"name":"Mapped water infrastructure","category":"water_tower","osm_type":"way","osm_id":"114805150"}},{"type":"Feature","geometry":{"type":"Point","coordinates":[1.37943,52.81219]},"properties":{"name":"Mapped water infrastructure","category":"water_tower","osm_type":"way","osm_id":"140265989","operator":"Anglian Water"}},{"type":"Feature","geometry":{"type":"Point","coordinates":[1.37923,52.81231]},"properties":{"name":"Mapped water infrastructure","category":"water_tower","osm_type":"way","osm_id":"140266008","operator":"Anglian Water"}},{"type":"Feature","geometry":{"type":"Point","coordinates":[1.00253,52.76281]},"properties":{"name":"Mapped water infrastructure","category":"water_tower","osm_type":"way","osm_id":"153573378"}},{"type":"Feature","geometry":{"type":"Point","coordinates":[1.27294,52.6688]},"properties":{"name":"Mapped water infrastructure","category":"pumping_station","osm_type":"way","osm_id":"178761449"}},{"type":"Feature","geometry":{"type":"Point","coordinates":[1.72174,52.63832]},"properties":{"name":"Caister Wastewater Treatment Centre","category":"wastewater_plant","osm_type":"way","osm_id":"207474918","operator":"Anglian Water"}},{"type":"Feature","geometry":{"type":"Point","coordinates":[1.30455,52.59262]},"properties":{"name":"Mapped water infrastructure","category":"water_works","osm_type":"way","osm_id":"231349756"}},{"type":"Feature","geometry":{"type":"Point","coordinates":[1.30445,52.59242]},"properties":{"name":"Mapped water infrastructure","category":"water_works","osm_type":"way","osm_id":"231349759"}},{"type":"Feature","geometry":{"type":"Point","coordinates":[1.25367,52.78763]},"properties":{"name":"Mapped water infrastructure","category":"water_tower","osm_type":"way","osm_id":"233626410"}},{"type":"Feature","geometry":{"type":"Point","coordinates":[1.15913,52.76867]},"properties":{"name":"Mapped water infrastructure","category":"pumping_station","osm_type":"way","osm_id":"340195940"}},{"type":"Feature","geometry":{"type":"Point","coordinates":[1.03019,52.85508]},"properties":{"name":"Mapped water infrastructure","category":"water_tower","osm_type":"way","osm_id":"345605087"}},{"type":"Feature","geometry":{"type":"Point","coordinates":[1.28027,52.92987]},"properties":{"name":"Cromer STW","category":"wastewater_plant","osm_type":"way","osm_id":"345723355","operator":"Anglian Water","ref":"RUNMST"}},{"type":"Feature","geometry":{"type":"Point","coordinates":[1.25351,52.92053]},"properties":{"name":"Mapped water infrastructure","category":"water_tower","osm_type":"way","osm_id":"346638387"}},{"type":"Feature","geometry":{"type":"Point","coordinates":[1.1314,52.77944]},"properties":{"name":"Mapped water infrastructure","category":"water_tower","osm_type":"way","osm_id":"347318310","operator":"Anglian Water"}},{"type":"Feature","geometry":{"type":"Point","coordinates":[1.1534,52.88748]},"properties":{"name":"Mapped water infrastructure","category":"water_tower","osm_type":"way","osm_id":"347509007"}},{"type":"Feature","geometry":{"type":"Point","coordinates":[1.01267,52.73057]},"properties":{"name":"Mapped water infrastructure","category":"water_tower","osm_type":"way","osm_id":"350182879"}},{"type":"Feature","geometry":{"type":"Point","coordinates":[1.12952,52.67886]},"properties":{"name":"Mapped water infrastructure","category":"water_tower","osm_type":"way","osm_id":"350310879"}},{"type":"Feature","geometry":{"type":"Point","coordinates":[1.34641,52.71924]},"properties":{"name":"Mapped water infrastructure","category":"water_tower","osm_type":"way","osm_id":"350444031"}},{"type":"Feature","geometry":{"type":"Point","coordinates":[1.53062,52.72374]},"properties":{"name":"Mapped water infrastructure","category":"water_tower","osm_type":"way","osm_id":"351514747"}},{"type":"Feature","geometry":{"type":"Point","coordinates":[1.51342,52.81489]},"properties":{"name":"Mapped water infrastructure","category":"water_tower","osm_type":"way","osm_id":"353645083"}},{"type":"Feature","geometry":{"type":"Point","coordinates":[1.42726,52.87711]},"properties":{"name":"Mapped water infrastructure","category":"water_tower","osm_type":"way","osm_id":"353682321"}},{"type":"Feature","geometry":{"type":"Point","coordinates":[1.45396,52.50706]},"properties":{"name":"Mapped water infrastructure","category":"water_tower","osm_type":"way","osm_id":"364609691","operator":"Anglian Water"}},{"type":"Feature","geometry":{"type":"Point","coordinates":[1.11345,52.91595]},"properties":{"name":"Mapped water infrastructure","category":"water_tower","osm_type":"way","osm_id":"375687638"}},{"type":"Feature","geometry":{"type":"Point","coordinates":[1.19988,52.57136]},"properties":{"name":"Mapped water infrastructure","category":"water_tower","osm_type":"way","osm_id":"383523287"}},{"type":"Feature","geometry":{"type":"Point","coordinates":[1.16946,52.60204]},"properties":{"name":"Mapped water infrastructure","category":"water_tower","osm_type":"way","osm_id":"383538061"}},{"type":"Feature","geometry":{"type":"Point","coordinates":[1.7161,52.65802]},"properties":{"name":"Mapped water infrastructure","category":"water_tower","osm_type":"way","osm_id":"387185483"}},{"type":"Feature","geometry":{"type":"Point","coordinates":[1.00673,52.5033]},"properties":{"name":"Mapped water infrastructure","category":"water_tower","osm_type":"way","osm_id":"413447597"}},{"type":"Feature","geometry":{"type":"Point","coordinates":[1.55349,52.50043]},"properties":{"name":"Mapped water infrastructure","category":"water_tower","osm_type":"way","osm_id":"524443677"}},{"type":"Feature","geometry":{"type":"Point","coordinates":[1.21077,52.64332]},"properties":{"name":"Bowthorpe Water Tower","category":"water_tower","osm_type":"way","osm_id":"525915569","website":"http://www.heritage.norfolk.gov.uk/record-details?MNF44001"}},{"type":"Feature","geometry":{"type":"Point","coordinates":[1.47749,52.5768]},"properties":{"name":"Langley Green Monks Terrace STW","category":"wastewater_plant","osm_type":"way","osm_id":"621444319","operator":"Anglian Water","ref":"LAMTST"}},{"type":"Feature","geometry":{"type":"Point","coordinates":[1.59249,52.62955]},"properties":{"name":"Mapped water infrastructure","category":"pumping_station","osm_type":"way","osm_id":"640933033"}},{"type":"Feature","geometry":{"type":"Point","coordinates":[1.07428,52.90763]},"properties":{"name":"Holt STW","category":"wastewater_plant","osm_type":"way","osm_id":"1085376439"}},{"type":"Feature","geometry":{"type":"Point","coordinates":[1.43142,52.86807]},"properties":{"name":"Mundesley STW","category":"wastewater_plant","osm_type":"way","osm_id":"1085377747"}},{"type":"Feature","geometry":{"type":"Point","coordinates":[1.07682,52.84046]},"properties":{"name":"Briston STW","category":"wastewater_plant","osm_type":"way","osm_id":"1085380670"}},{"type":"Feature","geometry":{"type":"Point","coordinates":[1.27132,52.79355]},"properties":{"name":"Aylsham STW","category":"wastewater_plant","osm_type":"way","osm_id":"1085547318","operator":"Anglian Water","ref":"AYLSST"}},{"type":"Feature","geometry":{"type":"Point","coordinates":[1.3943,52.71503]},"properties":{"name":"Belaugh STW","category":"wastewater_plant","osm_type":"way","osm_id":"1085549343","operator":"Anglian Water","ref":"BELAST"}},{"type":"Feature","geometry":{"type":"Point","coordinates":[1.53692,52.72038]},"properties":{"name":"Ludham-Walton Hall STW","category":"wastewater_plant","osm_type":"way","osm_id":"1085549714","operator":"Anglian Water","ref":"LUDWST"}},{"type":"Feature","geometry":{"type":"Point","coordinates":[1.38371,52.52538]},"properties":{"name":"Kirstead STW Green Man Lane","category":"wastewater_plant","osm_type":"way","osm_id":"1090722523","operator":"Anglian Water","ref":"KIRSST"}},{"type":"Feature","geometry":{"type":"Point","coordinates":[1.55753,52.53086]},"properties":{"name":"Mapped water infrastructure","category":"pumping_station","osm_type":"way","osm_id":"1161095687","operator":"Anglian Water","addr:city":"Norwich","addr:postcode":"NR14 6RJ"}},{"type":"Feature","geometry":{"type":"Point","coordinates":[1.57482,52.53479]},"properties":{"name":"Mapped water infrastructure","category":"pumping_station","osm_type":"way","osm_id":"1161097771","operator":"Anglian Water","addr:city":"Norwich","addr:postcode":"NR14 6QA"}},{"type":"Feature","geometry":{"type":"Point","coordinates":[1.32741,52.62653]},"properties":{"name":"Mapped water infrastructure","category":"pumping_station","osm_type":"way","osm_id":"1168276007","addr:city":"Norwich","addr:postcode":"NR7 0EB"}},{"type":"Feature","geometry":{"type":"Point","coordinates":[1.18222,52.90436]},"properties":{"name":"Mapped water infrastructure","category":"water_tower","osm_type":"way","osm_id":"1223280265"}},{"type":"Feature","geometry":{"type":"Point","coordinates":[1.59722,52.71453]},"properties":{"name":"Potter Heigham Pumping Station","category":"pumping_station","osm_type":"way","osm_id":"1259793569","operator":"Broads Drainage Board","ref":"TG 43062 19058"}},{"type":"Feature","geometry":{"type":"Point","coordinates":[1.52791,52.6816]},"properties":{"name":"Mapped water infrastructure","category":"pumping_station","osm_type":"way","osm_id":"1287808855"}},{"type":"Feature","geometry":{"type":"Point","coordinates":[1.1234,52.50284]},"properties":{"name":"Mapped water infrastructure","category":"water_tower","osm_type":"way","osm_id":"1293063926"}},{"type":"Feature","geometry":{"type":"Point","coordinates":[1.24672,52.83874]},"properties":{"name":"Mapped water infrastructure","category":"pumping_station","osm_type":"way","osm_id":"1312808579"}},{"type":"Feature","geometry":{"type":"Point","coordinates":[1.40042,52.61292]},"properties":{"name":"Mapped water infrastructure","category":"pumping_station","osm_type":"way","osm_id":"1373879284"}},{"type":"Feature","geometry":{"type":"Point","coordinates":[1.66025,52.62992]},"properties":{"name":"Five Mile Pumping Station","category":"pumping_station","osm_type":"way","osm_id":"1429554220","operator":"Broads Drainage Board"}},{"type":"Feature","geometry":{"type":"Point","coordinates":[1.71641,52.65751]},"properties":{"name":"Mapped water infrastructure","category":"reservoir_covered","osm_type":"way","osm_id":"1475140931"}}]}