{"type":"FeatureCollection","features":[{"type":"Feature","geometry":{"type":"Point","coordinates":[-0.72828,53.02067]},"properties":{"name":"Power infrastructure","category":"generator","osm_type":"way","osm_id":"681405463"}},{"type":"Feature","geometry":{"type":"Point","coordinates":[-0.73165,53.01908]},"properties":{"name":"Power infrastructure","category":"generator","osm_type":"way","osm_id":"681405464"}},{"type":"Feature","geometry":{"type":"Point","coordinates":[-0.72823,53.02156]},"properties":{"name":"Power infrastructure","category":"generator","osm_type":"way","osm_id":"681405465"}},{"type":"Feature","geometry":{"type":"Point","coordinates":[-0.72562,53.0238]},"properties":{"name":"Power infrastructure","category":"generator","osm_type":"way","osm_id":"681405466"}},{"type":"Feature","geometry":{"type":"Point","coordinates":[-0.72292,53.02224]},"properties":{"name":"Power infrastructure","category":"generator","osm_type":"way","osm_id":"681405467"}},{"type":"Feature","geometry":{"type":"Point","coordinates":[-0.71932,53.02391]},"properties":{"name":"Power infrastructure","category":"generator","osm_type":"way","osm_id":"681405468"}},{"type":"Feature","geometry":{"type":"Point","coordinates":[-0.72293,53.02613]},"properties":{"name":"Power infrastructure","category":"generator","osm_type":"way","osm_id":"681405469"}},{"type":"Feature","geometry":{"type":"Point","coordinates":[-0.72486,53.02658]},"properties":{"name":"Power infrastructure","category":"generator","osm_type":"way","osm_id":"681405470"}},{"type":"Feature","geometry":{"type":"Point","coordinates":[-0.41548,53.23979]},"properties":{"name":"Power infrastructure","category":"generator","osm_type":"way","osm_id":"681441515"}},{"type":"Feature","geometry":{"type":"Point","coordinates":[-0.41746,53.24084]},"properties":{"name":"Power infrastructure","category":"generator","osm_type":"way","osm_id":"681441518"}},{"type":"Feature","geometry":{"type":"Point","coordinates":[-0.4172,53.24293]},"properties":{"name":"Power infrastructure","category":"generator","osm_type":"way","osm_id":"681441520"}},{"type":"Feature","geometry":{"type":"Point","coordinates":[-0.4147,53.24285]},"properties":{"name":"Power infrastructure","category":"generator","osm_type":"way","osm_id":"681441521"}},{"type":"Feature","geometry":{"type":"Point","coordinates":[-0.41371,53.24372]},"properties":{"name":"Power infrastructure","category":"generator","osm_type":"way","osm_id":"681441524"}},{"type":"Feature","geometry":{"type":"Point","coordinates":[-0.41369,53.2443]},"properties":{"name":"Power infrastructure","category":"generator","osm_type":"way","osm_id":"681441527"}},{"type":"Feature","geometry":{"type":"Point","coordinates":[-0.41352,53.24593]},"properties":{"name":"Power infrastructure","category":"generator","osm_type":"way","osm_id":"681441530"}},{"type":"Feature","geometry":{"type":"Point","coordinates":[-0.4168,53.24655]},"properties":{"name":"Power infrastructure","category":"generator","osm_type":"way","osm_id":"681441539"}},{"type":"Feature","geometry":{"type":"Point","coordinates":[-0.41981,53.24625]},"properties":{"name":"Power infrastructure","category":"generator","osm_type":"way","osm_id":"681441542"}},{"type":"Feature","geometry":{"type":"Point","coordinates":[-0.81335,53.08063]},"properties":{"name":"Power infrastructure","category":"generator","osm_type":"way","osm_id":"685005555"}},{"type":"Feature","geometry":{"type":"Point","coordinates":[-0.88232,53.21254]},"properties":{"name":"Egmanton","category":"plant","osm_type":"way","osm_id":"685748664"}},{"type":"Feature","geometry":{"type":"Point","coordinates":[-0.87999,53.21338]},"properties":{"name":"Power infrastructure","category":"generator","osm_type":"way","osm_id":"685748665"}},{"type":"Feature","geometry":{"type":"Point","coordinates":[-0.99613,53.30367]},"properties":{"name":"Power infrastructure","category":"generator","osm_type":"way","osm_id":"685748667"}},{"type":"Feature","geometry":{"type":"Point","coordinates":[-0.99352,53.3041]},"properties":{"name":"Power infrastructure","category":"generator","osm_type":"way","osm_id":"685748668"}},{"type":"Feature","geometry":{"type":"Point","coordinates":[-0.99013,53.3042]},"properties":{"name":"Power infrastructure","category":"generator","osm_type":"way","osm_id":"685748669"}},{"type":"Feature","geometry":{"type":"Point","coordinates":[-0.98849,53.30532]},"properties":{"name":"Power infrastructure","category":"generator","osm_type":"way","osm_id":"685748670"}},{"type":"Feature","geometry":{"type":"Point","coordinates":[-0.98847,53.3056]},"properties":{"name":"Power infrastructure","category":"generator","osm_type":"way","osm_id":"685748671"}},{"type":"Feature","geometry":{"type":"Point","coordinates":[-0.99061,53.30536]},"properties":{"name":"Power infrastructure","category":"generator","osm_type":"way","osm_id":"685748672"}},{"type":"Feature","geometry":{"type":"Point","coordinates":[-0.99514,53.30659]},"properties":{"name":"Power infrastructure","category":"generator","osm_type":"way","osm_id":"685748673"}},{"type":"Feature","geometry":{"type":"Point","coordinates":[-0.94362,53.22458]},"properties":{"name":"Power infrastructure","category":"generator","osm_type":"way","osm_id":"686137229"}},{"type":"Feature","geometry":{"type":"Point","coordinates":[-0.9449,53.22318]},"properties":{"name":"Power infrastructure","category":"generator","osm_type":"way","osm_id":"686137230"}},{"type":"Feature","geometry":{"type":"Point","coordinates":[-0.94804,53.22476]},"properties":{"name":"Power infrastructure","category":"generator","osm_type":"way","osm_id":"686137231"}},{"type":"Feature","geometry":{"type":"Point","coordinates":[-0.94681,53.22429]},"properties":{"name":"Power infrastructure","category":"generator","osm_type":"way","osm_id":"686137232"}},{"type":"Feature","geometry":{"type":"Point","coordinates":[-0.94994,53.08133]},"properties":{"name":"Power infrastructure","category":"substation","osm_type":"way","osm_id":"705223158"}},{"type":"Feature","geometry":{"type":"Point","coordinates":[-0.46,53.17887]},"properties":{"name":"Power infrastructure","category":"generator","osm_type":"way","osm_id":"713155635"}},{"type":"Feature","geometry":{"type":"Point","coordinates":[-0.46221,53.17965]},"properties":{"name":"Power infrastructure","category":"generator","osm_type":"way","osm_id":"713155636"}},{"type":"Feature","geometry":{"type":"Point","coordinates":[-0.4587,53.17747]},"properties":{"name":"Power infrastructure","category":"generator","osm_type":"way","osm_id":"713155637"}},{"type":"Feature","geometry":{"type":"Point","coordinates":[-0.46305,53.17865]},"properties":{"name":"Power infrastructure","category":"generator","osm_type":"way","osm_id":"713155638"}},{"type":"Feature","geometry":{"type":"Point","coordinates":[-0.46439,53.17835]},"properties":{"name":"Power infrastructure","category":"generator","osm_type":"way","osm_id":"713155639"}},{"type":"Feature","geometry":{"type":"Point","coordinates":[-0.46475,53.17653]},"properties":{"name":"Power infrastructure","category":"generator","osm_type":"way","osm_id":"713155640"}},{"type":"Feature","geometry":{"type":"Point","coordinates":[-0.46734,53.1759]},"properties":{"name":"Power infrastructure","category":"generator","osm_type":"way","osm_id":"713155641"}},{"type":"Feature","geometry":{"type":"Point","coordinates":[-0.4668,53.17931]},"properties":{"name":"Power infrastructure","category":"generator","osm_type":"way","osm_id":"713155642"}},{"type":"Feature","geometry":{"type":"Point","coordinates":[-0.46641,53.17967]},"properties":{"name":"Power infrastructure","category":"generator","osm_type":"way","osm_id":"713155643"}},{"type":"Feature","geometry":{"type":"Point","coordinates":[-0.46552,53.1809]},"properties":{"name":"Power infrastructure","category":"generator","osm_type":"way","osm_id":"713155644"}},{"type":"Feature","geometry":{"type":"Point","coordinates":[-0.46883,53.17827]},"properties":{"name":"Power infrastructure","category":"generator","osm_type":"way","osm_id":"713155645"}},{"type":"Feature","geometry":{"type":"Point","coordinates":[-0.81153,53.03183]},"properties":{"name":"Power infrastructure","category":"generator","osm_type":"way","osm_id":"713458475"}},{"type":"Feature","geometry":{"type":"Point","coordinates":[-0.81004,53.03434]},"properties":{"name":"Power infrastructure","category":"generator","osm_type":"way","osm_id":"713458476"}},{"type":"Feature","geometry":{"type":"Point","coordinates":[-0.80739,53.03229]},"properties":{"name":"Power infrastructure","category":"generator","osm_type":"way","osm_id":"713458477"}},{"type":"Feature","geometry":{"type":"Point","coordinates":[-0.70119,53.32554]},"properties":{"name":"Stow Solar Farm","category":"plant","osm_type":"way","osm_id":"713763790","operator":"Freewatt"}},{"type":"Feature","geometry":{"type":"Point","coordinates":[-0.69668,53.32475]},"properties":{"name":"Power infrastructure","category":"generator","osm_type":"way","osm_id":"713763791"}},{"type":"Feature","geometry":{"type":"Point","coordinates":[-0.6992,53.32479]},"properties":{"name":"Power infrastructure","category":"generator","osm_type":"way","osm_id":"713763792"}},{"type":"Feature","geometry":{"type":"Point","coordinates":[-0.70321,53.327]},"properties":{"name":"Power infrastructure","category":"generator","osm_type":"way","osm_id":"713763793"}},{"type":"Feature","geometry":{"type":"Point","coordinates":[-0.70531,53.32611]},"properties":{"name":"Power infrastructure","category":"generator","osm_type":"way","osm_id":"713763794"}},{"type":"Feature","geometry":{"type":"Point","coordinates":[-0.93093,53.3489]},"properties":{"name":"Tiln Farm","category":"plant","osm_type":"way","osm_id":"714799366"}},{"type":"Feature","geometry":{"type":"Point","coordinates":[-0.93229,53.3483]},"properties":{"name":"Power infrastructure","category":"generator","osm_type":"way","osm_id":"714799367"}},{"type":"Feature","geometry":{"type":"Point","coordinates":[-0.92778,53.34666]},"properties":{"name":"Power infrastructure","category":"generator","osm_type":"way","osm_id":"714799372"}},{"type":"Feature","geometry":{"type":"Point","coordinates":[-0.92923,53.34756]},"properties":{"name":"Power infrastructure","category":"generator","osm_type":"way","osm_id":"714799374"}},{"type":"Feature","geometry":{"type":"Point","coordinates":[-0.80877,53.08043]},"properties":{"name":"Power infrastructure","category":"generator","osm_type":"way","osm_id":"717450364"}},{"type":"Feature","geometry":{"type":"Point","coordinates":[-0.77386,53.2255]},"properties":{"name":"Power infrastructure","category":"generator","osm_type":"way","osm_id":"718080185"}},{"type":"Feature","geometry":{"type":"Point","coordinates":[-0.81146,53.11997]},"properties":{"name":"Power infrastructure","category":"generator","osm_type":"way","osm_id":"718087586"}},{"type":"Feature","geometry":{"type":"Point","coordinates":[-0.81124,53.11995]},"properties":{"name":"Power infrastructure","category":"generator","osm_type":"way","osm_id":"718087587"}},{"type":"Feature","geometry":{"type":"Point","coordinates":[-0.81134,53.11974]},"properties":{"name":"Power infrastructure","category":"generator","osm_type":"way","osm_id":"718087588"}},{"type":"Feature","geometry":{"type":"Point","coordinates":[-0.8115,53.11967]},"properties":{"name":"Power infrastructure","category":"generator","osm_type":"way","osm_id":"718087589"}},{"type":"Feature","geometry":{"type":"Point","coordinates":[-0.94635,53.22568]},"properties":{"name":"Westwood Farm Solar Park","category":"plant","osm_type":"way","osm_id":"725694063","operator":"Lightsource Renewable Energy"}},{"type":"Feature","geometry":{"type":"Point","coordinates":[-0.05504,53.01014]},"properties":{"name":"Canopus Farm","category":"plant","osm_type":"way","osm_id":"730017661","operator":"Countryside Renewables"}},{"type":"Feature","geometry":{"type":"Point","coordinates":[-0.39523,53.02922]},"properties":{"name":"Deepdale Farm","category":"plant","osm_type":"way","osm_id":"738308245","operator":"Deepdale Farm Solar Ltd"}},{"type":"Feature","geometry":{"type":"Point","coordinates":[-0.0259,53.10246]},"properties":{"name":"Power infrastructure","category":"generator","osm_type":"way","osm_id":"745132284"}},{"type":"Feature","geometry":{"type":"Point","coordinates":[-0.02782,53.10094]},"properties":{"name":"Power infrastructure","category":"plant","osm_type":"way","osm_id":"745132285"}},{"type":"Feature","geometry":{"type":"Point","coordinates":[-0.29589,53.27445]},"properties":{"name":"Primrose Hill Farm","category":"plant","osm_type":"way","osm_id":"746146646","operator":"Sun & Soil"}},{"type":"Feature","geometry":{"type":"Point","coordinates":[-0.21384,53.15164]},"properties":{"name":"Power infrastructure","category":"substation","osm_type":"way","osm_id":"785975625"}},{"type":"Feature","geometry":{"type":"Point","coordinates":[-0.77735,53.04234]},"properties":{"name":"Power infrastructure","category":"substation","osm_type":"way","osm_id":"819339779"}},{"type":"Feature","geometry":{"type":"Point","coordinates":[-0.98859,53.08384]},"properties":{"name":"Power infrastructure","category":"generator","osm_type":"way","osm_id":"825389643"}},{"type":"Feature","geometry":{"type":"Point","coordinates":[-0.42238,53.15558]},"properties":{"name":"Power infrastructure","category":"generator","osm_type":"way","osm_id":"830098205"}},{"type":"Feature","geometry":{"type":"Point","coordinates":[-0.42203,53.15552]},"properties":{"name":"Power infrastructure","category":"generator","osm_type":"way","osm_id":"830098206"}},{"type":"Feature","geometry":{"type":"Point","coordinates":[-0.52507,53.42528]},"properties":{"name":"Power infrastructure","category":"generator","osm_type":"way","osm_id":"833129140"}},{"type":"Feature","geometry":{"type":"Point","coordinates":[-0.24309,53.1397]},"properties":{"name":"Power infrastructure","category":"generator","osm_type":"way","osm_id":"833439102"}},{"type":"Feature","geometry":{"type":"Point","coordinates":[-0.243,53.13963]},"properties":{"name":"Power infrastructure","category":"generator","osm_type":"way","osm_id":"833439103"}},{"type":"Feature","geometry":{"type":"Point","coordinates":[-0.24301,53.13957]},"properties":{"name":"Power infrastructure","category":"generator","osm_type":"way","osm_id":"833439104"}},{"type":"Feature","geometry":{"type":"Point","coordinates":[-0.97903,53.20459]},"properties":{"name":"Power infrastructure","category":"generator","osm_type":"way","osm_id":"837457762"}},{"type":"Feature","geometry":{"type":"Point","coordinates":[-0.97851,53.20454]},"properties":{"name":"Power infrastructure","category":"generator","osm_type":"way","osm_id":"837457763"}},{"type":"Feature","geometry":{"type":"Point","coordinates":[-0.97879,53.2042]},"properties":{"name":"Power infrastructure","category":"generator","osm_type":"way","osm_id":"837457764"}},{"type":"Feature","geometry":{"type":"Point","coordinates":[-0.97993,53.2046]},"properties":{"name":"Power infrastructure","category":"generator","osm_type":"way","osm_id":"837457765"}},{"type":"Feature","geometry":{"type":"Point","coordinates":[-0.75226,53.24272]},"properties":{"name":"Power infrastructure","category":"generator","osm_type":"way","osm_id":"839043182"}},{"type":"Feature","geometry":{"type":"Point","coordinates":[-0.75208,53.2427]},"properties":{"name":"Power infrastructure","category":"generator","osm_type":"way","osm_id":"839043183"}},{"type":"Feature","geometry":{"type":"Point","coordinates":[-0.7519,53.24268]},"properties":{"name":"Power infrastructure","category":"generator","osm_type":"way","osm_id":"839043184"}},{"type":"Feature","geometry":{"type":"Point","coordinates":[-0.75173,53.24267]},"properties":{"name":"Power infrastructure","category":"generator","osm_type":"way","osm_id":"839043185"}},{"type":"Feature","geometry":{"type":"Point","coordinates":[-0.75155,53.24266]},"properties":{"name":"Power infrastructure","category":"generator","osm_type":"way","osm_id":"839043186"}},{"type":"Feature","geometry":{"type":"Point","coordinates":[-0.75265,53.24302]},"properties":{"name":"Power infrastructure","category":"generator","osm_type":"way","osm_id":"839043187"}},{"type":"Feature","geometry":{"type":"Point","coordinates":[-0.75259,53.24276]},"properties":{"name":"Power infrastructure","category":"generator","osm_type":"way","osm_id":"839043188"}},{"type":"Feature","geometry":{"type":"Point","coordinates":[-0.75197,53.24297]},"properties":{"name":"Power infrastructure","category":"generator","osm_type":"way","osm_id":"839043189"}},{"type":"Feature","geometry":{"type":"Point","coordinates":[-0.75921,53.24158]},"properties":{"name":"Power infrastructure","category":"generator","osm_type":"way","osm_id":"839043193"}},{"type":"Feature","geometry":{"type":"Point","coordinates":[-0.75956,53.2415]},"properties":{"name":"Power infrastructure","category":"generator","osm_type":"way","osm_id":"839043194"}},{"type":"Feature","geometry":{"type":"Point","coordinates":[-0.71575,53.26308]},"properties":{"name":"Power infrastructure","category":"generator","osm_type":"way","osm_id":"839045353"}},{"type":"Feature","geometry":{"type":"Point","coordinates":[-0.71635,53.26306]},"properties":{"name":"Power infrastructure","category":"generator","osm_type":"way","osm_id":"839045354"}},{"type":"Feature","geometry":{"type":"Point","coordinates":[-0.71575,53.26313]},"properties":{"name":"Power infrastructure","category":"generator","osm_type":"way","osm_id":"839045355"}},{"type":"Feature","geometry":{"type":"Point","coordinates":[-0.71692,53.26305]},"properties":{"name":"Power infrastructure","category":"generator","osm_type":"way","osm_id":"839045356"}},{"type":"Feature","geometry":{"type":"Point","coordinates":[-0.88853,53.42019]},"properties":{"name":"Power infrastructure","category":"generator","osm_type":"way","osm_id":"839107052"}},{"type":"Feature","geometry":{"type":"Point","coordinates":[-0.92333,53.43457]},"properties":{"name":"Power infrastructure","category":"plant","osm_type":"way","osm_id":"839136122"}},{"type":"Feature","geometry":{"type":"Point","coordinates":[-0.92333,53.43457]},"properties":{"name":"Power infrastructure","category":"generator","osm_type":"way","osm_id":"839136124"}},{"type":"Feature","geometry":{"type":"Point","coordinates":[-0.89497,53.233]},"properties":{"name":"Power infrastructure","category":"generator","osm_type":"way","osm_id":"839299265"}},{"type":"Feature","geometry":{"type":"Point","coordinates":[-0.77057,53.22411]},"properties":{"name":"Power infrastructure","category":"generator","osm_type":"way","osm_id":"839299266"}},{"type":"Feature","geometry":{"type":"Point","coordinates":[-0.83698,53.27003]},"properties":{"name":"Power infrastructure","category":"generator","osm_type":"way","osm_id":"839299267"}},{"type":"Feature","geometry":{"type":"Point","coordinates":[-0.83679,53.27003]},"properties":{"name":"Power infrastructure","category":"generator","osm_type":"way","osm_id":"839299268"}},{"type":"Feature","geometry":{"type":"Point","coordinates":[-0.94153,53.07723]},"properties":{"name":"Power infrastructure","category":"substation","osm_type":"way","osm_id":"847505452"}},{"type":"Feature","geometry":{"type":"Point","coordinates":[-0.77398,53.39084]},"properties":{"name":"Lea Road","category":"substation","osm_type":"way","osm_id":"857933743"}},{"type":"Feature","geometry":{"type":"Point","coordinates":[-0.96924,53.21655]},"properties":{"name":"Power infrastructure","category":"generator","osm_type":"way","osm_id":"858686136"}},{"type":"Feature","geometry":{"type":"Point","coordinates":[-0.96937,53.21413]},"properties":{"name":"Power infrastructure","category":"generator","osm_type":"way","osm_id":"858686138"}},{"type":"Feature","geometry":{"type":"Point","coordinates":[-0.75725,53.19987]},"properties":{"name":"Power infrastructure","category":"generator","osm_type":"way","osm_id":"858918111"}},{"type":"Feature","geometry":{"type":"Point","coordinates":[-0.98649,53.20629]},"properties":{"name":"Power infrastructure","category":"generator","osm_type":"way","osm_id":"858928950"}},{"type":"Feature","geometry":{"type":"Point","coordinates":[-0.9811,53.21032]},"properties":{"name":"Power infrastructure","category":"generator","osm_type":"way","osm_id":"858928952"}},{"type":"Feature","geometry":{"type":"Point","coordinates":[-0.98129,53.21041]},"properties":{"name":"Power infrastructure","category":"generator","osm_type":"way","osm_id":"858928953"}},{"type":"Feature","geometry":{"type":"Point","coordinates":[-0.98106,53.21037]},"properties":{"name":"Power infrastructure","category":"generator","osm_type":"way","osm_id":"858928954"}},{"type":"Feature","geometry":{"type":"Point","coordinates":[-0.99147,53.19255]},"properties":{"name":"Power infrastructure","category":"generator","osm_type":"way","osm_id":"858967327"}},{"type":"Feature","geometry":{"type":"Point","coordinates":[-0.9309,53.29557]},"properties":{"name":"Power infrastructure","category":"generator","osm_type":"way","osm_id":"860433865"}},{"type":"Feature","geometry":{"type":"Point","coordinates":[-0.9497,53.27922]},"properties":{"name":"Power infrastructure","category":"generator","osm_type":"way","osm_id":"860433867"}},{"type":"Feature","geometry":{"type":"Point","coordinates":[-0.94946,53.27952]},"properties":{"name":"Power infrastructure","category":"generator","osm_type":"way","osm_id":"860433868"}},{"type":"Feature","geometry":{"type":"Point","coordinates":[-0.94964,53.27967]},"properties":{"name":"Power infrastructure","category":"generator","osm_type":"way","osm_id":"860433869"}},{"type":"Feature","geometry":{"type":"Point","coordinates":[-0.94987,53.27939]},"properties":{"name":"Power infrastructure","category":"generator","osm_type":"way","osm_id":"860433870"}},{"type":"Feature","geometry":{"type":"Point","coordinates":[-0.54054,53.13532]},"properties":{"name":"Power infrastructure","category":"generator","osm_type":"way","osm_id":"862360669"}},{"type":"Feature","geometry":{"type":"Point","coordinates":[-0.1897,53.42767]},"properties":{"name":"Kirkmond ISOL","category":"substation","osm_type":"way","osm_id":"863899530"}},{"type":"Feature","geometry":{"type":"Point","coordinates":[-0.23759,53.42458]},"properties":{"name":"STAINTON","category":"substation","osm_type":"way","osm_id":"863899531"}},{"type":"Feature","geometry":{"type":"Point","coordinates":[-0.12481,53.3903]},"properties":{"name":"Kelstern Grange","category":"substation","osm_type":"way","osm_id":"863908667"}},{"type":"Feature","geometry":{"type":"Point","coordinates":[-0.12261,53.39041]},"properties":{"name":"Kelstern LSI","category":"substation","osm_type":"way","osm_id":"863908668"}},{"type":"Feature","geometry":{"type":"Point","coordinates":[-0.12244,53.38489]},"properties":{"name":"Calcethorpe","category":"substation","osm_type":"way","osm_id":"863934279"}},{"type":"Feature","geometry":{"type":"Point","coordinates":[-0.75585,53.38677]},"properties":{"name":"Foxby Lane","category":"substation","osm_type":"way","osm_id":"863939931"}},{"type":"Feature","geometry":{"type":"Point","coordinates":[-0.72747,53.36381]},"properties":{"name":"Knaith Upton Road","category":"substation","osm_type":"way","osm_id":"863939932"}},{"type":"Feature","geometry":{"type":"Point","coordinates":[-0.17016,53.47889]},"properties":{"name":"Power infrastructure","category":"substation","osm_type":"way","osm_id":"881465548"}},{"type":"Feature","geometry":{"type":"Point","coordinates":[-0.75796,53.24888]},"properties":{"name":"Power infrastructure","category":"generator","osm_type":"way","osm_id":"881643351"}},{"type":"Feature","geometry":{"type":"Point","coordinates":[-0.99844,53.18643]},"properties":{"name":"Power infrastructure","category":"generator","osm_type":"way","osm_id":"893710607"}},{"type":"Feature","geometry":{"type":"Point","coordinates":[-0.38191,53.00003]},"properties":{"name":"Sleaford REP Substation","category":"substation","osm_type":"way","osm_id":"899170972","operator":"National Grid Electricity Distribution"}},{"type":"Feature","geometry":{"type":"Point","coordinates":[-0.25972,53.01182]},"properties":{"name":"Power infrastructure","category":"generator","osm_type":"way","osm_id":"899257798"}},{"type":"Feature","geometry":{"type":"Point","coordinates":[-0.26021,53.01192]},"properties":{"name":"Power infrastructure","category":"generator","osm_type":"way","osm_id":"899257799"}},{"type":"Feature","geometry":{"type":"Point","coordinates":[-0.26017,53.01202]},"properties":{"name":"Power infrastructure","category":"generator","osm_type":"way","osm_id":"899257800"}},{"type":"Feature","geometry":{"type":"Point","coordinates":[-0.80316,53.09004]},"properties":{"name":"Power infrastructure","category":"generator","osm_type":"way","osm_id":"911253023"}},{"type":"Feature","geometry":{"type":"Point","coordinates":[-0.81153,53.10201]},"properties":{"name":"Newark 25KV","category":"substation","osm_type":"way","osm_id":"925198576"}},{"type":"Feature","geometry":{"type":"Point","coordinates":[-0.73152,53.19351]},"properties":{"name":"Power infrastructure","category":"generator","osm_type":"way","osm_id":"932024980"}},{"type":"Feature","geometry":{"type":"Point","coordinates":[-0.01908,53.32836]},"properties":{"name":"Tathwell New Lane","category":"substation","osm_type":"way","osm_id":"938204107"}},{"type":"Feature","geometry":{"type":"Point","coordinates":[-0.95999,53.08163]},"properties":{"name":"Power infrastructure","category":"substation","osm_type":"way","osm_id":"941599035"}},{"type":"Feature","geometry":{"type":"Point","coordinates":[-0.8619,53.0742]},"properties":{"name":"Power infrastructure","category":"generator","osm_type":"way","osm_id":"941716706"}},{"type":"Feature","geometry":{"type":"Point","coordinates":[-0.95318,53.08304]},"properties":{"name":"Power infrastructure","category":"substation","osm_type":"way","osm_id":"943380852"}},{"type":"Feature","geometry":{"type":"Point","coordinates":[-0.41425,53.16721]},"properties":{"name":"Power infrastructure","category":"substation","osm_type":"way","osm_id":"946761085"}},{"type":"Feature","geometry":{"type":"Point","coordinates":[-0.93693,53.0789]},"properties":{"name":"Power infrastructure","category":"generator","osm_type":"way","osm_id":"949217347"}},{"type":"Feature","geometry":{"type":"Point","coordinates":[-0.47499,53.13338]},"properties":{"name":"Metheringham Heath Farm AD","category":"plant","osm_type":"way","osm_id":"956046653","operator":"Future Biogas (Blankney Estate)"}},{"type":"Feature","geometry":{"type":"Point","coordinates":[-0.95139,53.36229]},"properties":{"name":"Sutton Grange Anaerobic Digestion Plant","category":"plant","osm_type":"way","osm_id":"956542761","operator":"Fred Walter & Sons Ltd"}},{"type":"Feature","geometry":{"type":"Point","coordinates":[-0.99446,53.35713]},"properties":{"name":"Barnby Moor Solar Farm","category":"plant","osm_type":"way","osm_id":"956542768","operator":"Lark Energy"}},{"type":"Feature","geometry":{"type":"Point","coordinates":[-0.49821,53.03666]},"properties":{"name":"Cranwell Substation","category":"substation","osm_type":"way","osm_id":"956970818","operator":"National Grid Electricity Distribution"}},{"type":"Feature","geometry":{"type":"Point","coordinates":[-0.42838,53.4993]},"properties":{"name":"Power infrastructure","category":"generator","osm_type":"way","osm_id":"966730979"}},{"type":"Feature","geometry":{"type":"Point","coordinates":[-0.43227,53.49902]},"properties":{"name":"Power infrastructure","category":"generator","osm_type":"way","osm_id":"966731016"}},{"type":"Feature","geometry":{"type":"Point","coordinates":[-0.51361,53.24065]},"properties":{"name":"Power infrastructure","category":"generator","osm_type":"way","osm_id":"967121908"}},{"type":"Feature","geometry":{"type":"Point","coordinates":[-0.55316,53.26636]},"properties":{"name":"Leverton Battery Storage","category":"plant","osm_type":"way","osm_id":"974974752","operator":"Eelpower"}},{"type":"Feature","geometry":{"type":"Point","coordinates":[-0.98541,53.37423]},"properties":{"name":"Power infrastructure","category":"plant","osm_type":"way","osm_id":"974978507"}},{"type":"Feature","geometry":{"type":"Point","coordinates":[-0.81981,53.12829]},"properties":{"name":"North Muskham FS","category":"substation","osm_type":"way","osm_id":"1001099425"}},{"type":"Feature","geometry":{"type":"Point","coordinates":[-0.81999,53.12824]},"properties":{"name":"Power infrastructure","category":"substation","osm_type":"way","osm_id":"1001099427"}},{"type":"Feature","geometry":{"type":"Point","coordinates":[-0.48899,53.01454]},"properties":{"name":"Power infrastructure","category":"generator","osm_type":"way","osm_id":"1005326689"}},{"type":"Feature","geometry":{"type":"Point","coordinates":[-0.48939,53.01451]},"properties":{"name":"Power infrastructure","category":"generator","osm_type":"way","osm_id":"1005326690"}},{"type":"Feature","geometry":{"type":"Point","coordinates":[-0.48933,53.0144]},"properties":{"name":"Power infrastructure","category":"generator","osm_type":"way","osm_id":"1005326691"}},{"type":"Feature","geometry":{"type":"Point","coordinates":[-0.48928,53.01429]},"properties":{"name":"Power infrastructure","category":"generator","osm_type":"way","osm_id":"1005326693"}},{"type":"Feature","geometry":{"type":"Point","coordinates":[-0.48905,53.01426]},"properties":{"name":"Power infrastructure","category":"generator","osm_type":"way","osm_id":"1005326694"}},{"type":"Feature","geometry":{"type":"Point","coordinates":[-0.48884,53.01423]},"properties":{"name":"Power infrastructure","category":"generator","osm_type":"way","osm_id":"1005326695"}},{"type":"Feature","geometry":{"type":"Point","coordinates":[-0.48841,53.01415]},"properties":{"name":"Power infrastructure","category":"generator","osm_type":"way","osm_id":"1005326696"}},{"type":"Feature","geometry":{"type":"Point","coordinates":[-0.47896,53.01471]},"properties":{"name":"Power infrastructure","category":"generator","osm_type":"way","osm_id":"1005326699"}},{"type":"Feature","geometry":{"type":"Point","coordinates":[-0.47942,53.01463]},"properties":{"name":"Power infrastructure","category":"generator","osm_type":"way","osm_id":"1005326700"}},{"type":"Feature","geometry":{"type":"Point","coordinates":[-0.50138,53.00823]},"properties":{"name":"Ermine Street Solar Farm","category":"plant","osm_type":"way","osm_id":"1005326708"}},{"type":"Feature","geometry":{"type":"Point","coordinates":[-0.47451,53.24264]},"properties":{"name":"Power infrastructure","category":"generator","osm_type":"way","osm_id":"1007465703"}},{"type":"Feature","geometry":{"type":"Point","coordinates":[-0.86659,53.02481]},"properties":{"name":"Low Street, Elston","category":"substation","osm_type":"way","osm_id":"1016638144","operator":"National Grid Electricity Distribution Plc","ref":"903917"}},{"type":"Feature","geometry":{"type":"Point","coordinates":[-0.07197,53.40055]},"properties":{"name":"Power infrastructure","category":"plant","osm_type":"way","osm_id":"1039694344"}},{"type":"Feature","geometry":{"type":"Point","coordinates":[-0.76687,53.04444]},"properties":{"name":"Power infrastructure","category":"generator","osm_type":"way","osm_id":"1047210449"}},{"type":"Feature","geometry":{"type":"Point","coordinates":[-0.76897,53.04321]},"properties":{"name":"Power infrastructure","category":"generator","osm_type":"way","osm_id":"1047216905"}},{"type":"Feature","geometry":{"type":"Point","coordinates":[-0.76864,53.04355]},"properties":{"name":"Power infrastructure","category":"generator","osm_type":"way","osm_id":"1047216906"}},{"type":"Feature","geometry":{"type":"Point","coordinates":[-0.76919,53.04488]},"properties":{"name":"Power infrastructure","category":"generator","osm_type":"way","osm_id":"1047217352"}},{"type":"Feature","geometry":{"type":"Point","coordinates":[-0.77103,53.04471]},"properties":{"name":"Power infrastructure","category":"generator","osm_type":"way","osm_id":"1047217540"}},{"type":"Feature","geometry":{"type":"Point","coordinates":[-0.76554,53.048]},"properties":{"name":"Power infrastructure","category":"generator","osm_type":"way","osm_id":"1047222196"}},{"type":"Feature","geometry":{"type":"Point","coordinates":[-0.77524,53.04666]},"properties":{"name":"Power infrastructure","category":"generator","osm_type":"way","osm_id":"1049633967"}},{"type":"Feature","geometry":{"type":"Point","coordinates":[-0.77208,53.04688]},"properties":{"name":"Power infrastructure","category":"generator","osm_type":"way","osm_id":"1049633976"}},{"type":"Feature","geometry":{"type":"Point","coordinates":[-0.71832,53.07018]},"properties":{"name":"Power infrastructure","category":"plant","osm_type":"way","osm_id":"1049686866"}},{"type":"Feature","geometry":{"type":"Point","coordinates":[-0.76757,53.05071]},"properties":{"name":"Power infrastructure","category":"generator","osm_type":"way","osm_id":"1049703150"}},{"type":"Feature","geometry":{"type":"Point","coordinates":[-0.7675,53.05071]},"properties":{"name":"Power infrastructure","category":"generator","osm_type":"way","osm_id":"1049703151"}},{"type":"Feature","geometry":{"type":"Point","coordinates":[-0.7663,53.04606]},"properties":{"name":"Power infrastructure","category":"generator","osm_type":"way","osm_id":"1050859434"}},{"type":"Feature","geometry":{"type":"Point","coordinates":[-0.77326,53.04605]},"properties":{"name":"Power infrastructure","category":"generator","osm_type":"way","osm_id":"1050859436"}},{"type":"Feature","geometry":{"type":"Point","coordinates":[-0.77711,53.04285]},"properties":{"name":"Power infrastructure","category":"generator","osm_type":"way","osm_id":"1068575511"}},{"type":"Feature","geometry":{"type":"Point","coordinates":[-0.52138,53.17827]},"properties":{"name":"Power infrastructure","category":"substation","osm_type":"way","osm_id":"1089574189"}},{"type":"Feature","geometry":{"type":"Point","coordinates":[-0.52234,53.17729]},"properties":{"name":"Power infrastructure","category":"substation","osm_type":"way","osm_id":"1089574195"}},{"type":"Feature","geometry":{"type":"Point","coordinates":[-0.52978,53.17602]},"properties":{"name":"Power infrastructure","category":"substation","osm_type":"way","osm_id":"1089925650"}},{"type":"Feature","geometry":{"type":"Point","coordinates":[-0.52401,53.1762]},"properties":{"name":"Power infrastructure","category":"substation","osm_type":"way","osm_id":"1090315532"}},{"type":"Feature","geometry":{"type":"Point","coordinates":[-0.52988,53.16333]},"properties":{"name":"Power infrastructure","category":"substation","osm_type":"way","osm_id":"1091062923"}},{"type":"Feature","geometry":{"type":"Point","coordinates":[-0.78444,53.05251]},"properties":{"name":"Power infrastructure","category":"substation","osm_type":"way","osm_id":"1091386548"}},{"type":"Feature","geometry":{"type":"Point","coordinates":[-0.84141,53.30189]},"properties":{"name":"Power infrastructure","category":"generator","osm_type":"way","osm_id":"1092909593"}},{"type":"Feature","geometry":{"type":"Point","coordinates":[-0.83952,53.30026]},"properties":{"name":"Power infrastructure","category":"generator","osm_type":"way","osm_id":"1092909594"}},{"type":"Feature","geometry":{"type":"Point","coordinates":[-0.8379,53.30087]},"properties":{"name":"Power infrastructure","category":"generator","osm_type":"way","osm_id":"1092909595"}},{"type":"Feature","geometry":{"type":"Point","coordinates":[-0.11245,53.21788]},"properties":{"name":"Power infrastructure","category":"substation","osm_type":"way","osm_id":"1094485696"}},{"type":"Feature","geometry":{"type":"Point","coordinates":[-0.13432,53.39332]},"properties":{"name":"Power infrastructure","category":"generator","osm_type":"way","osm_id":"1139075396"}},{"type":"Feature","geometry":{"type":"Point","coordinates":[-0.1029,53.44114]},"properties":{"name":"Power infrastructure","category":"generator","osm_type":"way","osm_id":"1141031738"}},{"type":"Feature","geometry":{"type":"Point","coordinates":[-0.8219,53.02851]},"properties":{"name":"Power infrastructure","category":"substation","osm_type":"way","osm_id":"1161187669"}},{"type":"Feature","geometry":{"type":"Point","coordinates":[-0.82281,53.02773]},"properties":{"name":"The Grange","category":"plant","osm_type":"way","osm_id":"1161187670","operator":"Lightsource BP"}},{"type":"Feature","geometry":{"type":"Point","coordinates":[-0.80839,53.02812]},"properties":{"name":"Power infrastructure","category":"plant","osm_type":"way","osm_id":"1161187679"}},{"type":"Feature","geometry":{"type":"Point","coordinates":[-0.17688,53.09966]},"properties":{"name":"Power infrastructure","category":"substation","osm_type":"way","osm_id":"1183772593"}},{"type":"Feature","geometry":{"type":"Point","coordinates":[-0.17424,53.0956]},"properties":{"name":"Power infrastructure","category":"substation","osm_type":"way","osm_id":"1187923871"}},{"type":"Feature","geometry":{"type":"Point","coordinates":[-0.17493,53.09675]},"properties":{"name":"Power infrastructure","category":"substation","osm_type":"way","osm_id":"1187923873"}},{"type":"Feature","geometry":{"type":"Point","coordinates":[-0.17161,53.0958]},"properties":{"name":"Power infrastructure","category":"substation","osm_type":"way","osm_id":"1187923879"}},{"type":"Feature","geometry":{"type":"Point","coordinates":[-0.17254,53.09606]},"properties":{"name":"Power infrastructure","category":"substation","osm_type":"way","osm_id":"1187923885"}},{"type":"Feature","geometry":{"type":"Point","coordinates":[-0.81324,53.4856]},"properties":{"name":"Haxey","category":"substation","osm_type":"way","osm_id":"1188040232"}},{"type":"Feature","geometry":{"type":"Point","coordinates":[-0.16786,53.042]},"properties":{"name":"Power infrastructure","category":"generator","osm_type":"way","osm_id":"1190187108"}},{"type":"Feature","geometry":{"type":"Point","coordinates":[-0.16805,53.04191]},"properties":{"name":"Power infrastructure","category":"generator","osm_type":"way","osm_id":"1190187109"}},{"type":"Feature","geometry":{"type":"Point","coordinates":[-0.16824,53.04182]},"properties":{"name":"Power infrastructure","category":"generator","osm_type":"way","osm_id":"1190187110"}},{"type":"Feature","geometry":{"type":"Point","coordinates":[-0.16909,53.04173]},"properties":{"name":"Power infrastructure","category":"generator","osm_type":"way","osm_id":"1190187111"}},{"type":"Feature","geometry":{"type":"Point","coordinates":[-0.16862,53.04164]},"properties":{"name":"Power infrastructure","category":"generator","osm_type":"way","osm_id":"1190187112"}},{"type":"Feature","geometry":{"type":"Point","coordinates":[-0.16882,53.04156]},"properties":{"name":"Power infrastructure","category":"generator","osm_type":"way","osm_id":"1190187113"}},{"type":"Feature","geometry":{"type":"Point","coordinates":[-0.16966,53.04151]},"properties":{"name":"Power infrastructure","category":"generator","osm_type":"way","osm_id":"1190187114"}},{"type":"Feature","geometry":{"type":"Point","coordinates":[-0.16986,53.04139]},"properties":{"name":"Power infrastructure","category":"generator","osm_type":"way","osm_id":"1190187115"}},{"type":"Feature","geometry":{"type":"Point","coordinates":[-0.16939,53.04129]},"properties":{"name":"Power infrastructure","category":"generator","osm_type":"way","osm_id":"1190187116"}},{"type":"Feature","geometry":{"type":"Point","coordinates":[-0.17025,53.04124]},"properties":{"name":"Power infrastructure","category":"generator","osm_type":"way","osm_id":"1190187117"}},{"type":"Feature","geometry":{"type":"Point","coordinates":[-0.17046,53.04116]},"properties":{"name":"Power infrastructure","category":"generator","osm_type":"way","osm_id":"1190187118"}},{"type":"Feature","geometry":{"type":"Point","coordinates":[-0.17118,53.04055]},"properties":{"name":"Power infrastructure","category":"generator","osm_type":"way","osm_id":"1190187119"}},{"type":"Feature","geometry":{"type":"Point","coordinates":[-0.17186,53.04015]},"properties":{"name":"Power infrastructure","category":"generator","osm_type":"way","osm_id":"1190187120"}},{"type":"Feature","geometry":{"type":"Point","coordinates":[-0.27467,53.30032]},"properties":{"name":"Power infrastructure","category":"generator","osm_type":"way","osm_id":"1238719071"}},{"type":"Feature","geometry":{"type":"Point","coordinates":[-0.52418,53.17673]},"properties":{"name":"Power infrastructure","category":"substation","osm_type":"way","osm_id":"1242360463"}},{"type":"Feature","geometry":{"type":"Point","coordinates":[-0.51049,53.17107]},"properties":{"name":"Power infrastructure","category":"substation","osm_type":"way","osm_id":"1242373641"}},{"type":"Feature","geometry":{"type":"Point","coordinates":[-0.81469,53.18622]},"properties":{"name":"Power infrastructure","category":"substation","osm_type":"way","osm_id":"1242967673"}},{"type":"Feature","geometry":{"type":"Point","coordinates":[-0.84688,53.05613]},"properties":{"name":"Power infrastructure","category":"generator","osm_type":"way","osm_id":"1251288936"}},{"type":"Feature","geometry":{"type":"Point","coordinates":[-0.9742,53.05909]},"properties":{"name":"Power infrastructure","category":"plant","osm_type":"way","osm_id":"1280603573"}},{"type":"Feature","geometry":{"type":"Point","coordinates":[-0.55042,53.22475]},"properties":{"name":"Power infrastructure","category":"substation","osm_type":"way","osm_id":"1280990718"}},{"type":"Feature","geometry":{"type":"Point","coordinates":[-0.55067,53.2255]},"properties":{"name":"Power infrastructure","category":"substation","osm_type":"way","osm_id":"1280990720"}},{"type":"Feature","geometry":{"type":"Point","coordinates":[-0.54984,53.22584]},"properties":{"name":"Power infrastructure","category":"substation","osm_type":"way","osm_id":"1280990721"}},{"type":"Feature","geometry":{"type":"Point","coordinates":[-0.95706,53.31694]},"properties":{"name":"Power infrastructure","category":"substation","osm_type":"way","osm_id":"1281961447"}},{"type":"Feature","geometry":{"type":"Point","coordinates":[-0.47737,53.0281]},"properties":{"name":"Power infrastructure","category":"substation","osm_type":"way","osm_id":"1292861097"}},{"type":"Feature","geometry":{"type":"Point","coordinates":[-0.47741,53.02704]},"properties":{"name":"Power infrastructure","category":"substation","osm_type":"way","osm_id":"1292861098"}},{"type":"Feature","geometry":{"type":"Point","coordinates":[-0.47722,53.02717]},"properties":{"name":"Power infrastructure","category":"substation","osm_type":"way","osm_id":"1292861099"}},{"type":"Feature","geometry":{"type":"Point","coordinates":[-0.51686,53.03259]},"properties":{"name":"Power infrastructure","category":"substation","osm_type":"way","osm_id":"1293402043"}},{"type":"Feature","geometry":{"type":"Point","coordinates":[-0.51322,53.03222]},"properties":{"name":"Power infrastructure","category":"substation","osm_type":"way","osm_id":"1293402047"}},{"type":"Feature","geometry":{"type":"Point","coordinates":[-0.51218,53.03241]},"properties":{"name":"Power infrastructure","category":"substation","osm_type":"way","osm_id":"1293402106"}},{"type":"Feature","geometry":{"type":"Point","coordinates":[-0.48838,53.02189]},"properties":{"name":"Power infrastructure","category":"substation","osm_type":"way","osm_id":"1293651524"}},{"type":"Feature","geometry":{"type":"Point","coordinates":[-0.50501,53.02702]},"properties":{"name":"Power infrastructure","category":"substation","osm_type":"way","osm_id":"1293651527"}},{"type":"Feature","geometry":{"type":"Point","coordinates":[-0.28875,53.48058]},"properties":{"name":"Power infrastructure","category":"generator","osm_type":"way","osm_id":"1301764900"}},{"type":"Feature","geometry":{"type":"Point","coordinates":[-0.28878,53.48067]},"properties":{"name":"Power infrastructure","category":"generator","osm_type":"way","osm_id":"1301764901"}},{"type":"Feature","geometry":{"type":"Point","coordinates":[-0.28883,53.48076]},"properties":{"name":"Power infrastructure","category":"generator","osm_type":"way","osm_id":"1301764902"}},{"type":"Feature","geometry":{"type":"Point","coordinates":[-0.28886,53.48085]},"properties":{"name":"Power infrastructure","category":"generator","osm_type":"way","osm_id":"1301764903"}},{"type":"Feature","geometry":{"type":"Point","coordinates":[-0.28894,53.48094]},"properties":{"name":"Power infrastructure","category":"generator","osm_type":"way","osm_id":"1301764904"}},{"type":"Feature","geometry":{"type":"Point","coordinates":[-0.87731,53.35583]},"properties":{"name":"Power infrastructure","category":"generator","osm_type":"way","osm_id":"1317430574"}},{"type":"Feature","geometry":{"type":"Point","coordinates":[-0.85916,53.36304]},"properties":{"name":"Power infrastructure","category":"substation","osm_type":"way","osm_id":"1329873929"}},{"type":"Feature","geometry":{"type":"Point","coordinates":[-0.9761,53.02763]},"properties":{"name":"Power infrastructure","category":"generator","osm_type":"way","osm_id":"1331594867"}},{"type":"Feature","geometry":{"type":"Point","coordinates":[-0.59738,53.47988]},"properties":{"name":"Richdale Ave","category":"substation","osm_type":"way","osm_id":"1342407513"}},{"type":"Feature","geometry":{"type":"Point","coordinates":[-0.8286,53.43095]},"properties":{"name":"Power infrastructure","category":"generator","osm_type":"way","osm_id":"1346397855"}},{"type":"Feature","geometry":{"type":"Point","coordinates":[-0.93412,53.32706]},"properties":{"name":"Power infrastructure","category":"substation","osm_type":"way","osm_id":"1346915186"}},{"type":"Feature","geometry":{"type":"Point","coordinates":[-0.77968,53.0511]},"properties":{"name":"Power infrastructure","category":"substation","osm_type":"way","osm_id":"1365736058"}},{"type":"Feature","geometry":{"type":"Point","coordinates":[-0.9106,53.01739]},"properties":{"name":"Power infrastructure","category":"substation","osm_type":"way","osm_id":"1366194406"}},{"type":"Feature","geometry":{"type":"Point","coordinates":[-0.32978,53.48618]},"properties":{"name":"Power infrastructure","category":"substation","osm_type":"way","osm_id":"1378048897"}},{"type":"Feature","geometry":{"type":"Point","coordinates":[-0.31939,53.49842]},"properties":{"name":"Power infrastructure","category":"substation","osm_type":"way","osm_id":"1378455812"}},{"type":"Feature","geometry":{"type":"Point","coordinates":[-0.85805,53.25777]},"properties":{"name":"Power infrastructure","category":"plant","osm_type":"way","osm_id":"1388381825"}},{"type":"Feature","geometry":{"type":"Point","coordinates":[-0.57383,53.19957]},"properties":{"name":"Power infrastructure","category":"generator","osm_type":"way","osm_id":"1409804331"}},{"type":"Feature","geometry":{"type":"Point","coordinates":[-0.57338,53.19943]},"properties":{"name":"Power infrastructure","category":"generator","osm_type":"way","osm_id":"1409804333"}},{"type":"Feature","geometry":{"type":"Point","coordinates":[-0.57339,53.19963]},"properties":{"name":"Power infrastructure","category":"generator","osm_type":"way","osm_id":"1409804334"}},{"type":"Feature","geometry":{"type":"Point","coordinates":[-0.56976,53.20017]},"properties":{"name":"Power infrastructure","category":"generator","osm_type":"way","osm_id":"1409994726"}},{"type":"Feature","geometry":{"type":"Point","coordinates":[-0.56993,53.20012]},"properties":{"name":"Power infrastructure","category":"generator","osm_type":"way","osm_id":"1409994727"}},{"type":"Feature","geometry":{"type":"Point","coordinates":[-0.56916,53.20008]},"properties":{"name":"Power infrastructure","category":"generator","osm_type":"way","osm_id":"1409994734"}},{"type":"Feature","geometry":{"type":"Point","coordinates":[-0.38637,53.26069]},"properties":{"name":"Power infrastructure","category":"plant","osm_type":"way","osm_id":"1414980400"}},{"type":"Feature","geometry":{"type":"Point","coordinates":[-0.17793,53.42594]},"properties":{"name":"Power infrastructure","category":"substation","osm_type":"way","osm_id":"1417453754"}},{"type":"Feature","geometry":{"type":"Point","coordinates":[-0.26941,53.3462]},"properties":{"name":"Power infrastructure","category":"generator","osm_type":"way","osm_id":"1419926742"}},{"type":"Feature","geometry":{"type":"Point","coordinates":[-0.44176,53.32661]},"properties":{"name":"Power infrastructure","category":"generator","osm_type":"way","osm_id":"1441895571"}},{"type":"Feature","geometry":{"type":"Point","coordinates":[-0.44178,53.3267]},"properties":{"name":"Power infrastructure","category":"generator","osm_type":"way","osm_id":"1441895572"}},{"type":"Feature","geometry":{"type":"Point","coordinates":[-0.43979,53.32703]},"properties":{"name":"Power infrastructure","category":"generator","osm_type":"way","osm_id":"1441895573"}},{"type":"Feature","geometry":{"type":"Point","coordinates":[-0.44183,53.32687]},"properties":{"name":"Power infrastructure","category":"generator","osm_type":"way","osm_id":"1441895574"}},{"type":"Feature","geometry":{"type":"Point","coordinates":[-0.44,53.32719]},"properties":{"name":"Power infrastructure","category":"generator","osm_type":"way","osm_id":"1441895575"}},{"type":"Feature","geometry":{"type":"Point","coordinates":[-0.87888,53.22824]},"properties":{"name":"Tuxford TSC","category":"substation","osm_type":"way","osm_id":"1451847667","operator":"Network Rail"}},{"type":"Feature","geometry":{"type":"Point","coordinates":[-0.33383,53.37668]},"properties":{"name":"Power infrastructure","category":"generator","osm_type":"way","osm_id":"1454401926"}},{"type":"Feature","geometry":{"type":"Point","coordinates":[-0.33371,53.37672]},"properties":{"name":"Power infrastructure","category":"generator","osm_type":"way","osm_id":"1454401927"}},{"type":"Feature","geometry":{"type":"Point","coordinates":[-0.61732,53.17988]},"properties":{"name":"Power infrastructure","category":"substation","osm_type":"way","osm_id":"1462532145"}},{"type":"Feature","geometry":{"type":"Point","coordinates":[-0.52321,53.44573]},"properties":{"name":"Power infrastructure","category":"generator","osm_type":"way","osm_id":"1464373355"}},{"type":"Feature","geometry":{"type":"Point","coordinates":[-0.52354,53.44575]},"properties":{"name":"Power infrastructure","category":"generator","osm_type":"way","osm_id":"1464373356"}},{"type":"Feature","geometry":{"type":"Point","coordinates":[-0.52358,53.44584]},"properties":{"name":"Power infrastructure","category":"generator","osm_type":"way","osm_id":"1464373357"}},{"type":"Feature","geometry":{"type":"Point","coordinates":[-0.57293,53.08869]},"properties":{"name":"Power infrastructure","category":"generator","osm_type":"way","osm_id":"1467994536"}},{"type":"Feature","geometry":{"type":"Point","coordinates":[-0.57299,53.08878]},"properties":{"name":"Power infrastructure","category":"generator","osm_type":"way","osm_id":"1467994537"}},{"type":"Feature","geometry":{"type":"Point","coordinates":[-0.57306,53.08887]},"properties":{"name":"Power infrastructure","category":"generator","osm_type":"way","osm_id":"1467994538"}},{"type":"Feature","geometry":{"type":"Point","coordinates":[-0.57312,53.08896]},"properties":{"name":"Power infrastructure","category":"generator","osm_type":"way","osm_id":"1467994539"}},{"type":"Feature","geometry":{"type":"Point","coordinates":[-0.57318,53.08905]},"properties":{"name":"Power infrastructure","category":"generator","osm_type":"way","osm_id":"1467994540"}},{"type":"Feature","geometry":{"type":"Point","coordinates":[-0.57324,53.08914]},"properties":{"name":"Power infrastructure","category":"generator","osm_type":"way","osm_id":"1467994541"}},{"type":"Feature","geometry":{"type":"Point","coordinates":[-0.5733,53.08923]},"properties":{"name":"Power infrastructure","category":"generator","osm_type":"way","osm_id":"1467994542"}},{"type":"Feature","geometry":{"type":"Point","coordinates":[-0.57337,53.08932]},"properties":{"name":"Power infrastructure","category":"generator","osm_type":"way","osm_id":"1467994543"}},{"type":"Feature","geometry":{"type":"Point","coordinates":[-0.57343,53.08941]},"properties":{"name":"Power infrastructure","category":"generator","osm_type":"way","osm_id":"1467994544"}},{"type":"Feature","geometry":{"type":"Point","coordinates":[-0.57349,53.0895]},"properties":{"name":"Power infrastructure","category":"generator","osm_type":"way","osm_id":"1467994545"}},{"type":"Feature","geometry":{"type":"Point","coordinates":[-0.57355,53.08959]},"properties":{"name":"Power infrastructure","category":"generator","osm_type":"way","osm_id":"1467994546"}},{"type":"Feature","geometry":{"type":"Point","coordinates":[-0.57383,53.08966]},"properties":{"name":"Power infrastructure","category":"generator","osm_type":"way","osm_id":"1467994547"}},{"type":"Feature","geometry":{"type":"Point","coordinates":[-0.80883,53.35851]},"properties":{"name":"West Burton Substation","category":"substation","osm_type":"way","osm_id":"1468976756","operator":"NGET"}},{"type":"Feature","geometry":{"type":"Point","coordinates":[-0.80684,53.36072]},"properties":{"name":"West Burton Substation","category":"substation","osm_type":"way","osm_id":"1468976757"}},{"type":"Feature","geometry":{"type":"Point","coordinates":[-0.19999,53.15182]},"properties":{"name":"Power infrastructure","category":"substation","osm_type":"way","osm_id":"1470269457"}},{"type":"Feature","geometry":{"type":"Point","coordinates":[-0.60474,53.18096]},"properties":{"name":"Power infrastructure","category":"substation","osm_type":"way","osm_id":"1475014871"}},{"type":"Feature","geometry":{"type":"Point","coordinates":[-0.62008,53.1533]},"properties":{"name":"Power infrastructure","category":"substation","osm_type":"way","osm_id":"1492587663"}},{"type":"Feature","geometry":{"type":"Point","coordinates":[-0.39448,53.1624]},"properties":{"name":"Power infrastructure","category":"generator","osm_type":"way","osm_id":"1499554651"}},{"type":"Feature","geometry":{"type":"Point","coordinates":[-0.05815,53.25806]},"properties":{"name":"Power infrastructure","category":"generator","osm_type":"way","osm_id":"1509776634"}},{"type":"Feature","geometry":{"type":"Point","coordinates":[-0.50553,53.0881]},"properties":{"name":"Power infrastructure","category":"generator","osm_type":"way","osm_id":"1510199888"}},{"type":"Feature","geometry":{"type":"Point","coordinates":[-0.50553,53.08801]},"properties":{"name":"Power infrastructure","category":"generator","osm_type":"way","osm_id":"1510199889"}},{"type":"Feature","geometry":{"type":"Point","coordinates":[-0.50552,53.08792]},"properties":{"name":"Power infrastructure","category":"generator","osm_type":"way","osm_id":"1510199890"}},{"type":"Feature","geometry":{"type":"Point","coordinates":[-0.50629,53.0878]},"properties":{"name":"Power infrastructure","category":"generator","osm_type":"way","osm_id":"1510199891"}},{"type":"Feature","geometry":{"type":"Point","coordinates":[-0.50552,53.08774]},"properties":{"name":"Power infrastructure","category":"generator","osm_type":"way","osm_id":"1510199892"}},{"type":"Feature","geometry":{"type":"Point","coordinates":[-0.50553,53.08765]},"properties":{"name":"Power infrastructure","category":"generator","osm_type":"way","osm_id":"1510199893"}},{"type":"Feature","geometry":{"type":"Point","coordinates":[-0.50629,53.08753]},"properties":{"name":"Power infrastructure","category":"generator","osm_type":"way","osm_id":"1510199894"}},{"type":"Feature","geometry":{"type":"Point","coordinates":[-0.50552,53.08748]},"properties":{"name":"Power infrastructure","category":"generator","osm_type":"way","osm_id":"1510199895"}},{"type":"Feature","geometry":{"type":"Point","coordinates":[-0.50551,53.08739]},"properties":{"name":"Power infrastructure","category":"generator","osm_type":"way","osm_id":"1510199896"}},{"type":"Feature","geometry":{"type":"Point","coordinates":[-0.50551,53.0873]},"properties":{"name":"Power infrastructure","category":"generator","osm_type":"way","osm_id":"1510199897"}},{"type":"Feature","geometry":{"type":"Point","coordinates":[-0.56439,53.09199]},"properties":{"name":"Power infrastructure","category":"generator","osm_type":"way","osm_id":"1513921253"}},{"type":"Feature","geometry":{"type":"Point","coordinates":[-0.53682,53.24541]},"properties":{"name":"Power infrastructure","category":"generator","osm_type":"way","osm_id":"1534998267"}},{"type":"Feature","geometry":{"type":"Point","coordinates":[-0.48665,53.00236]},"properties":{"name":"Power infrastructure","category":"generator","osm_type":"way","osm_id":"1539705666"}},{"type":"Feature","geometry":{"type":"Point","coordinates":[-0.48681,53.00235]},"properties":{"name":"Power infrastructure","category":"generator","osm_type":"way","osm_id":"1539705667"}},{"type":"Feature","geometry":{"type":"Point","coordinates":[-0.88351,53.21226]},"properties":{"name":"Power infrastructure","category":"generator","osm_type":"way","osm_id":"1551191365"}},{"type":"Feature","geometry":{"type":"Point","coordinates":[-0.88315,53.21235]},"properties":{"name":"Power infrastructure","category":"generator","osm_type":"way","osm_id":"1551191366"}},{"type":"Feature","geometry":{"type":"Point","coordinates":[-0.8831,53.21244]},"properties":{"name":"Power infrastructure","category":"generator","osm_type":"way","osm_id":"1551191367"}},{"type":"Feature","geometry":{"type":"Point","coordinates":[-0.88273,53.21253]},"properties":{"name":"Power infrastructure","category":"generator","osm_type":"way","osm_id":"1551191368"}},{"type":"Feature","geometry":{"type":"Point","coordinates":[-0.8841,53.21172]},"properties":{"name":"Power infrastructure","category":"generator","osm_type":"way","osm_id":"1551191369"}},{"type":"Feature","geometry":{"type":"Point","coordinates":[-0.88409,53.21181]},"properties":{"name":"Power infrastructure","category":"generator","osm_type":"way","osm_id":"1551191370"}},{"type":"Feature","geometry":{"type":"Point","coordinates":[-0.88376,53.2119]},"properties":{"name":"Power infrastructure","category":"generator","osm_type":"way","osm_id":"1551191371"}},{"type":"Feature","geometry":{"type":"Point","coordinates":[-0.88365,53.21199]},"properties":{"name":"Power infrastructure","category":"generator","osm_type":"way","osm_id":"1551191372"}},{"type":"Feature","geometry":{"type":"Point","coordinates":[-0.8835,53.21208]},"properties":{"name":"Power infrastructure","category":"generator","osm_type":"way","osm_id":"1551191373"}},{"type":"Feature","geometry":{"type":"Point","coordinates":[-0.88347,53.21217]},"properties":{"name":"Power infrastructure","category":"generator","osm_type":"way","osm_id":"1551191374"}},{"type":"Feature","geometry":{"type":"Point","coordinates":[-0.87901,53.21512]},"properties":{"name":"Power infrastructure","category":"generator","osm_type":"way","osm_id":"1551191375"}},{"type":"Feature","geometry":{"type":"Point","coordinates":[-0.87614,53.21076]},"properties":{"name":"Power infrastructure","category":"generator","osm_type":"way","osm_id":"1551191376"}},{"type":"Feature","geometry":{"type":"Point","coordinates":[-0.87614,53.21086]},"properties":{"name":"Power infrastructure","category":"generator","osm_type":"way","osm_id":"1551191377"}},{"type":"Feature","geometry":{"type":"Point","coordinates":[-0.87604,53.21096]},"properties":{"name":"Power infrastructure","category":"generator","osm_type":"way","osm_id":"1551191378"}},{"type":"Feature","geometry":{"type":"Point","coordinates":[-0.87596,53.21106]},"properties":{"name":"Power infrastructure","category":"generator","osm_type":"way","osm_id":"1551191379"}},{"type":"Feature","geometry":{"type":"Point","coordinates":[-0.87593,53.21117]},"properties":{"name":"Power infrastructure","category":"generator","osm_type":"way","osm_id":"1551191380"}},{"type":"Feature","geometry":{"type":"Point","coordinates":[-0.87593,53.21127]},"properties":{"name":"Power infrastructure","category":"generator","osm_type":"way","osm_id":"1551191381"}},{"type":"Feature","geometry":{"type":"Point","coordinates":[-0.87593,53.21137]},"properties":{"name":"Power infrastructure","category":"generator","osm_type":"way","osm_id":"1551191382"}},{"type":"Feature","geometry":{"type":"Point","coordinates":[-0.88005,53.21129]},"properties":{"name":"Power infrastructure","category":"generator","osm_type":"way","osm_id":"1551191383"}},{"type":"Feature","geometry":{"type":"Point","coordinates":[-0.88004,53.21138]},"properties":{"name":"Power infrastructure","category":"generator","osm_type":"way","osm_id":"1551191384"}},{"type":"Feature","geometry":{"type":"Point","coordinates":[-0.88004,53.21148]},"properties":{"name":"Power infrastructure","category":"generator","osm_type":"way","osm_id":"1551191385"}},{"type":"Feature","geometry":{"type":"Point","coordinates":[-0.88067,53.21637]},"properties":{"name":"Power infrastructure","category":"generator","osm_type":"way","osm_id":"1551191386"}},{"type":"Feature","geometry":{"type":"Point","coordinates":[-0.88047,53.21627]},"properties":{"name":"Power infrastructure","category":"generator","osm_type":"way","osm_id":"1551191387"}},{"type":"Feature","geometry":{"type":"Point","coordinates":[-0.88031,53.21616]},"properties":{"name":"Power infrastructure","category":"generator","osm_type":"way","osm_id":"1551191388"}},{"type":"Feature","geometry":{"type":"Point","coordinates":[-0.88017,53.21606]},"properties":{"name":"Power infrastructure","category":"generator","osm_type":"way","osm_id":"1551191389"}},{"type":"Feature","geometry":{"type":"Point","coordinates":[-0.88002,53.21596]},"properties":{"name":"Power infrastructure","category":"generator","osm_type":"way","osm_id":"1551191390"}},{"type":"Feature","geometry":{"type":"Point","coordinates":[-0.87986,53.21585]},"properties":{"name":"Power infrastructure","category":"generator","osm_type":"way","osm_id":"1551191391"}},{"type":"Feature","geometry":{"type":"Point","coordinates":[-0.8798,53.21575]},"properties":{"name":"Power infrastructure","category":"generator","osm_type":"way","osm_id":"1551191392"}},{"type":"Feature","geometry":{"type":"Point","coordinates":[-0.87966,53.21564]},"properties":{"name":"Power infrastructure","category":"generator","osm_type":"way","osm_id":"1551191393"}},{"type":"Feature","geometry":{"type":"Point","coordinates":[-0.87945,53.21554]},"properties":{"name":"Power infrastructure","category":"generator","osm_type":"way","osm_id":"1551191394"}},{"type":"Feature","geometry":{"type":"Point","coordinates":[-0.8794,53.21544]},"properties":{"name":"Power infrastructure","category":"generator","osm_type":"way","osm_id":"1551191395"}},{"type":"Feature","geometry":{"type":"Point","coordinates":[-0.87922,53.21533]},"properties":{"name":"Power infrastructure","category":"generator","osm_type":"way","osm_id":"1551191396"}},{"type":"Feature","geometry":{"type":"Point","coordinates":[-0.87915,53.21523]},"properties":{"name":"Power infrastructure","category":"generator","osm_type":"way","osm_id":"1551191397"}},{"type":"Feature","geometry":{"type":"Point","coordinates":[-0.88017,53.21514]},"properties":{"name":"Power infrastructure","category":"generator","osm_type":"way","osm_id":"1551191398"}},{"type":"Feature","geometry":{"type":"Point","coordinates":[-0.87999,53.21329]},"properties":{"name":"Power infrastructure","category":"generator","osm_type":"way","osm_id":"1551191399"}},{"type":"Feature","geometry":{"type":"Point","coordinates":[-0.87999,53.21347]},"properties":{"name":"Power infrastructure","category":"generator","osm_type":"way","osm_id":"1551191400"}},{"type":"Feature","geometry":{"type":"Point","coordinates":[-0.87998,53.21356]},"properties":{"name":"Power infrastructure","category":"generator","osm_type":"way","osm_id":"1551191401"}},{"type":"Feature","geometry":{"type":"Point","coordinates":[-0.87998,53.21365]},"properties":{"name":"Power infrastructure","category":"generator","osm_type":"way","osm_id":"1551191402"}},{"type":"Feature","geometry":{"type":"Point","coordinates":[-0.87998,53.21374]},"properties":{"name":"Power infrastructure","category":"generator","osm_type":"way","osm_id":"1551191403"}},{"type":"Feature","geometry":{"type":"Point","coordinates":[-0.87998,53.21383]},"properties":{"name":"Power infrastructure","category":"generator","osm_type":"way","osm_id":"1551191404"}},{"type":"Feature","geometry":{"type":"Point","coordinates":[-0.87998,53.21391]},"properties":{"name":"Power infrastructure","category":"generator","osm_type":"way","osm_id":"1551191405"}},{"type":"Feature","geometry":{"type":"Point","coordinates":[-0.87997,53.21401]},"properties":{"name":"Power infrastructure","category":"generator","osm_type":"way","osm_id":"1551191406"}},{"type":"Feature","geometry":{"type":"Point","coordinates":[-0.87997,53.2141]},"properties":{"name":"Power infrastructure","category":"generator","osm_type":"way","osm_id":"1551191407"}},{"type":"Feature","geometry":{"type":"Point","coordinates":[-0.87997,53.2142]},"properties":{"name":"Power infrastructure","category":"generator","osm_type":"way","osm_id":"1551191408"}},{"type":"Feature","geometry":{"type":"Point","coordinates":[-0.88012,53.21429]},"properties":{"name":"Power infrastructure","category":"generator","osm_type":"way","osm_id":"1551191409"}},{"type":"Feature","geometry":{"type":"Point","coordinates":[-0.88011,53.21438]},"properties":{"name":"Power infrastructure","category":"generator","osm_type":"way","osm_id":"1551191410"}},{"type":"Feature","geometry":{"type":"Point","coordinates":[-0.87996,53.21448]},"properties":{"name":"Power infrastructure","category":"generator","osm_type":"way","osm_id":"1551191411"}},{"type":"Feature","geometry":{"type":"Point","coordinates":[-0.87996,53.21457]},"properties":{"name":"Power infrastructure","category":"generator","osm_type":"way","osm_id":"1551191412"}},{"type":"Feature","geometry":{"type":"Point","coordinates":[-0.87996,53.21466]},"properties":{"name":"Power infrastructure","category":"generator","osm_type":"way","osm_id":"1551191413"}},{"type":"Feature","geometry":{"type":"Point","coordinates":[-0.87995,53.21476]},"properties":{"name":"Power infrastructure","category":"generator","osm_type":"way","osm_id":"1551191414"}},{"type":"Feature","geometry":{"type":"Point","coordinates":[-0.87995,53.21485]},"properties":{"name":"Power infrastructure","category":"generator","osm_type":"way","osm_id":"1551191415"}},{"type":"Feature","geometry":{"type":"Point","coordinates":[-0.87995,53.21495]},"properties":{"name":"Power infrastructure","category":"generator","osm_type":"way","osm_id":"1551191416"}},{"type":"Feature","geometry":{"type":"Point","coordinates":[-0.88017,53.21504]},"properties":{"name":"Power infrastructure","category":"generator","osm_type":"way","osm_id":"1551191417"}},{"type":"Feature","geometry":{"type":"Point","coordinates":[-0.88004,53.21157]},"properties":{"name":"Power infrastructure","category":"generator","osm_type":"way","osm_id":"1551191418"}},{"type":"Feature","geometry":{"type":"Point","coordinates":[-0.88004,53.21166]},"properties":{"name":"Power infrastructure","category":"generator","osm_type":"way","osm_id":"1551191419"}},{"type":"Feature","geometry":{"type":"Point","coordinates":[-0.88003,53.21176]},"properties":{"name":"Power infrastructure","category":"generator","osm_type":"way","osm_id":"1551191420"}},{"type":"Feature","geometry":{"type":"Point","coordinates":[-0.88026,53.21185]},"properties":{"name":"Power infrastructure","category":"generator","osm_type":"way","osm_id":"1551191421"}},{"type":"Feature","geometry":{"type":"Point","coordinates":[-0.88025,53.21195]},"properties":{"name":"Power infrastructure","category":"generator","osm_type":"way","osm_id":"1551191422"}},{"type":"Feature","geometry":{"type":"Point","coordinates":[-0.88003,53.21204]},"properties":{"name":"Power infrastructure","category":"generator","osm_type":"way","osm_id":"1551191423"}},{"type":"Feature","geometry":{"type":"Point","coordinates":[-0.88002,53.21213]},"properties":{"name":"Power infrastructure","category":"generator","osm_type":"way","osm_id":"1551191424"}},{"type":"Feature","geometry":{"type":"Point","coordinates":[-0.88002,53.21223]},"properties":{"name":"Power infrastructure","category":"generator","osm_type":"way","osm_id":"1551191425"}},{"type":"Feature","geometry":{"type":"Point","coordinates":[-0.88002,53.21232]},"properties":{"name":"Power infrastructure","category":"generator","osm_type":"way","osm_id":"1551191426"}},{"type":"Feature","geometry":{"type":"Point","coordinates":[-0.88002,53.21241]},"properties":{"name":"Power infrastructure","category":"generator","osm_type":"way","osm_id":"1551191427"}},{"type":"Feature","geometry":{"type":"Point","coordinates":[-0.88001,53.21251]},"properties":{"name":"Power infrastructure","category":"generator","osm_type":"way","osm_id":"1551191428"}},{"type":"Feature","geometry":{"type":"Point","coordinates":[-0.88001,53.2126]},"properties":{"name":"Power infrastructure","category":"generator","osm_type":"way","osm_id":"1551191429"}},{"type":"Feature","geometry":{"type":"Point","coordinates":[-0.88001,53.2127]},"properties":{"name":"Power infrastructure","category":"generator","osm_type":"way","osm_id":"1551191430"}},{"type":"Feature","geometry":{"type":"Point","coordinates":[-0.88001,53.2128]},"properties":{"name":"Power infrastructure","category":"generator","osm_type":"way","osm_id":"1551191431"}},{"type":"Feature","geometry":{"type":"Point","coordinates":[-0.88023,53.21291]},"properties":{"name":"Power infrastructure","category":"generator","osm_type":"way","osm_id":"1551191432"}},{"type":"Feature","geometry":{"type":"Point","coordinates":[-0.88022,53.21301]},"properties":{"name":"Power infrastructure","category":"generator","osm_type":"way","osm_id":"1551191433"}},{"type":"Feature","geometry":{"type":"Point","coordinates":[-0.88022,53.21311]},"properties":{"name":"Power infrastructure","category":"generator","osm_type":"way","osm_id":"1551191434"}},{"type":"Feature","geometry":{"type":"Point","coordinates":[-0.87999,53.2132]},"properties":{"name":"Power infrastructure","category":"generator","osm_type":"way","osm_id":"1551191435"}},{"type":"Feature","geometry":{"type":"Point","coordinates":[-0.87593,53.21147]},"properties":{"name":"Power infrastructure","category":"generator","osm_type":"way","osm_id":"1551191436"}},{"type":"Feature","geometry":{"type":"Point","coordinates":[-0.87592,53.21157]},"properties":{"name":"Power infrastructure","category":"generator","osm_type":"way","osm_id":"1551191437"}},{"type":"Feature","geometry":{"type":"Point","coordinates":[-0.87579,53.21166]},"properties":{"name":"Power infrastructure","category":"generator","osm_type":"way","osm_id":"1551191438"}},{"type":"Feature","geometry":{"type":"Point","coordinates":[-0.87566,53.21175]},"properties":{"name":"Power infrastructure","category":"generator","osm_type":"way","osm_id":"1551191439"}},{"type":"Feature","geometry":{"type":"Point","coordinates":[-0.87566,53.21185]},"properties":{"name":"Power infrastructure","category":"generator","osm_type":"way","osm_id":"1551191440"}},{"type":"Feature","geometry":{"type":"Point","coordinates":[-0.87566,53.21194]},"properties":{"name":"Power infrastructure","category":"generator","osm_type":"way","osm_id":"1551191441"}},{"type":"Feature","geometry":{"type":"Point","coordinates":[-0.87566,53.21204]},"properties":{"name":"Power infrastructure","category":"generator","osm_type":"way","osm_id":"1551191442"}},{"type":"Feature","geometry":{"type":"Point","coordinates":[-0.87578,53.21213]},"properties":{"name":"Power infrastructure","category":"generator","osm_type":"way","osm_id":"1551191443"}},{"type":"Feature","geometry":{"type":"Point","coordinates":[-0.87565,53.21223]},"properties":{"name":"Power infrastructure","category":"generator","osm_type":"way","osm_id":"1551191444"}},{"type":"Feature","geometry":{"type":"Point","coordinates":[-0.87565,53.21232]},"properties":{"name":"Power infrastructure","category":"generator","osm_type":"way","osm_id":"1551191445"}},{"type":"Feature","geometry":{"type":"Point","coordinates":[-0.87565,53.21242]},"properties":{"name":"Power infrastructure","category":"generator","osm_type":"way","osm_id":"1551191446"}},{"type":"Feature","geometry":{"type":"Point","coordinates":[-0.87564,53.21251]},"properties":{"name":"Power infrastructure","category":"generator","osm_type":"way","osm_id":"1551191447"}},{"type":"Feature","geometry":{"type":"Point","coordinates":[-0.87576,53.21261]},"properties":{"name":"Power infrastructure","category":"generator","osm_type":"way","osm_id":"1551191448"}},{"type":"Feature","geometry":{"type":"Point","coordinates":[-0.87588,53.2127]},"properties":{"name":"Power infrastructure","category":"generator","osm_type":"way","osm_id":"1551191449"}},{"type":"Feature","geometry":{"type":"Point","coordinates":[-0.876,53.2128]},"properties":{"name":"Power infrastructure","category":"generator","osm_type":"way","osm_id":"1551191450"}},{"type":"Feature","geometry":{"type":"Point","coordinates":[-0.87612,53.21289]},"properties":{"name":"Power infrastructure","category":"generator","osm_type":"way","osm_id":"1551191451"}},{"type":"Feature","geometry":{"type":"Point","coordinates":[-0.87624,53.21299]},"properties":{"name":"Power infrastructure","category":"generator","osm_type":"way","osm_id":"1551191452"}},{"type":"Feature","geometry":{"type":"Point","coordinates":[-0.87636,53.21308]},"properties":{"name":"Power infrastructure","category":"generator","osm_type":"way","osm_id":"1551191453"}},{"type":"Feature","geometry":{"type":"Point","coordinates":[-0.87648,53.21318]},"properties":{"name":"Power infrastructure","category":"generator","osm_type":"way","osm_id":"1551191454"}},{"type":"Feature","geometry":{"type":"Point","coordinates":[-0.8766,53.21328]},"properties":{"name":"Power infrastructure","category":"generator","osm_type":"way","osm_id":"1551191455"}},{"type":"Feature","geometry":{"type":"Point","coordinates":[-0.87672,53.21337]},"properties":{"name":"Power infrastructure","category":"generator","osm_type":"way","osm_id":"1551191456"}},{"type":"Feature","geometry":{"type":"Point","coordinates":[-0.87684,53.21347]},"properties":{"name":"Power infrastructure","category":"generator","osm_type":"way","osm_id":"1551191457"}},{"type":"Feature","geometry":{"type":"Point","coordinates":[-0.87696,53.21356]},"properties":{"name":"Power infrastructure","category":"generator","osm_type":"way","osm_id":"1551191458"}},{"type":"Feature","geometry":{"type":"Point","coordinates":[-0.87708,53.21366]},"properties":{"name":"Power infrastructure","category":"generator","osm_type":"way","osm_id":"1551191459"}},{"type":"Feature","geometry":{"type":"Point","coordinates":[-0.8772,53.21376]},"properties":{"name":"Power infrastructure","category":"generator","osm_type":"way","osm_id":"1551191460"}},{"type":"Feature","geometry":{"type":"Point","coordinates":[-0.87732,53.21385]},"properties":{"name":"Power infrastructure","category":"generator","osm_type":"way","osm_id":"1551191461"}},{"type":"Feature","geometry":{"type":"Point","coordinates":[-0.87744,53.21395]},"properties":{"name":"Power infrastructure","category":"generator","osm_type":"way","osm_id":"1551191462"}},{"type":"Feature","geometry":{"type":"Point","coordinates":[-0.87756,53.21404]},"properties":{"name":"Power infrastructure","category":"generator","osm_type":"way","osm_id":"1551191463"}},{"type":"Feature","geometry":{"type":"Point","coordinates":[-0.87768,53.21414]},"properties":{"name":"Power infrastructure","category":"generator","osm_type":"way","osm_id":"1551191464"}},{"type":"Feature","geometry":{"type":"Point","coordinates":[-0.8778,53.21423]},"properties":{"name":"Power infrastructure","category":"generator","osm_type":"way","osm_id":"1551191465"}},{"type":"Feature","geometry":{"type":"Point","coordinates":[-0.87792,53.21433]},"properties":{"name":"Power infrastructure","category":"generator","osm_type":"way","osm_id":"1551191466"}},{"type":"Feature","geometry":{"type":"Point","coordinates":[-0.87804,53.21443]},"properties":{"name":"Power infrastructure","category":"generator","osm_type":"way","osm_id":"1551191467"}},{"type":"Feature","geometry":{"type":"Point","coordinates":[-0.87816,53.21452]},"properties":{"name":"Power infrastructure","category":"generator","osm_type":"way","osm_id":"1551191468"}},{"type":"Feature","geometry":{"type":"Point","coordinates":[-0.87828,53.21462]},"properties":{"name":"Power infrastructure","category":"generator","osm_type":"way","osm_id":"1551191469"}},{"type":"Feature","geometry":{"type":"Point","coordinates":[-0.8784,53.21471]},"properties":{"name":"Power infrastructure","category":"generator","osm_type":"way","osm_id":"1551191470"}},{"type":"Feature","geometry":{"type":"Point","coordinates":[-0.87852,53.21481]},"properties":{"name":"Power infrastructure","category":"generator","osm_type":"way","osm_id":"1551191471"}},{"type":"Feature","geometry":{"type":"Point","coordinates":[-0.87864,53.21491]},"properties":{"name":"Power infrastructure","category":"generator","osm_type":"way","osm_id":"1551191472"}},{"type":"Feature","geometry":{"type":"Point","coordinates":[-0.87876,53.215]},"properties":{"name":"Power infrastructure","category":"generator","osm_type":"way","osm_id":"1551191473"}},{"type":"Feature","geometry":{"type":"Point","coordinates":[-0.80645,53.03933]},"properties":{"name":"Hawton","category":"plant","osm_type":"relation","osm_id":"9934710","operator":"Temporis Capital"}},{"type":"Feature","geometry":{"type":"Point","coordinates":[-0.41969,53.24599]},"properties":{"name":"Fiskerton Solar Farm","category":"plant","osm_type":"relation","osm_id":"9456291"}},{"type":"Feature","geometry":{"type":"Point","coordinates":[-0.98693,53.44415]},"properties":{"name":"Misson Solar Farm","category":"plant","osm_type":"relation","osm_id":"10298563","operator":"Novus"}},{"type":"Feature","geometry":{"type":"Point","coordinates":[-0.79634,53.36419]},"properties":{"name":"West Burton B Power Station","category":"plant","osm_type":"way","osm_id":"160279522","operator":"TotalEnergies"}},{"type":"Feature","geometry":{"type":"Point","coordinates":[-0.96088,53.32498]},"properties":{"name":"Retford FS","category":"substation","osm_type":"way","osm_id":"211685754","operator":"Network Rail"}},{"type":"Feature","geometry":{"type":"Point","coordinates":[-0.85981,53.07418]},"properties":{"name":"Unit 1","category":"generator","osm_type":"way","osm_id":"229446092"}},{"type":"Feature","geometry":{"type":"Point","coordinates":[-0.85944,53.07377]},"properties":{"name":"Unit 2","category":"generator","osm_type":"way","osm_id":"229446093"}},{"type":"Feature","geometry":{"type":"Point","coordinates":[-0.85894,53.07326]},"properties":{"name":"Unit 3","category":"generator","osm_type":"way","osm_id":"229446094"}},{"type":"Feature","geometry":{"type":"Point","coordinates":[-0.85857,53.07285]},"properties":{"name":"Unit 4","category":"generator","osm_type":"way","osm_id":"229446095"}},{"type":"Feature","geometry":{"type":"Point","coordinates":[-0.85967,53.07235]},"properties":{"name":"Staythorpe C Power Station","category":"plant","osm_type":"way","osm_id":"229449727","operator":"RWE"}},{"type":"Feature","geometry":{"type":"Point","coordinates":[-0.41577,53.00314]},"properties":{"name":"Drove Lane","category":"substation","osm_type":"way","osm_id":"389441716","operator":"National Grid Electricity Distribution","ref":"No W 0","addr:city":"Sleaford","addr:postcode":"NG34 7AR"}},{"type":"Feature","geometry":{"type":"Point","coordinates":[-0.39785,53.00418]},"properties":{"name":"Wazygoose","category":"substation","osm_type":"way","osm_id":"389441780","operator":"East Midlands Electricity","ref":"W8521"}},{"type":"Feature","geometry":{"type":"Point","coordinates":[-0.55056,53.21403]},"properties":{"name":"Power infrastructure","category":"substation","osm_type":"way","osm_id":"399969694"}},{"type":"Feature","geometry":{"type":"Point","coordinates":[-0.78616,53.30653]},"properties":{"name":"Cottam Development Centre","category":"plant","osm_type":"way","osm_id":"402566315","operator":"E.ON"}},{"type":"Feature","geometry":{"type":"Point","coordinates":[-0.6073,53.19907]},"properties":{"name":"Lincolnshire Energy from Waste","category":"plant","osm_type":"way","osm_id":"456413696","website":"https://lincolnshire.fccenvironment.co.uk/lincolnshire-energy-from-waste/"}},{"type":"Feature","geometry":{"type":"Point","coordinates":[-0.60663,53.19945]},"properties":{"name":"Power infrastructure","category":"generator","osm_type":"way","osm_id":"463686294"}},{"type":"Feature","geometry":{"type":"Point","coordinates":[-0.77722,53.04224]},"properties":{"name":"Fernwood Substation","category":"substation","osm_type":"way","osm_id":"619786151"}},{"type":"Feature","geometry":{"type":"Point","coordinates":[-0.54215,53.22832]},"properties":{"name":"Power infrastructure","category":"substation","osm_type":"way","osm_id":"706069068"}},{"type":"Feature","geometry":{"type":"Point","coordinates":[-0.54091,53.23032]},"properties":{"name":"Power infrastructure","category":"substation","osm_type":"way","osm_id":"723560562"}},{"type":"Feature","geometry":{"type":"Point","coordinates":[-0.53904,53.23018]},"properties":{"name":"Power infrastructure","category":"substation","osm_type":"way","osm_id":"723881130"}},{"type":"Feature","geometry":{"type":"Point","coordinates":[-0.5433,53.22921]},"properties":{"name":"Power infrastructure","category":"substation","osm_type":"way","osm_id":"729721598"}},{"type":"Feature","geometry":{"type":"Point","coordinates":[-0.79804,53.21372]},"properties":{"name":"J G Pears Biomass Plant","category":"plant","osm_type":"way","osm_id":"896193908"}},{"type":"Feature","geometry":{"type":"Point","coordinates":[-0.53316,53.17563]},"properties":{"name":"RAF Waddington Substation","category":"substation","osm_type":"way","osm_id":"935128186","operator":"National Grid Electricity Distribution Plc"}},{"type":"Feature","geometry":{"type":"Point","coordinates":[-0.79693,53.36459]},"properties":{"name":"West Burton B Battery Storage","category":"plant","osm_type":"way","osm_id":"956046649","operator":"EDF Energy Renewables"}},{"type":"Feature","geometry":{"type":"Point","coordinates":[-0.80906,53.05077]},"properties":{"name":"Balderton","category":"plant","osm_type":"way","osm_id":"956046655","operator":"SPEP"}},{"type":"Feature","geometry":{"type":"Point","coordinates":[-0.55383,53.26614]},"properties":{"name":"Leverton Battery Storage Substation","category":"substation","osm_type":"way","osm_id":"974974753","operator":"National Grid Electricity Distribution Plc"}},{"type":"Feature","geometry":{"type":"Point","coordinates":[-0.58464,53.0252]},"properties":{"name":"Mill Farm Battery Storage","category":"plant","osm_type":"way","osm_id":"974974757"}},{"type":"Feature","geometry":{"type":"Point","coordinates":[-0.58443,53.02503]},"properties":{"name":"Mill Farm Battery Storage Substation","category":"substation","osm_type":"way","osm_id":"974974758","operator":"National Grid Electricity Distribution Plc"}},{"type":"Feature","geometry":{"type":"Point","coordinates":[-0.16098,53.14171]},"properties":{"name":"Grange Farm Solar Kirkby on Bain Substation","category":"substation","osm_type":"way","osm_id":"974974760","operator":"National Grid Electricity Distribution Plc"}},{"type":"Feature","geometry":{"type":"Point","coordinates":[-0.42841,53.24334]},"properties":{"name":"Fiskerton Solar Farm Substation","category":"substation","osm_type":"way","osm_id":"974974762","operator":"National Grid Electricity Distribution Plc"}},{"type":"Feature","geometry":{"type":"Point","coordinates":[-0.39551,53.02982]},"properties":{"name":"Deepdale Solar Farm","category":"substation","osm_type":"way","osm_id":"974974763","operator":"National Grid Electricity Distribution Plc"}},{"type":"Feature","geometry":{"type":"Point","coordinates":[-0.50006,53.00861]},"properties":{"name":"Ermine Farm Solar Farm","category":"substation","osm_type":"way","osm_id":"974974764","operator":"National Grid Electricity Distribution Plc"}},{"type":"Feature","geometry":{"type":"Point","coordinates":[-0.05525,53.01]},"properties":{"name":"Canopus Solar Farm","category":"substation","osm_type":"way","osm_id":"974974765","operator":"National Grid Electricity Distribution Plc"}},{"type":"Feature","geometry":{"type":"Point","coordinates":[-0.73511,53.01917]},"properties":{"name":"Copley Farm Solar Gen","category":"substation","osm_type":"way","osm_id":"974974767","operator":"National Grid Electricity Distribution Plc"}},{"type":"Feature","geometry":{"type":"Point","coordinates":[-0.88035,53.21117]},"properties":{"name":"Cobb Farm Solar Farm","category":"substation","osm_type":"way","osm_id":"974978504","operator":"National Grid Electricity Distribution Plc"}},{"type":"Feature","geometry":{"type":"Point","coordinates":[-0.98559,53.37449]},"properties":{"name":"Daneshill Generation","category":"substation","osm_type":"way","osm_id":"974978508","operator":"National Grid Electricity Distribution Plc"}},{"type":"Feature","geometry":{"type":"Point","coordinates":[-0.99776,53.30823]},"properties":{"name":"Walkers Wood Solar Farm","category":"substation","osm_type":"way","osm_id":"974978511","operator":"National Grid Electricity Distribution Plc"}},{"type":"Feature","geometry":{"type":"Point","coordinates":[-0.95242,53.36296]},"properties":{"name":"Low Farm AD Substation","category":"substation","osm_type":"way","osm_id":"974978515","operator":"National Grid Electricity Distribution Plc"}},{"type":"Feature","geometry":{"type":"Point","coordinates":[-0.92729,53.34536]},"properties":{"name":"Tiln Solar Generation","category":"substation","osm_type":"way","osm_id":"974978517","operator":"National Grid Electricity Distribution Plc"}},{"type":"Feature","geometry":{"type":"Point","coordinates":[-0.99692,53.35669]},"properties":{"name":"Moat Farm Solar Farm","category":"substation","osm_type":"way","osm_id":"974978518","operator":"National Grid Electricity Distribution Plc"}},{"type":"Feature","geometry":{"type":"Point","coordinates":[-0.84537,53.30023]},"properties":{"name":"West End Farm Solar Gen","category":"substation","osm_type":"way","osm_id":"974978519","operator":"National Grid Electricity Distribution Plc"}},{"type":"Feature","geometry":{"type":"Point","coordinates":[-0.81252,53.03638]},"properties":{"name":"Hawton Wind Farm Substation","category":"substation","osm_type":"way","osm_id":"974978520","operator":"National Grid Electricity Distribution Plc"}},{"type":"Feature","geometry":{"type":"Point","coordinates":[-0.80899,53.05101]},"properties":{"name":"Bowbridge Generation STOR Substation","category":"substation","osm_type":"way","osm_id":"974978522","operator":"National Grid Electricity Distribution"}},{"type":"Feature","geometry":{"type":"Point","coordinates":[-0.77242,53.04601]},"properties":{"name":"Power infrastructure","category":"substation","osm_type":"way","osm_id":"1044395175"}},{"type":"Feature","geometry":{"type":"Point","coordinates":[-0.78109,53.05604]},"properties":{"name":"Power infrastructure","category":"substation","osm_type":"way","osm_id":"1087873863"}},{"type":"Feature","geometry":{"type":"Point","coordinates":[-0.40442,53.2758]},"properties":{"name":"Power infrastructure","category":"substation","osm_type":"way","osm_id":"1231785385"}},{"type":"Feature","geometry":{"type":"Point","coordinates":[-0.86685,53.02196]},"properties":{"name":"The Orchards Elston","category":"substation","osm_type":"way","osm_id":"1242617582","ref":"905794"}},{"type":"Feature","geometry":{"type":"Point","coordinates":[-0.86989,53.00219]},"properties":{"name":"Sibthorpe Village","category":"substation","osm_type":"way","osm_id":"1243709715","operator":"National Grid Electricity Distribution","ref":"883572"}},{"type":"Feature","geometry":{"type":"Point","coordinates":[-0.91058,53.01729]},"properties":{"name":"903914","category":"substation","osm_type":"way","osm_id":"1251679557","ref":"903914"}},{"type":"Feature","geometry":{"type":"Point","coordinates":[-0.00917,53.36425]},"properties":{"name":"Power infrastructure","category":"substation","osm_type":"way","osm_id":"1282623462"}},{"type":"Feature","geometry":{"type":"Point","coordinates":[-0.0836,53.45361]},"properties":{"name":"Power infrastructure","category":"substation","osm_type":"way","osm_id":"1297714838","addr:city":"Grimsby","addr:postcode":"DN36 5RR"}},{"type":"Feature","geometry":{"type":"Point","coordinates":[-0.33966,53.49808]},"properties":{"name":"Power infrastructure","category":"substation","osm_type":"way","osm_id":"1373645095"}},{"type":"Feature","geometry":{"type":"Point","coordinates":[-0.05352,53.46798]},"properties":{"name":"Power infrastructure","category":"substation","osm_type":"way","osm_id":"1411970031","addr:city":"Grimsby","addr:postcode":"DN36 5QH"}},{"type":"Feature","geometry":{"type":"Point","coordinates":[-0.65923,53.15203]},"properties":{"name":"Power infrastructure","category":"substation","osm_type":"way","osm_id":"1429268543"}},{"type":"Feature","geometry":{"type":"Point","coordinates":[-0.96564,53.33137]},"properties":{"name":"Power infrastructure","category":"substation","osm_type":"way","osm_id":"1432339233"}},{"type":"Feature","geometry":{"type":"Point","coordinates":[-0.96254,53.33323]},"properties":{"name":"Power infrastructure","category":"substation","osm_type":"way","osm_id":"1432339234"}},{"type":"Feature","geometry":{"type":"Point","coordinates":[-0.72499,53.03115]},"properties":{"name":"Claypole TSC","category":"substation","osm_type":"way","osm_id":"1432732111","operator":"Network Rail"}},{"type":"Feature","geometry":{"type":"Point","coordinates":[-0.52709,53.24224]},"properties":{"name":"Power infrastructure","category":"substation","osm_type":"way","osm_id":"1447975478","addr:city":"Lincoln","addr:postcode":"LN2 1RA"}},{"type":"Feature","geometry":{"type":"Point","coordinates":[-0.52345,53.24776]},"properties":{"name":"Power infrastructure","category":"substation","osm_type":"way","osm_id":"1448459193"}},{"type":"Feature","geometry":{"type":"Point","coordinates":[-0.52327,53.24775]},"properties":{"name":"Power infrastructure","category":"substation","osm_type":"way","osm_id":"1448459194"}},{"type":"Feature","geometry":{"type":"Point","coordinates":[-0.51633,53.2513]},"properties":{"name":"Power infrastructure","category":"substation","osm_type":"way","osm_id":"1448459205"}},{"type":"Feature","geometry":{"type":"Point","coordinates":[-0.51705,53.25307]},"properties":{"name":"Power infrastructure","category":"substation","osm_type":"way","osm_id":"1448459223"}},{"type":"Feature","geometry":{"type":"Point","coordinates":[-0.48803,53.2655]},"properties":{"name":"Power infrastructure","category":"substation","osm_type":"way","osm_id":"1450081811"}},{"type":"Feature","geometry":{"type":"Point","coordinates":[-0.33445,53.38696]},"properties":{"name":"Power infrastructure","category":"substation","osm_type":"way","osm_id":"1454678754","addr:city":"Market Rasen","addr:postcode":"LN8 3EN"}},{"type":"Feature","geometry":{"type":"Point","coordinates":[-0.04036,53.46789]},"properties":{"name":"Power infrastructure","category":"substation","osm_type":"way","osm_id":"1497894073"}},{"type":"Feature","geometry":{"type":"Point","coordinates":[-0.53821,53.24251]},"properties":{"name":"Power infrastructure","category":"substation","osm_type":"way","osm_id":"1508210389"}},{"type":"Feature","geometry":{"type":"Point","coordinates":[-0.55496,53.23587]},"properties":{"name":"Power infrastructure","category":"substation","osm_type":"way","osm_id":"1508845710"}},{"type":"Feature","geometry":{"type":"Point","coordinates":[-0.54833,53.23237]},"properties":{"name":"Power infrastructure","category":"substation","osm_type":"way","osm_id":"1509471642"}},{"type":"Feature","geometry":{"type":"Point","coordinates":[-0.16069,53.30394]},"properties":{"name":"Power infrastructure","category":"generator","osm_type":"way","osm_id":"1511166868"}},{"type":"Feature","geometry":{"type":"Point","coordinates":[-0.55407,53.07943]},"properties":{"name":"Power infrastructure","category":"substation","osm_type":"way","osm_id":"1513428881"}},{"type":"Feature","geometry":{"type":"Point","coordinates":[-0.54798,53.23088]},"properties":{"name":"Power infrastructure","category":"substation","osm_type":"way","osm_id":"1527557809"}},{"type":"Feature","geometry":{"type":"Point","coordinates":[-0.55627,53.23219]},"properties":{"name":"Power infrastructure","category":"substation","osm_type":"way","osm_id":"1529645149"}},{"type":"Feature","geometry":{"type":"Point","coordinates":[-0.55582,53.23233]},"properties":{"name":"Power infrastructure","category":"substation","osm_type":"way","osm_id":"1531427921"}},{"type":"Feature","geometry":{"type":"Point","coordinates":[-0.9923,53.3202]},"properties":{"name":"Power infrastructure","category":"substation","osm_type":"way","osm_id":"1557618800"}}]}