{"type":"FeatureCollection","features":[{"type":"Feature","geometry":{"type":"Point","coordinates":[-2.64063,53.41168]},"properties":{"name":"Power infrastructure","category":"substation","osm_type":"way","osm_id":"1055187553"}},{"type":"Feature","geometry":{"type":"Point","coordinates":[-2.52211,53.19435]},"properties":{"name":"Lagos Close substation","category":"substation","osm_type":"way","osm_id":"1056513525","operator":"SP Manweb","ref":"GSS-SJ6566/012"}},{"type":"Feature","geometry":{"type":"Point","coordinates":[-2.51725,53.24839]},"properties":{"name":"Monarch Way North","category":"substation","osm_type":"way","osm_id":"1057865541","operator":"SP Manweb","ref":"06/6572/015"}},{"type":"Feature","geometry":{"type":"Point","coordinates":[-2.5457,53.35167]},"properties":{"name":"Power infrastructure","category":"substation","osm_type":"way","osm_id":"1060652408"}},{"type":"Feature","geometry":{"type":"Point","coordinates":[-2.6597,53.39249]},"properties":{"name":"Power infrastructure","category":"substation","osm_type":"way","osm_id":"1061158021"}},{"type":"Feature","geometry":{"type":"Point","coordinates":[-2.88927,53.18591]},"properties":{"name":"Power infrastructure","category":"generator","osm_type":"way","osm_id":"1063397206","addr:city":"Chester","addr:postcode":"CH1 1SL"}},{"type":"Feature","geometry":{"type":"Point","coordinates":[-2.64189,53.39121]},"properties":{"name":"Power infrastructure","category":"substation","osm_type":"way","osm_id":"1063712244"}},{"type":"Feature","geometry":{"type":"Point","coordinates":[-2.52025,53.45412]},"properties":{"name":"Power infrastructure","category":"substation","osm_type":"way","osm_id":"1064151100"}},{"type":"Feature","geometry":{"type":"Point","coordinates":[-2.4286,53.49721]},"properties":{"name":"Power infrastructure","category":"substation","osm_type":"way","osm_id":"1064901651"}},{"type":"Feature","geometry":{"type":"Point","coordinates":[-2.59029,53.23417]},"properties":{"name":"Power infrastructure","category":"substation","osm_type":"way","osm_id":"1065909888"}},{"type":"Feature","geometry":{"type":"Point","coordinates":[-2.8305,53.42741]},"properties":{"name":"Power infrastructure","category":"substation","osm_type":"way","osm_id":"1067696669"}},{"type":"Feature","geometry":{"type":"Point","coordinates":[-2.58597,53.23345]},"properties":{"name":"Power infrastructure","category":"substation","osm_type":"way","osm_id":"1068446104"}},{"type":"Feature","geometry":{"type":"Point","coordinates":[-2.82848,53.42586]},"properties":{"name":"Power infrastructure","category":"substation","osm_type":"way","osm_id":"1069353130"}},{"type":"Feature","geometry":{"type":"Point","coordinates":[-2.44987,53.49282]},"properties":{"name":"Power infrastructure","category":"substation","osm_type":"way","osm_id":"1070054850"}},{"type":"Feature","geometry":{"type":"Point","coordinates":[-2.60126,53.23117]},"properties":{"name":"Power infrastructure","category":"substation","osm_type":"way","osm_id":"1070239303"}},{"type":"Feature","geometry":{"type":"Point","coordinates":[-2.60399,53.23245]},"properties":{"name":"Power infrastructure","category":"substation","osm_type":"way","osm_id":"1070302348"}},{"type":"Feature","geometry":{"type":"Point","coordinates":[-2.58651,53.4118]},"properties":{"name":"Power infrastructure","category":"substation","osm_type":"way","osm_id":"1070349532"}},{"type":"Feature","geometry":{"type":"Point","coordinates":[-2.59723,53.23543]},"properties":{"name":"Power infrastructure","category":"substation","osm_type":"way","osm_id":"1070579139","addr:postcode":"CW8 2QN"}},{"type":"Feature","geometry":{"type":"Point","coordinates":[-2.59954,53.24099]},"properties":{"name":"Power infrastructure","category":"substation","osm_type":"way","osm_id":"1070590092","operator":"Mayfield Drive Substation"}},{"type":"Feature","geometry":{"type":"Point","coordinates":[-2.57937,53.38464]},"properties":{"name":"Power infrastructure","category":"plant","osm_type":"way","osm_id":"1071592059"}},{"type":"Feature","geometry":{"type":"Point","coordinates":[-2.7264,53.41766]},"properties":{"name":"Power infrastructure","category":"substation","osm_type":"way","osm_id":"1071774585"}},{"type":"Feature","geometry":{"type":"Point","coordinates":[-2.65461,53.49901]},"properties":{"name":"Power infrastructure","category":"substation","osm_type":"way","osm_id":"1076162140"}},{"type":"Feature","geometry":{"type":"Point","coordinates":[-2.38105,53.46482]},"properties":{"name":"Power infrastructure","category":"plant","osm_type":"way","osm_id":"1076185802"}},{"type":"Feature","geometry":{"type":"Point","coordinates":[-2.24575,53.49417]},"properties":{"name":"Power infrastructure","category":"substation","osm_type":"way","osm_id":"1078297155"}},{"type":"Feature","geometry":{"type":"Point","coordinates":[-2.85495,53.17226]},"properties":{"name":"Power infrastructure","category":"substation","osm_type":"way","osm_id":"1078302261"}},{"type":"Feature","geometry":{"type":"Point","coordinates":[-2.6335,53.39324]},"properties":{"name":"Power infrastructure","category":"substation","osm_type":"way","osm_id":"1078867748"}},{"type":"Feature","geometry":{"type":"Point","coordinates":[-2.53072,53.40185]},"properties":{"name":"Power infrastructure","category":"substation","osm_type":"way","osm_id":"1079155386"}},{"type":"Feature","geometry":{"type":"Point","coordinates":[-2.5162,53.24659]},"properties":{"name":"Power infrastructure","category":"substation","osm_type":"way","osm_id":"1080301397"}},{"type":"Feature","geometry":{"type":"Point","coordinates":[-2.0653,53.46165]},"properties":{"name":"Power infrastructure","category":"substation","osm_type":"way","osm_id":"1082095470"}},{"type":"Feature","geometry":{"type":"Point","coordinates":[-2.58185,53.47064]},"properties":{"name":"Stirrups Farm Drive","category":"substation","osm_type":"way","osm_id":"1082517554","operator":"ESP Electricity","ref":"219092"}},{"type":"Feature","geometry":{"type":"Point","coordinates":[-2.59094,53.48306]},"properties":{"name":"Power infrastructure","category":"substation","osm_type":"way","osm_id":"1082538262"}},{"type":"Feature","geometry":{"type":"Point","coordinates":[-2.2525,53.49851]},"properties":{"name":"Power infrastructure","category":"substation","osm_type":"way","osm_id":"1086777716"}},{"type":"Feature","geometry":{"type":"Point","coordinates":[-2.56011,53.3887]},"properties":{"name":"Power infrastructure","category":"substation","osm_type":"way","osm_id":"1088117070"}},{"type":"Feature","geometry":{"type":"Point","coordinates":[-2.56623,53.46474]},"properties":{"name":"Power infrastructure","category":"substation","osm_type":"way","osm_id":"1089757058"}},{"type":"Feature","geometry":{"type":"Point","coordinates":[-2.72939,53.33969]},"properties":{"name":"Power infrastructure","category":"substation","osm_type":"way","osm_id":"1089890014"}},{"type":"Feature","geometry":{"type":"Point","coordinates":[-2.58451,53.40975]},"properties":{"name":"Power infrastructure","category":"substation","osm_type":"way","osm_id":"1090620439"}},{"type":"Feature","geometry":{"type":"Point","coordinates":[-2.60132,53.47914]},"properties":{"name":"Power infrastructure","category":"substation","osm_type":"way","osm_id":"1090870621"}},{"type":"Feature","geometry":{"type":"Point","coordinates":[-2.65076,53.43128]},"properties":{"name":"Power infrastructure","category":"substation","osm_type":"way","osm_id":"1091972720"}},{"type":"Feature","geometry":{"type":"Point","coordinates":[-2.56852,53.41887]},"properties":{"name":"Power infrastructure","category":"substation","osm_type":"way","osm_id":"1093958727"}},{"type":"Feature","geometry":{"type":"Point","coordinates":[-2.71925,53.32145]},"properties":{"name":"Malpas Road Sub-station","category":"substation","osm_type":"way","osm_id":"1094376593"}},{"type":"Feature","geometry":{"type":"Point","coordinates":[-2.22928,53.43158]},"properties":{"name":"Withington Substation","category":"substation","osm_type":"way","osm_id":"1094482660","operator":"Electricity North West","ref":"100131"}},{"type":"Feature","geometry":{"type":"Point","coordinates":[-2.22262,53.32171]},"properties":{"name":"331358","category":"substation","osm_type":"way","osm_id":"1094482669","ref":"331358"}},{"type":"Feature","geometry":{"type":"Point","coordinates":[-2.58368,53.40141]},"properties":{"name":"Power infrastructure","category":"substation","osm_type":"way","osm_id":"1095045559"}},{"type":"Feature","geometry":{"type":"Point","coordinates":[-2.62192,53.40298]},"properties":{"name":"Power infrastructure","category":"substation","osm_type":"way","osm_id":"1095496938"}},{"type":"Feature","geometry":{"type":"Point","coordinates":[-2.76433,53.12635]},"properties":{"name":"Greenlands","category":"substation","osm_type":"way","osm_id":"1095669389","operator":"SP Energy Networks"}},{"type":"Feature","geometry":{"type":"Point","coordinates":[-2.76558,53.12479]},"properties":{"name":"Oaklands Crescent","category":"substation","osm_type":"way","osm_id":"1095669393","operator":"SP Energy Networks"}},{"type":"Feature","geometry":{"type":"Point","coordinates":[-2.56103,53.41263]},"properties":{"name":"Power infrastructure","category":"substation","osm_type":"way","osm_id":"1095766000"}},{"type":"Feature","geometry":{"type":"Point","coordinates":[-2.5707,53.47801]},"properties":{"name":"Power infrastructure","category":"substation","osm_type":"way","osm_id":"1096359928"}},{"type":"Feature","geometry":{"type":"Point","coordinates":[-2.56637,53.34402]},"properties":{"name":"Power infrastructure","category":"substation","osm_type":"way","osm_id":"1097511400"}},{"type":"Feature","geometry":{"type":"Point","coordinates":[-2.57153,53.34688]},"properties":{"name":"Power infrastructure","category":"substation","osm_type":"way","osm_id":"1097518139"}},{"type":"Feature","geometry":{"type":"Point","coordinates":[-2.57651,53.47129]},"properties":{"name":"Power infrastructure","category":"substation","osm_type":"way","osm_id":"1097567273"}},{"type":"Feature","geometry":{"type":"Point","coordinates":[-2.58083,53.47241]},"properties":{"name":"Power infrastructure","category":"substation","osm_type":"way","osm_id":"1098209454"}},{"type":"Feature","geometry":{"type":"Point","coordinates":[-2.20728,53.3662]},"properties":{"name":"Power infrastructure","category":"substation","osm_type":"way","osm_id":"1098678573"}},{"type":"Feature","geometry":{"type":"Point","coordinates":[-2.92706,53.17091]},"properties":{"name":"Power infrastructure","category":"substation","osm_type":"way","osm_id":"1100649852"}},{"type":"Feature","geometry":{"type":"Point","coordinates":[-2.34123,53.42923]},"properties":{"name":"Power infrastructure","category":"substation","osm_type":"way","osm_id":"1101332927"}},{"type":"Feature","geometry":{"type":"Point","coordinates":[-2.55056,53.47489]},"properties":{"name":"Power infrastructure","category":"substation","osm_type":"way","osm_id":"1103945073"}},{"type":"Feature","geometry":{"type":"Point","coordinates":[-2.55199,53.47687]},"properties":{"name":"Power infrastructure","category":"substation","osm_type":"way","osm_id":"1103954132"}},{"type":"Feature","geometry":{"type":"Point","coordinates":[-2.56936,53.46819]},"properties":{"name":"Power infrastructure","category":"substation","osm_type":"way","osm_id":"1104490431"}},{"type":"Feature","geometry":{"type":"Point","coordinates":[-2.76639,53.12184]},"properties":{"name":"Rosebank","category":"substation","osm_type":"way","osm_id":"1105899553","operator":"SP Energy Networks"}},{"type":"Feature","geometry":{"type":"Point","coordinates":[-2.00783,53.36754]},"properties":{"name":"High Lea Road","category":"substation","osm_type":"way","osm_id":"1106096839","ref":"333265"}},{"type":"Feature","geometry":{"type":"Point","coordinates":[-2.56931,53.47132]},"properties":{"name":"Power infrastructure","category":"substation","osm_type":"way","osm_id":"1106706364"}},{"type":"Feature","geometry":{"type":"Point","coordinates":[-2.56711,53.4709]},"properties":{"name":"Power infrastructure","category":"substation","osm_type":"way","osm_id":"1108023073"}},{"type":"Feature","geometry":{"type":"Point","coordinates":[-2.43668,53.09765]},"properties":{"name":"Power infrastructure","category":"substation","osm_type":"way","osm_id":"1110274892"}},{"type":"Feature","geometry":{"type":"Point","coordinates":[-2.22326,53.48432]},"properties":{"name":"New Islington Electricity Substation","category":"substation","osm_type":"way","osm_id":"1110347978","ref":"168925"}},{"type":"Feature","geometry":{"type":"Point","coordinates":[-2.56225,53.47113]},"properties":{"name":"Power infrastructure","category":"substation","osm_type":"way","osm_id":"1110409725"}},{"type":"Feature","geometry":{"type":"Point","coordinates":[-2.22378,53.48455]},"properties":{"name":"New Union Street Substation","category":"substation","osm_type":"way","osm_id":"1110795607","ref":"168691"}},{"type":"Feature","geometry":{"type":"Point","coordinates":[-2.50655,53.20487]},"properties":{"name":"Florence Way Substation","category":"substation","osm_type":"way","osm_id":"1111111372","ref":"GSS-SJ6667/041"}},{"type":"Feature","geometry":{"type":"Point","coordinates":[-2.55702,53.49384]},"properties":{"name":"Power infrastructure","category":"substation","osm_type":"way","osm_id":"1111842898"}},{"type":"Feature","geometry":{"type":"Point","coordinates":[-2.2191,53.48551]},"properties":{"name":"Power infrastructure","category":"substation","osm_type":"way","osm_id":"1115737138"}},{"type":"Feature","geometry":{"type":"Point","coordinates":[-2.95905,53.39207]},"properties":{"name":"Boulevard North Hill Substation","category":"substation","osm_type":"way","osm_id":"1115745013","ref":"02/3688/016"}},{"type":"Feature","geometry":{"type":"Point","coordinates":[-2.52407,53.25487]},"properties":{"name":"Power infrastructure","category":"substation","osm_type":"way","osm_id":"1115978183"}},{"type":"Feature","geometry":{"type":"Point","coordinates":[-2.22004,53.48381]},"properties":{"name":"Power infrastructure","category":"substation","osm_type":"way","osm_id":"1115984694"}},{"type":"Feature","geometry":{"type":"Point","coordinates":[-2.63235,53.46791]},"properties":{"name":"Lodge Lane Power Station","category":"plant","osm_type":"way","osm_id":"1117350511"}},{"type":"Feature","geometry":{"type":"Point","coordinates":[-2.20052,53.47601]},"properties":{"name":"Power infrastructure","category":"substation","osm_type":"way","osm_id":"1118902216"}},{"type":"Feature","geometry":{"type":"Point","coordinates":[-2.52078,53.25574]},"properties":{"name":"Power infrastructure","category":"substation","osm_type":"way","osm_id":"1119624771"}},{"type":"Feature","geometry":{"type":"Point","coordinates":[-2.12563,53.4483]},"properties":{"name":"Power infrastructure","category":"substation","osm_type":"way","osm_id":"1121927309","operator":"Electricity North West"}},{"type":"Feature","geometry":{"type":"Point","coordinates":[-2.54791,53.47761]},"properties":{"name":"Power infrastructure","category":"substation","osm_type":"way","osm_id":"1122900475"}},{"type":"Feature","geometry":{"type":"Point","coordinates":[-2.1973,53.47971]},"properties":{"name":"Power infrastructure","category":"substation","osm_type":"way","osm_id":"1125432286"}},{"type":"Feature","geometry":{"type":"Point","coordinates":[-2.63413,53.48864]},"properties":{"name":"Power infrastructure","category":"substation","osm_type":"way","osm_id":"1125864424"}},{"type":"Feature","geometry":{"type":"Point","coordinates":[-2.59001,53.46891]},"properties":{"name":"Power infrastructure","category":"substation","osm_type":"way","osm_id":"1125911974"}},{"type":"Feature","geometry":{"type":"Point","coordinates":[-2.16874,53.11684]},"properties":{"name":"Power infrastructure","category":"substation","osm_type":"way","osm_id":"1126044993"}},{"type":"Feature","geometry":{"type":"Point","coordinates":[-2.71262,53.44716]},"properties":{"name":"Power infrastructure","category":"substation","osm_type":"way","osm_id":"1126873318"}},{"type":"Feature","geometry":{"type":"Point","coordinates":[-2.21013,53.48185]},"properties":{"name":"Purslow Close Substation","category":"substation","osm_type":"way","osm_id":"1126933153","operator":"Electricity North West","ref":"166195"}},{"type":"Feature","geometry":{"type":"Point","coordinates":[-2.57464,53.46627]},"properties":{"name":"Power infrastructure","category":"substation","osm_type":"way","osm_id":"1127609663"}},{"type":"Feature","geometry":{"type":"Point","coordinates":[-2.72684,53.44287]},"properties":{"name":"Power infrastructure","category":"substation","osm_type":"way","osm_id":"1135228753"}},{"type":"Feature","geometry":{"type":"Point","coordinates":[-2.22229,53.48136]},"properties":{"name":"Power infrastructure","category":"substation","osm_type":"way","osm_id":"1135461206"}},{"type":"Feature","geometry":{"type":"Point","coordinates":[-2.21739,53.48244]},"properties":{"name":"Power infrastructure","category":"substation","osm_type":"way","osm_id":"1136738982"}},{"type":"Feature","geometry":{"type":"Point","coordinates":[-2.21746,53.48253]},"properties":{"name":"Power infrastructure","category":"substation","osm_type":"way","osm_id":"1136738983"}},{"type":"Feature","geometry":{"type":"Point","coordinates":[-2.21754,53.48257]},"properties":{"name":"Power infrastructure","category":"substation","osm_type":"way","osm_id":"1136738984"}},{"type":"Feature","geometry":{"type":"Point","coordinates":[-2.70591,53.44216]},"properties":{"name":"Power infrastructure","category":"substation","osm_type":"way","osm_id":"1145607342"}},{"type":"Feature","geometry":{"type":"Point","coordinates":[-2.50237,53.48263]},"properties":{"name":"Power infrastructure","category":"substation","osm_type":"way","osm_id":"1146101132"}},{"type":"Feature","geometry":{"type":"Point","coordinates":[-2.50218,53.48578]},"properties":{"name":"216663","category":"substation","osm_type":"way","osm_id":"1147304642","operator":"Electricity North West","ref":"216663"}},{"type":"Feature","geometry":{"type":"Point","coordinates":[-2.21496,53.38943]},"properties":{"name":"Power infrastructure","category":"substation","osm_type":"way","osm_id":"1148355725"}},{"type":"Feature","geometry":{"type":"Point","coordinates":[-2.20526,53.3665]},"properties":{"name":"Eden Park Electricity Substation","category":"substation","osm_type":"way","osm_id":"1148581535"}},{"type":"Feature","geometry":{"type":"Point","coordinates":[-2.20937,53.37275]},"properties":{"name":"Bruntwood Lane Electricity Substation","category":"substation","osm_type":"way","osm_id":"1148971194","operator":"Electricity North West"}},{"type":"Feature","geometry":{"type":"Point","coordinates":[-2.74026,53.33898]},"properties":{"name":"Power infrastructure","category":"substation","osm_type":"way","osm_id":"1149265127","addr:city":"Runcorn","addr:postcode":"WA7 4UA"}},{"type":"Feature","geometry":{"type":"Point","coordinates":[-2.74361,53.33792]},"properties":{"name":"Power infrastructure","category":"substation","osm_type":"way","osm_id":"1149265142"}},{"type":"Feature","geometry":{"type":"Point","coordinates":[-2.55886,53.38614]},"properties":{"name":"Power infrastructure","category":"substation","osm_type":"way","osm_id":"1151100317"}},{"type":"Feature","geometry":{"type":"Point","coordinates":[-2.68655,53.3335]},"properties":{"name":"Power infrastructure","category":"substation","osm_type":"way","osm_id":"1151387406"}},{"type":"Feature","geometry":{"type":"Point","coordinates":[-2.92642,53.41947]},"properties":{"name":"Lister Drive Greener Grid Park","category":"substation","osm_type":"way","osm_id":"1153252242","operator":"Statkraft","website":"https://www.statkraft.co.uk/about-statkraft-uk/where-we-operate/Locations/Lister-Drive-Greener-Grid-Park/v"}},{"type":"Feature","geometry":{"type":"Point","coordinates":[-2.12031,53.00054]},"properties":{"name":"Power infrastructure","category":"substation","osm_type":"way","osm_id":"1154605080","operator":"National Grid Electricity Distribution"}},{"type":"Feature","geometry":{"type":"Point","coordinates":[-2.23952,53.32577]},"properties":{"name":"Power infrastructure","category":"substation","osm_type":"way","osm_id":"1155231278"}},{"type":"Feature","geometry":{"type":"Point","coordinates":[-2.6461,53.40655]},"properties":{"name":"Power infrastructure","category":"substation","osm_type":"way","osm_id":"1156169467"}},{"type":"Feature","geometry":{"type":"Point","coordinates":[-2.8879,53.4807]},"properties":{"name":"Power infrastructure","category":"substation","osm_type":"way","osm_id":"1157042824"}},{"type":"Feature","geometry":{"type":"Point","coordinates":[-2.59625,53.4313]},"properties":{"name":"Power infrastructure","category":"substation","osm_type":"way","osm_id":"1157060834"}},{"type":"Feature","geometry":{"type":"Point","coordinates":[-2.59679,53.43077]},"properties":{"name":"Power infrastructure","category":"substation","osm_type":"way","osm_id":"1157062001"}},{"type":"Feature","geometry":{"type":"Point","coordinates":[-2.64319,53.39976]},"properties":{"name":"Power infrastructure","category":"substation","osm_type":"way","osm_id":"1157481388"}},{"type":"Feature","geometry":{"type":"Point","coordinates":[-2.64542,53.39903]},"properties":{"name":"Power infrastructure","category":"substation","osm_type":"way","osm_id":"1157481415"}},{"type":"Feature","geometry":{"type":"Point","coordinates":[-2.63001,53.45007]},"properties":{"name":"Power infrastructure","category":"substation","osm_type":"way","osm_id":"1159439784"}},{"type":"Feature","geometry":{"type":"Point","coordinates":[-2.74111,53.45604]},"properties":{"name":"Power infrastructure","category":"substation","osm_type":"way","osm_id":"1159671185"}},{"type":"Feature","geometry":{"type":"Point","coordinates":[-2.5311,53.49201]},"properties":{"name":"Power infrastructure","category":"substation","osm_type":"way","osm_id":"1164808865"}},{"type":"Feature","geometry":{"type":"Point","coordinates":[-2.53009,53.49339]},"properties":{"name":"Power infrastructure","category":"substation","osm_type":"way","osm_id":"1164809739"}},{"type":"Feature","geometry":{"type":"Point","coordinates":[-2.53159,53.48803]},"properties":{"name":"Power infrastructure","category":"substation","osm_type":"way","osm_id":"1164812463"}},{"type":"Feature","geometry":{"type":"Point","coordinates":[-2.53318,53.48894]},"properties":{"name":"Power infrastructure","category":"substation","osm_type":"way","osm_id":"1164812480"}},{"type":"Feature","geometry":{"type":"Point","coordinates":[-2.45745,53.27173]},"properties":{"name":"Power infrastructure","category":"substation","osm_type":"way","osm_id":"1165046965"}},{"type":"Feature","geometry":{"type":"Point","coordinates":[-2.9418,53.31371]},"properties":{"name":"Hooton Bio Power","category":"plant","osm_type":"way","osm_id":"1167568576","operator":"CoGen"}},{"type":"Feature","geometry":{"type":"Point","coordinates":[-2.87362,53.28105]},"properties":{"name":"Power infrastructure","category":"plant","osm_type":"way","osm_id":"1167599840"}},{"type":"Feature","geometry":{"type":"Point","coordinates":[-2.50309,53.49262]},"properties":{"name":"Power infrastructure","category":"substation","osm_type":"way","osm_id":"1169191795"}},{"type":"Feature","geometry":{"type":"Point","coordinates":[-2.15972,53.0243]},"properties":{"name":"Substation","category":"substation","osm_type":"way","osm_id":"1173914126","operator":"National Grid Electricity Distribution"}},{"type":"Feature","geometry":{"type":"Point","coordinates":[-2.18567,53.16994]},"properties":{"name":"Power infrastructure","category":"substation","osm_type":"way","osm_id":"1174741311"}},{"type":"Feature","geometry":{"type":"Point","coordinates":[-2.46369,53.49922]},"properties":{"name":"Power infrastructure","category":"substation","osm_type":"way","osm_id":"1175769608"}},{"type":"Feature","geometry":{"type":"Point","coordinates":[-2.45551,53.49962]},"properties":{"name":"Power infrastructure","category":"substation","osm_type":"way","osm_id":"1182095904"}},{"type":"Feature","geometry":{"type":"Point","coordinates":[-2.551,53.41367]},"properties":{"name":"Power infrastructure","category":"substation","osm_type":"way","osm_id":"1182332346"}},{"type":"Feature","geometry":{"type":"Point","coordinates":[-2.63895,53.39822]},"properties":{"name":"Power infrastructure","category":"substation","osm_type":"way","osm_id":"1183743969"}},{"type":"Feature","geometry":{"type":"Point","coordinates":[-2.63888,53.39829]},"properties":{"name":"Power infrastructure","category":"substation","osm_type":"way","osm_id":"1183744003"}},{"type":"Feature","geometry":{"type":"Point","coordinates":[-2.24739,53.47549]},"properties":{"name":"Manchester Civic Quarter power station","category":"plant","osm_type":"way","osm_id":"1183990489"}},{"type":"Feature","geometry":{"type":"Point","coordinates":[-2.59483,53.29285]},"properties":{"name":"El Sub St","category":"substation","osm_type":"way","osm_id":"1186046486","operator":"SP Energy"}},{"type":"Feature","geometry":{"type":"Point","coordinates":[-2.65499,53.40529]},"properties":{"name":"Power infrastructure","category":"substation","osm_type":"way","osm_id":"1187368787"}},{"type":"Feature","geometry":{"type":"Point","coordinates":[-2.50462,53.4971]},"properties":{"name":"Power infrastructure","category":"substation","osm_type":"way","osm_id":"1188234409"}},{"type":"Feature","geometry":{"type":"Point","coordinates":[-2.12672,53.24755]},"properties":{"name":"Power infrastructure","category":"substation","osm_type":"way","osm_id":"1189350251"}},{"type":"Feature","geometry":{"type":"Point","coordinates":[-2.22477,53.43932]},"properties":{"name":"Power infrastructure","category":"substation","osm_type":"way","osm_id":"1189596119"}},{"type":"Feature","geometry":{"type":"Point","coordinates":[-2.25766,53.45513]},"properties":{"name":"Power infrastructure","category":"substation","osm_type":"way","osm_id":"1189866848"}},{"type":"Feature","geometry":{"type":"Point","coordinates":[-2.13886,53.47126]},"properties":{"name":"Power infrastructure","category":"substation","osm_type":"way","osm_id":"1191930094"}},{"type":"Feature","geometry":{"type":"Point","coordinates":[-2.22502,53.39747]},"properties":{"name":"Power infrastructure","category":"substation","osm_type":"way","osm_id":"1192134544"}},{"type":"Feature","geometry":{"type":"Point","coordinates":[-2.54051,53.49777]},"properties":{"name":"Power infrastructure","category":"substation","osm_type":"way","osm_id":"1193695734"}},{"type":"Feature","geometry":{"type":"Point","coordinates":[-2.32057,53.41575]},"properties":{"name":"171856","category":"substation","osm_type":"way","osm_id":"1194100855","ref":"171856"}},{"type":"Feature","geometry":{"type":"Point","coordinates":[-2.51584,53.49474]},"properties":{"name":"Power infrastructure","category":"substation","osm_type":"way","osm_id":"1194534661"}},{"type":"Feature","geometry":{"type":"Point","coordinates":[-2.51653,53.49471]},"properties":{"name":"Power infrastructure","category":"substation","osm_type":"way","osm_id":"1194677625"}},{"type":"Feature","geometry":{"type":"Point","coordinates":[-2.57193,53.40841]},"properties":{"name":"Power infrastructure","category":"substation","osm_type":"way","osm_id":"1195429963"}},{"type":"Feature","geometry":{"type":"Point","coordinates":[-2.58759,53.36918]},"properties":{"name":"Power infrastructure","category":"substation","osm_type":"way","osm_id":"1195445197"}},{"type":"Feature","geometry":{"type":"Point","coordinates":[-2.53295,53.38122]},"properties":{"name":"Power infrastructure","category":"substation","osm_type":"way","osm_id":"1195660386"}},{"type":"Feature","geometry":{"type":"Point","coordinates":[-2.55415,53.38374]},"properties":{"name":"Power infrastructure","category":"substation","osm_type":"way","osm_id":"1195661139"}},{"type":"Feature","geometry":{"type":"Point","coordinates":[-2.53095,53.41425]},"properties":{"name":"Power infrastructure","category":"substation","osm_type":"way","osm_id":"1195670495"}},{"type":"Feature","geometry":{"type":"Point","coordinates":[-2.57076,53.46558]},"properties":{"name":"Power infrastructure","category":"substation","osm_type":"way","osm_id":"1195880156"}},{"type":"Feature","geometry":{"type":"Point","coordinates":[-2.73562,53.3569]},"properties":{"name":"Power infrastructure","category":"substation","osm_type":"way","osm_id":"1195974386"}},{"type":"Feature","geometry":{"type":"Point","coordinates":[-2.71605,53.42434]},"properties":{"name":"Power infrastructure","category":"substation","osm_type":"way","osm_id":"1196160553"}},{"type":"Feature","geometry":{"type":"Point","coordinates":[-2.56775,53.40929]},"properties":{"name":"Power infrastructure","category":"substation","osm_type":"way","osm_id":"1196653338"}},{"type":"Feature","geometry":{"type":"Point","coordinates":[-2.34904,53.446]},"properties":{"name":"Power infrastructure","category":"substation","osm_type":"way","osm_id":"1197177044"}},{"type":"Feature","geometry":{"type":"Point","coordinates":[-2.11262,53.02127]},"properties":{"name":"Power infrastructure","category":"substation","osm_type":"way","osm_id":"1198485062"}},{"type":"Feature","geometry":{"type":"Point","coordinates":[-2.57465,53.41516]},"properties":{"name":"Power infrastructure","category":"substation","osm_type":"way","osm_id":"1198501144"}},{"type":"Feature","geometry":{"type":"Point","coordinates":[-2.52646,53.4035]},"properties":{"name":"Power infrastructure","category":"substation","osm_type":"way","osm_id":"1198632219"}},{"type":"Feature","geometry":{"type":"Point","coordinates":[-2.9484,53.40476]},"properties":{"name":"Power infrastructure","category":"substation","osm_type":"way","osm_id":"1198662586"}},{"type":"Feature","geometry":{"type":"Point","coordinates":[-2.95425,53.40845]},"properties":{"name":"Power infrastructure","category":"substation","osm_type":"way","osm_id":"1200004571"}},{"type":"Feature","geometry":{"type":"Point","coordinates":[-2.95129,53.41183]},"properties":{"name":"Power infrastructure","category":"substation","osm_type":"way","osm_id":"1200666753"}},{"type":"Feature","geometry":{"type":"Point","coordinates":[-2.2261,53.4102]},"properties":{"name":"171999","category":"substation","osm_type":"way","osm_id":"1200898641","operator":"Electricity North West","ref":"171999"}},{"type":"Feature","geometry":{"type":"Point","coordinates":[-2.21652,53.39567]},"properties":{"name":"Power infrastructure","category":"substation","osm_type":"way","osm_id":"1201030574"}},{"type":"Feature","geometry":{"type":"Point","coordinates":[-2.94805,53.41173]},"properties":{"name":"Power infrastructure","category":"substation","osm_type":"way","osm_id":"1201058925"}},{"type":"Feature","geometry":{"type":"Point","coordinates":[-2.95037,53.41025]},"properties":{"name":"Power infrastructure","category":"substation","osm_type":"way","osm_id":"1201062318"}},{"type":"Feature","geometry":{"type":"Point","coordinates":[-2.6758,53.39507]},"properties":{"name":"Power infrastructure","category":"substation","osm_type":"way","osm_id":"1202320110"}},{"type":"Feature","geometry":{"type":"Point","coordinates":[-2.85723,53.38779]},"properties":{"name":"Power infrastructure","category":"substation","osm_type":"way","osm_id":"1204043430"}},{"type":"Feature","geometry":{"type":"Point","coordinates":[-2.63911,53.49926]},"properties":{"name":"Power infrastructure","category":"substation","osm_type":"way","osm_id":"1204303907"}},{"type":"Feature","geometry":{"type":"Point","coordinates":[-2.59535,53.40185]},"properties":{"name":"Power infrastructure","category":"substation","osm_type":"way","osm_id":"1204441042"}},{"type":"Feature","geometry":{"type":"Point","coordinates":[-2.59884,53.40878]},"properties":{"name":"Power infrastructure","category":"substation","osm_type":"way","osm_id":"1204467539"}},{"type":"Feature","geometry":{"type":"Point","coordinates":[-2.95058,53.46646]},"properties":{"name":"Power infrastructure","category":"substation","osm_type":"way","osm_id":"1204647747"}},{"type":"Feature","geometry":{"type":"Point","coordinates":[-2.56565,53.36023]},"properties":{"name":"Power infrastructure","category":"substation","osm_type":"way","osm_id":"1204985057"}},{"type":"Feature","geometry":{"type":"Point","coordinates":[-2.55737,53.41622]},"properties":{"name":"Power infrastructure","category":"substation","osm_type":"way","osm_id":"1205094559"}},{"type":"Feature","geometry":{"type":"Point","coordinates":[-2.19504,53.41729]},"properties":{"name":"Mauldeth Road Electricity Substation","category":"substation","osm_type":"way","osm_id":"1206621914","operator":"Electricity North West","ref":"330204"}},{"type":"Feature","geometry":{"type":"Point","coordinates":[-2.56887,53.41233]},"properties":{"name":"Power infrastructure","category":"substation","osm_type":"way","osm_id":"1207047559"}},{"type":"Feature","geometry":{"type":"Point","coordinates":[-2.63891,53.39818]},"properties":{"name":"Power infrastructure","category":"substation","osm_type":"way","osm_id":"1207258460"}},{"type":"Feature","geometry":{"type":"Point","coordinates":[-2.63289,53.41459]},"properties":{"name":"Power infrastructure","category":"substation","osm_type":"way","osm_id":"1207298606"}},{"type":"Feature","geometry":{"type":"Point","coordinates":[-2.50082,53.48118]},"properties":{"name":"Power infrastructure","category":"substation","osm_type":"way","osm_id":"1207368984"}},{"type":"Feature","geometry":{"type":"Point","coordinates":[-2.61992,53.39738]},"properties":{"name":"Power infrastructure","category":"substation","osm_type":"way","osm_id":"1207618791"}},{"type":"Feature","geometry":{"type":"Point","coordinates":[-2.16704,53.47347]},"properties":{"name":"Power infrastructure","category":"substation","osm_type":"way","osm_id":"1207694358"}},{"type":"Feature","geometry":{"type":"Point","coordinates":[-2.59142,53.40056]},"properties":{"name":"Power infrastructure","category":"substation","osm_type":"way","osm_id":"1207903555"}},{"type":"Feature","geometry":{"type":"Point","coordinates":[-2.5308,53.39707]},"properties":{"name":"Power infrastructure","category":"substation","osm_type":"way","osm_id":"1208322620"}},{"type":"Feature","geometry":{"type":"Point","coordinates":[-2.55312,53.40536]},"properties":{"name":"Power infrastructure","category":"substation","osm_type":"way","osm_id":"1208326553"}},{"type":"Feature","geometry":{"type":"Point","coordinates":[-2.22141,53.40966]},"properties":{"name":"Power infrastructure","category":"substation","osm_type":"way","osm_id":"1208911017"}},{"type":"Feature","geometry":{"type":"Point","coordinates":[-2.22122,53.40954]},"properties":{"name":"Power infrastructure","category":"substation","osm_type":"way","osm_id":"1208911018"}},{"type":"Feature","geometry":{"type":"Point","coordinates":[-2.56061,53.35076]},"properties":{"name":"Power infrastructure","category":"substation","osm_type":"way","osm_id":"1209620901"}},{"type":"Feature","geometry":{"type":"Point","coordinates":[-2.99006,53.4179]},"properties":{"name":"Power infrastructure","category":"substation","osm_type":"way","osm_id":"1211556978"}},{"type":"Feature","geometry":{"type":"Point","coordinates":[-2.95172,53.40689]},"properties":{"name":"Power infrastructure","category":"substation","osm_type":"way","osm_id":"1211610748"}},{"type":"Feature","geometry":{"type":"Point","coordinates":[-2.95353,53.40668]},"properties":{"name":"Power infrastructure","category":"substation","osm_type":"way","osm_id":"1211613924"}},{"type":"Feature","geometry":{"type":"Point","coordinates":[-2.95098,53.40649]},"properties":{"name":"Power infrastructure","category":"substation","osm_type":"way","osm_id":"1211891154"}},{"type":"Feature","geometry":{"type":"Point","coordinates":[-2.51434,53.39825]},"properties":{"name":"Power infrastructure","category":"substation","osm_type":"way","osm_id":"1212411627"}},{"type":"Feature","geometry":{"type":"Point","coordinates":[-2.55537,53.40773]},"properties":{"name":"Power infrastructure","category":"substation","osm_type":"way","osm_id":"1212422581"}},{"type":"Feature","geometry":{"type":"Point","coordinates":[-2.52916,53.4848]},"properties":{"name":"Power infrastructure","category":"substation","osm_type":"way","osm_id":"1214017683"}},{"type":"Feature","geometry":{"type":"Point","coordinates":[-2.57912,53.41729]},"properties":{"name":"Power infrastructure","category":"substation","osm_type":"way","osm_id":"1214185848"}},{"type":"Feature","geometry":{"type":"Point","coordinates":[-2.5923,53.40645]},"properties":{"name":"Power infrastructure","category":"substation","osm_type":"way","osm_id":"1214412915"}},{"type":"Feature","geometry":{"type":"Point","coordinates":[-2.59518,53.40028]},"properties":{"name":"Power infrastructure","category":"substation","osm_type":"way","osm_id":"1214431063"}},{"type":"Feature","geometry":{"type":"Point","coordinates":[-2.56524,53.4084]},"properties":{"name":"Power infrastructure","category":"substation","osm_type":"way","osm_id":"1214661893"}},{"type":"Feature","geometry":{"type":"Point","coordinates":[-2.52733,53.43249]},"properties":{"name":"Power infrastructure","category":"substation","osm_type":"way","osm_id":"1215817469"}},{"type":"Feature","geometry":{"type":"Point","coordinates":[-2.23644,53.39265]},"properties":{"name":"Power infrastructure","category":"substation","osm_type":"way","osm_id":"1215962507"}},{"type":"Feature","geometry":{"type":"Point","coordinates":[-2.53637,53.41185]},"properties":{"name":"Power infrastructure","category":"substation","osm_type":"way","osm_id":"1217448853"}},{"type":"Feature","geometry":{"type":"Point","coordinates":[-2.66509,53.41053]},"properties":{"name":"Power infrastructure","category":"substation","osm_type":"way","osm_id":"1221803174"}},{"type":"Feature","geometry":{"type":"Point","coordinates":[-2.66795,53.41032]},"properties":{"name":"Power infrastructure","category":"substation","osm_type":"way","osm_id":"1221803177"}},{"type":"Feature","geometry":{"type":"Point","coordinates":[-2.58341,53.3713]},"properties":{"name":"Power infrastructure","category":"substation","osm_type":"way","osm_id":"1223082968"}},{"type":"Feature","geometry":{"type":"Point","coordinates":[-2.70504,53.34337]},"properties":{"name":"Power infrastructure","category":"substation","osm_type":"way","osm_id":"1223919552"}},{"type":"Feature","geometry":{"type":"Point","coordinates":[-2.16447,53.38137]},"properties":{"name":"Power infrastructure","category":"substation","osm_type":"way","osm_id":"1223986865"}},{"type":"Feature","geometry":{"type":"Point","coordinates":[-2.36946,53.44617]},"properties":{"name":"Power infrastructure","category":"substation","osm_type":"way","osm_id":"1224660867"}},{"type":"Feature","geometry":{"type":"Point","coordinates":[-2.60813,53.42057]},"properties":{"name":"Power infrastructure","category":"substation","osm_type":"way","osm_id":"1225559726"}},{"type":"Feature","geometry":{"type":"Point","coordinates":[-2.27879,53.45082]},"properties":{"name":"Power infrastructure","category":"substation","osm_type":"way","osm_id":"1227609968"}},{"type":"Feature","geometry":{"type":"Point","coordinates":[-2.27623,53.44598]},"properties":{"name":"Power infrastructure","category":"substation","osm_type":"way","osm_id":"1229109520"}},{"type":"Feature","geometry":{"type":"Point","coordinates":[-2.27717,53.44603]},"properties":{"name":"Power infrastructure","category":"substation","osm_type":"way","osm_id":"1229116952"}},{"type":"Feature","geometry":{"type":"Point","coordinates":[-2.96246,53.45687]},"properties":{"name":"Power infrastructure","category":"substation","osm_type":"way","osm_id":"1233529857"}},{"type":"Feature","geometry":{"type":"Point","coordinates":[-2.7128,53.43235]},"properties":{"name":"Power infrastructure","category":"substation","osm_type":"way","osm_id":"1233547500"}},{"type":"Feature","geometry":{"type":"Point","coordinates":[-2.71772,53.4319]},"properties":{"name":"Power infrastructure","category":"substation","osm_type":"way","osm_id":"1233547505"}},{"type":"Feature","geometry":{"type":"Point","coordinates":[-2.71597,53.43026]},"properties":{"name":"Power infrastructure","category":"substation","osm_type":"way","osm_id":"1233547507"}},{"type":"Feature","geometry":{"type":"Point","coordinates":[-2.54479,53.49573]},"properties":{"name":"Power infrastructure","category":"substation","osm_type":"way","osm_id":"1233852247"}},{"type":"Feature","geometry":{"type":"Point","coordinates":[-2.95224,53.4814]},"properties":{"name":"Power infrastructure","category":"substation","osm_type":"way","osm_id":"1234995928"}},{"type":"Feature","geometry":{"type":"Point","coordinates":[-2.94799,53.48266]},"properties":{"name":"Power infrastructure","category":"substation","osm_type":"way","osm_id":"1234995934"}},{"type":"Feature","geometry":{"type":"Point","coordinates":[-2.95154,53.48218]},"properties":{"name":"Power infrastructure","category":"substation","osm_type":"way","osm_id":"1234995942"}},{"type":"Feature","geometry":{"type":"Point","coordinates":[-2.57977,53.39923]},"properties":{"name":"Power infrastructure","category":"substation","osm_type":"way","osm_id":"1236650410"}},{"type":"Feature","geometry":{"type":"Point","coordinates":[-2.51913,53.48402]},"properties":{"name":"Power infrastructure","category":"substation","osm_type":"way","osm_id":"1240845875"}},{"type":"Feature","geometry":{"type":"Point","coordinates":[-2.21053,53.3817]},"properties":{"name":"Bruntwood Park Electricity Substation","category":"substation","osm_type":"way","osm_id":"1245536695","operator":"Electricity North West","ref":"178799"}},{"type":"Feature","geometry":{"type":"Point","coordinates":[-2.17036,53.00059]},"properties":{"name":"Power infrastructure","category":"substation","osm_type":"way","osm_id":"1249953991"}},{"type":"Feature","geometry":{"type":"Point","coordinates":[-2.163,53.00507]},"properties":{"name":"Power infrastructure","category":"substation","osm_type":"way","osm_id":"1249954003"}},{"type":"Feature","geometry":{"type":"Point","coordinates":[-2.52109,53.48105]},"properties":{"name":"Power infrastructure","category":"substation","osm_type":"way","osm_id":"1253779694","operator":"United Utilities"}},{"type":"Feature","geometry":{"type":"Point","coordinates":[-2.27977,53.41937]},"properties":{"name":"West Didsbury Battery Storage","category":"plant","osm_type":"way","osm_id":"1256842637","operator":"Statera Energy / Gresham House"}},{"type":"Feature","geometry":{"type":"Point","coordinates":[-2.51952,53.49951]},"properties":{"name":"Power infrastructure","category":"substation","osm_type":"way","osm_id":"1257924224"}},{"type":"Feature","geometry":{"type":"Point","coordinates":[-2.42595,53.4202]},"properties":{"name":"Power infrastructure","category":"substation","osm_type":"way","osm_id":"1257927795"}},{"type":"Feature","geometry":{"type":"Point","coordinates":[-2.11633,53.35998]},"properties":{"name":"Anglesey Drive Electricity Substation","category":"substation","osm_type":"way","osm_id":"1258704156","operator":"Electricity North West"}},{"type":"Feature","geometry":{"type":"Point","coordinates":[-2.22875,53.46929]},"properties":{"name":"Power infrastructure","category":"substation","osm_type":"way","osm_id":"1262629985"}},{"type":"Feature","geometry":{"type":"Point","coordinates":[-2.22883,53.46926]},"properties":{"name":"Power infrastructure","category":"substation","osm_type":"way","osm_id":"1262629986"}},{"type":"Feature","geometry":{"type":"Point","coordinates":[-2.22284,53.47247]},"properties":{"name":"Power infrastructure","category":"substation","osm_type":"way","osm_id":"1263463768"}},{"type":"Feature","geometry":{"type":"Point","coordinates":[-2.22692,53.47014]},"properties":{"name":"Power infrastructure","category":"substation","osm_type":"way","osm_id":"1263685938"}},{"type":"Feature","geometry":{"type":"Point","coordinates":[-2.54731,53.27339]},"properties":{"name":"Power infrastructure","category":"substation","osm_type":"way","osm_id":"1264640466"}},{"type":"Feature","geometry":{"type":"Point","coordinates":[-2.27648,53.47076]},"properties":{"name":"165619","category":"substation","osm_type":"way","osm_id":"1265683115","operator":"Electricity North West","ref":"165619"}},{"type":"Feature","geometry":{"type":"Point","coordinates":[-2.2742,53.47199]},"properties":{"name":"165627","category":"substation","osm_type":"way","osm_id":"1265843942","operator":"Electricity North West","ref":"165627"}},{"type":"Feature","geometry":{"type":"Point","coordinates":[-2.24228,53.4657]},"properties":{"name":"Power infrastructure","category":"substation","osm_type":"way","osm_id":"1266457972"}},{"type":"Feature","geometry":{"type":"Point","coordinates":[-2.48407,53.10454]},"properties":{"name":"Power infrastructure","category":"generator","osm_type":"way","osm_id":"1266806475"}},{"type":"Feature","geometry":{"type":"Point","coordinates":[-2.484,53.10468]},"properties":{"name":"Power infrastructure","category":"generator","osm_type":"way","osm_id":"1266806476"}},{"type":"Feature","geometry":{"type":"Point","coordinates":[-2.48393,53.1048]},"properties":{"name":"Power infrastructure","category":"generator","osm_type":"way","osm_id":"1266806477"}},{"type":"Feature","geometry":{"type":"Point","coordinates":[-2.48385,53.10494]},"properties":{"name":"Power infrastructure","category":"generator","osm_type":"way","osm_id":"1266806478"}},{"type":"Feature","geometry":{"type":"Point","coordinates":[-2.48378,53.10507]},"properties":{"name":"Power infrastructure","category":"generator","osm_type":"way","osm_id":"1266806479"}},{"type":"Feature","geometry":{"type":"Point","coordinates":[-2.48371,53.1052]},"properties":{"name":"Power infrastructure","category":"generator","osm_type":"way","osm_id":"1266806480"}},{"type":"Feature","geometry":{"type":"Point","coordinates":[-2.48363,53.10534]},"properties":{"name":"Power infrastructure","category":"generator","osm_type":"way","osm_id":"1266806481"}},{"type":"Feature","geometry":{"type":"Point","coordinates":[-2.48366,53.10549]},"properties":{"name":"Power infrastructure","category":"generator","osm_type":"way","osm_id":"1266806482"}},{"type":"Feature","geometry":{"type":"Point","coordinates":[-2.48333,53.10589]},"properties":{"name":"Power infrastructure","category":"generator","osm_type":"way","osm_id":"1266806484"}},{"type":"Feature","geometry":{"type":"Point","coordinates":[-2.48325,53.10602]},"properties":{"name":"Power infrastructure","category":"generator","osm_type":"way","osm_id":"1266806485"}},{"type":"Feature","geometry":{"type":"Point","coordinates":[-2.48318,53.10616]},"properties":{"name":"Power infrastructure","category":"generator","osm_type":"way","osm_id":"1266806486"}},{"type":"Feature","geometry":{"type":"Point","coordinates":[-2.4831,53.10629]},"properties":{"name":"Power infrastructure","category":"generator","osm_type":"way","osm_id":"1266806487"}},{"type":"Feature","geometry":{"type":"Point","coordinates":[-2.48303,53.10642]},"properties":{"name":"Power infrastructure","category":"generator","osm_type":"way","osm_id":"1266806488"}},{"type":"Feature","geometry":{"type":"Point","coordinates":[-2.48296,53.10655]},"properties":{"name":"Power infrastructure","category":"generator","osm_type":"way","osm_id":"1266806489"}},{"type":"Feature","geometry":{"type":"Point","coordinates":[-2.48288,53.10669]},"properties":{"name":"Power infrastructure","category":"generator","osm_type":"way","osm_id":"1266806490"}},{"type":"Feature","geometry":{"type":"Point","coordinates":[-2.4819,53.10572]},"properties":{"name":"Power infrastructure","category":"generator","osm_type":"way","osm_id":"1266806491"}},{"type":"Feature","geometry":{"type":"Point","coordinates":[-2.48199,53.10557]},"properties":{"name":"Power infrastructure","category":"generator","osm_type":"way","osm_id":"1266806492"}},{"type":"Feature","geometry":{"type":"Point","coordinates":[-2.48246,53.10525]},"properties":{"name":"Power infrastructure","category":"generator","osm_type":"way","osm_id":"1266806493"}},{"type":"Feature","geometry":{"type":"Point","coordinates":[-2.48267,53.10514]},"properties":{"name":"Power infrastructure","category":"generator","osm_type":"way","osm_id":"1266806494"}},{"type":"Feature","geometry":{"type":"Point","coordinates":[-2.48274,53.10501]},"properties":{"name":"Power infrastructure","category":"generator","osm_type":"way","osm_id":"1266806495"}},{"type":"Feature","geometry":{"type":"Point","coordinates":[-2.48281,53.10488]},"properties":{"name":"Power infrastructure","category":"generator","osm_type":"way","osm_id":"1266806496"}},{"type":"Feature","geometry":{"type":"Point","coordinates":[-2.48289,53.10475]},"properties":{"name":"Power infrastructure","category":"generator","osm_type":"way","osm_id":"1266806497"}},{"type":"Feature","geometry":{"type":"Point","coordinates":[-2.48296,53.10461]},"properties":{"name":"Power infrastructure","category":"generator","osm_type":"way","osm_id":"1266806498"}},{"type":"Feature","geometry":{"type":"Point","coordinates":[-2.48304,53.10448]},"properties":{"name":"Power infrastructure","category":"generator","osm_type":"way","osm_id":"1266806499"}},{"type":"Feature","geometry":{"type":"Point","coordinates":[-2.48311,53.10434]},"properties":{"name":"Power infrastructure","category":"generator","osm_type":"way","osm_id":"1266806500"}},{"type":"Feature","geometry":{"type":"Point","coordinates":[-2.48322,53.10572]},"properties":{"name":"Power infrastructure","category":"generator","osm_type":"way","osm_id":"1266806501"}},{"type":"Feature","geometry":{"type":"Point","coordinates":[-2.13827,53.47098]},"properties":{"name":"Kings Road Audenshaw Phase 2","category":"substation","osm_type":"way","osm_id":"1272498439","operator":"Energetics Electricity","ref":"178653"}},{"type":"Feature","geometry":{"type":"Point","coordinates":[-2.16142,53.47588]},"properties":{"name":"Guardsman Tony Downes Way","category":"substation","osm_type":"way","osm_id":"1274654619","ref":"179411"}},{"type":"Feature","geometry":{"type":"Point","coordinates":[-2.26507,53.38856]},"properties":{"name":"Power infrastructure","category":"substation","osm_type":"way","osm_id":"1275513843"}},{"type":"Feature","geometry":{"type":"Point","coordinates":[-2.92918,53.38953]},"properties":{"name":"Power infrastructure","category":"substation","osm_type":"way","osm_id":"1277680131"}},{"type":"Feature","geometry":{"type":"Point","coordinates":[-2.22684,53.46856]},"properties":{"name":"Power infrastructure","category":"substation","osm_type":"way","osm_id":"1278069692"}},{"type":"Feature","geometry":{"type":"Point","coordinates":[-2.15936,53.4708]},"properties":{"name":"Abbey Hey Lane (No 83)","category":"substation","osm_type":"way","osm_id":"1279636838","operator":"Electricity North West","ref":"171017"}},{"type":"Feature","geometry":{"type":"Point","coordinates":[-2.2265,53.46764]},"properties":{"name":"Power infrastructure","category":"substation","osm_type":"way","osm_id":"1281799044"}},{"type":"Feature","geometry":{"type":"Point","coordinates":[-2.24539,53.47379]},"properties":{"name":"Power infrastructure","category":"substation","osm_type":"way","osm_id":"1281855670"}},{"type":"Feature","geometry":{"type":"Point","coordinates":[-2.24045,53.46361]},"properties":{"name":"Power infrastructure","category":"substation","osm_type":"way","osm_id":"1282143026"}},{"type":"Feature","geometry":{"type":"Point","coordinates":[-2.24298,53.46381]},"properties":{"name":"Power infrastructure","category":"substation","osm_type":"way","osm_id":"1282427089"}},{"type":"Feature","geometry":{"type":"Point","coordinates":[-2.1562,53.45801]},"properties":{"name":"Debdale Park","category":"substation","osm_type":"way","osm_id":"1284410964","operator":"Electricity North West","ref":"171516"}},{"type":"Feature","geometry":{"type":"Point","coordinates":[-2.3462,53.47352]},"properties":{"name":"Power infrastructure","category":"substation","osm_type":"way","osm_id":"1284719523"}},{"type":"Feature","geometry":{"type":"Point","coordinates":[-2.33799,53.47575]},"properties":{"name":"Power infrastructure","category":"substation","osm_type":"way","osm_id":"1284825588"}},{"type":"Feature","geometry":{"type":"Point","coordinates":[-2.24227,53.46301]},"properties":{"name":"Power infrastructure","category":"substation","osm_type":"way","osm_id":"1286875929"}},{"type":"Feature","geometry":{"type":"Point","coordinates":[-2.2206,53.46916]},"properties":{"name":"Power infrastructure","category":"substation","osm_type":"way","osm_id":"1290072174"}},{"type":"Feature","geometry":{"type":"Point","coordinates":[-2.22312,53.48975]},"properties":{"name":"Power infrastructure","category":"substation","osm_type":"way","osm_id":"1290695229"}},{"type":"Feature","geometry":{"type":"Point","coordinates":[-2.2171,53.48511]},"properties":{"name":"Power infrastructure","category":"substation","osm_type":"way","osm_id":"1292564173"}},{"type":"Feature","geometry":{"type":"Point","coordinates":[-2.22065,53.46693]},"properties":{"name":"Power infrastructure","category":"substation","osm_type":"way","osm_id":"1297480807"}},{"type":"Feature","geometry":{"type":"Point","coordinates":[-2.85273,53.41608]},"properties":{"name":"Power infrastructure","category":"substation","osm_type":"way","osm_id":"1303819107"}},{"type":"Feature","geometry":{"type":"Point","coordinates":[-2.51956,53.48931]},"properties":{"name":"Power infrastructure","category":"substation","osm_type":"way","osm_id":"1304525790"}},{"type":"Feature","geometry":{"type":"Point","coordinates":[-2.51156,53.49056]},"properties":{"name":"Power infrastructure","category":"substation","osm_type":"way","osm_id":"1305670730"}},{"type":"Feature","geometry":{"type":"Point","coordinates":[-2.50982,53.48812]},"properties":{"name":"Power infrastructure","category":"substation","osm_type":"way","osm_id":"1306097369"}},{"type":"Feature","geometry":{"type":"Point","coordinates":[-2.9985,53.41117]},"properties":{"name":"Power infrastructure","category":"substation","osm_type":"way","osm_id":"1307810881"}},{"type":"Feature","geometry":{"type":"Point","coordinates":[-2.94604,53.40899]},"properties":{"name":"Power infrastructure","category":"substation","osm_type":"way","osm_id":"1309113225"}},{"type":"Feature","geometry":{"type":"Point","coordinates":[-2.95726,53.39398]},"properties":{"name":"Power infrastructure","category":"substation","osm_type":"way","osm_id":"1310949638"}},{"type":"Feature","geometry":{"type":"Point","coordinates":[-2.9583,53.39542]},"properties":{"name":"Power infrastructure","category":"substation","osm_type":"way","osm_id":"1311063581"}},{"type":"Feature","geometry":{"type":"Point","coordinates":[-2.2158,53.46531]},"properties":{"name":"Marchmont Close","category":"substation","osm_type":"way","osm_id":"1311320194","ref":"176075"}},{"type":"Feature","geometry":{"type":"Point","coordinates":[-2.21811,53.46522]},"properties":{"name":"Devonshire Street South substation","category":"substation","osm_type":"way","osm_id":"1311567441","ref":"171540"}},{"type":"Feature","geometry":{"type":"Point","coordinates":[-2.22199,53.46416]},"properties":{"name":"172017","category":"substation","osm_type":"way","osm_id":"1311612853","ref":"172017"}},{"type":"Feature","geometry":{"type":"Point","coordinates":[-2.21405,53.46733]},"properties":{"name":"172429","category":"substation","osm_type":"way","osm_id":"1311940553","ref":"172429"}},{"type":"Feature","geometry":{"type":"Point","coordinates":[-2.20882,53.46462]},"properties":{"name":"172047","category":"substation","osm_type":"way","osm_id":"1312189382","ref":"172047"}},{"type":"Feature","geometry":{"type":"Point","coordinates":[-2.9827,53.42335]},"properties":{"name":"Power infrastructure","category":"substation","osm_type":"way","osm_id":"1312680346"}},{"type":"Feature","geometry":{"type":"Point","coordinates":[-2.98188,53.39855]},"properties":{"name":"Power infrastructure","category":"substation","osm_type":"way","osm_id":"1313301720"}},{"type":"Feature","geometry":{"type":"Point","coordinates":[-2.95016,53.41628]},"properties":{"name":"Power infrastructure","category":"substation","osm_type":"way","osm_id":"1313483815"}},{"type":"Feature","geometry":{"type":"Point","coordinates":[-2.34913,53.43076]},"properties":{"name":"Power infrastructure","category":"substation","osm_type":"way","osm_id":"1314131303"}},{"type":"Feature","geometry":{"type":"Point","coordinates":[-2.94488,53.4131]},"properties":{"name":"Power infrastructure","category":"substation","osm_type":"way","osm_id":"1314946714"}},{"type":"Feature","geometry":{"type":"Point","coordinates":[-2.94236,53.41041]},"properties":{"name":"Power infrastructure","category":"substation","osm_type":"way","osm_id":"1314954470"}},{"type":"Feature","geometry":{"type":"Point","coordinates":[-2.9419,53.41187]},"properties":{"name":"Power infrastructure","category":"substation","osm_type":"way","osm_id":"1315589507"}},{"type":"Feature","geometry":{"type":"Point","coordinates":[-2.94578,53.41551]},"properties":{"name":"Power infrastructure","category":"substation","osm_type":"way","osm_id":"1315605308"}},{"type":"Feature","geometry":{"type":"Point","coordinates":[-2.94179,53.41576]},"properties":{"name":"Power infrastructure","category":"substation","osm_type":"way","osm_id":"1316515678"}},{"type":"Feature","geometry":{"type":"Point","coordinates":[-2.93987,53.41273]},"properties":{"name":"Power infrastructure","category":"substation","osm_type":"way","osm_id":"1316524969"}},{"type":"Feature","geometry":{"type":"Point","coordinates":[-2.53123,53.23957]},"properties":{"name":"Chandlers Avenue GSS","category":"substation","osm_type":"way","osm_id":"1317911644","operator":"SP Energy Networks","ref":"SJ6471/017"}},{"type":"Feature","geometry":{"type":"Point","coordinates":[-2.52724,53.19707]},"properties":{"name":"Roehurst Lane","category":"substation","osm_type":"way","osm_id":"1317973764","ref":"GSS SJ 6466/024"}},{"type":"Feature","geometry":{"type":"Point","coordinates":[-2.88371,53.48146]},"properties":{"name":"Power infrastructure","category":"substation","osm_type":"way","osm_id":"1318914866"}},{"type":"Feature","geometry":{"type":"Point","coordinates":[-2.20249,53.45969]},"properties":{"name":"172054","category":"substation","osm_type":"way","osm_id":"1323232434","ref":"172054"}},{"type":"Feature","geometry":{"type":"Point","coordinates":[-2.56011,53.19685]},"properties":{"name":"Marton Estate Substation","category":"substation","osm_type":"way","osm_id":"1327593019"}},{"type":"Feature","geometry":{"type":"Point","coordinates":[-2.54975,53.18278]},"properties":{"name":"Balwen Close Substation","category":"substation","osm_type":"way","osm_id":"1328204669"}},{"type":"Feature","geometry":{"type":"Point","coordinates":[-2.43907,53.17394]},"properties":{"name":"Wallenge Road Substation","category":"substation","osm_type":"way","osm_id":"1328632690"}},{"type":"Feature","geometry":{"type":"Point","coordinates":[-2.43589,53.17283]},"properties":{"name":"Warmingham Lane Substation","category":"substation","osm_type":"way","osm_id":"1328854099"}},{"type":"Feature","geometry":{"type":"Point","coordinates":[-2.40143,53.16299]},"properties":{"name":"Power infrastructure","category":"substation","osm_type":"way","osm_id":"1329110243"}},{"type":"Feature","geometry":{"type":"Point","coordinates":[-2.40077,53.16217]},"properties":{"name":"Power infrastructure","category":"substation","osm_type":"way","osm_id":"1329133739"}},{"type":"Feature","geometry":{"type":"Point","coordinates":[-2.23474,53.46035]},"properties":{"name":"178133","category":"substation","osm_type":"way","osm_id":"1329958236","ref":"178133"}},{"type":"Feature","geometry":{"type":"Point","coordinates":[-2.22032,53.46024]},"properties":{"name":"177345","category":"substation","osm_type":"way","osm_id":"1330216567","ref":"177345"}},{"type":"Feature","geometry":{"type":"Point","coordinates":[-2.21994,53.45867]},"properties":{"name":"172027","category":"substation","osm_type":"way","osm_id":"1331094313","ref":"172027"}},{"type":"Feature","geometry":{"type":"Point","coordinates":[-2.42328,53.18761]},"properties":{"name":"Swizzles Sub 1","category":"substation","osm_type":"way","osm_id":"1331440043"}},{"type":"Feature","geometry":{"type":"Point","coordinates":[-2.43222,53.18807]},"properties":{"name":"Ergo Park Substation","category":"substation","osm_type":"way","osm_id":"1331440046"}},{"type":"Feature","geometry":{"type":"Point","coordinates":[-2.4295,53.1877]},"properties":{"name":"Magnitude Substation","category":"substation","osm_type":"way","osm_id":"1331440063"}},{"type":"Feature","geometry":{"type":"Point","coordinates":[-2.4332,53.18731]},"properties":{"name":"Power infrastructure","category":"substation","osm_type":"way","osm_id":"1331440067"}},{"type":"Feature","geometry":{"type":"Point","coordinates":[-2.98348,53.35531]},"properties":{"name":"Power infrastructure","category":"plant","osm_type":"way","osm_id":"1333341330"}},{"type":"Feature","geometry":{"type":"Point","coordinates":[-2.67406,53.48888]},"properties":{"name":"Power infrastructure","category":"substation","osm_type":"way","osm_id":"1336203842"}},{"type":"Feature","geometry":{"type":"Point","coordinates":[-2.52325,53.26308]},"properties":{"name":"Oakleigh Rise Substation","category":"substation","osm_type":"way","osm_id":"1339886423"}},{"type":"Feature","geometry":{"type":"Point","coordinates":[-2.13132,53.41443]},"properties":{"name":"Bredbury Substation","category":"substation","osm_type":"way","osm_id":"1340009812"}},{"type":"Feature","geometry":{"type":"Point","coordinates":[-2.10444,53.48587]},"properties":{"name":"Power infrastructure","category":"substation","osm_type":"way","osm_id":"1343456823"}},{"type":"Feature","geometry":{"type":"Point","coordinates":[-2.65635,53.33943]},"properties":{"name":"Actons Wood","category":"substation","osm_type":"way","osm_id":"1351524358","operator":"SP Energy","ref":"GSS-SJ4682/002"}},{"type":"Feature","geometry":{"type":"Point","coordinates":[-2.68057,53.49689]},"properties":{"name":"Power infrastructure","category":"substation","osm_type":"way","osm_id":"1354505729"}},{"type":"Feature","geometry":{"type":"Point","coordinates":[-2.16435,53.12316]},"properties":{"name":"Power infrastructure","category":"substation","osm_type":"way","osm_id":"1354966468"}},{"type":"Feature","geometry":{"type":"Point","coordinates":[-2.06564,53.45586]},"properties":{"name":"Hyde BESS","category":"plant","osm_type":"way","osm_id":"1355411460","operator":"Pulse Clean Energy"}},{"type":"Feature","geometry":{"type":"Point","coordinates":[-2.17594,53.42816]},"properties":{"name":"333016","category":"substation","osm_type":"way","osm_id":"1355699685","ref":"333016"}},{"type":"Feature","geometry":{"type":"Point","coordinates":[-2.36293,53.14451]},"properties":{"name":"06-7560-09","category":"substation","osm_type":"way","osm_id":"1355822940","ref":"06-7560-09"}},{"type":"Feature","geometry":{"type":"Point","coordinates":[-2.37744,53.11142]},"properties":{"name":"Power infrastructure","category":"substation","osm_type":"way","osm_id":"1356459707","addr:city":"Sandbach","addr:postcode":"CW11 4TY"}},{"type":"Feature","geometry":{"type":"Point","coordinates":[-2.38831,53.1488]},"properties":{"name":"Power infrastructure","category":"substation","osm_type":"way","osm_id":"1356675461"}},{"type":"Feature","geometry":{"type":"Point","coordinates":[-2.71314,53.43612]},"properties":{"name":"Power infrastructure","category":"substation","osm_type":"way","osm_id":"1358194271"}},{"type":"Feature","geometry":{"type":"Point","coordinates":[-2.54514,53.49843]},"properties":{"name":"Power infrastructure","category":"substation","osm_type":"way","osm_id":"1360051424"}},{"type":"Feature","geometry":{"type":"Point","coordinates":[-2.76032,53.12594]},"properties":{"name":"Castlefields No.1","category":"substation","osm_type":"way","osm_id":"1363423492","operator":"SP Energy Networks"}},{"type":"Feature","geometry":{"type":"Point","coordinates":[-2.76065,53.12729]},"properties":{"name":"Castlefields No.2","category":"substation","osm_type":"way","osm_id":"1363423497","operator":"SP Energy Networks"}},{"type":"Feature","geometry":{"type":"Point","coordinates":[-2.53758,53.4975]},"properties":{"name":"Power infrastructure","category":"substation","osm_type":"way","osm_id":"1364085920"}},{"type":"Feature","geometry":{"type":"Point","coordinates":[-2.7831,53.10193]},"properties":{"name":"Chowley Buisness Park","category":"substation","osm_type":"way","osm_id":"1364086840"}},{"type":"Feature","geometry":{"type":"Point","coordinates":[-2.22186,53.4949]},"properties":{"name":"Power infrastructure","category":"substation","osm_type":"way","osm_id":"1369037054"}},{"type":"Feature","geometry":{"type":"Point","coordinates":[-2.21473,53.48716]},"properties":{"name":"Power infrastructure","category":"substation","osm_type":"way","osm_id":"1370702687"}},{"type":"Feature","geometry":{"type":"Point","coordinates":[-2.76711,53.12079]},"properties":{"name":"Power infrastructure","category":"substation","osm_type":"way","osm_id":"1372114130","operator":"SP Energy Networks"}},{"type":"Feature","geometry":{"type":"Point","coordinates":[-2.81079,53.05477]},"properties":{"name":"Rookery Rd","category":"substation","osm_type":"way","osm_id":"1372517960"}},{"type":"Feature","geometry":{"type":"Point","coordinates":[-2.80739,53.05527]},"properties":{"name":"Greenway St","category":"substation","osm_type":"way","osm_id":"1372517966"}},{"type":"Feature","geometry":{"type":"Point","coordinates":[-2.62571,53.20612]},"properties":{"name":"Power infrastructure","category":"substation","osm_type":"way","osm_id":"1374836208"}},{"type":"Feature","geometry":{"type":"Point","coordinates":[-2.16461,53.46568]},"properties":{"name":"Power infrastructure","category":"substation","osm_type":"way","osm_id":"1374958587"}},{"type":"Feature","geometry":{"type":"Point","coordinates":[-2.53281,53.49973]},"properties":{"name":"Power infrastructure","category":"substation","osm_type":"way","osm_id":"1375650241","operator":"Electricity North West"}},{"type":"Feature","geometry":{"type":"Point","coordinates":[-2.75359,53.13962]},"properties":{"name":"Tattenhall Road","category":"substation","osm_type":"way","osm_id":"1380105309","operator":"SP Energy Networks"}},{"type":"Feature","geometry":{"type":"Point","coordinates":[-2.92143,53.19601]},"properties":{"name":"Power infrastructure","category":"substation","osm_type":"way","osm_id":"1380441736"}},{"type":"Feature","geometry":{"type":"Point","coordinates":[-2.81124,53.17467]},"properties":{"name":"Abbotts Road","category":"substation","osm_type":"way","osm_id":"1380951970","operator":"SP Energy Networks"}},{"type":"Feature","geometry":{"type":"Point","coordinates":[-2.81047,53.17262]},"properties":{"name":"Ringway Road","category":"substation","osm_type":"way","osm_id":"1380951971","operator":"SP Energy Networks"}},{"type":"Feature","geometry":{"type":"Point","coordinates":[-2.81487,53.17326]},"properties":{"name":"Eggbridge Lane","category":"substation","osm_type":"way","osm_id":"1380951974","operator":"SP Energy Networks"}},{"type":"Feature","geometry":{"type":"Point","coordinates":[-2.81915,53.17253]},"properties":{"name":"St Georges Crescent","category":"substation","osm_type":"way","osm_id":"1380951978","operator":"SP Energy Networks"}},{"type":"Feature","geometry":{"type":"Point","coordinates":[-2.81742,53.17087]},"properties":{"name":"Waverton Primary School","category":"substation","osm_type":"way","osm_id":"1380951980","operator":"SP Energy Networks"}},{"type":"Feature","geometry":{"type":"Point","coordinates":[-2.81957,53.16847]},"properties":{"name":"Millers Close","category":"substation","osm_type":"way","osm_id":"1380951982"}},{"type":"Feature","geometry":{"type":"Point","coordinates":[-2.82548,53.17587]},"properties":{"name":"Esso EV","category":"substation","osm_type":"way","osm_id":"1380951991"}},{"type":"Feature","geometry":{"type":"Point","coordinates":[-2.84837,53.18597]},"properties":{"name":"Chester Abbots","category":"substation","osm_type":"way","osm_id":"1380952002"}},{"type":"Feature","geometry":{"type":"Point","coordinates":[-2.85426,53.18506]},"properties":{"name":"Power infrastructure","category":"substation","osm_type":"way","osm_id":"1380952007"}},{"type":"Feature","geometry":{"type":"Point","coordinates":[-2.86066,53.17123]},"properties":{"name":"Sandy Lane","category":"substation","osm_type":"way","osm_id":"1380952009","operator":"SP Energy Networks"}},{"type":"Feature","geometry":{"type":"Point","coordinates":[-2.83104,53.19985]},"properties":{"name":"Power infrastructure","category":"substation","osm_type":"way","osm_id":"1381216712"}},{"type":"Feature","geometry":{"type":"Point","coordinates":[-2.84186,53.18545]},"properties":{"name":"Pepper Street","category":"substation","osm_type":"way","osm_id":"1381216720"}},{"type":"Feature","geometry":{"type":"Point","coordinates":[-2.82011,53.4168]},"properties":{"name":"Power infrastructure","category":"substation","osm_type":"way","osm_id":"1383346154"}},{"type":"Feature","geometry":{"type":"Point","coordinates":[-2.47307,53.24885]},"properties":{"name":"Morrisons Distribution Centre","category":"substation","osm_type":"way","osm_id":"1383760792"}},{"type":"Feature","geometry":{"type":"Point","coordinates":[-2.82284,53.41604]},"properties":{"name":"Power infrastructure","category":"substation","osm_type":"way","osm_id":"1384666517"}},{"type":"Feature","geometry":{"type":"Point","coordinates":[-2.82008,53.41288]},"properties":{"name":"Power infrastructure","category":"substation","osm_type":"way","osm_id":"1389338379"}},{"type":"Feature","geometry":{"type":"Point","coordinates":[-2.43223,53.18067]},"properties":{"name":"Cheshire Waste","category":"substation","osm_type":"way","osm_id":"1393012936","operator":"SP Manweb","ref":"SJ7164/020"}},{"type":"Feature","geometry":{"type":"Point","coordinates":[-2.30623,53.46213]},"properties":{"name":"Power infrastructure","category":"substation","osm_type":"way","osm_id":"1395292940"}},{"type":"Feature","geometry":{"type":"Point","coordinates":[-2.68329,53.47514]},"properties":{"name":"Power infrastructure","category":"substation","osm_type":"way","osm_id":"1395794316"}},{"type":"Feature","geometry":{"type":"Point","coordinates":[-2.72413,53.45562]},"properties":{"name":"Power infrastructure","category":"generator","osm_type":"way","osm_id":"1395848660"}},{"type":"Feature","geometry":{"type":"Point","coordinates":[-2.72432,53.45565]},"properties":{"name":"Power infrastructure","category":"generator","osm_type":"way","osm_id":"1395848661"}},{"type":"Feature","geometry":{"type":"Point","coordinates":[-2.72452,53.45568]},"properties":{"name":"Power infrastructure","category":"generator","osm_type":"way","osm_id":"1395848662"}},{"type":"Feature","geometry":{"type":"Point","coordinates":[-2.25246,53.10904]},"properties":{"name":"Power infrastructure","category":"substation","osm_type":"way","osm_id":"1408275721"}},{"type":"Feature","geometry":{"type":"Point","coordinates":[-2.44094,53.10591]},"properties":{"name":"Power infrastructure","category":"substation","osm_type":"way","osm_id":"1416578558"}},{"type":"Feature","geometry":{"type":"Point","coordinates":[-2.44031,53.10677]},"properties":{"name":"Power infrastructure","category":"substation","osm_type":"way","osm_id":"1416578559"}},{"type":"Feature","geometry":{"type":"Point","coordinates":[-2.44153,53.10692]},"properties":{"name":"Power infrastructure","category":"substation","osm_type":"way","osm_id":"1416721001"}},{"type":"Feature","geometry":{"type":"Point","coordinates":[-2.44176,53.1078]},"properties":{"name":"Power infrastructure","category":"substation","osm_type":"way","osm_id":"1416721005"}},{"type":"Feature","geometry":{"type":"Point","coordinates":[-2.44183,53.10884]},"properties":{"name":"Power infrastructure","category":"substation","osm_type":"way","osm_id":"1417688324"}},{"type":"Feature","geometry":{"type":"Point","coordinates":[-2.44201,53.10943]},"properties":{"name":"Power infrastructure","category":"substation","osm_type":"way","osm_id":"1417688384"}},{"type":"Feature","geometry":{"type":"Point","coordinates":[-2.95031,53.26793]},"properties":{"name":"Capenhurst Lane BESS","category":"plant","osm_type":"way","osm_id":"1419408503","operator":"Constantine Energy Storage"}},{"type":"Feature","geometry":{"type":"Point","coordinates":[-2.92325,53.38005]},"properties":{"name":"Power infrastructure","category":"substation","osm_type":"way","osm_id":"1421099640"}},{"type":"Feature","geometry":{"type":"Point","coordinates":[-2.93003,53.37771]},"properties":{"name":"Power infrastructure","category":"substation","osm_type":"way","osm_id":"1421318191"}},{"type":"Feature","geometry":{"type":"Point","coordinates":[-2.6629,53.17092]},"properties":{"name":"Power infrastructure","category":"substation","osm_type":"way","osm_id":"1422371649"}},{"type":"Feature","geometry":{"type":"Point","coordinates":[-2.92021,53.37953]},"properties":{"name":"Power infrastructure","category":"substation","osm_type":"way","osm_id":"1422424146"}},{"type":"Feature","geometry":{"type":"Point","coordinates":[-2.94375,53.37661]},"properties":{"name":"Power infrastructure","category":"substation","osm_type":"way","osm_id":"1427050605"}},{"type":"Feature","geometry":{"type":"Point","coordinates":[-2.55374,53.24731]},"properties":{"name":"Grange Farm Substation","category":"substation","osm_type":"way","osm_id":"1427486701","operator":"Manweb","ref":"GSS-SJ6372/007"}},{"type":"Feature","geometry":{"type":"Point","coordinates":[-2.2497,53.45991]},"properties":{"name":"Power infrastructure","category":"substation","osm_type":"way","osm_id":"1430176477"}},{"type":"Feature","geometry":{"type":"Point","coordinates":[-2.25403,53.45886]},"properties":{"name":"Power infrastructure","category":"substation","osm_type":"way","osm_id":"1430659892"}},{"type":"Feature","geometry":{"type":"Point","coordinates":[-2.43994,53.10738]},"properties":{"name":"Power infrastructure","category":"substation","osm_type":"way","osm_id":"1431969127"}},{"type":"Feature","geometry":{"type":"Point","coordinates":[-2.42332,53.44466]},"properties":{"name":"Power infrastructure","category":"substation","osm_type":"way","osm_id":"1433540136"}},{"type":"Feature","geometry":{"type":"Point","coordinates":[-2.51528,53.49556]},"properties":{"name":"Power infrastructure","category":"substation","osm_type":"way","osm_id":"1435270439"}},{"type":"Feature","geometry":{"type":"Point","coordinates":[-2.51326,53.49891]},"properties":{"name":"Power infrastructure","category":"substation","osm_type":"way","osm_id":"1435989017"}},{"type":"Feature","geometry":{"type":"Point","coordinates":[-2.43423,53.0956]},"properties":{"name":"Power infrastructure","category":"substation","osm_type":"way","osm_id":"1436429685"}},{"type":"Feature","geometry":{"type":"Point","coordinates":[-2.15916,53.33499]},"properties":{"name":"Power infrastructure","category":"substation","osm_type":"way","osm_id":"1445366047"}},{"type":"Feature","geometry":{"type":"Point","coordinates":[-2.48861,53.25034]},"properties":{"name":"Power infrastructure","category":"substation","osm_type":"way","osm_id":"1446545561"}},{"type":"Feature","geometry":{"type":"Point","coordinates":[-2.48641,53.24923]},"properties":{"name":"Power infrastructure","category":"substation","osm_type":"way","osm_id":"1446606791"}},{"type":"Feature","geometry":{"type":"Point","coordinates":[-2.47255,53.25105]},"properties":{"name":"Cookes Lane Substation","category":"substation","osm_type":"way","osm_id":"1451141437"}},{"type":"Feature","geometry":{"type":"Point","coordinates":[-2.47964,53.25687]},"properties":{"name":"Power infrastructure","category":"substation","osm_type":"way","osm_id":"1451195529"}},{"type":"Feature","geometry":{"type":"Point","coordinates":[-2.25325,53.39985]},"properties":{"name":"Power infrastructure","category":"substation","osm_type":"way","osm_id":"1451328066"}},{"type":"Feature","geometry":{"type":"Point","coordinates":[-2.49216,53.25365]},"properties":{"name":"Porter Drive Substation","category":"substation","osm_type":"way","osm_id":"1455503249"}},{"type":"Feature","geometry":{"type":"Point","coordinates":[-2.49275,53.25815]},"properties":{"name":"Marple Road Substation","category":"substation","osm_type":"way","osm_id":"1455569738"}},{"type":"Feature","geometry":{"type":"Point","coordinates":[-2.48076,53.25229]},"properties":{"name":"Power infrastructure","category":"substation","osm_type":"way","osm_id":"1457571080"}},{"type":"Feature","geometry":{"type":"Point","coordinates":[-2.17057,53.42737]},"properties":{"name":"333407","category":"substation","osm_type":"way","osm_id":"1462085533","operator":"Electricity North West","ref":"333407"}},{"type":"Feature","geometry":{"type":"Point","coordinates":[-2.85636,53.36362]},"properties":{"name":"Power infrastructure","category":"substation","osm_type":"way","osm_id":"1464370722"}},{"type":"Feature","geometry":{"type":"Point","coordinates":[-2.30355,53.4204]},"properties":{"name":"Power infrastructure","category":"substation","osm_type":"way","osm_id":"1464890850"}},{"type":"Feature","geometry":{"type":"Point","coordinates":[-2.17612,53.42457]},"properties":{"name":"Langford Road","category":"substation","osm_type":"way","osm_id":"1469794967","operator":"Electricity North West","ref":"333970"}},{"type":"Feature","geometry":{"type":"Point","coordinates":[-2.31326,53.3688]},"properties":{"name":"Power infrastructure","category":"substation","osm_type":"way","osm_id":"1470163617"}},{"type":"Feature","geometry":{"type":"Point","coordinates":[-2.18023,53.4429]},"properties":{"name":"Highfield Road","category":"substation","osm_type":"way","osm_id":"1470829673","operator":"Electricity North West","ref":"177579"}},{"type":"Feature","geometry":{"type":"Point","coordinates":[-2.18484,53.42959]},"properties":{"name":"339302","category":"substation","osm_type":"way","osm_id":"1475318475","operator":"Energetics Electricity","ref":"339302"}},{"type":"Feature","geometry":{"type":"Point","coordinates":[-2.92595,53.4194]},"properties":{"name":"Power infrastructure","category":"generator","osm_type":"way","osm_id":"1483882284"}},{"type":"Feature","geometry":{"type":"Point","coordinates":[-2.92598,53.41944]},"properties":{"name":"Power infrastructure","category":"generator","osm_type":"way","osm_id":"1483882285"}},{"type":"Feature","geometry":{"type":"Point","coordinates":[-2.27723,53.47458]},"properties":{"name":"Power infrastructure","category":"substation","osm_type":"way","osm_id":"1486415312"}},{"type":"Feature","geometry":{"type":"Point","coordinates":[-2.20887,53.46916]},"properties":{"name":"Brick Kiln Rd Substation","category":"substation","osm_type":"way","osm_id":"1488892384"}},{"type":"Feature","geometry":{"type":"Point","coordinates":[-2.20891,53.46847]},"properties":{"name":"Power infrastructure","category":"substation","osm_type":"way","osm_id":"1489520763"}},{"type":"Feature","geometry":{"type":"Point","coordinates":[-2.95741,53.48186]},"properties":{"name":"Power infrastructure","category":"generator","osm_type":"way","osm_id":"1518654793","operator":"AMP (Aggregated Micro Power plc)","website":"https://www.ampcleanenergy.com/urban-reserve/"}},{"type":"Feature","geometry":{"type":"Point","coordinates":[-2.95736,53.48189]},"properties":{"name":"Power infrastructure","category":"generator","osm_type":"way","osm_id":"1518654794","operator":"AMP (Aggregated Micro Power plc)"}},{"type":"Feature","geometry":{"type":"Point","coordinates":[-2.9573,53.4818]},"properties":{"name":"Heysham Power","category":"plant","osm_type":"way","osm_id":"1518654795","operator":"AMP (Aggregated Micro Power plc)","website":"https://www.ampcleanenergy.com/urban-reserve/"}},{"type":"Feature","geometry":{"type":"Point","coordinates":[-2.75461,53.44551]},"properties":{"name":"Power infrastructure","category":"generator","osm_type":"way","osm_id":"1518655223"}},{"type":"Feature","geometry":{"type":"Point","coordinates":[-2.75457,53.44563]},"properties":{"name":"Power infrastructure","category":"generator","osm_type":"way","osm_id":"1518655224"}},{"type":"Feature","geometry":{"type":"Point","coordinates":[-2.75456,53.44568]},"properties":{"name":"Power infrastructure","category":"generator","osm_type":"way","osm_id":"1518655225"}},{"type":"Feature","geometry":{"type":"Point","coordinates":[-2.75454,53.44572]},"properties":{"name":"Power infrastructure","category":"generator","osm_type":"way","osm_id":"1518655226"}},{"type":"Feature","geometry":{"type":"Point","coordinates":[-2.75452,53.44578]},"properties":{"name":"Power infrastructure","category":"generator","osm_type":"way","osm_id":"1518655227"}},{"type":"Feature","geometry":{"type":"Point","coordinates":[-2.75451,53.44582]},"properties":{"name":"Power infrastructure","category":"generator","osm_type":"way","osm_id":"1518655228"}},{"type":"Feature","geometry":{"type":"Point","coordinates":[-2.7545,53.44587]},"properties":{"name":"Power infrastructure","category":"generator","osm_type":"way","osm_id":"1518655229"}},{"type":"Feature","geometry":{"type":"Point","coordinates":[-2.74294,53.44597]},"properties":{"name":"Power infrastructure","category":"generator","osm_type":"way","osm_id":"1518655706"}},{"type":"Feature","geometry":{"type":"Point","coordinates":[-2.74299,53.44595]},"properties":{"name":"Power infrastructure","category":"generator","osm_type":"way","osm_id":"1518655707"}},{"type":"Feature","geometry":{"type":"Point","coordinates":[-2.74304,53.44592]},"properties":{"name":"Power infrastructure","category":"generator","osm_type":"way","osm_id":"1518655708"}},{"type":"Feature","geometry":{"type":"Point","coordinates":[-2.7431,53.4459]},"properties":{"name":"Power infrastructure","category":"generator","osm_type":"way","osm_id":"1518655709"}},{"type":"Feature","geometry":{"type":"Point","coordinates":[-2.74323,53.44583]},"properties":{"name":"Power infrastructure","category":"generator","osm_type":"way","osm_id":"1518655710"}},{"type":"Feature","geometry":{"type":"Point","coordinates":[-2.74329,53.4458]},"properties":{"name":"Power infrastructure","category":"generator","osm_type":"way","osm_id":"1518655711"}},{"type":"Feature","geometry":{"type":"Point","coordinates":[-2.74334,53.44578]},"properties":{"name":"Power infrastructure","category":"generator","osm_type":"way","osm_id":"1518655712"}},{"type":"Feature","geometry":{"type":"Point","coordinates":[-2.7434,53.44575]},"properties":{"name":"Power infrastructure","category":"generator","osm_type":"way","osm_id":"1518655713"}},{"type":"Feature","geometry":{"type":"Point","coordinates":[-2.74346,53.44572]},"properties":{"name":"Power infrastructure","category":"generator","osm_type":"way","osm_id":"1518655714"}},{"type":"Feature","geometry":{"type":"Point","coordinates":[-2.74353,53.44569]},"properties":{"name":"Power infrastructure","category":"generator","osm_type":"way","osm_id":"1518655715"}},{"type":"Feature","geometry":{"type":"Point","coordinates":[-2.11766,53.42656]},"properties":{"name":"Power infrastructure","category":"generator","osm_type":"way","osm_id":"1518656258","operator":"AMP (Aggregated Micro Power)"}},{"type":"Feature","geometry":{"type":"Point","coordinates":[-2.11769,53.42652]},"properties":{"name":"Power infrastructure","category":"generator","osm_type":"way","osm_id":"1518656259","operator":"Amp (Aggregated Micro Power)"}},{"type":"Feature","geometry":{"type":"Point","coordinates":[-2.18687,53.47162]},"properties":{"name":"Power infrastructure","category":"generator","osm_type":"way","osm_id":"1518658977"}},{"type":"Feature","geometry":{"type":"Point","coordinates":[-2.18694,53.47162]},"properties":{"name":"Power infrastructure","category":"generator","osm_type":"way","osm_id":"1518658978"}},{"type":"Feature","geometry":{"type":"Point","coordinates":[-2.18694,53.47166]},"properties":{"name":"Power infrastructure","category":"plant","osm_type":"way","osm_id":"1518658979"}},{"type":"Feature","geometry":{"type":"Point","coordinates":[-2.71447,53.34]},"properties":{"name":"Halton Power","category":"plant","osm_type":"way","osm_id":"1520582781","operator":"AMP (Aggregated Micro Power plc)","website":"https://www.ampcleanenergy.com/grid-flexibility/","addr:city":"Runcorn","addr:postcode":"WA7 5SB"}},{"type":"Feature","geometry":{"type":"Point","coordinates":[-2.66504,53.47485]},"properties":{"name":"Power infrastructure","category":"substation","osm_type":"way","osm_id":"1523624150"}},{"type":"Feature","geometry":{"type":"Point","coordinates":[-2.93767,53.4133]},"properties":{"name":"Power infrastructure","category":"substation","osm_type":"way","osm_id":"1531455770"}},{"type":"Feature","geometry":{"type":"Point","coordinates":[-2.344,53.40475]},"properties":{"name":"Power infrastructure","category":"substation","osm_type":"way","osm_id":"1532364561"}},{"type":"Feature","geometry":{"type":"Point","coordinates":[-2.27994,53.39525]},"properties":{"name":"Power infrastructure","category":"substation","osm_type":"way","osm_id":"1532678379"}},{"type":"Feature","geometry":{"type":"Point","coordinates":[-2.28586,53.37931]},"properties":{"name":"Power infrastructure","category":"substation","osm_type":"way","osm_id":"1537551876"}},{"type":"Feature","geometry":{"type":"Point","coordinates":[-2.86942,53.19727]},"properties":{"name":"Power infrastructure","category":"substation","osm_type":"way","osm_id":"1537576777"}},{"type":"Feature","geometry":{"type":"Point","coordinates":[-2.28083,53.38284]},"properties":{"name":"Power infrastructure","category":"substation","osm_type":"way","osm_id":"1540076550"}},{"type":"Feature","geometry":{"type":"Point","coordinates":[-2.28457,53.41608]},"properties":{"name":"Power infrastructure","category":"substation","osm_type":"way","osm_id":"1542836551"}},{"type":"Feature","geometry":{"type":"Point","coordinates":[-2.51067,53.1971]},"properties":{"name":"Halite Way","category":"substation","osm_type":"way","osm_id":"1544614328","operator":"SP Energy Networks","ref":"SJ6566/019"}},{"type":"Feature","geometry":{"type":"Point","coordinates":[-2.28872,53.39155]},"properties":{"name":"Power infrastructure","category":"substation","osm_type":"way","osm_id":"1547850098"}},{"type":"Feature","geometry":{"type":"Point","coordinates":[-2.65613,53.39356]},"properties":{"name":"Power infrastructure","category":"substation","osm_type":"way","osm_id":"1548729469"}},{"type":"Feature","geometry":{"type":"Point","coordinates":[-2.47316,53.12104]},"properties":{"name":"Power infrastructure","category":"substation","osm_type":"way","osm_id":"1548873471"}},{"type":"Feature","geometry":{"type":"Point","coordinates":[-2.46941,53.1202]},"properties":{"name":"Power infrastructure","category":"substation","osm_type":"way","osm_id":"1548873490"}},{"type":"Feature","geometry":{"type":"Point","coordinates":[-2.47626,53.1229]},"properties":{"name":"Power infrastructure","category":"substation","osm_type":"way","osm_id":"1548873495"}},{"type":"Feature","geometry":{"type":"Point","coordinates":[-2.33145,53.42057]},"properties":{"name":"Power infrastructure","category":"substation","osm_type":"way","osm_id":"1549640225"}},{"type":"Feature","geometry":{"type":"Point","coordinates":[-2.83827,53.42477]},"properties":{"name":"Power infrastructure","category":"substation","osm_type":"way","osm_id":"1549759684"}},{"type":"Feature","geometry":{"type":"Point","coordinates":[-2.54573,53.34787]},"properties":{"name":"Power infrastructure","category":"substation","osm_type":"way","osm_id":"1550639316"}},{"type":"Feature","geometry":{"type":"Point","coordinates":[-2.59294,53.41978]},"properties":{"name":"Power infrastructure","category":"substation","osm_type":"way","osm_id":"1550646753"}},{"type":"Feature","geometry":{"type":"Point","coordinates":[-2.53085,53.35467]},"properties":{"name":"Power infrastructure","category":"substation","osm_type":"way","osm_id":"1550665984"}},{"type":"Feature","geometry":{"type":"Point","coordinates":[-2.5635,53.3518]},"properties":{"name":"Power infrastructure","category":"substation","osm_type":"way","osm_id":"1550695881"}},{"type":"Feature","geometry":{"type":"Point","coordinates":[-2.02695,53.40646]},"properties":{"name":"Power infrastructure","category":"generator","osm_type":"way","osm_id":"1550862258"}},{"type":"Feature","geometry":{"type":"Point","coordinates":[-2.02693,53.40641]},"properties":{"name":"Power infrastructure","category":"generator","osm_type":"way","osm_id":"1550862259"}},{"type":"Feature","geometry":{"type":"Point","coordinates":[-2.70968,53.44287]},"properties":{"name":"Power infrastructure","category":"substation","osm_type":"way","osm_id":"1552145125"}},{"type":"Feature","geometry":{"type":"Point","coordinates":[-2.62297,53.45235]},"properties":{"name":"Power infrastructure","category":"substation","osm_type":"way","osm_id":"1552420826"}},{"type":"Feature","geometry":{"type":"Point","coordinates":[-2.51482,53.06639]},"properties":{"name":"Power infrastructure","category":"substation","osm_type":"way","osm_id":"1552567895"}},{"type":"Feature","geometry":{"type":"Point","coordinates":[-2.50004,53.49894]},"properties":{"name":"Power infrastructure","category":"substation","osm_type":"way","osm_id":"1552584822"}},{"type":"Feature","geometry":{"type":"Point","coordinates":[-2.54322,53.41182]},"properties":{"name":"Power infrastructure","category":"substation","osm_type":"way","osm_id":"1552980610"}},{"type":"Feature","geometry":{"type":"Point","coordinates":[-2.96057,53.44261]},"properties":{"name":"Power infrastructure","category":"substation","osm_type":"way","osm_id":"1556409676"}},{"type":"Feature","geometry":{"type":"Point","coordinates":[-2.83062,53.3598]},"properties":{"name":"Power infrastructure","category":"substation","osm_type":"way","osm_id":"1556618207"}},{"type":"Feature","geometry":{"type":"Point","coordinates":[-2.90045,53.46188]},"properties":{"name":"Power infrastructure","category":"substation","osm_type":"way","osm_id":"1557405504"}},{"type":"Feature","geometry":{"type":"Point","coordinates":[-2.71646,53.43842]},"properties":{"name":"Power infrastructure","category":"substation","osm_type":"way","osm_id":"1557661852"}},{"type":"Feature","geometry":{"type":"Point","coordinates":[-2.95281,53.39786]},"properties":{"name":"Power infrastructure","category":"substation","osm_type":"way","osm_id":"1558584159"}},{"type":"Feature","geometry":{"type":"Point","coordinates":[-2.74294,53.46119]},"properties":{"name":"Power infrastructure","category":"substation","osm_type":"way","osm_id":"1558596918"}},{"type":"Feature","geometry":{"type":"Point","coordinates":[-2.74429,53.45992]},"properties":{"name":"Power infrastructure","category":"substation","osm_type":"way","osm_id":"1558596925"}}]}