{"type":"FeatureCollection","features":[{"type":"Feature","geometry":{"type":"Point","coordinates":[-3.04077,53.8489]},"properties":{"name":"Power infrastructure","category":"substation","osm_type":"node","osm_id":"1234484567"}},{"type":"Feature","geometry":{"type":"Point","coordinates":[-3.02212,53.64624]},"properties":{"name":"Power infrastructure","category":"generator","osm_type":"node","osm_id":"3494882793"}},{"type":"Feature","geometry":{"type":"Point","coordinates":[-3.02845,53.86516]},"properties":{"name":"Power infrastructure","category":"generator","osm_type":"node","osm_id":"6649975555"}},{"type":"Feature","geometry":{"type":"Point","coordinates":[-3.04799,53.90429]},"properties":{"name":"Power infrastructure","category":"generator","osm_type":"node","osm_id":"6652544527"}},{"type":"Feature","geometry":{"type":"Point","coordinates":[-3.04483,53.9043]},"properties":{"name":"Power infrastructure","category":"generator","osm_type":"node","osm_id":"6652544528"}},{"type":"Feature","geometry":{"type":"Point","coordinates":[-3.04135,53.90398]},"properties":{"name":"Power infrastructure","category":"generator","osm_type":"node","osm_id":"6652544529"}},{"type":"Feature","geometry":{"type":"Point","coordinates":[-3.03936,53.90461]},"properties":{"name":"Power infrastructure","category":"generator","osm_type":"node","osm_id":"6652544530"}},{"type":"Feature","geometry":{"type":"Point","coordinates":[-3.03966,53.90458]},"properties":{"name":"Power infrastructure","category":"generator","osm_type":"node","osm_id":"6652544531"}},{"type":"Feature","geometry":{"type":"Point","coordinates":[-3.03971,53.90459]},"properties":{"name":"Power infrastructure","category":"generator","osm_type":"node","osm_id":"6652544532"}},{"type":"Feature","geometry":{"type":"Point","coordinates":[-3.04308,53.9055]},"properties":{"name":"Power infrastructure","category":"generator","osm_type":"node","osm_id":"6652544533"}},{"type":"Feature","geometry":{"type":"Point","coordinates":[-3.04429,53.90452]},"properties":{"name":"Power infrastructure","category":"generator","osm_type":"node","osm_id":"6652544534"}},{"type":"Feature","geometry":{"type":"Point","coordinates":[-3.0447,53.90501]},"properties":{"name":"Power infrastructure","category":"generator","osm_type":"node","osm_id":"6652544535"}},{"type":"Feature","geometry":{"type":"Point","coordinates":[-3.04437,53.90518]},"properties":{"name":"Power infrastructure","category":"generator","osm_type":"node","osm_id":"6652544536"}},{"type":"Feature","geometry":{"type":"Point","coordinates":[-3.04425,53.90516]},"properties":{"name":"Power infrastructure","category":"generator","osm_type":"node","osm_id":"6652544537"}},{"type":"Feature","geometry":{"type":"Point","coordinates":[-3.04158,53.90631]},"properties":{"name":"Power infrastructure","category":"generator","osm_type":"node","osm_id":"6652544538"}},{"type":"Feature","geometry":{"type":"Point","coordinates":[-3.04744,53.9059]},"properties":{"name":"Power infrastructure","category":"generator","osm_type":"node","osm_id":"6652544539"}},{"type":"Feature","geometry":{"type":"Point","coordinates":[-3.0464,53.90664]},"properties":{"name":"Power infrastructure","category":"generator","osm_type":"node","osm_id":"6652544540"}},{"type":"Feature","geometry":{"type":"Point","coordinates":[-3.04717,53.91219]},"properties":{"name":"Power infrastructure","category":"generator","osm_type":"node","osm_id":"6652544541"}},{"type":"Feature","geometry":{"type":"Point","coordinates":[-3.04709,53.91221]},"properties":{"name":"Power infrastructure","category":"generator","osm_type":"node","osm_id":"6652544542"}},{"type":"Feature","geometry":{"type":"Point","coordinates":[-3.03915,53.91344]},"properties":{"name":"Power infrastructure","category":"generator","osm_type":"node","osm_id":"6652544543"}},{"type":"Feature","geometry":{"type":"Point","coordinates":[-3.03903,53.91346]},"properties":{"name":"Power infrastructure","category":"generator","osm_type":"node","osm_id":"6652544544"}},{"type":"Feature","geometry":{"type":"Point","coordinates":[-3.03654,53.91348]},"properties":{"name":"Power infrastructure","category":"generator","osm_type":"node","osm_id":"6652544545"}},{"type":"Feature","geometry":{"type":"Point","coordinates":[-3.03681,53.91119]},"properties":{"name":"Power infrastructure","category":"generator","osm_type":"node","osm_id":"6652544546"}},{"type":"Feature","geometry":{"type":"Point","coordinates":[-3.03851,53.91175]},"properties":{"name":"Power infrastructure","category":"generator","osm_type":"node","osm_id":"6652544547"}},{"type":"Feature","geometry":{"type":"Point","coordinates":[-3.0374,53.91258]},"properties":{"name":"Power infrastructure","category":"generator","osm_type":"node","osm_id":"6652544548"}},{"type":"Feature","geometry":{"type":"Point","coordinates":[-3.03841,53.91283]},"properties":{"name":"Power infrastructure","category":"generator","osm_type":"node","osm_id":"6652544549"}},{"type":"Feature","geometry":{"type":"Point","coordinates":[-3.03925,53.91318]},"properties":{"name":"Power infrastructure","category":"generator","osm_type":"node","osm_id":"6652544550"}},{"type":"Feature","geometry":{"type":"Point","coordinates":[-3.03994,53.91307]},"properties":{"name":"Power infrastructure","category":"generator","osm_type":"node","osm_id":"6652544551"}},{"type":"Feature","geometry":{"type":"Point","coordinates":[-3.04084,53.91298]},"properties":{"name":"Power infrastructure","category":"generator","osm_type":"node","osm_id":"6652544552"}},{"type":"Feature","geometry":{"type":"Point","coordinates":[-3.0402,53.91261]},"properties":{"name":"Power infrastructure","category":"generator","osm_type":"node","osm_id":"6652544553"}},{"type":"Feature","geometry":{"type":"Point","coordinates":[-3.0405,53.91257]},"properties":{"name":"Power infrastructure","category":"generator","osm_type":"node","osm_id":"6652544554"}},{"type":"Feature","geometry":{"type":"Point","coordinates":[-3.0406,53.91233]},"properties":{"name":"Power infrastructure","category":"generator","osm_type":"node","osm_id":"6652544555"}},{"type":"Feature","geometry":{"type":"Point","coordinates":[-3.04164,53.91221]},"properties":{"name":"Power infrastructure","category":"generator","osm_type":"node","osm_id":"6652544556"}},{"type":"Feature","geometry":{"type":"Point","coordinates":[-3.04087,53.91143]},"properties":{"name":"Power infrastructure","category":"generator","osm_type":"node","osm_id":"6652544557"}},{"type":"Feature","geometry":{"type":"Point","coordinates":[-3.041,53.91142]},"properties":{"name":"Power infrastructure","category":"generator","osm_type":"node","osm_id":"6652544558"}},{"type":"Feature","geometry":{"type":"Point","coordinates":[-3.04124,53.91137]},"properties":{"name":"Power infrastructure","category":"generator","osm_type":"node","osm_id":"6652544559"}},{"type":"Feature","geometry":{"type":"Point","coordinates":[-3.04207,53.9114]},"properties":{"name":"Power infrastructure","category":"generator","osm_type":"node","osm_id":"6652544560"}},{"type":"Feature","geometry":{"type":"Point","coordinates":[-3.04292,53.9113]},"properties":{"name":"Power infrastructure","category":"generator","osm_type":"node","osm_id":"6652544561"}},{"type":"Feature","geometry":{"type":"Point","coordinates":[-3.04147,53.91108]},"properties":{"name":"Power infrastructure","category":"generator","osm_type":"node","osm_id":"6652544562"}},{"type":"Feature","geometry":{"type":"Point","coordinates":[-3.04166,53.91082]},"properties":{"name":"Power infrastructure","category":"generator","osm_type":"node","osm_id":"6652544563"}},{"type":"Feature","geometry":{"type":"Point","coordinates":[-3.04187,53.91049]},"properties":{"name":"Power infrastructure","category":"generator","osm_type":"node","osm_id":"6652544564"}},{"type":"Feature","geometry":{"type":"Point","coordinates":[-3.04177,53.91015]},"properties":{"name":"Power infrastructure","category":"generator","osm_type":"node","osm_id":"6652544565"}},{"type":"Feature","geometry":{"type":"Point","coordinates":[-3.043,53.90844]},"properties":{"name":"Power infrastructure","category":"generator","osm_type":"node","osm_id":"6652544566"}},{"type":"Feature","geometry":{"type":"Point","coordinates":[-3.04313,53.90883]},"properties":{"name":"Power infrastructure","category":"generator","osm_type":"node","osm_id":"6652544567"}},{"type":"Feature","geometry":{"type":"Point","coordinates":[-3.04572,53.91026]},"properties":{"name":"Power infrastructure","category":"generator","osm_type":"node","osm_id":"6652544568"}},{"type":"Feature","geometry":{"type":"Point","coordinates":[-3.04718,53.91172]},"properties":{"name":"Power infrastructure","category":"generator","osm_type":"node","osm_id":"6652544569"}},{"type":"Feature","geometry":{"type":"Point","coordinates":[-3.04439,53.91026]},"properties":{"name":"Power infrastructure","category":"generator","osm_type":"node","osm_id":"6652544570"}},{"type":"Feature","geometry":{"type":"Point","coordinates":[-3.04429,53.90997]},"properties":{"name":"Power infrastructure","category":"generator","osm_type":"node","osm_id":"6652544571"}},{"type":"Feature","geometry":{"type":"Point","coordinates":[-3.04558,53.90923]},"properties":{"name":"Power infrastructure","category":"generator","osm_type":"node","osm_id":"6652544572"}},{"type":"Feature","geometry":{"type":"Point","coordinates":[-3.04513,53.90771]},"properties":{"name":"Power infrastructure","category":"generator","osm_type":"node","osm_id":"6652544573"}},{"type":"Feature","geometry":{"type":"Point","coordinates":[-3.04767,53.90671]},"properties":{"name":"Power infrastructure","category":"generator","osm_type":"node","osm_id":"6652544574"}},{"type":"Feature","geometry":{"type":"Point","coordinates":[-3.04777,53.9067]},"properties":{"name":"Power infrastructure","category":"generator","osm_type":"node","osm_id":"6652544575"}},{"type":"Feature","geometry":{"type":"Point","coordinates":[-3.04869,53.90698]},"properties":{"name":"Power infrastructure","category":"generator","osm_type":"node","osm_id":"6652544576"}},{"type":"Feature","geometry":{"type":"Point","coordinates":[-3.04803,53.90732]},"properties":{"name":"Power infrastructure","category":"generator","osm_type":"node","osm_id":"6652544577"}},{"type":"Feature","geometry":{"type":"Point","coordinates":[-3.04886,53.90786]},"properties":{"name":"Power infrastructure","category":"generator","osm_type":"node","osm_id":"6652544578"}},{"type":"Feature","geometry":{"type":"Point","coordinates":[-3.048,53.90808]},"properties":{"name":"Power infrastructure","category":"generator","osm_type":"node","osm_id":"6652544579"}},{"type":"Feature","geometry":{"type":"Point","coordinates":[-3.04651,53.90835]},"properties":{"name":"Power infrastructure","category":"generator","osm_type":"node","osm_id":"6652544580"}},{"type":"Feature","geometry":{"type":"Point","coordinates":[-3.04662,53.90841]},"properties":{"name":"Power infrastructure","category":"generator","osm_type":"node","osm_id":"6652544581"}},{"type":"Feature","geometry":{"type":"Point","coordinates":[-3.04875,53.90924]},"properties":{"name":"Power infrastructure","category":"generator","osm_type":"node","osm_id":"6652544582"}},{"type":"Feature","geometry":{"type":"Point","coordinates":[-3.04905,53.90921]},"properties":{"name":"Power infrastructure","category":"generator","osm_type":"node","osm_id":"6652544583"}},{"type":"Feature","geometry":{"type":"Point","coordinates":[-3.0483,53.90981]},"properties":{"name":"Power infrastructure","category":"generator","osm_type":"node","osm_id":"6652544584"}},{"type":"Feature","geometry":{"type":"Point","coordinates":[-3.04768,53.90989]},"properties":{"name":"Power infrastructure","category":"generator","osm_type":"node","osm_id":"6652549685"}},{"type":"Feature","geometry":{"type":"Point","coordinates":[-3.04695,53.91022]},"properties":{"name":"Power infrastructure","category":"generator","osm_type":"node","osm_id":"6652549686"}},{"type":"Feature","geometry":{"type":"Point","coordinates":[-3.04709,53.91027]},"properties":{"name":"Power infrastructure","category":"generator","osm_type":"node","osm_id":"6652549687"}},{"type":"Feature","geometry":{"type":"Point","coordinates":[-3.04858,53.91068]},"properties":{"name":"Power infrastructure","category":"generator","osm_type":"node","osm_id":"6652549688"}},{"type":"Feature","geometry":{"type":"Point","coordinates":[-3.04837,53.91072]},"properties":{"name":"Power infrastructure","category":"generator","osm_type":"node","osm_id":"6652549689"}},{"type":"Feature","geometry":{"type":"Point","coordinates":[-3.04799,53.91064]},"properties":{"name":"Power infrastructure","category":"generator","osm_type":"node","osm_id":"6652549690"}},{"type":"Feature","geometry":{"type":"Point","coordinates":[-3.04727,53.91038]},"properties":{"name":"Power infrastructure","category":"generator","osm_type":"node","osm_id":"6652549691"}},{"type":"Feature","geometry":{"type":"Point","coordinates":[-3.04737,53.91055]},"properties":{"name":"Power infrastructure","category":"generator","osm_type":"node","osm_id":"6652549692"}},{"type":"Feature","geometry":{"type":"Point","coordinates":[-3.04738,53.91077]},"properties":{"name":"Power infrastructure","category":"generator","osm_type":"node","osm_id":"6652549693"}},{"type":"Feature","geometry":{"type":"Point","coordinates":[-3.04682,53.91135]},"properties":{"name":"Power infrastructure","category":"generator","osm_type":"node","osm_id":"6652549694"}},{"type":"Feature","geometry":{"type":"Point","coordinates":[-3.04732,53.91113]},"properties":{"name":"Power infrastructure","category":"generator","osm_type":"node","osm_id":"6652549695"}},{"type":"Feature","geometry":{"type":"Point","coordinates":[-3.04764,53.91107]},"properties":{"name":"Power infrastructure","category":"generator","osm_type":"node","osm_id":"6652549696"}},{"type":"Feature","geometry":{"type":"Point","coordinates":[-3.04824,53.91105]},"properties":{"name":"Power infrastructure","category":"generator","osm_type":"node","osm_id":"6652549697"}},{"type":"Feature","geometry":{"type":"Point","coordinates":[-3.04841,53.91104]},"properties":{"name":"Power infrastructure","category":"generator","osm_type":"node","osm_id":"6652549698"}},{"type":"Feature","geometry":{"type":"Point","coordinates":[-3.04853,53.91102]},"properties":{"name":"Power infrastructure","category":"generator","osm_type":"node","osm_id":"6652549699"}},{"type":"Feature","geometry":{"type":"Point","coordinates":[-3.04871,53.91101]},"properties":{"name":"Power infrastructure","category":"generator","osm_type":"node","osm_id":"6652549700"}},{"type":"Feature","geometry":{"type":"Point","coordinates":[-3.04954,53.91118]},"properties":{"name":"Power infrastructure","category":"generator","osm_type":"node","osm_id":"6652549701"}},{"type":"Feature","geometry":{"type":"Point","coordinates":[-3.04938,53.912]},"properties":{"name":"Power infrastructure","category":"generator","osm_type":"node","osm_id":"6652549702"}},{"type":"Feature","geometry":{"type":"Point","coordinates":[-3.02918,53.85554]},"properties":{"name":"Power infrastructure","category":"generator","osm_type":"node","osm_id":"7197938570"}},{"type":"Feature","geometry":{"type":"Point","coordinates":[-3.02803,53.85424]},"properties":{"name":"Power infrastructure","category":"generator","osm_type":"node","osm_id":"7197938571"}},{"type":"Feature","geometry":{"type":"Point","coordinates":[-3.03295,53.85405]},"properties":{"name":"Power infrastructure","category":"generator","osm_type":"node","osm_id":"7197938572"}},{"type":"Feature","geometry":{"type":"Point","coordinates":[-3.03134,53.85636]},"properties":{"name":"Power infrastructure","category":"generator","osm_type":"node","osm_id":"7197938573"}},{"type":"Feature","geometry":{"type":"Point","coordinates":[-3.03428,53.85756]},"properties":{"name":"Power infrastructure","category":"generator","osm_type":"node","osm_id":"7197938574"}},{"type":"Feature","geometry":{"type":"Point","coordinates":[-3.03177,53.85756]},"properties":{"name":"Power infrastructure","category":"generator","osm_type":"node","osm_id":"7197938575"}},{"type":"Feature","geometry":{"type":"Point","coordinates":[-3.03141,53.85748]},"properties":{"name":"Power infrastructure","category":"generator","osm_type":"node","osm_id":"7197938576"}},{"type":"Feature","geometry":{"type":"Point","coordinates":[-3.0302,53.86387]},"properties":{"name":"Power infrastructure","category":"generator","osm_type":"node","osm_id":"7197938577"}},{"type":"Feature","geometry":{"type":"Point","coordinates":[-3.02959,53.86201]},"properties":{"name":"Power infrastructure","category":"generator","osm_type":"node","osm_id":"7197938578"}},{"type":"Feature","geometry":{"type":"Point","coordinates":[-3.02336,53.85988]},"properties":{"name":"Power infrastructure","category":"generator","osm_type":"node","osm_id":"7197938579"}},{"type":"Feature","geometry":{"type":"Point","coordinates":[-3.02229,53.86005]},"properties":{"name":"Power infrastructure","category":"generator","osm_type":"node","osm_id":"7197938580"}},{"type":"Feature","geometry":{"type":"Point","coordinates":[-3.02408,53.86163]},"properties":{"name":"Power infrastructure","category":"generator","osm_type":"node","osm_id":"7197938581"}},{"type":"Feature","geometry":{"type":"Point","coordinates":[-3.02519,53.86212]},"properties":{"name":"Power infrastructure","category":"generator","osm_type":"node","osm_id":"7197938582"}},{"type":"Feature","geometry":{"type":"Point","coordinates":[-3.02329,53.8621]},"properties":{"name":"Power infrastructure","category":"generator","osm_type":"node","osm_id":"7197938583"}},{"type":"Feature","geometry":{"type":"Point","coordinates":[-3.02357,53.86215]},"properties":{"name":"Power infrastructure","category":"generator","osm_type":"node","osm_id":"7197938584"}},{"type":"Feature","geometry":{"type":"Point","coordinates":[-3.02352,53.86222]},"properties":{"name":"Power infrastructure","category":"generator","osm_type":"node","osm_id":"7197943985"}},{"type":"Feature","geometry":{"type":"Point","coordinates":[-3.02333,53.86254]},"properties":{"name":"Power infrastructure","category":"generator","osm_type":"node","osm_id":"7197943986"}},{"type":"Feature","geometry":{"type":"Point","coordinates":[-3.02272,53.86362]},"properties":{"name":"Power infrastructure","category":"generator","osm_type":"node","osm_id":"7197943987"}},{"type":"Feature","geometry":{"type":"Point","coordinates":[-3.02533,53.86443]},"properties":{"name":"Power infrastructure","category":"generator","osm_type":"node","osm_id":"7197943988"}},{"type":"Feature","geometry":{"type":"Point","coordinates":[-3.02688,53.86469]},"properties":{"name":"Power infrastructure","category":"generator","osm_type":"node","osm_id":"7197943989"}},{"type":"Feature","geometry":{"type":"Point","coordinates":[-3.02671,53.86485]},"properties":{"name":"Power infrastructure","category":"generator","osm_type":"node","osm_id":"7197943990"}},{"type":"Feature","geometry":{"type":"Point","coordinates":[-3.02645,53.86511]},"properties":{"name":"Power infrastructure","category":"generator","osm_type":"node","osm_id":"7197943991"}},{"type":"Feature","geometry":{"type":"Point","coordinates":[-3.02683,53.87019]},"properties":{"name":"Power infrastructure","category":"generator","osm_type":"node","osm_id":"7197943992"}},{"type":"Feature","geometry":{"type":"Point","coordinates":[-3.02672,53.87019]},"properties":{"name":"Power infrastructure","category":"generator","osm_type":"node","osm_id":"7197943993"}},{"type":"Feature","geometry":{"type":"Point","coordinates":[-3.02619,53.86993]},"properties":{"name":"Power infrastructure","category":"generator","osm_type":"node","osm_id":"7197943994"}},{"type":"Feature","geometry":{"type":"Point","coordinates":[-3.02325,53.87228]},"properties":{"name":"Power infrastructure","category":"generator","osm_type":"node","osm_id":"7197943995"}},{"type":"Feature","geometry":{"type":"Point","coordinates":[-3.02382,53.87211]},"properties":{"name":"Power infrastructure","category":"generator","osm_type":"node","osm_id":"7197943996"}},{"type":"Feature","geometry":{"type":"Point","coordinates":[-3.02365,53.87208]},"properties":{"name":"Power infrastructure","category":"generator","osm_type":"node","osm_id":"7197943997"}},{"type":"Feature","geometry":{"type":"Point","coordinates":[-3.02159,53.87113]},"properties":{"name":"Power infrastructure","category":"generator","osm_type":"node","osm_id":"7197943998"}},{"type":"Feature","geometry":{"type":"Point","coordinates":[-3.02059,53.87018]},"properties":{"name":"Power infrastructure","category":"generator","osm_type":"node","osm_id":"7197943999"}},{"type":"Feature","geometry":{"type":"Point","coordinates":[-3.02045,53.87007]},"properties":{"name":"Power infrastructure","category":"generator","osm_type":"node","osm_id":"7197944000"}},{"type":"Feature","geometry":{"type":"Point","coordinates":[-3.01945,53.86804]},"properties":{"name":"Power infrastructure","category":"generator","osm_type":"node","osm_id":"7197944001"}},{"type":"Feature","geometry":{"type":"Point","coordinates":[-3.01956,53.86767]},"properties":{"name":"Power infrastructure","category":"generator","osm_type":"node","osm_id":"7197944002"}},{"type":"Feature","geometry":{"type":"Point","coordinates":[-3.02042,53.86749]},"properties":{"name":"Power infrastructure","category":"generator","osm_type":"node","osm_id":"7197944003"}},{"type":"Feature","geometry":{"type":"Point","coordinates":[-3.02043,53.86688]},"properties":{"name":"Power infrastructure","category":"generator","osm_type":"node","osm_id":"7197944004"}},{"type":"Feature","geometry":{"type":"Point","coordinates":[-3.02027,53.86684]},"properties":{"name":"Power infrastructure","category":"generator","osm_type":"node","osm_id":"7197944005"}},{"type":"Feature","geometry":{"type":"Point","coordinates":[-3.02147,53.86605]},"properties":{"name":"Power infrastructure","category":"generator","osm_type":"node","osm_id":"7197944006"}},{"type":"Feature","geometry":{"type":"Point","coordinates":[-3.02172,53.86609]},"properties":{"name":"Power infrastructure","category":"generator","osm_type":"node","osm_id":"7197944007"}},{"type":"Feature","geometry":{"type":"Point","coordinates":[-3.02183,53.86611]},"properties":{"name":"Power infrastructure","category":"generator","osm_type":"node","osm_id":"7197944008"}},{"type":"Feature","geometry":{"type":"Point","coordinates":[-3.02199,53.86615]},"properties":{"name":"Power infrastructure","category":"generator","osm_type":"node","osm_id":"7197944009"}},{"type":"Feature","geometry":{"type":"Point","coordinates":[-3.04437,53.86135]},"properties":{"name":"Power infrastructure","category":"substation","osm_type":"node","osm_id":"7452681665"}},{"type":"Feature","geometry":{"type":"Point","coordinates":[-3.04454,53.86458]},"properties":{"name":"Power infrastructure","category":"substation","osm_type":"node","osm_id":"7452681666"}},{"type":"Feature","geometry":{"type":"Point","coordinates":[-3.0293,53.90656]},"properties":{"name":"Power infrastructure","category":"substation","osm_type":"node","osm_id":"7500307291"}},{"type":"Feature","geometry":{"type":"Point","coordinates":[-3.03059,53.90476]},"properties":{"name":"Power infrastructure","category":"substation","osm_type":"node","osm_id":"7500307292"}},{"type":"Feature","geometry":{"type":"Point","coordinates":[-3.0325,53.90349]},"properties":{"name":"Power infrastructure","category":"substation","osm_type":"node","osm_id":"7500307293"}},{"type":"Feature","geometry":{"type":"Point","coordinates":[-3.00119,53.6113]},"properties":{"name":"Power infrastructure","category":"generator","osm_type":"node","osm_id":"7517535873"}},{"type":"Feature","geometry":{"type":"Point","coordinates":[-3.00681,53.82626]},"properties":{"name":"Power infrastructure","category":"generator","osm_type":"node","osm_id":"7653453599"}},{"type":"Feature","geometry":{"type":"Point","coordinates":[-3.01256,53.82741]},"properties":{"name":"Power infrastructure","category":"generator","osm_type":"node","osm_id":"7653453600"}},{"type":"Feature","geometry":{"type":"Point","coordinates":[-3.01218,53.82716]},"properties":{"name":"Power infrastructure","category":"generator","osm_type":"node","osm_id":"7653453601"}},{"type":"Feature","geometry":{"type":"Point","coordinates":[-3.00961,53.83263]},"properties":{"name":"Power infrastructure","category":"generator","osm_type":"node","osm_id":"7653453602"}},{"type":"Feature","geometry":{"type":"Point","coordinates":[-3.01363,53.83535]},"properties":{"name":"Power infrastructure","category":"generator","osm_type":"node","osm_id":"7653453603"}},{"type":"Feature","geometry":{"type":"Point","coordinates":[-3.01291,53.83251]},"properties":{"name":"Power infrastructure","category":"generator","osm_type":"node","osm_id":"7653453604"}},{"type":"Feature","geometry":{"type":"Point","coordinates":[-3.01332,53.83243]},"properties":{"name":"Power infrastructure","category":"generator","osm_type":"node","osm_id":"7653453605"}},{"type":"Feature","geometry":{"type":"Point","coordinates":[-3.01884,53.83239]},"properties":{"name":"Power infrastructure","category":"generator","osm_type":"node","osm_id":"7653453606"}},{"type":"Feature","geometry":{"type":"Point","coordinates":[-3.01896,53.83235]},"properties":{"name":"Power infrastructure","category":"generator","osm_type":"node","osm_id":"7653453607"}},{"type":"Feature","geometry":{"type":"Point","coordinates":[-3.01905,53.83231]},"properties":{"name":"Power infrastructure","category":"generator","osm_type":"node","osm_id":"7653453608"}},{"type":"Feature","geometry":{"type":"Point","coordinates":[-3.01913,53.83229]},"properties":{"name":"Power infrastructure","category":"generator","osm_type":"node","osm_id":"7653453609"}},{"type":"Feature","geometry":{"type":"Point","coordinates":[-3.01922,53.83226]},"properties":{"name":"Power infrastructure","category":"generator","osm_type":"node","osm_id":"7653453610"}},{"type":"Feature","geometry":{"type":"Point","coordinates":[-3.01937,53.83245]},"properties":{"name":"Power infrastructure","category":"generator","osm_type":"node","osm_id":"7653453611"}},{"type":"Feature","geometry":{"type":"Point","coordinates":[-3.01929,53.83249]},"properties":{"name":"Power infrastructure","category":"generator","osm_type":"node","osm_id":"7653453612"}},{"type":"Feature","geometry":{"type":"Point","coordinates":[-3.01922,53.83252]},"properties":{"name":"Power infrastructure","category":"generator","osm_type":"node","osm_id":"7653453613"}},{"type":"Feature","geometry":{"type":"Point","coordinates":[-3.01913,53.83256]},"properties":{"name":"Power infrastructure","category":"generator","osm_type":"node","osm_id":"7653453614"}},{"type":"Feature","geometry":{"type":"Point","coordinates":[-3.0185,53.83271]},"properties":{"name":"Power infrastructure","category":"generator","osm_type":"node","osm_id":"7653453615"}},{"type":"Feature","geometry":{"type":"Point","coordinates":[-3.01842,53.83268]},"properties":{"name":"Power infrastructure","category":"generator","osm_type":"node","osm_id":"7653453616"}},{"type":"Feature","geometry":{"type":"Point","coordinates":[-3.01861,53.8325]},"properties":{"name":"Power infrastructure","category":"generator","osm_type":"node","osm_id":"7653453617"}},{"type":"Feature","geometry":{"type":"Point","coordinates":[-3.01875,53.83242]},"properties":{"name":"Power infrastructure","category":"generator","osm_type":"node","osm_id":"7653453618"}},{"type":"Feature","geometry":{"type":"Point","coordinates":[-3.01827,53.83225]},"properties":{"name":"Power infrastructure","category":"generator","osm_type":"node","osm_id":"7653453619"}},{"type":"Feature","geometry":{"type":"Point","coordinates":[-3.02,53.83151]},"properties":{"name":"Power infrastructure","category":"generator","osm_type":"node","osm_id":"7653453620"}},{"type":"Feature","geometry":{"type":"Point","coordinates":[-3.0155,53.8303]},"properties":{"name":"Power infrastructure","category":"generator","osm_type":"node","osm_id":"7653453621"}},{"type":"Feature","geometry":{"type":"Point","coordinates":[-3.01789,53.83792]},"properties":{"name":"Power infrastructure","category":"generator","osm_type":"node","osm_id":"7653465926"}},{"type":"Feature","geometry":{"type":"Point","coordinates":[-3.01836,53.83586]},"properties":{"name":"Power infrastructure","category":"generator","osm_type":"node","osm_id":"7653465927"}},{"type":"Feature","geometry":{"type":"Point","coordinates":[-3.01425,53.83459]},"properties":{"name":"Power infrastructure","category":"generator","osm_type":"node","osm_id":"7653465928"}},{"type":"Feature","geometry":{"type":"Point","coordinates":[-3.00128,53.84674]},"properties":{"name":"Power infrastructure","category":"generator","osm_type":"node","osm_id":"7677990616"}},{"type":"Feature","geometry":{"type":"Point","coordinates":[-3.00372,53.84237]},"properties":{"name":"Power infrastructure","category":"generator","osm_type":"node","osm_id":"7677990618"}},{"type":"Feature","geometry":{"type":"Point","coordinates":[-3.00359,53.84235]},"properties":{"name":"Power infrastructure","category":"generator","osm_type":"node","osm_id":"7677990619"}},{"type":"Feature","geometry":{"type":"Point","coordinates":[-3.01183,53.8438]},"properties":{"name":"Power infrastructure","category":"generator","osm_type":"node","osm_id":"7677990620"}},{"type":"Feature","geometry":{"type":"Point","coordinates":[-3.01004,53.84446]},"properties":{"name":"Power infrastructure","category":"generator","osm_type":"node","osm_id":"7677990621"}},{"type":"Feature","geometry":{"type":"Point","coordinates":[-3.00711,53.84451]},"properties":{"name":"Power infrastructure","category":"generator","osm_type":"node","osm_id":"7677990622"}},{"type":"Feature","geometry":{"type":"Point","coordinates":[-3.00698,53.8441]},"properties":{"name":"Power infrastructure","category":"generator","osm_type":"node","osm_id":"7677990623"}},{"type":"Feature","geometry":{"type":"Point","coordinates":[-3.00651,53.84418]},"properties":{"name":"Power infrastructure","category":"generator","osm_type":"node","osm_id":"7677990624"}},{"type":"Feature","geometry":{"type":"Point","coordinates":[-3.00621,53.84144]},"properties":{"name":"Power infrastructure","category":"generator","osm_type":"node","osm_id":"7677990625"}},{"type":"Feature","geometry":{"type":"Point","coordinates":[-3.00615,53.84143]},"properties":{"name":"Power infrastructure","category":"generator","osm_type":"node","osm_id":"7677990626"}},{"type":"Feature","geometry":{"type":"Point","coordinates":[-3.00794,53.84161]},"properties":{"name":"Power infrastructure","category":"generator","osm_type":"node","osm_id":"7677990627"}},{"type":"Feature","geometry":{"type":"Point","coordinates":[-3.00787,53.84159]},"properties":{"name":"Power infrastructure","category":"generator","osm_type":"node","osm_id":"7677990628"}},{"type":"Feature","geometry":{"type":"Point","coordinates":[-3.00893,53.84142]},"properties":{"name":"Power infrastructure","category":"generator","osm_type":"node","osm_id":"7677990629"}},{"type":"Feature","geometry":{"type":"Point","coordinates":[-3.00916,53.84144]},"properties":{"name":"Power infrastructure","category":"generator","osm_type":"node","osm_id":"7677990630"}},{"type":"Feature","geometry":{"type":"Point","coordinates":[-3.00942,53.84145]},"properties":{"name":"Power infrastructure","category":"generator","osm_type":"node","osm_id":"7677990631"}},{"type":"Feature","geometry":{"type":"Point","coordinates":[-3.01045,53.84172]},"properties":{"name":"Power infrastructure","category":"generator","osm_type":"node","osm_id":"7677990632"}},{"type":"Feature","geometry":{"type":"Point","coordinates":[-3.01462,53.84157]},"properties":{"name":"Power infrastructure","category":"generator","osm_type":"node","osm_id":"7677990633"}},{"type":"Feature","geometry":{"type":"Point","coordinates":[-3.01407,53.84161]},"properties":{"name":"Power infrastructure","category":"generator","osm_type":"node","osm_id":"7677990634"}},{"type":"Feature","geometry":{"type":"Point","coordinates":[-3.01165,53.84186]},"properties":{"name":"Power infrastructure","category":"generator","osm_type":"node","osm_id":"7677990635"}},{"type":"Feature","geometry":{"type":"Point","coordinates":[-3.01119,53.84275]},"properties":{"name":"Power infrastructure","category":"generator","osm_type":"node","osm_id":"7677990636"}},{"type":"Feature","geometry":{"type":"Point","coordinates":[-3.01604,53.84213]},"properties":{"name":"Power infrastructure","category":"generator","osm_type":"node","osm_id":"7677990637"}},{"type":"Feature","geometry":{"type":"Point","coordinates":[-3.01619,53.8474]},"properties":{"name":"Power infrastructure","category":"generator","osm_type":"node","osm_id":"7677990638"}},{"type":"Feature","geometry":{"type":"Point","coordinates":[-3.01799,53.84977]},"properties":{"name":"Power infrastructure","category":"generator","osm_type":"node","osm_id":"7677990639"}},{"type":"Feature","geometry":{"type":"Point","coordinates":[-3.00988,53.85413]},"properties":{"name":"Power infrastructure","category":"generator","osm_type":"node","osm_id":"7677990640"}},{"type":"Feature","geometry":{"type":"Point","coordinates":[-3.00996,53.85412]},"properties":{"name":"Power infrastructure","category":"generator","osm_type":"node","osm_id":"7677990641"}},{"type":"Feature","geometry":{"type":"Point","coordinates":[-3.00785,53.85461]},"properties":{"name":"Power infrastructure","category":"generator","osm_type":"node","osm_id":"7677990642"}},{"type":"Feature","geometry":{"type":"Point","coordinates":[-3.00144,53.85402]},"properties":{"name":"Power infrastructure","category":"generator","osm_type":"node","osm_id":"7677990658"}},{"type":"Feature","geometry":{"type":"Point","coordinates":[-3.0009,53.85342]},"properties":{"name":"Power infrastructure","category":"generator","osm_type":"node","osm_id":"7677990659"}},{"type":"Feature","geometry":{"type":"Point","coordinates":[-3.00075,53.85289]},"properties":{"name":"Power infrastructure","category":"generator","osm_type":"node","osm_id":"7677990660"}},{"type":"Feature","geometry":{"type":"Point","coordinates":[-3.00732,53.85207]},"properties":{"name":"Power infrastructure","category":"generator","osm_type":"node","osm_id":"7677990662"}},{"type":"Feature","geometry":{"type":"Point","coordinates":[-3.01234,53.8527]},"properties":{"name":"Power infrastructure","category":"generator","osm_type":"node","osm_id":"7677990663"}},{"type":"Feature","geometry":{"type":"Point","coordinates":[-3.01126,53.85359]},"properties":{"name":"Power infrastructure","category":"generator","osm_type":"node","osm_id":"7677990664"}},{"type":"Feature","geometry":{"type":"Point","coordinates":[-3.01227,53.85371]},"properties":{"name":"Power infrastructure","category":"generator","osm_type":"node","osm_id":"7677990665"}},{"type":"Feature","geometry":{"type":"Point","coordinates":[-3.01263,53.85367]},"properties":{"name":"Power infrastructure","category":"generator","osm_type":"node","osm_id":"7677990666"}},{"type":"Feature","geometry":{"type":"Point","coordinates":[-3.00938,53.85839]},"properties":{"name":"Power infrastructure","category":"generator","osm_type":"node","osm_id":"7677990667"}},{"type":"Feature","geometry":{"type":"Point","coordinates":[-3.00588,53.85868]},"properties":{"name":"Power infrastructure","category":"generator","osm_type":"node","osm_id":"7677990668"}},{"type":"Feature","geometry":{"type":"Point","coordinates":[-3.00797,53.85738]},"properties":{"name":"Power infrastructure","category":"generator","osm_type":"node","osm_id":"7677990669"}},{"type":"Feature","geometry":{"type":"Point","coordinates":[-3.04778,53.86165]},"properties":{"name":"Power infrastructure","category":"substation","osm_type":"node","osm_id":"8027814653"}},{"type":"Feature","geometry":{"type":"Point","coordinates":[-3.04718,53.8644]},"properties":{"name":"Power infrastructure","category":"substation","osm_type":"node","osm_id":"8027814677"}},{"type":"Feature","geometry":{"type":"Point","coordinates":[-3.01852,53.82702]},"properties":{"name":"Power infrastructure","category":"generator","osm_type":"node","osm_id":"8205531582"}},{"type":"Feature","geometry":{"type":"Point","coordinates":[-3.04818,53.85406]},"properties":{"name":"Power infrastructure","category":"substation","osm_type":"node","osm_id":"8398937104"}},{"type":"Feature","geometry":{"type":"Point","coordinates":[-3.0492,53.85678]},"properties":{"name":"Power infrastructure","category":"substation","osm_type":"node","osm_id":"8398937105"}},{"type":"Feature","geometry":{"type":"Point","coordinates":[-3.01801,53.90843]},"properties":{"name":"Power infrastructure","category":"generator","osm_type":"node","osm_id":"9144960692"}},{"type":"Feature","geometry":{"type":"Point","coordinates":[-3.00495,53.64947]},"properties":{"name":"Power infrastructure","category":"substation","osm_type":"node","osm_id":"9677194722"}},{"type":"Feature","geometry":{"type":"Point","coordinates":[-3.00792,53.88066]},"properties":{"name":"Power infrastructure","category":"substation","osm_type":"node","osm_id":"9801587931"}},{"type":"Feature","geometry":{"type":"Point","coordinates":[-3.04138,53.85222]},"properties":{"name":"Power infrastructure","category":"substation","osm_type":"node","osm_id":"9987992424"}},{"type":"Feature","geometry":{"type":"Point","coordinates":[-3.0217,53.82926]},"properties":{"name":"Power infrastructure","category":"substation","osm_type":"node","osm_id":"10211855331"}},{"type":"Feature","geometry":{"type":"Point","coordinates":[-3.03827,53.86475]},"properties":{"name":"Power infrastructure","category":"substation","osm_type":"node","osm_id":"10561890575"}},{"type":"Feature","geometry":{"type":"Point","coordinates":[-3.02048,53.92494]},"properties":{"name":"Power infrastructure","category":"generator","osm_type":"node","osm_id":"11371019077"}},{"type":"Feature","geometry":{"type":"Point","coordinates":[-3.02038,53.92494]},"properties":{"name":"Power infrastructure","category":"generator","osm_type":"node","osm_id":"11371019078"}},{"type":"Feature","geometry":{"type":"Point","coordinates":[-3.02034,53.9249]},"properties":{"name":"Power infrastructure","category":"generator","osm_type":"node","osm_id":"11371019079"}},{"type":"Feature","geometry":{"type":"Point","coordinates":[-3.01925,53.92491]},"properties":{"name":"Power infrastructure","category":"generator","osm_type":"node","osm_id":"11371019080"}},{"type":"Feature","geometry":{"type":"Point","coordinates":[-3.02363,53.92454]},"properties":{"name":"Power infrastructure","category":"generator","osm_type":"node","osm_id":"11371019139"}},{"type":"Feature","geometry":{"type":"Point","coordinates":[-3.04203,53.5978]},"properties":{"name":"Power infrastructure","category":"generator","osm_type":"node","osm_id":"12077937160"}},{"type":"Feature","geometry":{"type":"Point","coordinates":[-3.03125,53.76103]},"properties":{"name":"Power infrastructure","category":"generator","osm_type":"node","osm_id":"12287542951"}},{"type":"Feature","geometry":{"type":"Point","coordinates":[-3.03085,53.76111]},"properties":{"name":"Power infrastructure","category":"generator","osm_type":"node","osm_id":"12287542952"}},{"type":"Feature","geometry":{"type":"Point","coordinates":[-3.03129,53.76107]},"properties":{"name":"Power infrastructure","category":"generator","osm_type":"node","osm_id":"12287542953"}},{"type":"Feature","geometry":{"type":"Point","coordinates":[-3.03119,53.76102]},"properties":{"name":"Power infrastructure","category":"generator","osm_type":"node","osm_id":"12287542954"}},{"type":"Feature","geometry":{"type":"Point","coordinates":[-3.03079,53.7611]},"properties":{"name":"Power infrastructure","category":"generator","osm_type":"node","osm_id":"12287542955"}},{"type":"Feature","geometry":{"type":"Point","coordinates":[-3.0436,53.7585]},"properties":{"name":"Power infrastructure","category":"generator","osm_type":"node","osm_id":"12287542956"}},{"type":"Feature","geometry":{"type":"Point","coordinates":[-3.0444,53.76059]},"properties":{"name":"Power infrastructure","category":"generator","osm_type":"node","osm_id":"12287542957"}},{"type":"Feature","geometry":{"type":"Point","coordinates":[-3.04324,53.76493]},"properties":{"name":"Power infrastructure","category":"generator","osm_type":"node","osm_id":"12287542958"}},{"type":"Feature","geometry":{"type":"Point","coordinates":[-3.04365,53.76418]},"properties":{"name":"Power infrastructure","category":"generator","osm_type":"node","osm_id":"12287542959"}},{"type":"Feature","geometry":{"type":"Point","coordinates":[-3.0417,53.76078]},"properties":{"name":"Power infrastructure","category":"generator","osm_type":"node","osm_id":"12287542960"}},{"type":"Feature","geometry":{"type":"Point","coordinates":[-3.0416,53.76027]},"properties":{"name":"Power infrastructure","category":"generator","osm_type":"node","osm_id":"12287542961"}},{"type":"Feature","geometry":{"type":"Point","coordinates":[-3.0376,53.7589]},"properties":{"name":"Power infrastructure","category":"generator","osm_type":"node","osm_id":"12287542962"}},{"type":"Feature","geometry":{"type":"Point","coordinates":[-3.03651,53.75677]},"properties":{"name":"Power infrastructure","category":"generator","osm_type":"node","osm_id":"12287542963"}},{"type":"Feature","geometry":{"type":"Point","coordinates":[-3.05878,53.51664]},"properties":{"name":"Power infrastructure","category":"generator","osm_type":"node","osm_id":"12533458356"}},{"type":"Feature","geometry":{"type":"Point","coordinates":[-3.05812,53.51721]},"properties":{"name":"Power infrastructure","category":"generator","osm_type":"node","osm_id":"12533563665"}},{"type":"Feature","geometry":{"type":"Point","coordinates":[-3.05969,53.5171]},"properties":{"name":"Power infrastructure","category":"generator","osm_type":"node","osm_id":"12533578237"}},{"type":"Feature","geometry":{"type":"Point","coordinates":[-3.05555,53.51596]},"properties":{"name":"Power infrastructure","category":"generator","osm_type":"node","osm_id":"12533609484"}},{"type":"Feature","geometry":{"type":"Point","coordinates":[-3.05558,53.51636]},"properties":{"name":"Power infrastructure","category":"generator","osm_type":"node","osm_id":"12533609503"}},{"type":"Feature","geometry":{"type":"Point","coordinates":[-3.05913,53.51813]},"properties":{"name":"Power infrastructure","category":"generator","osm_type":"node","osm_id":"12533612721"}},{"type":"Feature","geometry":{"type":"Point","coordinates":[-3.08576,53.56619]},"properties":{"name":"Power infrastructure","category":"generator","osm_type":"node","osm_id":"12538744048"}},{"type":"Feature","geometry":{"type":"Point","coordinates":[-3.08346,53.56374]},"properties":{"name":"Power infrastructure","category":"generator","osm_type":"node","osm_id":"12538746512"}},{"type":"Feature","geometry":{"type":"Point","coordinates":[-3.07953,53.56518]},"properties":{"name":"Power infrastructure","category":"generator","osm_type":"node","osm_id":"12538746553"}},{"type":"Feature","geometry":{"type":"Point","coordinates":[-3.08199,53.56325]},"properties":{"name":"Power infrastructure","category":"generator","osm_type":"node","osm_id":"12538746724"}},{"type":"Feature","geometry":{"type":"Point","coordinates":[-3.07983,53.56432]},"properties":{"name":"Power infrastructure","category":"generator","osm_type":"node","osm_id":"12539311224"}},{"type":"Feature","geometry":{"type":"Point","coordinates":[-3.07648,53.56059]},"properties":{"name":"Power infrastructure","category":"generator","osm_type":"node","osm_id":"12539320424"}},{"type":"Feature","geometry":{"type":"Point","coordinates":[-3.07266,53.5616]},"properties":{"name":"Power infrastructure","category":"generator","osm_type":"node","osm_id":"12539452106"}},{"type":"Feature","geometry":{"type":"Point","coordinates":[-3.07456,53.5624]},"properties":{"name":"Power infrastructure","category":"generator","osm_type":"node","osm_id":"12539453509"}},{"type":"Feature","geometry":{"type":"Point","coordinates":[-3.08243,53.56227]},"properties":{"name":"Power infrastructure","category":"generator","osm_type":"node","osm_id":"12539453876"}},{"type":"Feature","geometry":{"type":"Point","coordinates":[-3.08018,53.56317]},"properties":{"name":"Power infrastructure","category":"generator","osm_type":"node","osm_id":"12539454031"}},{"type":"Feature","geometry":{"type":"Point","coordinates":[-3.05992,53.5157]},"properties":{"name":"Power infrastructure","category":"generator","osm_type":"node","osm_id":"12541019863"}},{"type":"Feature","geometry":{"type":"Point","coordinates":[-3.05585,53.51791]},"properties":{"name":"Power infrastructure","category":"generator","osm_type":"node","osm_id":"12541019868"}},{"type":"Feature","geometry":{"type":"Point","coordinates":[-3.05665,53.5186]},"properties":{"name":"Power infrastructure","category":"generator","osm_type":"node","osm_id":"12541019869"}},{"type":"Feature","geometry":{"type":"Point","coordinates":[-3.05569,53.51699]},"properties":{"name":"Power infrastructure","category":"generator","osm_type":"node","osm_id":"12544088371"}},{"type":"Feature","geometry":{"type":"Point","coordinates":[-3.05694,53.5178]},"properties":{"name":"Power infrastructure","category":"generator","osm_type":"node","osm_id":"12544093720"}},{"type":"Feature","geometry":{"type":"Point","coordinates":[-3.05671,53.51863]},"properties":{"name":"Power infrastructure","category":"generator","osm_type":"node","osm_id":"12544093781"}},{"type":"Feature","geometry":{"type":"Point","coordinates":[-3.08171,53.56156]},"properties":{"name":"Power infrastructure","category":"generator","osm_type":"node","osm_id":"12699065027"}},{"type":"Feature","geometry":{"type":"Point","coordinates":[-3.08244,53.56117]},"properties":{"name":"Power infrastructure","category":"generator","osm_type":"node","osm_id":"12699065036"}},{"type":"Feature","geometry":{"type":"Point","coordinates":[-3.08149,53.56124]},"properties":{"name":"Power infrastructure","category":"generator","osm_type":"node","osm_id":"12699065037"}},{"type":"Feature","geometry":{"type":"Point","coordinates":[-3.08399,53.56125]},"properties":{"name":"Power infrastructure","category":"generator","osm_type":"node","osm_id":"12699065082"}},{"type":"Feature","geometry":{"type":"Point","coordinates":[-3.08339,53.56101]},"properties":{"name":"Power infrastructure","category":"generator","osm_type":"node","osm_id":"12699065083"}},{"type":"Feature","geometry":{"type":"Point","coordinates":[-3.08318,53.56092]},"properties":{"name":"Power infrastructure","category":"generator","osm_type":"node","osm_id":"12699065084"}},{"type":"Feature","geometry":{"type":"Point","coordinates":[-3.03361,53.63408]},"properties":{"name":"Power infrastructure","category":"generator","osm_type":"node","osm_id":"12705221255"}},{"type":"Feature","geometry":{"type":"Point","coordinates":[-3.0351,53.63202]},"properties":{"name":"Power infrastructure","category":"generator","osm_type":"node","osm_id":"12705221386"}},{"type":"Feature","geometry":{"type":"Point","coordinates":[-3.08236,53.56085]},"properties":{"name":"Power infrastructure","category":"generator","osm_type":"node","osm_id":"12707727422"}},{"type":"Feature","geometry":{"type":"Point","coordinates":[-3.08058,53.5589]},"properties":{"name":"Power infrastructure","category":"generator","osm_type":"node","osm_id":"12747665829"}},{"type":"Feature","geometry":{"type":"Point","coordinates":[-3.08009,53.55804]},"properties":{"name":"Power infrastructure","category":"generator","osm_type":"node","osm_id":"12747665886"}},{"type":"Feature","geometry":{"type":"Point","coordinates":[-3.08012,53.56203]},"properties":{"name":"Power infrastructure","category":"generator","osm_type":"node","osm_id":"12753849730"}},{"type":"Feature","geometry":{"type":"Point","coordinates":[-3.07807,53.56263]},"properties":{"name":"Power infrastructure","category":"generator","osm_type":"node","osm_id":"12754386098"}},{"type":"Feature","geometry":{"type":"Point","coordinates":[-3.07603,53.56274]},"properties":{"name":"Power infrastructure","category":"generator","osm_type":"node","osm_id":"12754396070"}},{"type":"Feature","geometry":{"type":"Point","coordinates":[-3.07584,53.56171]},"properties":{"name":"Power infrastructure","category":"generator","osm_type":"node","osm_id":"12754396109"}},{"type":"Feature","geometry":{"type":"Point","coordinates":[-3.08102,53.55776]},"properties":{"name":"Power infrastructure","category":"generator","osm_type":"node","osm_id":"12757655034"}},{"type":"Feature","geometry":{"type":"Point","coordinates":[-3.07827,53.55847]},"properties":{"name":"Power infrastructure","category":"generator","osm_type":"node","osm_id":"12757655112"}},{"type":"Feature","geometry":{"type":"Point","coordinates":[-3.08034,53.55979]},"properties":{"name":"Power infrastructure","category":"generator","osm_type":"node","osm_id":"12757655209"}},{"type":"Feature","geometry":{"type":"Point","coordinates":[-3.04719,53.88454]},"properties":{"name":"Power infrastructure","category":"generator","osm_type":"node","osm_id":"12813925856"}},{"type":"Feature","geometry":{"type":"Point","coordinates":[-3.04731,53.88445]},"properties":{"name":"Power infrastructure","category":"generator","osm_type":"node","osm_id":"12813925857"}},{"type":"Feature","geometry":{"type":"Point","coordinates":[-3.04727,53.88436]},"properties":{"name":"Power infrastructure","category":"generator","osm_type":"node","osm_id":"12813925858"}},{"type":"Feature","geometry":{"type":"Point","coordinates":[-3.04718,53.88426]},"properties":{"name":"Power infrastructure","category":"generator","osm_type":"node","osm_id":"12813925859"}},{"type":"Feature","geometry":{"type":"Point","coordinates":[-3.04707,53.88419]},"properties":{"name":"Power infrastructure","category":"generator","osm_type":"node","osm_id":"12813925860"}},{"type":"Feature","geometry":{"type":"Point","coordinates":[-3.05744,53.79246]},"properties":{"name":"Power infrastructure","category":"generator","osm_type":"node","osm_id":"12954309896"}},{"type":"Feature","geometry":{"type":"Point","coordinates":[-3.0755,53.55885]},"properties":{"name":"Power infrastructure","category":"generator","osm_type":"node","osm_id":"13149053581"}},{"type":"Feature","geometry":{"type":"Point","coordinates":[-3.07577,53.55911]},"properties":{"name":"Power infrastructure","category":"generator","osm_type":"node","osm_id":"13149053614"}},{"type":"Feature","geometry":{"type":"Point","coordinates":[-3.07618,53.55975]},"properties":{"name":"Power infrastructure","category":"generator","osm_type":"node","osm_id":"13149053741"}},{"type":"Feature","geometry":{"type":"Point","coordinates":[-3.07572,53.55951]},"properties":{"name":"Power infrastructure","category":"generator","osm_type":"node","osm_id":"13149053760"}},{"type":"Feature","geometry":{"type":"Point","coordinates":[-3.08219,53.54244]},"properties":{"name":"Power infrastructure","category":"generator","osm_type":"node","osm_id":"13175577254","operator":"Range High School"}},{"type":"Feature","geometry":{"type":"Point","coordinates":[-3.08257,53.54263]},"properties":{"name":"Power infrastructure","category":"generator","osm_type":"node","osm_id":"13175577255","operator":"Range High School"}},{"type":"Feature","geometry":{"type":"Point","coordinates":[-3.00241,53.84402]},"properties":{"name":"Power infrastructure","category":"generator","osm_type":"node","osm_id":"14051213040"}},{"type":"Feature","geometry":{"type":"Point","coordinates":[-3.00352,53.84276]},"properties":{"name":"Power infrastructure","category":"generator","osm_type":"node","osm_id":"14051213042"}},{"type":"Feature","geometry":{"type":"Point","coordinates":[-3.0029,53.84286]},"properties":{"name":"Power infrastructure","category":"generator","osm_type":"node","osm_id":"14051213043"}},{"type":"Feature","geometry":{"type":"Point","coordinates":[-3.00291,53.8429]},"properties":{"name":"Power infrastructure","category":"generator","osm_type":"node","osm_id":"14051213044"}},{"type":"Feature","geometry":{"type":"Point","coordinates":[-3.00257,53.84261]},"properties":{"name":"Power infrastructure","category":"generator","osm_type":"node","osm_id":"14051213045"}},{"type":"Feature","geometry":{"type":"Point","coordinates":[-3.00223,53.84452]},"properties":{"name":"Power infrastructure","category":"generator","osm_type":"node","osm_id":"14055893516"}},{"type":"Feature","geometry":{"type":"Point","coordinates":[-3.00236,53.84456]},"properties":{"name":"Power infrastructure","category":"generator","osm_type":"node","osm_id":"14055893517"}},{"type":"Feature","geometry":{"type":"Point","coordinates":[-3.00021,53.84228]},"properties":{"name":"Power infrastructure","category":"generator","osm_type":"node","osm_id":"14056530005"}},{"type":"Feature","geometry":{"type":"Point","coordinates":[-3.01478,53.84206]},"properties":{"name":"Power infrastructure","category":"generator","osm_type":"node","osm_id":"14058858919"}},{"type":"Feature","geometry":{"type":"Point","coordinates":[-3.0117,53.84289]},"properties":{"name":"Power infrastructure","category":"generator","osm_type":"node","osm_id":"14058859023"}},{"type":"Feature","geometry":{"type":"Point","coordinates":[-3.00664,53.84111]},"properties":{"name":"Power infrastructure","category":"generator","osm_type":"node","osm_id":"14065937277"}},{"type":"Feature","geometry":{"type":"Point","coordinates":[-3.00182,53.84732]},"properties":{"name":"Power infrastructure","category":"generator","osm_type":"node","osm_id":"14112775222"}},{"type":"Feature","geometry":{"type":"Point","coordinates":[-3.00091,53.84857]},"properties":{"name":"Power infrastructure","category":"generator","osm_type":"node","osm_id":"14157678055"}},{"type":"Feature","geometry":{"type":"Point","coordinates":[-3.03191,53.75831]},"properties":{"name":"Power infrastructure","category":"generator","osm_type":"node","osm_id":"14159038553"}},{"type":"Feature","geometry":{"type":"Point","coordinates":[-3.03191,53.75883]},"properties":{"name":"Power infrastructure","category":"generator","osm_type":"node","osm_id":"14159038554"}},{"type":"Feature","geometry":{"type":"Point","coordinates":[-3.03146,53.7571]},"properties":{"name":"Power infrastructure","category":"generator","osm_type":"node","osm_id":"14159038558"}},{"type":"Feature","geometry":{"type":"Point","coordinates":[-3.03128,53.75572]},"properties":{"name":"Power infrastructure","category":"generator","osm_type":"node","osm_id":"14161471543"}},{"type":"Feature","geometry":{"type":"Point","coordinates":[-3.03122,53.75572]},"properties":{"name":"Power infrastructure","category":"generator","osm_type":"node","osm_id":"14161471544"}},{"type":"Feature","geometry":{"type":"Point","coordinates":[-3.03053,53.7556]},"properties":{"name":"Power infrastructure","category":"generator","osm_type":"node","osm_id":"14161471555"}},{"type":"Feature","geometry":{"type":"Point","coordinates":[-3.02877,53.7543]},"properties":{"name":"Power infrastructure","category":"generator","osm_type":"node","osm_id":"14161471596"}},{"type":"Feature","geometry":{"type":"Point","coordinates":[-3.02852,53.75323]},"properties":{"name":"Power infrastructure","category":"generator","osm_type":"node","osm_id":"14161471597"}},{"type":"Feature","geometry":{"type":"Point","coordinates":[-3.02846,53.75325]},"properties":{"name":"Power infrastructure","category":"generator","osm_type":"node","osm_id":"14161471598"}},{"type":"Feature","geometry":{"type":"Point","coordinates":[-3.02821,53.75519]},"properties":{"name":"Power infrastructure","category":"generator","osm_type":"node","osm_id":"14162744804"}},{"type":"Feature","geometry":{"type":"Point","coordinates":[-3.02702,53.75473]},"properties":{"name":"Power infrastructure","category":"generator","osm_type":"node","osm_id":"14162744805"}},{"type":"Feature","geometry":{"type":"Point","coordinates":[-3.02697,53.75476]},"properties":{"name":"Power infrastructure","category":"generator","osm_type":"node","osm_id":"14162744806"}},{"type":"Feature","geometry":{"type":"Point","coordinates":[-3.02679,53.75489]},"properties":{"name":"Power infrastructure","category":"generator","osm_type":"node","osm_id":"14162744807"}},{"type":"Feature","geometry":{"type":"Point","coordinates":[-3.02941,53.75714]},"properties":{"name":"Power infrastructure","category":"generator","osm_type":"node","osm_id":"14162744855"}},{"type":"Feature","geometry":{"type":"Point","coordinates":[-3.02894,53.75734]},"properties":{"name":"Power infrastructure","category":"generator","osm_type":"node","osm_id":"14162744856"}},{"type":"Feature","geometry":{"type":"Point","coordinates":[-3.02878,53.75735]},"properties":{"name":"Power infrastructure","category":"generator","osm_type":"node","osm_id":"14162744857"}},{"type":"Feature","geometry":{"type":"Point","coordinates":[-3.02896,53.75679]},"properties":{"name":"Power infrastructure","category":"generator","osm_type":"node","osm_id":"14162744858"}},{"type":"Feature","geometry":{"type":"Point","coordinates":[-3.02882,53.7567]},"properties":{"name":"Power infrastructure","category":"generator","osm_type":"node","osm_id":"14162744859"}},{"type":"Feature","geometry":{"type":"Point","coordinates":[-3.02874,53.75795]},"properties":{"name":"Power infrastructure","category":"generator","osm_type":"node","osm_id":"14163268688"}},{"type":"Feature","geometry":{"type":"Point","coordinates":[-3.02881,53.75795]},"properties":{"name":"Power infrastructure","category":"generator","osm_type":"node","osm_id":"14163268689"}},{"type":"Feature","geometry":{"type":"Point","coordinates":[-3.02862,53.75804]},"properties":{"name":"Power infrastructure","category":"generator","osm_type":"node","osm_id":"14163268690"}},{"type":"Feature","geometry":{"type":"Point","coordinates":[-3.02855,53.75804]},"properties":{"name":"Power infrastructure","category":"generator","osm_type":"node","osm_id":"14163268691"}},{"type":"Feature","geometry":{"type":"Point","coordinates":[-3.0278,53.75746]},"properties":{"name":"Power infrastructure","category":"generator","osm_type":"node","osm_id":"14163268692"}},{"type":"Feature","geometry":{"type":"Point","coordinates":[-3.02771,53.75748]},"properties":{"name":"Power infrastructure","category":"generator","osm_type":"node","osm_id":"14163268693"}},{"type":"Feature","geometry":{"type":"Point","coordinates":[-3.02667,53.75595]},"properties":{"name":"Power infrastructure","category":"generator","osm_type":"node","osm_id":"14163268694"}},{"type":"Feature","geometry":{"type":"Point","coordinates":[-3.02611,53.75976]},"properties":{"name":"Power infrastructure","category":"generator","osm_type":"node","osm_id":"14164534390"}},{"type":"Feature","geometry":{"type":"Point","coordinates":[-3.02943,53.75983]},"properties":{"name":"Power infrastructure","category":"generator","osm_type":"node","osm_id":"14164534391"}},{"type":"Feature","geometry":{"type":"Point","coordinates":[-3.02504,53.76051]},"properties":{"name":"Power infrastructure","category":"generator","osm_type":"node","osm_id":"14164629629"}},{"type":"Feature","geometry":{"type":"Point","coordinates":[-3.02784,53.75888]},"properties":{"name":"Power infrastructure","category":"generator","osm_type":"node","osm_id":"14164629630"}},{"type":"Feature","geometry":{"type":"Point","coordinates":[-3.02689,53.75865]},"properties":{"name":"Power infrastructure","category":"generator","osm_type":"node","osm_id":"14164629631"}},{"type":"Feature","geometry":{"type":"Point","coordinates":[-3.03,53.84903]},"properties":{"name":"Bispham Substation","category":"substation","osm_type":"way","osm_id":"144108126","operator":"Electricity North West"}},{"type":"Feature","geometry":{"type":"Point","coordinates":[-3.02911,53.84912]},"properties":{"name":"Isle of Man Substation","category":"substation","osm_type":"way","osm_id":"144108127","operator":"Manx Cable Company Ltd","addr:city":"Blackpool","addr:postcode":"FY2 0JF"}},{"type":"Feature","geometry":{"type":"Point","coordinates":[-3.03776,53.90102]},"properties":{"name":"Power infrastructure","category":"substation","osm_type":"way","osm_id":"272502396"}},{"type":"Feature","geometry":{"type":"Point","coordinates":[-3.06636,53.53334]},"properties":{"name":"Altcar Solar Farm","category":"plant","osm_type":"way","osm_id":"361491953"}},{"type":"Feature","geometry":{"type":"Point","coordinates":[-3.02146,53.91987]},"properties":{"name":"Power infrastructure","category":"substation","osm_type":"way","osm_id":"416541815"}},{"type":"Feature","geometry":{"type":"Point","coordinates":[-3.03786,53.83768]},"properties":{"name":"Leys Road substation","category":"substation","osm_type":"way","osm_id":"459026568","operator":"Electricity North West"}},{"type":"Feature","geometry":{"type":"Point","coordinates":[-3.00177,53.61256]},"properties":{"name":"Power infrastructure","category":"substation","osm_type":"way","osm_id":"466392671"}},{"type":"Feature","geometry":{"type":"Point","coordinates":[-3.01955,53.61274]},"properties":{"name":"Power infrastructure","category":"substation","osm_type":"way","osm_id":"575230754"}},{"type":"Feature","geometry":{"type":"Point","coordinates":[-3.04294,53.5545]},"properties":{"name":"Formby Substation","category":"substation","osm_type":"way","osm_id":"576061600","operator":"Scottish Power"}},{"type":"Feature","geometry":{"type":"Point","coordinates":[-3.03322,53.78038]},"properties":{"name":"Power infrastructure","category":"substation","osm_type":"way","osm_id":"622882820"}},{"type":"Feature","geometry":{"type":"Point","coordinates":[-3.004,53.88502]},"properties":{"name":"Power infrastructure","category":"substation","osm_type":"way","osm_id":"734632076"}},{"type":"Feature","geometry":{"type":"Point","coordinates":[-3.02388,53.85685]},"properties":{"name":"Power infrastructure","category":"generator","osm_type":"way","osm_id":"771082056"}},{"type":"Feature","geometry":{"type":"Point","coordinates":[-3.03658,53.59342]},"properties":{"name":"Power infrastructure","category":"generator","osm_type":"way","osm_id":"775777271"}},{"type":"Feature","geometry":{"type":"Point","coordinates":[-3.03664,53.59354]},"properties":{"name":"Power infrastructure","category":"generator","osm_type":"way","osm_id":"775777272"}},{"type":"Feature","geometry":{"type":"Point","coordinates":[-3.00031,53.64648]},"properties":{"name":"Power infrastructure","category":"generator","osm_type":"way","osm_id":"775777277"}},{"type":"Feature","geometry":{"type":"Point","coordinates":[-3.00463,53.63759]},"properties":{"name":"Power infrastructure","category":"generator","osm_type":"way","osm_id":"775777281"}},{"type":"Feature","geometry":{"type":"Point","coordinates":[-3.00478,53.63741]},"properties":{"name":"Power infrastructure","category":"generator","osm_type":"way","osm_id":"775777282"}},{"type":"Feature","geometry":{"type":"Point","coordinates":[-3.00489,53.63743]},"properties":{"name":"Power infrastructure","category":"generator","osm_type":"way","osm_id":"775777283"}},{"type":"Feature","geometry":{"type":"Point","coordinates":[-3.02724,53.84225]},"properties":{"name":"Power infrastructure","category":"generator","osm_type":"way","osm_id":"819555232"}},{"type":"Feature","geometry":{"type":"Point","coordinates":[-3.02746,53.8423]},"properties":{"name":"Power infrastructure","category":"generator","osm_type":"way","osm_id":"819555233"}},{"type":"Feature","geometry":{"type":"Point","coordinates":[-3.02773,53.84243]},"properties":{"name":"Power infrastructure","category":"generator","osm_type":"way","osm_id":"819555234"}},{"type":"Feature","geometry":{"type":"Point","coordinates":[-3.02789,53.84252]},"properties":{"name":"Power infrastructure","category":"generator","osm_type":"way","osm_id":"819555235"}},{"type":"Feature","geometry":{"type":"Point","coordinates":[-3.03711,53.8983]},"properties":{"name":"Power infrastructure","category":"substation","osm_type":"way","osm_id":"1028341122"}},{"type":"Feature","geometry":{"type":"Point","coordinates":[-3.01359,53.79315]},"properties":{"name":"Power infrastructure","category":"substation","osm_type":"way","osm_id":"1039414856"}},{"type":"Feature","geometry":{"type":"Point","coordinates":[-3.02146,53.6246]},"properties":{"name":"Dover Road Primary Substation","category":"substation","osm_type":"way","osm_id":"1053004717","operator":"SP Energy Networks"}},{"type":"Feature","geometry":{"type":"Point","coordinates":[-3.02655,53.61988]},"properties":{"name":"Hillside DC Traction Substation","category":"substation","osm_type":"way","osm_id":"1053005012","operator":"Network Rail"}},{"type":"Feature","geometry":{"type":"Point","coordinates":[-3.0061,53.64578]},"properties":{"name":"Market Street Substation","category":"substation","osm_type":"way","osm_id":"1053017481","operator":"Scottish Power"}},{"type":"Feature","geometry":{"type":"Point","coordinates":[-3.00707,53.63648]},"properties":{"name":"Banastre Road Primary Substation","category":"substation","osm_type":"way","osm_id":"1053024721","operator":"SP Energy Networks"}},{"type":"Feature","geometry":{"type":"Point","coordinates":[-3.01747,53.63447]},"properties":{"name":"York Road Primary Substation","category":"substation","osm_type":"way","osm_id":"1053027785","operator":"SP Energy Networks","ref":"SD 32814 15818"}},{"type":"Feature","geometry":{"type":"Point","coordinates":[-3.01222,53.65361]},"properties":{"name":"Ocean Plaza Substation","category":"substation","osm_type":"way","osm_id":"1053028915","operator":"Scottish Power"}},{"type":"Feature","geometry":{"type":"Point","coordinates":[-3.0086,53.65001]},"properties":{"name":"Neville Street Substation","category":"substation","osm_type":"way","osm_id":"1053028917","operator":"Scottish Power"}},{"type":"Feature","geometry":{"type":"Point","coordinates":[-3.03559,53.6031]},"properties":{"name":"Ainsdale Primary Substation","category":"substation","osm_type":"way","osm_id":"1053032956","operator":"SP Energy Networks"}},{"type":"Feature","geometry":{"type":"Point","coordinates":[-3.04316,53.87187]},"properties":{"name":"Power infrastructure","category":"generator","osm_type":"way","osm_id":"1063591805"}},{"type":"Feature","geometry":{"type":"Point","coordinates":[-3.03064,53.84895]},"properties":{"name":"Power infrastructure","category":"generator","osm_type":"way","osm_id":"1066163713"}},{"type":"Feature","geometry":{"type":"Point","coordinates":[-3.03063,53.84888]},"properties":{"name":"Power infrastructure","category":"generator","osm_type":"way","osm_id":"1066163714"}},{"type":"Feature","geometry":{"type":"Point","coordinates":[-3.03084,53.84874]},"properties":{"name":"Power infrastructure","category":"generator","osm_type":"way","osm_id":"1066163715"}},{"type":"Feature","geometry":{"type":"Point","coordinates":[-3.03058,53.84872]},"properties":{"name":"Power infrastructure","category":"generator","osm_type":"way","osm_id":"1066163716"}},{"type":"Feature","geometry":{"type":"Point","coordinates":[-3.03056,53.84865]},"properties":{"name":"Power infrastructure","category":"generator","osm_type":"way","osm_id":"1066163717"}},{"type":"Feature","geometry":{"type":"Point","coordinates":[-3.03097,53.84861]},"properties":{"name":"Power infrastructure","category":"generator","osm_type":"way","osm_id":"1066163718"}},{"type":"Feature","geometry":{"type":"Point","coordinates":[-3.031,53.84869]},"properties":{"name":"Power infrastructure","category":"generator","osm_type":"way","osm_id":"1066163719"}},{"type":"Feature","geometry":{"type":"Point","coordinates":[-3.03102,53.84877]},"properties":{"name":"Power infrastructure","category":"generator","osm_type":"way","osm_id":"1066163720"}},{"type":"Feature","geometry":{"type":"Point","coordinates":[-3.03104,53.84884]},"properties":{"name":"Power infrastructure","category":"generator","osm_type":"way","osm_id":"1066163721"}},{"type":"Feature","geometry":{"type":"Point","coordinates":[-3.03107,53.84892]},"properties":{"name":"Power infrastructure","category":"generator","osm_type":"way","osm_id":"1066163722"}},{"type":"Feature","geometry":{"type":"Point","coordinates":[-3.03086,53.84897]},"properties":{"name":"Power infrastructure","category":"generator","osm_type":"way","osm_id":"1066163724"}},{"type":"Feature","geometry":{"type":"Point","coordinates":[-3.02636,53.62]},"properties":{"name":"Network Rail Hillside","category":"substation","osm_type":"way","osm_id":"1384055089","operator":"SP Energy Networks"}},{"type":"Feature","geometry":{"type":"Point","coordinates":[-3.01274,53.91521]},"properties":{"name":"Power infrastructure","category":"generator","osm_type":"way","osm_id":"1429964775"}},{"type":"Feature","geometry":{"type":"Point","coordinates":[-3.02622,53.84902]},"properties":{"name":"Blackpool BESS","category":"plant","osm_type":"way","osm_id":"1475015185","operator":"Conrad Energy"}},{"type":"Feature","geometry":{"type":"Point","coordinates":[-3.04857,53.60503]},"properties":{"name":"Power infrastructure","category":"generator","osm_type":"way","osm_id":"1479236952"}},{"type":"Feature","geometry":{"type":"Point","coordinates":[-3.05135,53.59288]},"properties":{"name":"Power infrastructure","category":"generator","osm_type":"way","osm_id":"1479241277"}},{"type":"Feature","geometry":{"type":"Point","coordinates":[-3.00212,53.87077]},"properties":{"name":"Power infrastructure","category":"substation","osm_type":"way","osm_id":"1498994631"}},{"type":"Feature","geometry":{"type":"Point","coordinates":[-3.05915,53.52513]},"properties":{"name":"Power infrastructure","category":"generator","osm_type":"way","osm_id":"1501176025"}},{"type":"Feature","geometry":{"type":"Point","coordinates":[-3.05916,53.52513]},"properties":{"name":"Power infrastructure","category":"generator","osm_type":"way","osm_id":"1501176026"}},{"type":"Feature","geometry":{"type":"Point","coordinates":[-3.05918,53.5251]},"properties":{"name":"Power infrastructure","category":"generator","osm_type":"way","osm_id":"1501176027"}},{"type":"Feature","geometry":{"type":"Point","coordinates":[-3.05921,53.52513]},"properties":{"name":"Power infrastructure","category":"generator","osm_type":"way","osm_id":"1501176028"}},{"type":"Feature","geometry":{"type":"Point","coordinates":[-3.05921,53.52513]},"properties":{"name":"Power infrastructure","category":"generator","osm_type":"way","osm_id":"1501176029"}},{"type":"Feature","geometry":{"type":"Point","coordinates":[-3.0227,53.90751]},"properties":{"name":"Power infrastructure","category":"generator","osm_type":"relation","osm_id":"9845901"}},{"type":"Feature","geometry":{"type":"Point","coordinates":[-3.02165,53.90699]},"properties":{"name":"Power infrastructure","category":"generator","osm_type":"relation","osm_id":"9845902"}},{"type":"Feature","geometry":{"type":"Point","coordinates":[-3.02003,53.9074]},"properties":{"name":"Power infrastructure","category":"generator","osm_type":"relation","osm_id":"9845903"}},{"type":"Feature","geometry":{"type":"Point","coordinates":[-3.02091,53.90872]},"properties":{"name":"Power infrastructure","category":"generator","osm_type":"relation","osm_id":"9845904"}},{"type":"Feature","geometry":{"type":"Point","coordinates":[-3.03427,53.57291]},"properties":{"name":"Power infrastructure","category":"substation","osm_type":"way","osm_id":"466953049"}},{"type":"Feature","geometry":{"type":"Point","coordinates":[-3.06221,53.53424]},"properties":{"name":"Power infrastructure","category":"substation","osm_type":"way","osm_id":"551744342"}},{"type":"Feature","geometry":{"type":"Point","coordinates":[-3.05172,53.80939]},"properties":{"name":"Power infrastructure","category":"substation","osm_type":"way","osm_id":"623972317"}},{"type":"Feature","geometry":{"type":"Point","coordinates":[-3.01304,53.65224]},"properties":{"name":"Power infrastructure","category":"substation","osm_type":"way","osm_id":"721692669"}},{"type":"Feature","geometry":{"type":"Point","coordinates":[-3.06225,53.53432]},"properties":{"name":"Power infrastructure","category":"substation","osm_type":"way","osm_id":"754718313","operator":"SPEN"}},{"type":"Feature","geometry":{"type":"Point","coordinates":[-3.03191,53.87985]},"properties":{"name":"Power infrastructure","category":"substation","osm_type":"way","osm_id":"846644596"}},{"type":"Feature","geometry":{"type":"Point","coordinates":[-3.02798,53.76631]},"properties":{"name":"Power infrastructure","category":"substation","osm_type":"way","osm_id":"848007075"}},{"type":"Feature","geometry":{"type":"Point","coordinates":[-3.03992,53.59224]},"properties":{"name":"Pinfold Lane Primary Substation","category":"substation","osm_type":"way","osm_id":"1053000844","operator":"SP Energy Networks","ref":"SD 31267 11127"}},{"type":"Feature","geometry":{"type":"Point","coordinates":[-3.01204,53.61952]},"properties":{"name":"Grantham Close Primary Substation","category":"substation","osm_type":"way","osm_id":"1053001665","operator":"SP Energy Networks"}},{"type":"Feature","geometry":{"type":"Point","coordinates":[-3.04623,53.60422]},"properties":{"name":"Power infrastructure","category":"substation","osm_type":"way","osm_id":"1053033356"}},{"type":"Feature","geometry":{"type":"Point","coordinates":[-3.031,53.84879]},"properties":{"name":"Bispham Flexible Generation","category":"plant","osm_type":"way","osm_id":"1066120013"}},{"type":"Feature","geometry":{"type":"Point","coordinates":[-3.0648,53.53295]},"properties":{"name":"Power infrastructure","category":"generator","osm_type":"way","osm_id":"1158804359"}},{"type":"Feature","geometry":{"type":"Point","coordinates":[-3.06519,53.53304]},"properties":{"name":"Power infrastructure","category":"generator","osm_type":"way","osm_id":"1158804360"}},{"type":"Feature","geometry":{"type":"Point","coordinates":[-3.06532,53.53313]},"properties":{"name":"Power infrastructure","category":"generator","osm_type":"way","osm_id":"1158804361"}},{"type":"Feature","geometry":{"type":"Point","coordinates":[-3.06545,53.53321]},"properties":{"name":"Power infrastructure","category":"generator","osm_type":"way","osm_id":"1158804362"}},{"type":"Feature","geometry":{"type":"Point","coordinates":[-3.06559,53.53331]},"properties":{"name":"Power infrastructure","category":"generator","osm_type":"way","osm_id":"1158804363"}},{"type":"Feature","geometry":{"type":"Point","coordinates":[-3.06618,53.53376]},"properties":{"name":"Power infrastructure","category":"generator","osm_type":"way","osm_id":"1158804364"}},{"type":"Feature","geometry":{"type":"Point","coordinates":[-3.06639,53.53385]},"properties":{"name":"Power infrastructure","category":"generator","osm_type":"way","osm_id":"1158804365"}},{"type":"Feature","geometry":{"type":"Point","coordinates":[-3.06657,53.53394]},"properties":{"name":"Power infrastructure","category":"generator","osm_type":"way","osm_id":"1158804366"}},{"type":"Feature","geometry":{"type":"Point","coordinates":[-3.06662,53.53402]},"properties":{"name":"Power infrastructure","category":"generator","osm_type":"way","osm_id":"1158804367"}},{"type":"Feature","geometry":{"type":"Point","coordinates":[-3.06676,53.53412]},"properties":{"name":"Power infrastructure","category":"generator","osm_type":"way","osm_id":"1158804368"}},{"type":"Feature","geometry":{"type":"Point","coordinates":[-3.06733,53.53467]},"properties":{"name":"Power infrastructure","category":"generator","osm_type":"way","osm_id":"1158804369"}},{"type":"Feature","geometry":{"type":"Point","coordinates":[-3.0672,53.53458]},"properties":{"name":"Power infrastructure","category":"generator","osm_type":"way","osm_id":"1158804370"}},{"type":"Feature","geometry":{"type":"Point","coordinates":[-3.06707,53.53449]},"properties":{"name":"Power infrastructure","category":"generator","osm_type":"way","osm_id":"1158804371"}},{"type":"Feature","geometry":{"type":"Point","coordinates":[-3.06698,53.5344]},"properties":{"name":"Power infrastructure","category":"generator","osm_type":"way","osm_id":"1158804372"}},{"type":"Feature","geometry":{"type":"Point","coordinates":[-3.06685,53.5343]},"properties":{"name":"Power infrastructure","category":"generator","osm_type":"way","osm_id":"1158804373"}},{"type":"Feature","geometry":{"type":"Point","coordinates":[-3.06672,53.53422]},"properties":{"name":"Power infrastructure","category":"generator","osm_type":"way","osm_id":"1158804374"}},{"type":"Feature","geometry":{"type":"Point","coordinates":[-3.06588,53.53367]},"properties":{"name":"Power infrastructure","category":"generator","osm_type":"way","osm_id":"1158804375"}},{"type":"Feature","geometry":{"type":"Point","coordinates":[-3.06551,53.53349]},"properties":{"name":"Power infrastructure","category":"generator","osm_type":"way","osm_id":"1158804376"}},{"type":"Feature","geometry":{"type":"Point","coordinates":[-3.06554,53.5334]},"properties":{"name":"Power infrastructure","category":"generator","osm_type":"way","osm_id":"1158804377"}},{"type":"Feature","geometry":{"type":"Point","coordinates":[-3.06599,53.53357]},"properties":{"name":"Power infrastructure","category":"generator","osm_type":"way","osm_id":"1158804378"}},{"type":"Feature","geometry":{"type":"Point","coordinates":[-3.08076,53.5453]},"properties":{"name":"Power infrastructure","category":"substation","osm_type":"way","osm_id":"1256854867"}},{"type":"Feature","geometry":{"type":"Point","coordinates":[-3.08076,53.54526]},"properties":{"name":"Power infrastructure","category":"substation","osm_type":"way","osm_id":"1256854868"}},{"type":"Feature","geometry":{"type":"Point","coordinates":[-3.04767,53.86619]},"properties":{"name":"Power infrastructure","category":"substation","osm_type":"way","osm_id":"1341402237"}},{"type":"Feature","geometry":{"type":"Point","coordinates":[-3.05013,53.56807]},"properties":{"name":"Power infrastructure","category":"substation","osm_type":"way","osm_id":"1433599883","operator":"Scottish Power"}},{"type":"Feature","geometry":{"type":"Point","coordinates":[-3.05751,53.56876]},"properties":{"name":"Power infrastructure","category":"substation","osm_type":"way","osm_id":"1433614409","operator":"Scottish Power"}}]}