{"type":"FeatureCollection","features":[{"type":"Feature","geometry":{"type":"Point","coordinates":[-3.02868,52.20298]},"properties":{"name":"Power infrastructure","category":"generator","osm_type":"node","osm_id":"6830206920"}},{"type":"Feature","geometry":{"type":"Point","coordinates":[-3.03372,52.20252]},"properties":{"name":"Power infrastructure","category":"generator","osm_type":"node","osm_id":"6830206979"}},{"type":"Feature","geometry":{"type":"Point","coordinates":[-3.02857,52.20203]},"properties":{"name":"Power infrastructure","category":"generator","osm_type":"node","osm_id":"6830206980"}},{"type":"Feature","geometry":{"type":"Point","coordinates":[-3.0284,52.20208]},"properties":{"name":"Power infrastructure","category":"generator","osm_type":"node","osm_id":"6830206981"}},{"type":"Feature","geometry":{"type":"Point","coordinates":[-3.02772,52.20112]},"properties":{"name":"Power infrastructure","category":"generator","osm_type":"node","osm_id":"6830206982"}},{"type":"Feature","geometry":{"type":"Point","coordinates":[-3.02781,52.20067]},"properties":{"name":"Power infrastructure","category":"generator","osm_type":"node","osm_id":"6830206983"}},{"type":"Feature","geometry":{"type":"Point","coordinates":[-3.0216,52.20083]},"properties":{"name":"Power infrastructure","category":"generator","osm_type":"node","osm_id":"6830206984"}},{"type":"Feature","geometry":{"type":"Point","coordinates":[-3.0231,52.20567]},"properties":{"name":"Power infrastructure","category":"generator","osm_type":"node","osm_id":"6830209912"}},{"type":"Feature","geometry":{"type":"Point","coordinates":[-3.02835,52.20643]},"properties":{"name":"Power infrastructure","category":"generator","osm_type":"node","osm_id":"6830209913"}},{"type":"Feature","geometry":{"type":"Point","coordinates":[-3.0336,52.20574]},"properties":{"name":"Power infrastructure","category":"generator","osm_type":"node","osm_id":"6830209914"}},{"type":"Feature","geometry":{"type":"Point","coordinates":[-3.06654,52.21421]},"properties":{"name":"Power infrastructure","category":"generator","osm_type":"node","osm_id":"7072624783"}},{"type":"Feature","geometry":{"type":"Point","coordinates":[-3.09168,52.16943]},"properties":{"name":"Power infrastructure","category":"generator","osm_type":"node","osm_id":"7072911272"}},{"type":"Feature","geometry":{"type":"Point","coordinates":[-3.00196,52.27677]},"properties":{"name":"Power infrastructure","category":"generator","osm_type":"node","osm_id":"7079485257"}},{"type":"Feature","geometry":{"type":"Point","coordinates":[-3.09806,52.17386]},"properties":{"name":"Power infrastructure","category":"generator","osm_type":"node","osm_id":"7079784425"}},{"type":"Feature","geometry":{"type":"Point","coordinates":[-3.10933,52.13667]},"properties":{"name":"Power infrastructure","category":"generator","osm_type":"node","osm_id":"7120254644"}},{"type":"Feature","geometry":{"type":"Point","coordinates":[-3.00111,52.06879]},"properties":{"name":"Power infrastructure","category":"generator","osm_type":"node","osm_id":"7180827056"}},{"type":"Feature","geometry":{"type":"Point","coordinates":[-3.00143,52.06933]},"properties":{"name":"Power infrastructure","category":"generator","osm_type":"node","osm_id":"7180840086"}},{"type":"Feature","geometry":{"type":"Point","coordinates":[-3.08624,52.09186]},"properties":{"name":"Power infrastructure","category":"generator","osm_type":"node","osm_id":"7187073270"}},{"type":"Feature","geometry":{"type":"Point","coordinates":[-3.02235,52.06193]},"properties":{"name":"Power infrastructure","category":"generator","osm_type":"node","osm_id":"7188973538"}},{"type":"Feature","geometry":{"type":"Point","coordinates":[-3.03407,52.03596]},"properties":{"name":"Power infrastructure","category":"generator","osm_type":"node","osm_id":"7188995609"}},{"type":"Feature","geometry":{"type":"Point","coordinates":[-3.09061,52.12831]},"properties":{"name":"Power infrastructure","category":"generator","osm_type":"node","osm_id":"7211502742"}},{"type":"Feature","geometry":{"type":"Point","coordinates":[-3.00883,52.08954]},"properties":{"name":"Power infrastructure","category":"generator","osm_type":"node","osm_id":"7211800071"}},{"type":"Feature","geometry":{"type":"Point","coordinates":[-3.00618,52.14075]},"properties":{"name":"Power infrastructure","category":"generator","osm_type":"node","osm_id":"7212835775"}},{"type":"Feature","geometry":{"type":"Point","coordinates":[-3.00654,52.14065]},"properties":{"name":"Power infrastructure","category":"generator","osm_type":"node","osm_id":"7212835776"}},{"type":"Feature","geometry":{"type":"Point","coordinates":[-3.00432,52.14154]},"properties":{"name":"Power infrastructure","category":"generator","osm_type":"node","osm_id":"7212835777"}},{"type":"Feature","geometry":{"type":"Point","coordinates":[-3.00866,52.14206]},"properties":{"name":"Power infrastructure","category":"generator","osm_type":"node","osm_id":"7212835778"}},{"type":"Feature","geometry":{"type":"Point","coordinates":[-3.00742,52.13672]},"properties":{"name":"Power infrastructure","category":"generator","osm_type":"node","osm_id":"7212835779"}},{"type":"Feature","geometry":{"type":"Point","coordinates":[-3.00776,52.13671]},"properties":{"name":"Power infrastructure","category":"generator","osm_type":"node","osm_id":"7212835780"}},{"type":"Feature","geometry":{"type":"Point","coordinates":[-3.00775,52.13668]},"properties":{"name":"Power infrastructure","category":"generator","osm_type":"node","osm_id":"7212835781"}},{"type":"Feature","geometry":{"type":"Point","coordinates":[-3.00668,52.13759]},"properties":{"name":"Power infrastructure","category":"generator","osm_type":"node","osm_id":"7212835782"}},{"type":"Feature","geometry":{"type":"Point","coordinates":[-3.0052,52.13387]},"properties":{"name":"Power infrastructure","category":"generator","osm_type":"node","osm_id":"7212835783"}},{"type":"Feature","geometry":{"type":"Point","coordinates":[-3.02573,52.19763]},"properties":{"name":"Power infrastructure","category":"generator","osm_type":"node","osm_id":"7230593898"}},{"type":"Feature","geometry":{"type":"Point","coordinates":[-3.03157,52.17885]},"properties":{"name":"Power infrastructure","category":"generator","osm_type":"node","osm_id":"7230593938"}},{"type":"Feature","geometry":{"type":"Point","coordinates":[-3.03763,52.21184]},"properties":{"name":"Power infrastructure","category":"generator","osm_type":"node","osm_id":"7230689711"}},{"type":"Feature","geometry":{"type":"Point","coordinates":[-3.04571,52.21141]},"properties":{"name":"Power infrastructure","category":"generator","osm_type":"node","osm_id":"7284893311"}},{"type":"Feature","geometry":{"type":"Point","coordinates":[-3.03489,52.2083]},"properties":{"name":"Power infrastructure","category":"generator","osm_type":"node","osm_id":"7284893323"}},{"type":"Feature","geometry":{"type":"Point","coordinates":[-3.09225,52.09439]},"properties":{"name":"Power infrastructure","category":"generator","osm_type":"node","osm_id":"7289524037"}},{"type":"Feature","geometry":{"type":"Point","coordinates":[-3.07157,52.09204]},"properties":{"name":"Power infrastructure","category":"generator","osm_type":"node","osm_id":"7289531721"}},{"type":"Feature","geometry":{"type":"Point","coordinates":[-3.0705,52.09411]},"properties":{"name":"Power infrastructure","category":"generator","osm_type":"node","osm_id":"7289531751"}},{"type":"Feature","geometry":{"type":"Point","coordinates":[-3.0739,52.08837]},"properties":{"name":"Power infrastructure","category":"generator","osm_type":"node","osm_id":"7289532821"}},{"type":"Feature","geometry":{"type":"Point","coordinates":[-3.03038,52.18967]},"properties":{"name":"Power infrastructure","category":"generator","osm_type":"node","osm_id":"7359820250"}},{"type":"Feature","geometry":{"type":"Point","coordinates":[-3.03878,52.18188]},"properties":{"name":"Power infrastructure","category":"generator","osm_type":"node","osm_id":"7371798052"}},{"type":"Feature","geometry":{"type":"Point","coordinates":[-3.04041,52.09593]},"properties":{"name":"Power infrastructure","category":"generator","osm_type":"node","osm_id":"7373317272"}},{"type":"Feature","geometry":{"type":"Point","coordinates":[-3.0287,52.01889]},"properties":{"name":"Power infrastructure","category":"generator","osm_type":"node","osm_id":"7406250232"}},{"type":"Feature","geometry":{"type":"Point","coordinates":[-3.03004,52.03702]},"properties":{"name":"Power infrastructure","category":"generator","osm_type":"node","osm_id":"7413818031"}},{"type":"Feature","geometry":{"type":"Point","coordinates":[-3.00928,52.14325]},"properties":{"name":"Power infrastructure","category":"generator","osm_type":"node","osm_id":"7425225616"}},{"type":"Feature","geometry":{"type":"Point","coordinates":[-3.0533,52.14517]},"properties":{"name":"Power infrastructure","category":"generator","osm_type":"node","osm_id":"7425226905"}},{"type":"Feature","geometry":{"type":"Point","coordinates":[-3.07991,52.13691]},"properties":{"name":"Power infrastructure","category":"generator","osm_type":"node","osm_id":"7425227034"}},{"type":"Feature","geometry":{"type":"Point","coordinates":[-3.08089,52.13523]},"properties":{"name":"Power infrastructure","category":"generator","osm_type":"node","osm_id":"7425227038"}},{"type":"Feature","geometry":{"type":"Point","coordinates":[-3.0818,52.13671]},"properties":{"name":"Power infrastructure","category":"generator","osm_type":"node","osm_id":"7425227039"}},{"type":"Feature","geometry":{"type":"Point","coordinates":[-3.03032,52.0846]},"properties":{"name":"Power infrastructure","category":"generator","osm_type":"node","osm_id":"7494189259"}},{"type":"Feature","geometry":{"type":"Point","coordinates":[-3.13368,52.12648]},"properties":{"name":"Power infrastructure","category":"generator","osm_type":"node","osm_id":"7623241149"}},{"type":"Feature","geometry":{"type":"Point","coordinates":[-3.02539,52.42263]},"properties":{"name":"Power infrastructure","category":"generator","osm_type":"node","osm_id":"7702250031"}},{"type":"Feature","geometry":{"type":"Point","coordinates":[-3.03457,52.41814]},"properties":{"name":"Power infrastructure","category":"generator","osm_type":"node","osm_id":"7702250034"}},{"type":"Feature","geometry":{"type":"Point","coordinates":[-3.03175,52.41961]},"properties":{"name":"Power infrastructure","category":"generator","osm_type":"node","osm_id":"7702250035"}},{"type":"Feature","geometry":{"type":"Point","coordinates":[-3.02792,52.42086]},"properties":{"name":"Power infrastructure","category":"generator","osm_type":"node","osm_id":"7702250036"}},{"type":"Feature","geometry":{"type":"Point","coordinates":[-3.00045,52.49668]},"properties":{"name":"Power infrastructure","category":"generator","osm_type":"node","osm_id":"7702261120"}},{"type":"Feature","geometry":{"type":"Point","coordinates":[-3.00412,52.49629]},"properties":{"name":"Power infrastructure","category":"generator","osm_type":"node","osm_id":"7702261121"}},{"type":"Feature","geometry":{"type":"Point","coordinates":[-3.00687,52.49088]},"properties":{"name":"Power infrastructure","category":"generator","osm_type":"node","osm_id":"7702261122"}},{"type":"Feature","geometry":{"type":"Point","coordinates":[-3.00694,52.48923]},"properties":{"name":"Power infrastructure","category":"generator","osm_type":"node","osm_id":"7702261123"}},{"type":"Feature","geometry":{"type":"Point","coordinates":[-3.00673,52.48918]},"properties":{"name":"Power infrastructure","category":"generator","osm_type":"node","osm_id":"7702261124"}},{"type":"Feature","geometry":{"type":"Point","coordinates":[-3.0063,52.48907]},"properties":{"name":"Power infrastructure","category":"generator","osm_type":"node","osm_id":"7702261125"}},{"type":"Feature","geometry":{"type":"Point","coordinates":[-3.00544,52.48994]},"properties":{"name":"Power infrastructure","category":"generator","osm_type":"node","osm_id":"7702261126"}},{"type":"Feature","geometry":{"type":"Point","coordinates":[-3.00584,52.49049]},"properties":{"name":"Power infrastructure","category":"generator","osm_type":"node","osm_id":"7702261127"}},{"type":"Feature","geometry":{"type":"Point","coordinates":[-3.00539,52.49018]},"properties":{"name":"Power infrastructure","category":"generator","osm_type":"node","osm_id":"7702261128"}},{"type":"Feature","geometry":{"type":"Point","coordinates":[-3.04007,52.20198]},"properties":{"name":"Power infrastructure","category":"generator","osm_type":"node","osm_id":"7770454482"}},{"type":"Feature","geometry":{"type":"Point","coordinates":[-3.04334,52.1986]},"properties":{"name":"Power infrastructure","category":"generator","osm_type":"node","osm_id":"7770474351"}},{"type":"Feature","geometry":{"type":"Point","coordinates":[-3.04385,52.2009]},"properties":{"name":"Power infrastructure","category":"generator","osm_type":"node","osm_id":"7770474352"}},{"type":"Feature","geometry":{"type":"Point","coordinates":[-3.0419,52.20135]},"properties":{"name":"Power infrastructure","category":"generator","osm_type":"node","osm_id":"7770474353"}},{"type":"Feature","geometry":{"type":"Point","coordinates":[-3.04127,52.2019]},"properties":{"name":"Power infrastructure","category":"generator","osm_type":"node","osm_id":"7770474354"}},{"type":"Feature","geometry":{"type":"Point","coordinates":[-3.02857,52.20035]},"properties":{"name":"Power infrastructure","category":"generator","osm_type":"node","osm_id":"7770474355"}},{"type":"Feature","geometry":{"type":"Point","coordinates":[-3.02854,52.19592]},"properties":{"name":"Power infrastructure","category":"generator","osm_type":"node","osm_id":"7770474356"}},{"type":"Feature","geometry":{"type":"Point","coordinates":[-3.02799,52.19822]},"properties":{"name":"Power infrastructure","category":"generator","osm_type":"node","osm_id":"7770474357"}},{"type":"Feature","geometry":{"type":"Point","coordinates":[-3.02191,52.19852]},"properties":{"name":"Power infrastructure","category":"generator","osm_type":"node","osm_id":"7770475688"}},{"type":"Feature","geometry":{"type":"Point","coordinates":[-3.02243,52.20096]},"properties":{"name":"Power infrastructure","category":"generator","osm_type":"node","osm_id":"7770475689"}},{"type":"Feature","geometry":{"type":"Point","coordinates":[-3.02285,52.20457]},"properties":{"name":"Power infrastructure","category":"generator","osm_type":"node","osm_id":"7770475690"}},{"type":"Feature","geometry":{"type":"Point","coordinates":[-3.03616,52.20512]},"properties":{"name":"Power infrastructure","category":"generator","osm_type":"node","osm_id":"7770475715"}},{"type":"Feature","geometry":{"type":"Point","coordinates":[-3.03031,52.20274]},"properties":{"name":"Power infrastructure","category":"generator","osm_type":"node","osm_id":"7770475716"}},{"type":"Feature","geometry":{"type":"Point","coordinates":[-3.0018,52.49213]},"properties":{"name":"Power infrastructure","category":"generator","osm_type":"node","osm_id":"7794572477"}},{"type":"Feature","geometry":{"type":"Point","coordinates":[-3.00238,52.49038]},"properties":{"name":"Power infrastructure","category":"generator","osm_type":"node","osm_id":"7794600190"}},{"type":"Feature","geometry":{"type":"Point","coordinates":[-3.00258,52.49009]},"properties":{"name":"Power infrastructure","category":"generator","osm_type":"node","osm_id":"7794600191"}},{"type":"Feature","geometry":{"type":"Point","coordinates":[-3.00509,52.49171]},"properties":{"name":"Power infrastructure","category":"generator","osm_type":"node","osm_id":"7794600192"}},{"type":"Feature","geometry":{"type":"Point","coordinates":[-3.00484,52.49131]},"properties":{"name":"Power infrastructure","category":"generator","osm_type":"node","osm_id":"7794600193"}},{"type":"Feature","geometry":{"type":"Point","coordinates":[-3.00467,52.49142]},"properties":{"name":"Power infrastructure","category":"generator","osm_type":"node","osm_id":"7794600194"}},{"type":"Feature","geometry":{"type":"Point","coordinates":[-3.11035,52.49833]},"properties":{"name":"Power infrastructure","category":"generator","osm_type":"node","osm_id":"7819731044"}},{"type":"Feature","geometry":{"type":"Point","coordinates":[-3.11227,52.49832]},"properties":{"name":"Power infrastructure","category":"generator","osm_type":"node","osm_id":"7819731045"}},{"type":"Feature","geometry":{"type":"Point","coordinates":[-3.03055,52.42538]},"properties":{"name":"Power infrastructure","category":"generator","osm_type":"node","osm_id":"7827671330"}},{"type":"Feature","geometry":{"type":"Point","coordinates":[-3.03049,52.42536]},"properties":{"name":"Power infrastructure","category":"generator","osm_type":"node","osm_id":"7827671331"}},{"type":"Feature","geometry":{"type":"Point","coordinates":[-3.03096,52.42228]},"properties":{"name":"Power infrastructure","category":"generator","osm_type":"node","osm_id":"7827671334"}},{"type":"Feature","geometry":{"type":"Point","coordinates":[-3.03076,52.4213]},"properties":{"name":"Power infrastructure","category":"generator","osm_type":"node","osm_id":"7827671335"}},{"type":"Feature","geometry":{"type":"Point","coordinates":[-3.02849,52.42167]},"properties":{"name":"Power infrastructure","category":"generator","osm_type":"node","osm_id":"7827671336"}},{"type":"Feature","geometry":{"type":"Point","coordinates":[-3.02727,52.42094]},"properties":{"name":"Power infrastructure","category":"generator","osm_type":"node","osm_id":"7827671337"}},{"type":"Feature","geometry":{"type":"Point","coordinates":[-3.02721,52.42109]},"properties":{"name":"Power infrastructure","category":"generator","osm_type":"node","osm_id":"7827671338"}},{"type":"Feature","geometry":{"type":"Point","coordinates":[-3.02636,52.42074]},"properties":{"name":"Power infrastructure","category":"generator","osm_type":"node","osm_id":"7827671339"}},{"type":"Feature","geometry":{"type":"Point","coordinates":[-3.02368,52.42098]},"properties":{"name":"Power infrastructure","category":"generator","osm_type":"node","osm_id":"7827671340"}},{"type":"Feature","geometry":{"type":"Point","coordinates":[-3.03012,52.42126]},"properties":{"name":"Power infrastructure","category":"generator","osm_type":"node","osm_id":"7827677976"}},{"type":"Feature","geometry":{"type":"Point","coordinates":[-3.10747,52.43408]},"properties":{"name":"Power infrastructure","category":"generator","osm_type":"node","osm_id":"7827713785"}},{"type":"Feature","geometry":{"type":"Point","coordinates":[-3.03433,52.41873]},"properties":{"name":"Power infrastructure","category":"generator","osm_type":"node","osm_id":"7827713876"}},{"type":"Feature","geometry":{"type":"Point","coordinates":[-3.03453,52.41891]},"properties":{"name":"Power infrastructure","category":"generator","osm_type":"node","osm_id":"7827713877"}},{"type":"Feature","geometry":{"type":"Point","coordinates":[-3.03485,52.41912]},"properties":{"name":"Power infrastructure","category":"generator","osm_type":"node","osm_id":"7827713878"}},{"type":"Feature","geometry":{"type":"Point","coordinates":[-3.03361,52.42006]},"properties":{"name":"Power infrastructure","category":"generator","osm_type":"node","osm_id":"7827713879"}},{"type":"Feature","geometry":{"type":"Point","coordinates":[-3.03348,52.41963]},"properties":{"name":"Power infrastructure","category":"generator","osm_type":"node","osm_id":"7827713880"}},{"type":"Feature","geometry":{"type":"Point","coordinates":[-3.00731,52.38137]},"properties":{"name":"Power infrastructure","category":"generator","osm_type":"node","osm_id":"7830125216"}},{"type":"Feature","geometry":{"type":"Point","coordinates":[-3.04429,52.34605]},"properties":{"name":"Power infrastructure","category":"generator","osm_type":"node","osm_id":"7830166397"}},{"type":"Feature","geometry":{"type":"Point","coordinates":[-3.06324,52.35764]},"properties":{"name":"Power infrastructure","category":"generator","osm_type":"node","osm_id":"7832751956"}},{"type":"Feature","geometry":{"type":"Point","coordinates":[-3.10123,52.3716]},"properties":{"name":"Power infrastructure","category":"generator","osm_type":"node","osm_id":"7840328405"}},{"type":"Feature","geometry":{"type":"Point","coordinates":[-3.10448,52.37661]},"properties":{"name":"Power infrastructure","category":"generator","osm_type":"node","osm_id":"7840547644"}},{"type":"Feature","geometry":{"type":"Point","coordinates":[-3.09949,52.37438]},"properties":{"name":"Power infrastructure","category":"generator","osm_type":"node","osm_id":"7840561950"}},{"type":"Feature","geometry":{"type":"Point","coordinates":[-3.12997,52.38533]},"properties":{"name":"Power infrastructure","category":"generator","osm_type":"node","osm_id":"7847262812"}},{"type":"Feature","geometry":{"type":"Point","coordinates":[-3.12985,52.38475]},"properties":{"name":"Power infrastructure","category":"generator","osm_type":"node","osm_id":"7847262813"}},{"type":"Feature","geometry":{"type":"Point","coordinates":[-3.11433,52.37879]},"properties":{"name":"Power infrastructure","category":"generator","osm_type":"node","osm_id":"7847262835"}},{"type":"Feature","geometry":{"type":"Point","coordinates":[-3.11017,52.37764]},"properties":{"name":"Power infrastructure","category":"generator","osm_type":"node","osm_id":"7847262869"}},{"type":"Feature","geometry":{"type":"Point","coordinates":[-3.11345,52.37876]},"properties":{"name":"Power infrastructure","category":"generator","osm_type":"node","osm_id":"7847262870"}},{"type":"Feature","geometry":{"type":"Point","coordinates":[-3.15819,52.39993]},"properties":{"name":"Power infrastructure","category":"generator","osm_type":"node","osm_id":"7849777854"}},{"type":"Feature","geometry":{"type":"Point","coordinates":[-3.15924,52.39857]},"properties":{"name":"Power infrastructure","category":"generator","osm_type":"node","osm_id":"7849777863"}},{"type":"Feature","geometry":{"type":"Point","coordinates":[-3.17214,52.41256]},"properties":{"name":"Power infrastructure","category":"generator","osm_type":"node","osm_id":"7861165942"}},{"type":"Feature","geometry":{"type":"Point","coordinates":[-3.13131,52.39421]},"properties":{"name":"Power infrastructure","category":"generator","osm_type":"node","osm_id":"7884141823"}},{"type":"Feature","geometry":{"type":"Point","coordinates":[-3.13008,52.38552]},"properties":{"name":"Power infrastructure","category":"generator","osm_type":"node","osm_id":"7884155807"}},{"type":"Feature","geometry":{"type":"Point","coordinates":[-3.06185,52.35686]},"properties":{"name":"Power infrastructure","category":"generator","osm_type":"node","osm_id":"8073865901"}},{"type":"Feature","geometry":{"type":"Point","coordinates":[-3.0631,52.35583]},"properties":{"name":"Power infrastructure","category":"generator","osm_type":"node","osm_id":"8073865902"}},{"type":"Feature","geometry":{"type":"Point","coordinates":[-3.0785,52.36385]},"properties":{"name":"Power infrastructure","category":"generator","osm_type":"node","osm_id":"8073877058"}},{"type":"Feature","geometry":{"type":"Point","coordinates":[-3.04938,52.3722]},"properties":{"name":"Power infrastructure","category":"generator","osm_type":"node","osm_id":"8120661429"}},{"type":"Feature","geometry":{"type":"Point","coordinates":[-3.18317,52.46401]},"properties":{"name":"Power infrastructure","category":"generator","osm_type":"node","osm_id":"8146631994"}},{"type":"Feature","geometry":{"type":"Point","coordinates":[-3.01027,52.49823]},"properties":{"name":"Power infrastructure","category":"generator","osm_type":"node","osm_id":"8187838187"}},{"type":"Feature","geometry":{"type":"Point","coordinates":[-3.0019,52.49579]},"properties":{"name":"Power infrastructure","category":"generator","osm_type":"node","osm_id":"8274347330"}},{"type":"Feature","geometry":{"type":"Point","coordinates":[-3.00113,52.49559]},"properties":{"name":"Power infrastructure","category":"generator","osm_type":"node","osm_id":"8274347331"}},{"type":"Feature","geometry":{"type":"Point","coordinates":[-3.012,52.49495]},"properties":{"name":"Power infrastructure","category":"generator","osm_type":"node","osm_id":"8274358130"}},{"type":"Feature","geometry":{"type":"Point","coordinates":[-3.00174,52.48645]},"properties":{"name":"Power infrastructure","category":"generator","osm_type":"node","osm_id":"8274393304"}},{"type":"Feature","geometry":{"type":"Point","coordinates":[-3.15164,52.45643]},"properties":{"name":"Power infrastructure","category":"generator","osm_type":"node","osm_id":"8274974606"}},{"type":"Feature","geometry":{"type":"Point","coordinates":[-3.04893,52.47779]},"properties":{"name":"Power infrastructure","category":"generator","osm_type":"node","osm_id":"8299644724"}},{"type":"Feature","geometry":{"type":"Point","coordinates":[-3.08025,52.48101]},"properties":{"name":"Power infrastructure","category":"generator","osm_type":"node","osm_id":"8334814019"}},{"type":"Feature","geometry":{"type":"Point","coordinates":[-3.12553,52.46512]},"properties":{"name":"Power infrastructure","category":"generator","osm_type":"node","osm_id":"8349448013"}},{"type":"Feature","geometry":{"type":"Point","coordinates":[-3.11984,52.47136]},"properties":{"name":"Power infrastructure","category":"generator","osm_type":"node","osm_id":"8349456035"}},{"type":"Feature","geometry":{"type":"Point","coordinates":[-3.01636,52.38329]},"properties":{"name":"Power infrastructure","category":"generator","osm_type":"node","osm_id":"8377848715"}},{"type":"Feature","geometry":{"type":"Point","coordinates":[-3.05619,52.38973]},"properties":{"name":"Power infrastructure","category":"generator","osm_type":"node","osm_id":"8486998847"}},{"type":"Feature","geometry":{"type":"Point","coordinates":[-3.02456,52.19751]},"properties":{"name":"Power infrastructure","category":"generator","osm_type":"node","osm_id":"8566749011"}},{"type":"Feature","geometry":{"type":"Point","coordinates":[-3.02185,52.19853]},"properties":{"name":"Power infrastructure","category":"generator","osm_type":"node","osm_id":"8566749012"}},{"type":"Feature","geometry":{"type":"Point","coordinates":[-3.02463,52.19923]},"properties":{"name":"Power infrastructure","category":"generator","osm_type":"node","osm_id":"8566749013"}},{"type":"Feature","geometry":{"type":"Point","coordinates":[-3.02156,52.20134]},"properties":{"name":"Power infrastructure","category":"generator","osm_type":"node","osm_id":"8566749014"}},{"type":"Feature","geometry":{"type":"Point","coordinates":[-3.0299,52.20388]},"properties":{"name":"Power infrastructure","category":"generator","osm_type":"node","osm_id":"8566749015"}},{"type":"Feature","geometry":{"type":"Point","coordinates":[-3.16232,52.4251]},"properties":{"name":"Power infrastructure","category":"generator","osm_type":"node","osm_id":"8697433286"}},{"type":"Feature","geometry":{"type":"Point","coordinates":[-3.08162,52.4704]},"properties":{"name":"Power infrastructure","category":"generator","osm_type":"node","osm_id":"8867670085"}},{"type":"Feature","geometry":{"type":"Point","coordinates":[-3.08182,52.4705]},"properties":{"name":"Power infrastructure","category":"generator","osm_type":"node","osm_id":"8867670086"}},{"type":"Feature","geometry":{"type":"Point","coordinates":[-3.13447,52.42781]},"properties":{"name":"Power infrastructure","category":"generator","osm_type":"node","osm_id":"8869764597"}},{"type":"Feature","geometry":{"type":"Point","coordinates":[-3.13392,52.44867]},"properties":{"name":"Power infrastructure","category":"generator","osm_type":"node","osm_id":"8871157970"}},{"type":"Feature","geometry":{"type":"Point","coordinates":[-3.04542,52.43896]},"properties":{"name":"Power infrastructure","category":"generator","osm_type":"node","osm_id":"8890539514"}},{"type":"Feature","geometry":{"type":"Point","coordinates":[-3.07137,52.44439]},"properties":{"name":"Power infrastructure","category":"generator","osm_type":"node","osm_id":"8907610867"}},{"type":"Feature","geometry":{"type":"Point","coordinates":[-3.00811,52.4251]},"properties":{"name":"Power infrastructure","category":"generator","osm_type":"node","osm_id":"8935447987"}},{"type":"Feature","geometry":{"type":"Point","coordinates":[-3.13428,52.4278]},"properties":{"name":"Power infrastructure","category":"generator","osm_type":"node","osm_id":"9334097824"}},{"type":"Feature","geometry":{"type":"Point","coordinates":[-3.10439,52.37659]},"properties":{"name":"Power infrastructure","category":"generator","osm_type":"node","osm_id":"9334097827"}},{"type":"Feature","geometry":{"type":"Point","coordinates":[-3.16222,52.42512]},"properties":{"name":"Power infrastructure","category":"generator","osm_type":"node","osm_id":"9334403003"}},{"type":"Feature","geometry":{"type":"Point","coordinates":[-3.02795,52.20064]},"properties":{"name":"Power infrastructure","category":"generator","osm_type":"node","osm_id":"9347529813"}},{"type":"Feature","geometry":{"type":"Point","coordinates":[-3.05337,52.14513]},"properties":{"name":"Power infrastructure","category":"generator","osm_type":"node","osm_id":"9347529816"}},{"type":"Feature","geometry":{"type":"Point","coordinates":[-3.03873,52.18188]},"properties":{"name":"Power infrastructure","category":"generator","osm_type":"node","osm_id":"9347531618"}},{"type":"Feature","geometry":{"type":"Point","coordinates":[-3.02271,52.20028]},"properties":{"name":"Power infrastructure","category":"generator","osm_type":"node","osm_id":"9348317289"}},{"type":"Feature","geometry":{"type":"Point","coordinates":[-3.0738,52.08834]},"properties":{"name":"Power infrastructure","category":"generator","osm_type":"node","osm_id":"9348340161"}},{"type":"Feature","geometry":{"type":"Point","coordinates":[-3.08095,52.13522]},"properties":{"name":"Power infrastructure","category":"generator","osm_type":"node","osm_id":"9348340162"}},{"type":"Feature","geometry":{"type":"Point","coordinates":[-3.11909,52.07397]},"properties":{"name":"Power infrastructure","category":"generator","osm_type":"node","osm_id":"9353890190"}},{"type":"Feature","geometry":{"type":"Point","coordinates":[-3.11917,52.07395]},"properties":{"name":"Power infrastructure","category":"generator","osm_type":"node","osm_id":"9353890191"}},{"type":"Feature","geometry":{"type":"Point","coordinates":[-3.12006,52.07423]},"properties":{"name":"Power infrastructure","category":"generator","osm_type":"node","osm_id":"9353890192"}},{"type":"Feature","geometry":{"type":"Point","coordinates":[-3.12067,52.07765]},"properties":{"name":"Power infrastructure","category":"generator","osm_type":"node","osm_id":"9353890193"}},{"type":"Feature","geometry":{"type":"Point","coordinates":[-3.02704,52.42209]},"properties":{"name":"Power infrastructure","category":"generator","osm_type":"node","osm_id":"10821849467"}},{"type":"Feature","geometry":{"type":"Point","coordinates":[-3.02658,52.42274]},"properties":{"name":"Power infrastructure","category":"generator","osm_type":"node","osm_id":"10821849468"}},{"type":"Feature","geometry":{"type":"Point","coordinates":[-3.02346,52.42148]},"properties":{"name":"Power infrastructure","category":"generator","osm_type":"node","osm_id":"10821936126"}},{"type":"Feature","geometry":{"type":"Point","coordinates":[-3.09964,52.09907]},"properties":{"name":"Power infrastructure","category":"generator","osm_type":"node","osm_id":"12625341166"}},{"type":"Feature","geometry":{"type":"Point","coordinates":[-3.09607,52.09917]},"properties":{"name":"Power infrastructure","category":"generator","osm_type":"node","osm_id":"12625369673"}},{"type":"Feature","geometry":{"type":"Point","coordinates":[-3.00599,52.13783]},"properties":{"name":"Eardisley Substation","category":"substation","osm_type":"node","osm_id":"13403185847","operator":"National Grid Electricity Distribution Plc"}},{"type":"Feature","geometry":{"type":"Point","coordinates":[-3.00204,52.13583]},"properties":{"name":"Eardisley Sawmills Substation","category":"substation","osm_type":"node","osm_id":"13403185862","operator":"National Grid Electricity Distribution Plc"}},{"type":"Feature","geometry":{"type":"Point","coordinates":[-3.02953,52.20213]},"properties":{"name":"Lo-Cost Substation","category":"substation","osm_type":"node","osm_id":"13403186426","operator":"National Grid Electricity Distribution Plc"}},{"type":"Feature","geometry":{"type":"Point","coordinates":[-3.02117,52.19697]},"properties":{"name":"Kington Medical Centre - Rmu Substation","category":"substation","osm_type":"node","osm_id":"13403186448","operator":"National Grid Electricity Distribution Plc"}},{"type":"Feature","geometry":{"type":"Point","coordinates":[-3.02204,52.20327]},"properties":{"name":"Tan Ho. Meadows Substation","category":"substation","osm_type":"node","osm_id":"13403186467","operator":"National Grid Electricity Distribution Plc"}},{"type":"Feature","geometry":{"type":"Point","coordinates":[-3.02148,52.20642]},"properties":{"name":"Kington Sta. Substation","category":"substation","osm_type":"node","osm_id":"13403186478","operator":"National Grid Electricity Distribution Plc"}},{"type":"Feature","geometry":{"type":"Point","coordinates":[-3.02579,52.20369]},"properties":{"name":"Kington Substation","category":"substation","osm_type":"node","osm_id":"13403186479","operator":"National Grid Electricity Distribution Plc"}},{"type":"Feature","geometry":{"type":"Point","coordinates":[-3.03248,52.20525]},"properties":{"name":"Crooked Well Substation","category":"substation","osm_type":"node","osm_id":"13403186482","operator":"National Grid Electricity Distribution Plc"}},{"type":"Feature","geometry":{"type":"Point","coordinates":[-3.02765,52.2062]},"properties":{"name":"Kington Gravel Hill Substation","category":"substation","osm_type":"node","osm_id":"13403186516","operator":"National Grid Electricity Distribution Plc"}},{"type":"Feature","geometry":{"type":"Point","coordinates":[-3.02451,52.12893]},"properties":{"name":"Eardisley Pk Biomas - Generator Substation","category":"substation","osm_type":"node","osm_id":"13403187772","operator":"National Grid Electricity Distribution Plc"}},{"type":"Feature","geometry":{"type":"Point","coordinates":[-3.03762,52.20279]},"properties":{"name":"Park View Substation","category":"substation","osm_type":"node","osm_id":"13403188077","operator":"National Grid Electricity Distribution Plc"}},{"type":"Feature","geometry":{"type":"Point","coordinates":[-3.12045,52.08163]},"properties":{"name":"Clifford Road Substation","category":"substation","osm_type":"node","osm_id":"13403189989","operator":"National Grid Electricity Distribution Plc"}},{"type":"Feature","geometry":{"type":"Point","coordinates":[-3.12303,52.07919]},"properties":{"name":"Goods Yard Substation","category":"substation","osm_type":"node","osm_id":"13403190027","operator":"National Grid Electricity Distribution Plc"}},{"type":"Feature","geometry":{"type":"Point","coordinates":[-3.1182,52.07185]},"properties":{"name":"Cusop Victoria Substation","category":"substation","osm_type":"node","osm_id":"13403190225","operator":"National Grid Electricity Distribution Plc"}},{"type":"Feature","geometry":{"type":"Point","coordinates":[-3.08193,52.41504]},"properties":{"name":"Power infrastructure","category":"generator","osm_type":"node","osm_id":"13980068821"}},{"type":"Feature","geometry":{"type":"Point","coordinates":[-3.0074,52.21238]},"properties":{"name":"Kington Primary Substation","category":"substation","osm_type":"way","osm_id":"241577063","operator":"National Grid Electricity Distribution"}},{"type":"Feature","geometry":{"type":"Point","coordinates":[-3.03029,52.20377]},"properties":{"name":"High St. Substation","category":"substation","osm_type":"way","osm_id":"360777267","operator":"National Grid Electricity Distribution Plc","ref":"08298"}},{"type":"Feature","geometry":{"type":"Point","coordinates":[-3.02141,52.2073]},"properties":{"name":"Power infrastructure","category":"generator","osm_type":"way","osm_id":"729033034"}},{"type":"Feature","geometry":{"type":"Point","coordinates":[-3.02817,52.25025]},"properties":{"name":"Power infrastructure","category":"generator","osm_type":"way","osm_id":"757347466"}},{"type":"Feature","geometry":{"type":"Point","coordinates":[-3.10041,52.17459]},"properties":{"name":"Power infrastructure","category":"generator","osm_type":"way","osm_id":"758104810"}},{"type":"Feature","geometry":{"type":"Point","coordinates":[-3.10021,52.1748]},"properties":{"name":"Power infrastructure","category":"generator","osm_type":"way","osm_id":"758104811"}},{"type":"Feature","geometry":{"type":"Point","coordinates":[-3.03775,52.24057]},"properties":{"name":"Power infrastructure","category":"generator","osm_type":"way","osm_id":"761851362"}},{"type":"Feature","geometry":{"type":"Point","coordinates":[-3.03605,52.19868]},"properties":{"name":"Power infrastructure","category":"generator","osm_type":"way","osm_id":"774956335"}},{"type":"Feature","geometry":{"type":"Point","coordinates":[-3.06509,52.18299]},"properties":{"name":"Power infrastructure","category":"generator","osm_type":"way","osm_id":"775002588"}},{"type":"Feature","geometry":{"type":"Point","coordinates":[-3.06012,52.18488]},"properties":{"name":"Power infrastructure","category":"generator","osm_type":"way","osm_id":"775020346"}},{"type":"Feature","geometry":{"type":"Point","coordinates":[-3.0604,52.185]},"properties":{"name":"Power infrastructure","category":"generator","osm_type":"way","osm_id":"775020347"}},{"type":"Feature","geometry":{"type":"Point","coordinates":[-3.05961,52.18532]},"properties":{"name":"Power infrastructure","category":"generator","osm_type":"way","osm_id":"775020348"}},{"type":"Feature","geometry":{"type":"Point","coordinates":[-3.0599,52.18545]},"properties":{"name":"Power infrastructure","category":"generator","osm_type":"way","osm_id":"775020349"}},{"type":"Feature","geometry":{"type":"Point","coordinates":[-3.03021,52.18463]},"properties":{"name":"Power infrastructure","category":"generator","osm_type":"way","osm_id":"787240459"}},{"type":"Feature","geometry":{"type":"Point","coordinates":[-3.03356,52.03714]},"properties":{"name":"Power infrastructure","category":"generator","osm_type":"way","osm_id":"792903861"}},{"type":"Feature","geometry":{"type":"Point","coordinates":[-3.02332,52.19791]},"properties":{"name":"Power infrastructure","category":"generator","osm_type":"way","osm_id":"832293393"}},{"type":"Feature","geometry":{"type":"Point","coordinates":[-3.02312,52.20615]},"properties":{"name":"Power infrastructure","category":"generator","osm_type":"way","osm_id":"832293395"}},{"type":"Feature","geometry":{"type":"Point","coordinates":[-3.00302,52.4925]},"properties":{"name":"Power infrastructure","category":"generator","osm_type":"way","osm_id":"835035895"}},{"type":"Feature","geometry":{"type":"Point","coordinates":[-3.00304,52.49263]},"properties":{"name":"Power infrastructure","category":"generator","osm_type":"way","osm_id":"835035896"}},{"type":"Feature","geometry":{"type":"Point","coordinates":[-3.00331,52.49257]},"properties":{"name":"Power infrastructure","category":"generator","osm_type":"way","osm_id":"835035897"}},{"type":"Feature","geometry":{"type":"Point","coordinates":[-3.04182,52.34469]},"properties":{"name":"Power infrastructure","category":"generator","osm_type":"way","osm_id":"838766034"}},{"type":"Feature","geometry":{"type":"Point","coordinates":[-3.0971,52.37542]},"properties":{"name":"Power infrastructure","category":"generator","osm_type":"way","osm_id":"840244926"}},{"type":"Feature","geometry":{"type":"Point","coordinates":[-3.09903,52.37478]},"properties":{"name":"Power infrastructure","category":"generator","osm_type":"way","osm_id":"840244931"}},{"type":"Feature","geometry":{"type":"Point","coordinates":[-3.0778,52.36318]},"properties":{"name":"Power infrastructure","category":"generator","osm_type":"way","osm_id":"866206532"}},{"type":"Feature","geometry":{"type":"Point","coordinates":[-3.07774,52.36334]},"properties":{"name":"Power infrastructure","category":"generator","osm_type":"way","osm_id":"866206533"}},{"type":"Feature","geometry":{"type":"Point","coordinates":[-3.00571,52.37594]},"properties":{"name":"Power infrastructure","category":"generator","osm_type":"way","osm_id":"887004508"}},{"type":"Feature","geometry":{"type":"Point","coordinates":[-3.06877,52.46266]},"properties":{"name":"Power infrastructure","category":"generator","osm_type":"way","osm_id":"898536212"}},{"type":"Feature","geometry":{"type":"Point","coordinates":[-3.06673,52.46222]},"properties":{"name":"Power infrastructure","category":"generator","osm_type":"way","osm_id":"898536213"}},{"type":"Feature","geometry":{"type":"Point","coordinates":[-3.06678,52.46178]},"properties":{"name":"Power infrastructure","category":"generator","osm_type":"way","osm_id":"898536214"}},{"type":"Feature","geometry":{"type":"Point","coordinates":[-3.02101,52.44132]},"properties":{"name":"Power infrastructure","category":"generator","osm_type":"way","osm_id":"956544195"}},{"type":"Feature","geometry":{"type":"Point","coordinates":[-3.02103,52.44177]},"properties":{"name":"Power infrastructure","category":"generator","osm_type":"way","osm_id":"956544196"}},{"type":"Feature","geometry":{"type":"Point","coordinates":[-3.02101,52.44208]},"properties":{"name":"Power infrastructure","category":"generator","osm_type":"way","osm_id":"956544197"}},{"type":"Feature","geometry":{"type":"Point","coordinates":[-3.09229,52.4492]},"properties":{"name":"Power infrastructure","category":"generator","osm_type":"way","osm_id":"1011715514"}},{"type":"Feature","geometry":{"type":"Point","coordinates":[-3.02207,52.16044]},"properties":{"name":"Power infrastructure","category":"generator","osm_type":"way","osm_id":"1013192328"}},{"type":"Feature","geometry":{"type":"Point","coordinates":[-3.028,52.19994]},"properties":{"name":"Power infrastructure","category":"generator","osm_type":"way","osm_id":"1013279349"}},{"type":"Feature","geometry":{"type":"Point","coordinates":[-3.04139,52.20171]},"properties":{"name":"Power infrastructure","category":"generator","osm_type":"way","osm_id":"1013279350"}},{"type":"Feature","geometry":{"type":"Point","coordinates":[-3.0255,52.09329]},"properties":{"name":"Power infrastructure","category":"generator","osm_type":"way","osm_id":"1013279351"}},{"type":"Feature","geometry":{"type":"Point","coordinates":[-3.01796,52.20711]},"properties":{"name":"Kington Ind. Est. Substation","category":"substation","osm_type":"way","osm_id":"1461357562","operator":"National Grid Electricity Distribution Plc"}}]}