{"type":"FeatureCollection","features":[{"type":"Feature","geometry":{"type":"Point","coordinates":[-3.38421,50.75235]},"properties":{"name":"Power infrastructure","category":"substation","osm_type":"way","osm_id":"539763412","operator":"National Grid Electricity Distribution Plc"}},{"type":"Feature","geometry":{"type":"Point","coordinates":[-3.39907,50.75063]},"properties":{"name":"N7033434-10","category":"substation","osm_type":"way","osm_id":"540795216","operator":"National Grid Electricity Distribution Plc","ref":"N7033434-10"}},{"type":"Feature","geometry":{"type":"Point","coordinates":[-3.3961,50.75166]},"properties":{"name":"Power infrastructure","category":"substation","osm_type":"way","osm_id":"541791092","operator":"National Grid Electricity Distribution Plc"}},{"type":"Feature","geometry":{"type":"Point","coordinates":[-3.08882,50.99909]},"properties":{"name":"T6691","category":"substation","osm_type":"way","osm_id":"550169716","operator":"National Grid Electricity Distribution","ref":"T6691"}},{"type":"Feature","geometry":{"type":"Point","coordinates":[-3.5706,50.91639]},"properties":{"name":"West Bradley Farm","category":"plant","osm_type":"way","osm_id":"550883528"}},{"type":"Feature","geometry":{"type":"Point","coordinates":[-3.20542,50.97967]},"properties":{"name":"Power infrastructure","category":"substation","osm_type":"way","osm_id":"552003636","operator":"National Grid Electricity Distribution"}},{"type":"Feature","geometry":{"type":"Point","coordinates":[-3.23067,50.98623]},"properties":{"name":"210222","category":"substation","osm_type":"way","osm_id":"552244700","operator":"National Grid Electricity Distribution","ref":"210222"}},{"type":"Feature","geometry":{"type":"Point","coordinates":[-3.417,50.76789]},"properties":{"name":"Burrowton Farm","category":"plant","osm_type":"way","osm_id":"631071004","operator":"British Solar Renewables Ltd.","website":"https://britishrenewables.com/"}},{"type":"Feature","geometry":{"type":"Point","coordinates":[-3.4009,50.76286]},"properties":{"name":"Power infrastructure","category":"substation","osm_type":"way","osm_id":"631071207","operator":"MS Power Projects Ltd."}},{"type":"Feature","geometry":{"type":"Point","coordinates":[-3.40787,50.76593]},"properties":{"name":"Power infrastructure","category":"substation","osm_type":"way","osm_id":"631071358","operator":"NextEnergy Solar Fund Ltd."}},{"type":"Feature","geometry":{"type":"Point","coordinates":[-3.40803,50.76598]},"properties":{"name":"Power infrastructure","category":"substation","osm_type":"way","osm_id":"631071406","operator":"NextEnergy Solar Fund Ltd."}},{"type":"Feature","geometry":{"type":"Point","coordinates":[-3.4007,50.76288]},"properties":{"name":"Till House Solar Park Substation","category":"substation","osm_type":"way","osm_id":"631071413","operator":"National Grid Electricity Distribution Plc"}},{"type":"Feature","geometry":{"type":"Point","coordinates":[-3.40079,50.76287]},"properties":{"name":"Power infrastructure","category":"substation","osm_type":"way","osm_id":"631071477","operator":"MS Power Projects Ltd."}},{"type":"Feature","geometry":{"type":"Point","coordinates":[-3.59245,50.5255]},"properties":{"name":"Power infrastructure","category":"substation","osm_type":"way","osm_id":"634403003"}},{"type":"Feature","geometry":{"type":"Point","coordinates":[-3.50946,50.53993]},"properties":{"name":"Power infrastructure","category":"substation","osm_type":"way","osm_id":"636116120"}},{"type":"Feature","geometry":{"type":"Point","coordinates":[-3.59601,50.54588]},"properties":{"name":"Kingsteignton Main Substation","category":"substation","osm_type":"way","osm_id":"638344596","operator":"National Grid Electricity Distribution"}},{"type":"Feature","geometry":{"type":"Point","coordinates":[-3.39575,50.82481]},"properties":{"name":"Cullompton Solar Park Substation","category":"substation","osm_type":"way","osm_id":"654070890","operator":"National Grid Electricity Distribution"}},{"type":"Feature","geometry":{"type":"Point","coordinates":[-3.3961,50.8245]},"properties":{"name":"Power infrastructure","category":"substation","osm_type":"way","osm_id":"654070934","operator":"Hive Energy"}},{"type":"Feature","geometry":{"type":"Point","coordinates":[-3.39491,50.65681]},"properties":{"name":"COOMBE FARM 33KV SOLAR PARK","category":"substation","osm_type":"way","osm_id":"655378080","operator":"National Grid Electricity Distribution Plc"}},{"type":"Feature","geometry":{"type":"Point","coordinates":[-3.36515,50.63763]},"properties":{"name":"Liverton Farm Solar Park Substation","category":"substation","osm_type":"way","osm_id":"655383658","operator":"National Grid Electricity Distribution"}},{"type":"Feature","geometry":{"type":"Point","coordinates":[-3.43765,50.70649]},"properties":{"name":"Enfield Farm Anaerobic Digestion Plant","category":"plant","osm_type":"way","osm_id":"656263735","operator":"Greener For Life Energy"}},{"type":"Feature","geometry":{"type":"Point","coordinates":[-3.12189,50.93406]},"properties":{"name":"Power infrastructure","category":"substation","osm_type":"way","osm_id":"661675355","operator":"Anesco"}},{"type":"Feature","geometry":{"type":"Point","coordinates":[-3.12784,50.93049]},"properties":{"name":"Power infrastructure","category":"plant","osm_type":"way","osm_id":"661675365","operator":"Culmhead Business Centre"}},{"type":"Feature","geometry":{"type":"Point","coordinates":[-3.12455,50.92715]},"properties":{"name":"Culmhead 33kV Solar Park","category":"substation","osm_type":"way","osm_id":"661675600","operator":"National Grid Electricity Distribution Plc"}},{"type":"Feature","geometry":{"type":"Point","coordinates":[-3.46345,50.74934]},"properties":{"name":"Power infrastructure","category":"substation","osm_type":"way","osm_id":"666571566","operator":"National Grid Electricity Distribution Plc"}},{"type":"Feature","geometry":{"type":"Point","coordinates":[-3.46476,50.74686]},"properties":{"name":"Power infrastructure","category":"substation","osm_type":"way","osm_id":"666814243","operator":"National Grid Electricity Distribution Plc"}},{"type":"Feature","geometry":{"type":"Point","coordinates":[-3.46144,50.74647]},"properties":{"name":"Power infrastructure","category":"substation","osm_type":"way","osm_id":"668590751","operator":"National Grid Electricity Distribution Plc"}},{"type":"Feature","geometry":{"type":"Point","coordinates":[-3.46769,50.77195]},"properties":{"name":"Power infrastructure","category":"substation","osm_type":"way","osm_id":"668803584","operator":"Lightsource BP"}},{"type":"Feature","geometry":{"type":"Point","coordinates":[-3.46759,50.77202]},"properties":{"name":"Francis Court Farm Substation","category":"substation","osm_type":"way","osm_id":"668803585","operator":"National Grid Electricity Distribution Plc"}},{"type":"Feature","geometry":{"type":"Point","coordinates":[-3.35927,50.89705]},"properties":{"name":"DNO Substation","category":"substation","osm_type":"way","osm_id":"673507655","operator":"National Grid Electricity Distribution"}},{"type":"Feature","geometry":{"type":"Point","coordinates":[-3.36105,50.89744]},"properties":{"name":"Langlands Solar Farm","category":"plant","osm_type":"way","osm_id":"673507744","operator":"Bluefield Solar Income Fund","website":"https://bluefieldsif.com/"}},{"type":"Feature","geometry":{"type":"Point","coordinates":[-3.39352,50.89913]},"properties":{"name":"DNO Substation","category":"substation","osm_type":"way","osm_id":"673719003","operator":"National Grid Electricity Distribution"}},{"type":"Feature","geometry":{"type":"Point","coordinates":[-3.38452,50.87886]},"properties":{"name":"Power infrastructure","category":"substation","osm_type":"way","osm_id":"675071183","operator":"Green Energy International"}},{"type":"Feature","geometry":{"type":"Point","coordinates":[-3.38463,50.87892]},"properties":{"name":"Stoneshill Solar Park Substation","category":"substation","osm_type":"way","osm_id":"675071211","operator":"National Grid Electricity Distribution"}},{"type":"Feature","geometry":{"type":"Point","coordinates":[-3.40861,50.85737]},"properties":{"name":"Power infrastructure","category":"substation","osm_type":"way","osm_id":"676398897","operator":"National Grid Electricity Distribution"}},{"type":"Feature","geometry":{"type":"Point","coordinates":[-3.40354,50.85719]},"properties":{"name":"Power infrastructure","category":"substation","osm_type":"way","osm_id":"679344243","operator":"National Grid Electricity Distribution"}},{"type":"Feature","geometry":{"type":"Point","coordinates":[-3.40306,50.85919]},"properties":{"name":"Power infrastructure","category":"substation","osm_type":"way","osm_id":"682052814","operator":"National Grid Electricity Distribution"}},{"type":"Feature","geometry":{"type":"Point","coordinates":[-3.34915,50.92968]},"properties":{"name":"Ayshford Solar Farm","category":"plant","osm_type":"way","osm_id":"688883404","operator":"Lightsource BP","website":"https://www.lightsourcebp.com/"}},{"type":"Feature","geometry":{"type":"Point","coordinates":[-3.47424,50.95232]},"properties":{"name":"Blatchworthy Farm","category":"plant","osm_type":"way","osm_id":"688883405","operator":"Lightsource Renewable Energy"}},{"type":"Feature","geometry":{"type":"Point","coordinates":[-3.78811,50.83356]},"properties":{"name":"Ellicombe Farm","category":"plant","osm_type":"way","osm_id":"689086418","operator":"Lightsource BP"}},{"type":"Feature","geometry":{"type":"Point","coordinates":[-3.47303,50.70295]},"properties":{"name":"Power infrastructure","category":"substation","osm_type":"way","osm_id":"692998932"}},{"type":"Feature","geometry":{"type":"Point","coordinates":[-3.34771,50.72969]},"properties":{"name":"Great Houndbeare Farm","category":"plant","osm_type":"way","osm_id":"714483780","operator":"Sunsave 49 SPV (prev. Cherry Solar)"}},{"type":"Feature","geometry":{"type":"Point","coordinates":[-3.49905,50.73411]},"properties":{"name":"Whipton Substation","category":"substation","osm_type":"way","osm_id":"752053433","operator":"National Grid Electricity Distribution"}},{"type":"Feature","geometry":{"type":"Point","coordinates":[-3.39407,50.75366]},"properties":{"name":"Power infrastructure","category":"substation","osm_type":"way","osm_id":"758776134","operator":"National Grid Electricity Distribution Plc"}},{"type":"Feature","geometry":{"type":"Point","coordinates":[-3.5337,50.70252]},"properties":{"name":"Power infrastructure","category":"generator","osm_type":"way","osm_id":"762715114"}},{"type":"Feature","geometry":{"type":"Point","coordinates":[-3.42745,50.73923]},"properties":{"name":"Power infrastructure","category":"substation","osm_type":"way","osm_id":"766580605","operator":"National Grid Electricity Distribution Plc"}},{"type":"Feature","geometry":{"type":"Point","coordinates":[-3.39184,50.75268]},"properties":{"name":"Power infrastructure","category":"substation","osm_type":"way","osm_id":"769499403","operator":"National Grid Electricity Distribution Plc"}},{"type":"Feature","geometry":{"type":"Point","coordinates":[-3.52349,50.70725]},"properties":{"name":"Water Lane gas engines","category":"generator","osm_type":"way","osm_id":"823517375"}},{"type":"Feature","geometry":{"type":"Point","coordinates":[-3.35062,50.92822]},"properties":{"name":"Ayshford Court Farm Solar Park Substation","category":"substation","osm_type":"way","osm_id":"830162507","operator":"National Grid Electricity Distribution"}},{"type":"Feature","geometry":{"type":"Point","coordinates":[-3.63547,50.79067]},"properties":{"name":"Power infrastructure","category":"generator","osm_type":"way","osm_id":"837976969"}},{"type":"Feature","geometry":{"type":"Point","coordinates":[-3.52395,50.72776]},"properties":{"name":"Power infrastructure","category":"substation","osm_type":"way","osm_id":"839380152","operator":"National Grid Electricity Distribution"}},{"type":"Feature","geometry":{"type":"Point","coordinates":[-3.50296,50.91233]},"properties":{"name":"Power infrastructure","category":"substation","osm_type":"way","osm_id":"850296539"}},{"type":"Feature","geometry":{"type":"Point","coordinates":[-3.499,50.72791]},"properties":{"name":"Hamlin Gardens Electricity Substation","category":"substation","osm_type":"way","osm_id":"856037905","operator":"National Grid Electricity Distribution","ref":"31/4994"}},{"type":"Feature","geometry":{"type":"Point","coordinates":[-3.65806,50.54551]},"properties":{"name":"Power infrastructure","category":"substation","osm_type":"way","osm_id":"859033171"}},{"type":"Feature","geometry":{"type":"Point","coordinates":[-3.61065,50.57314]},"properties":{"name":"Power infrastructure","category":"plant","osm_type":"way","osm_id":"943364695","operator":"Viridor Waste Management Ltd"}},{"type":"Feature","geometry":{"type":"Point","coordinates":[-3.51392,50.69558]},"properties":{"name":"Power infrastructure","category":"plant","osm_type":"way","osm_id":"943854462"}},{"type":"Feature","geometry":{"type":"Point","coordinates":[-3.53151,50.58997]},"properties":{"name":"Ashcombe Solar Park Substation","category":"substation","osm_type":"way","osm_id":"945053453"}},{"type":"Feature","geometry":{"type":"Point","coordinates":[-3.38447,50.6946]},"properties":{"name":"Hogsbrook Farm Anerobic Digestion Plant","category":"plant","osm_type":"way","osm_id":"956255092","operator":"Greener for Life Energy"}},{"type":"Feature","geometry":{"type":"Point","coordinates":[-3.60995,50.57315]},"properties":{"name":"Heathfield 'C' Landfill Scheme","category":"plant","osm_type":"way","osm_id":"956255096","operator":"Haul Waste Limited"}},{"type":"Feature","geometry":{"type":"Point","coordinates":[-3.12087,50.93472]},"properties":{"name":"Tricky Warren Switching Station","category":"substation","osm_type":"way","osm_id":"974769418","operator":"National Grid Electricity Distribution Plc"}},{"type":"Feature","geometry":{"type":"Point","coordinates":[-3.25224,50.98079]},"properties":{"name":"Tonedale Farm Solar Park Substation","category":"substation","osm_type":"way","osm_id":"974769422","operator":"National Grid Electricity Distribution Plc"}},{"type":"Feature","geometry":{"type":"Point","coordinates":[-3.12264,50.93489]},"properties":{"name":"Tricky Warren 33kV Solar","category":"substation","osm_type":"way","osm_id":"974769438","operator":"National Grid Electricity Distribution Plc"}},{"type":"Feature","geometry":{"type":"Point","coordinates":[-3.57091,50.70522]},"properties":{"name":"Power infrastructure","category":"generator","osm_type":"way","osm_id":"983219632"}},{"type":"Feature","geometry":{"type":"Point","coordinates":[-3.55219,50.68747]},"properties":{"name":"Power infrastructure","category":"generator","osm_type":"way","osm_id":"986043834"}},{"type":"Feature","geometry":{"type":"Point","coordinates":[-3.55064,50.68734]},"properties":{"name":"Power infrastructure","category":"generator","osm_type":"way","osm_id":"986043835"}},{"type":"Feature","geometry":{"type":"Point","coordinates":[-3.5515,50.68716]},"properties":{"name":"Power infrastructure","category":"generator","osm_type":"way","osm_id":"986043839"}},{"type":"Feature","geometry":{"type":"Point","coordinates":[-3.55096,50.68734]},"properties":{"name":"Power infrastructure","category":"generator","osm_type":"way","osm_id":"986043840"}},{"type":"Feature","geometry":{"type":"Point","coordinates":[-3.38986,50.75561]},"properties":{"name":"Power infrastructure","category":"substation","osm_type":"way","osm_id":"995064320","operator":"National Grid Electricity Distribution Plc"}},{"type":"Feature","geometry":{"type":"Point","coordinates":[-3.38754,50.75147]},"properties":{"name":"Power infrastructure","category":"substation","osm_type":"way","osm_id":"1000381080","operator":"National Grid Electricity Distribution Plc"}},{"type":"Feature","geometry":{"type":"Point","coordinates":[-3.46803,50.75005]},"properties":{"name":"Power infrastructure","category":"substation","osm_type":"way","osm_id":"1017480507","operator":"National Grid Electricity Distribution Plc"}},{"type":"Feature","geometry":{"type":"Point","coordinates":[-3.45885,50.75153]},"properties":{"name":"Power infrastructure","category":"plant","osm_type":"way","osm_id":"1018292046"}},{"type":"Feature","geometry":{"type":"Point","coordinates":[-3.77596,50.8342]},"properties":{"name":"Sharland Farm Solar Park Substation","category":"substation","osm_type":"way","osm_id":"1087697133","operator":"National Grid Electricity Distribution"}},{"type":"Feature","geometry":{"type":"Point","coordinates":[-3.78745,50.83303]},"properties":{"name":"Ellicombe Solar Farm Substation","category":"substation","osm_type":"way","osm_id":"1087697136","operator":"National Grid Electricity Distribution"}},{"type":"Feature","geometry":{"type":"Point","coordinates":[-3.21563,50.97423]},"properties":{"name":"Power infrastructure","category":"substation","osm_type":"way","osm_id":"1100963438","operator":"National Grid Electricity Distribution"}},{"type":"Feature","geometry":{"type":"Point","coordinates":[-3.4708,50.73322]},"properties":{"name":"Power infrastructure","category":"substation","osm_type":"way","osm_id":"1103454164"}},{"type":"Feature","geometry":{"type":"Point","coordinates":[-3.09228,50.99617]},"properties":{"name":"211236","category":"substation","osm_type":"way","osm_id":"1160928524","operator":"National Grid Electricity Distribution Plc","ref":"211236"}},{"type":"Feature","geometry":{"type":"Point","coordinates":[-3.39937,50.75226]},"properties":{"name":"Power infrastructure","category":"substation","osm_type":"way","osm_id":"1180099443","operator":"National Grid Electricity Distribution"}},{"type":"Feature","geometry":{"type":"Point","coordinates":[-3.40106,50.75183]},"properties":{"name":"Power infrastructure","category":"substation","osm_type":"way","osm_id":"1180099444","operator":"National Grid Electricity Distribution"}},{"type":"Feature","geometry":{"type":"Point","coordinates":[-3.20865,50.97864]},"properties":{"name":"Power infrastructure","category":"substation","osm_type":"way","osm_id":"1190069456","operator":"National Grid Electricity Distribution"}},{"type":"Feature","geometry":{"type":"Point","coordinates":[-3.20688,50.97948]},"properties":{"name":"Stringers S/S","category":"substation","osm_type":"way","osm_id":"1190069635","operator":"National Grid Electricity Distribution","ref":"Stringers S/S"}},{"type":"Feature","geometry":{"type":"Point","coordinates":[-3.20713,50.98445]},"properties":{"name":"Chelston Manor Business Park","category":"substation","osm_type":"way","osm_id":"1208650586","operator":"National Grid Electricity Distribution","ref":"T8707"}},{"type":"Feature","geometry":{"type":"Point","coordinates":[-3.20333,50.98504]},"properties":{"name":"Power infrastructure","category":"substation","osm_type":"way","osm_id":"1208650758","operator":"National Grid Electricity Distribution"}},{"type":"Feature","geometry":{"type":"Point","coordinates":[-3.2022,50.98462]},"properties":{"name":"Power infrastructure","category":"substation","osm_type":"way","osm_id":"1208650797","operator":"National Grid Electricity Distribution"}},{"type":"Feature","geometry":{"type":"Point","coordinates":[-3.20073,50.98437]},"properties":{"name":"Chelston Business Park","category":"substation","osm_type":"way","osm_id":"1208651264","operator":"National Grid Electricity Distribution","ref":"218361"}},{"type":"Feature","geometry":{"type":"Point","coordinates":[-3.39997,50.75137]},"properties":{"name":"Power infrastructure","category":"substation","osm_type":"way","osm_id":"1223092686","operator":"National Grid Electricity Distribution"}},{"type":"Feature","geometry":{"type":"Point","coordinates":[-3.46265,50.742]},"properties":{"name":"Power infrastructure","category":"substation","osm_type":"way","osm_id":"1257012680","operator":"National Grid Electricity Distribution Plc"}},{"type":"Feature","geometry":{"type":"Point","coordinates":[-3.46212,50.74359]},"properties":{"name":"Croucher Close Electricity Sub-Station","category":"substation","osm_type":"way","osm_id":"1257013109","operator":"National Grid Electricity Distribution Plc","ref":"T31/7611"}},{"type":"Feature","geometry":{"type":"Point","coordinates":[-3.46955,50.71402]},"properties":{"name":"Power infrastructure","category":"substation","osm_type":"way","osm_id":"1369023789","operator":"National Grid Electricity Distribution"}},{"type":"Feature","geometry":{"type":"Point","coordinates":[-3.5347,50.72157]},"properties":{"name":"Fore road Sub","category":"substation","osm_type":"way","osm_id":"1385780759","operator":"National Grid Electricity Distribution (South West) plc"}},{"type":"Feature","geometry":{"type":"Point","coordinates":[-3.40387,50.85098]},"properties":{"name":"Power infrastructure","category":"substation","osm_type":"way","osm_id":"1411039272","operator":"National Grid Electricity Distribution Plc"}},{"type":"Feature","geometry":{"type":"Point","coordinates":[-3.45168,50.73469]},"properties":{"name":"Power infrastructure","category":"substation","osm_type":"way","osm_id":"1517671142"}},{"type":"Feature","geometry":{"type":"Point","coordinates":[-3.38218,50.7536]},"properties":{"name":"Power infrastructure","category":"substation","osm_type":"way","osm_id":"1525950494","operator":"National Grid Electricity Distribution Plc"}}]}