{"type":"FeatureCollection","features":[{"type":"Feature","geometry":{"type":"Point","coordinates":[-5.23121,49.97588]},"properties":{"name":"Kynance Cove Substation","category":"substation","osm_type":"node","osm_id":"822864020","operator":"National Grid Electricity Distribution","ref":"415614"}},{"type":"Feature","geometry":{"type":"Point","coordinates":[-5.21741,49.97373]},"properties":{"name":"Kyance Carn Goon Substation","category":"substation","osm_type":"node","osm_id":"823182723","operator":"National Grid Electricity Distribution"}},{"type":"Feature","geometry":{"type":"Point","coordinates":[-5.21574,49.99481]},"properties":{"name":"Power infrastructure","category":"generator","osm_type":"node","osm_id":"7728373217"}},{"type":"Feature","geometry":{"type":"Point","coordinates":[-5.18855,49.99352]},"properties":{"name":"Power infrastructure","category":"generator","osm_type":"node","osm_id":"7728373218"}},{"type":"Feature","geometry":{"type":"Point","coordinates":[-5.18648,49.99516]},"properties":{"name":"Power infrastructure","category":"generator","osm_type":"node","osm_id":"7728373219"}},{"type":"Feature","geometry":{"type":"Point","coordinates":[-5.18664,49.99515]},"properties":{"name":"Power infrastructure","category":"generator","osm_type":"node","osm_id":"7728373220"}},{"type":"Feature","geometry":{"type":"Point","coordinates":[-5.18449,49.99463]},"properties":{"name":"Power infrastructure","category":"generator","osm_type":"node","osm_id":"7728373221"}},{"type":"Feature","geometry":{"type":"Point","coordinates":[-5.18396,49.99489]},"properties":{"name":"Power infrastructure","category":"generator","osm_type":"node","osm_id":"7728373222"}},{"type":"Feature","geometry":{"type":"Point","coordinates":[-5.18205,49.9932]},"properties":{"name":"Power infrastructure","category":"generator","osm_type":"node","osm_id":"7728373223"}},{"type":"Feature","geometry":{"type":"Point","coordinates":[-5.18163,49.99354]},"properties":{"name":"Power infrastructure","category":"generator","osm_type":"node","osm_id":"7728373224"}},{"type":"Feature","geometry":{"type":"Point","coordinates":[-5.18295,49.99268]},"properties":{"name":"Power infrastructure","category":"generator","osm_type":"node","osm_id":"7728373225"}},{"type":"Feature","geometry":{"type":"Point","coordinates":[-5.18383,49.99274]},"properties":{"name":"Power infrastructure","category":"generator","osm_type":"node","osm_id":"7728373226"}},{"type":"Feature","geometry":{"type":"Point","coordinates":[-5.1838,49.9927]},"properties":{"name":"Power infrastructure","category":"generator","osm_type":"node","osm_id":"7728373227"}},{"type":"Feature","geometry":{"type":"Point","coordinates":[-5.18206,49.99254]},"properties":{"name":"Power infrastructure","category":"generator","osm_type":"node","osm_id":"7728373228"}},{"type":"Feature","geometry":{"type":"Point","coordinates":[-5.18204,49.99254]},"properties":{"name":"Power infrastructure","category":"generator","osm_type":"node","osm_id":"7728373229"}},{"type":"Feature","geometry":{"type":"Point","coordinates":[-5.18212,49.99258]},"properties":{"name":"Power infrastructure","category":"generator","osm_type":"node","osm_id":"7728373230"}},{"type":"Feature","geometry":{"type":"Point","coordinates":[-5.18082,49.98799]},"properties":{"name":"Power infrastructure","category":"generator","osm_type":"node","osm_id":"7728373287"}},{"type":"Feature","geometry":{"type":"Point","coordinates":[-5.1833,49.98841]},"properties":{"name":"Power infrastructure","category":"generator","osm_type":"node","osm_id":"7728373288"}},{"type":"Feature","geometry":{"type":"Point","coordinates":[-5.18324,49.98841]},"properties":{"name":"Power infrastructure","category":"generator","osm_type":"node","osm_id":"7728373289"}},{"type":"Feature","geometry":{"type":"Point","coordinates":[-5.18299,49.98794]},"properties":{"name":"Power infrastructure","category":"generator","osm_type":"node","osm_id":"7728373290"}},{"type":"Feature","geometry":{"type":"Point","coordinates":[-5.18348,49.98767]},"properties":{"name":"Power infrastructure","category":"generator","osm_type":"node","osm_id":"7728373291"}},{"type":"Feature","geometry":{"type":"Point","coordinates":[-5.18324,49.98756]},"properties":{"name":"Power infrastructure","category":"generator","osm_type":"node","osm_id":"7728373292"}},{"type":"Feature","geometry":{"type":"Point","coordinates":[-5.18458,49.98565]},"properties":{"name":"Power infrastructure","category":"generator","osm_type":"node","osm_id":"7728373293"}},{"type":"Feature","geometry":{"type":"Point","coordinates":[-5.19835,49.97867]},"properties":{"name":"Power infrastructure","category":"generator","osm_type":"node","osm_id":"7728373294"}},{"type":"Feature","geometry":{"type":"Point","coordinates":[-5.19813,49.9787]},"properties":{"name":"Power infrastructure","category":"generator","osm_type":"node","osm_id":"7728373295"}},{"type":"Feature","geometry":{"type":"Point","coordinates":[-5.205,49.96873]},"properties":{"name":"Power infrastructure","category":"generator","osm_type":"node","osm_id":"7728373296"}},{"type":"Feature","geometry":{"type":"Point","coordinates":[-5.20408,49.97008]},"properties":{"name":"Power infrastructure","category":"generator","osm_type":"node","osm_id":"7728373297"}},{"type":"Feature","geometry":{"type":"Point","coordinates":[-5.20387,49.96983]},"properties":{"name":"Power infrastructure","category":"generator","osm_type":"node","osm_id":"7728373298"}},{"type":"Feature","geometry":{"type":"Point","coordinates":[-5.20386,49.96998]},"properties":{"name":"Power infrastructure","category":"generator","osm_type":"node","osm_id":"7728373299"}},{"type":"Feature","geometry":{"type":"Point","coordinates":[-5.20384,49.96994]},"properties":{"name":"Power infrastructure","category":"generator","osm_type":"node","osm_id":"7728373300"}},{"type":"Feature","geometry":{"type":"Point","coordinates":[-5.20426,49.96966]},"properties":{"name":"Power infrastructure","category":"generator","osm_type":"node","osm_id":"7728373301"}},{"type":"Feature","geometry":{"type":"Point","coordinates":[-5.20234,49.96983]},"properties":{"name":"Power infrastructure","category":"generator","osm_type":"node","osm_id":"7728373302"}},{"type":"Feature","geometry":{"type":"Point","coordinates":[-5.20123,49.97076]},"properties":{"name":"Power infrastructure","category":"generator","osm_type":"node","osm_id":"7728373303"}},{"type":"Feature","geometry":{"type":"Point","coordinates":[-5.20117,49.96998]},"properties":{"name":"Power infrastructure","category":"generator","osm_type":"node","osm_id":"7728373304"}},{"type":"Feature","geometry":{"type":"Point","coordinates":[-5.20142,49.97008]},"properties":{"name":"Power infrastructure","category":"generator","osm_type":"node","osm_id":"7728373305"}},{"type":"Feature","geometry":{"type":"Point","coordinates":[-5.20171,49.96907]},"properties":{"name":"Power infrastructure","category":"generator","osm_type":"node","osm_id":"7728373306"}},{"type":"Feature","geometry":{"type":"Point","coordinates":[-5.19863,49.96958]},"properties":{"name":"Power infrastructure","category":"generator","osm_type":"node","osm_id":"7728373309"}},{"type":"Feature","geometry":{"type":"Point","coordinates":[-5.19787,49.97103]},"properties":{"name":"Power infrastructure","category":"generator","osm_type":"node","osm_id":"7728373310"}},{"type":"Feature","geometry":{"type":"Point","coordinates":[-5.19855,49.97057]},"properties":{"name":"Power infrastructure","category":"generator","osm_type":"node","osm_id":"7728373311"}},{"type":"Feature","geometry":{"type":"Point","coordinates":[-5.1994,49.97081]},"properties":{"name":"Power infrastructure","category":"generator","osm_type":"node","osm_id":"7728373312"}},{"type":"Feature","geometry":{"type":"Point","coordinates":[-5.20046,49.9713]},"properties":{"name":"Power infrastructure","category":"generator","osm_type":"node","osm_id":"7728373313"}},{"type":"Feature","geometry":{"type":"Point","coordinates":[-5.20126,49.9714]},"properties":{"name":"Power infrastructure","category":"generator","osm_type":"node","osm_id":"7728373314"}},{"type":"Feature","geometry":{"type":"Point","coordinates":[-5.20406,49.97134]},"properties":{"name":"Power infrastructure","category":"generator","osm_type":"node","osm_id":"7728373315"}},{"type":"Feature","geometry":{"type":"Point","coordinates":[-5.20247,49.97265]},"properties":{"name":"Power infrastructure","category":"generator","osm_type":"node","osm_id":"7728373316"}},{"type":"Feature","geometry":{"type":"Point","coordinates":[-5.2026,49.97266]},"properties":{"name":"Power infrastructure","category":"generator","osm_type":"node","osm_id":"7728373317"}},{"type":"Feature","geometry":{"type":"Point","coordinates":[-5.20287,49.97264]},"properties":{"name":"Power infrastructure","category":"generator","osm_type":"node","osm_id":"7728373318"}},{"type":"Feature","geometry":{"type":"Point","coordinates":[-5.20289,49.9727]},"properties":{"name":"Power infrastructure","category":"generator","osm_type":"node","osm_id":"7728373319"}},{"type":"Feature","geometry":{"type":"Point","coordinates":[-5.20342,49.97217]},"properties":{"name":"Power infrastructure","category":"generator","osm_type":"node","osm_id":"7728373320"}},{"type":"Feature","geometry":{"type":"Point","coordinates":[-5.2034,49.97225]},"properties":{"name":"Power infrastructure","category":"generator","osm_type":"node","osm_id":"7728373321"}},{"type":"Feature","geometry":{"type":"Point","coordinates":[-5.20288,49.97248]},"properties":{"name":"Power infrastructure","category":"generator","osm_type":"node","osm_id":"7728373322"}},{"type":"Feature","geometry":{"type":"Point","coordinates":[-5.20301,49.97247]},"properties":{"name":"Power infrastructure","category":"generator","osm_type":"node","osm_id":"7728373323"}},{"type":"Feature","geometry":{"type":"Point","coordinates":[-5.20312,49.97245]},"properties":{"name":"Power infrastructure","category":"generator","osm_type":"node","osm_id":"7728373324"}},{"type":"Feature","geometry":{"type":"Point","coordinates":[-5.20326,49.97243]},"properties":{"name":"Power infrastructure","category":"generator","osm_type":"node","osm_id":"7728373325"}},{"type":"Feature","geometry":{"type":"Point","coordinates":[-5.20338,49.97241]},"properties":{"name":"Power infrastructure","category":"generator","osm_type":"node","osm_id":"7728373326"}},{"type":"Feature","geometry":{"type":"Point","coordinates":[-5.20198,49.97234]},"properties":{"name":"Power infrastructure","category":"generator","osm_type":"node","osm_id":"7728373327"}},{"type":"Feature","geometry":{"type":"Point","coordinates":[-5.20204,49.97238]},"properties":{"name":"Power infrastructure","category":"generator","osm_type":"node","osm_id":"7728373328"}},{"type":"Feature","geometry":{"type":"Point","coordinates":[-5.20257,49.97246]},"properties":{"name":"Power infrastructure","category":"generator","osm_type":"node","osm_id":"7728373331"}},{"type":"Feature","geometry":{"type":"Point","coordinates":[-5.20249,49.97239]},"properties":{"name":"Power infrastructure","category":"generator","osm_type":"node","osm_id":"7728373332"}},{"type":"Feature","geometry":{"type":"Point","coordinates":[-5.20228,49.97223]},"properties":{"name":"Power infrastructure","category":"generator","osm_type":"node","osm_id":"7728373333"}},{"type":"Feature","geometry":{"type":"Point","coordinates":[-5.20242,49.97215]},"properties":{"name":"Power infrastructure","category":"generator","osm_type":"node","osm_id":"7728373334"}},{"type":"Feature","geometry":{"type":"Point","coordinates":[-5.20249,49.97204]},"properties":{"name":"Power infrastructure","category":"generator","osm_type":"node","osm_id":"7728373335"}},{"type":"Feature","geometry":{"type":"Point","coordinates":[-5.20267,49.97205]},"properties":{"name":"Power infrastructure","category":"generator","osm_type":"node","osm_id":"7728373336"}},{"type":"Feature","geometry":{"type":"Point","coordinates":[-5.20277,49.97225]},"properties":{"name":"Power infrastructure","category":"generator","osm_type":"node","osm_id":"7728373337"}},{"type":"Feature","geometry":{"type":"Point","coordinates":[-5.20293,49.97226]},"properties":{"name":"Power infrastructure","category":"generator","osm_type":"node","osm_id":"7728373338"}},{"type":"Feature","geometry":{"type":"Point","coordinates":[-5.203,49.97209]},"properties":{"name":"Power infrastructure","category":"generator","osm_type":"node","osm_id":"7728373339"}},{"type":"Feature","geometry":{"type":"Point","coordinates":[-5.20284,49.97207]},"properties":{"name":"Power infrastructure","category":"generator","osm_type":"node","osm_id":"7728373340"}},{"type":"Feature","geometry":{"type":"Point","coordinates":[-5.20225,49.97186]},"properties":{"name":"Power infrastructure","category":"generator","osm_type":"node","osm_id":"7728373341"}},{"type":"Feature","geometry":{"type":"Point","coordinates":[-5.21053,49.96967]},"properties":{"name":"Power infrastructure","category":"generator","osm_type":"node","osm_id":"7728373342"}},{"type":"Feature","geometry":{"type":"Point","coordinates":[-5.20782,49.96994]},"properties":{"name":"Power infrastructure","category":"generator","osm_type":"node","osm_id":"7728373343"}},{"type":"Feature","geometry":{"type":"Point","coordinates":[-5.19823,49.96935]},"properties":{"name":"Power infrastructure","category":"generator","osm_type":"node","osm_id":"7728373344"}},{"type":"Feature","geometry":{"type":"Point","coordinates":[-5.20288,49.96867]},"properties":{"name":"Power infrastructure","category":"generator","osm_type":"node","osm_id":"7728373345"}},{"type":"Feature","geometry":{"type":"Point","coordinates":[-5.20535,49.96669]},"properties":{"name":"Power infrastructure","category":"generator","osm_type":"node","osm_id":"7728373346"}},{"type":"Feature","geometry":{"type":"Point","coordinates":[-5.20549,49.96664]},"properties":{"name":"Power infrastructure","category":"generator","osm_type":"node","osm_id":"7728373347"}},{"type":"Feature","geometry":{"type":"Point","coordinates":[-5.20541,49.96662]},"properties":{"name":"Power infrastructure","category":"generator","osm_type":"node","osm_id":"7728373348"}},{"type":"Feature","geometry":{"type":"Point","coordinates":[-5.1886,49.9938]},"properties":{"name":"Power infrastructure","category":"generator","osm_type":"node","osm_id":"8115058679"}},{"type":"Feature","geometry":{"type":"Point","coordinates":[-5.18827,49.99143]},"properties":{"name":"Power infrastructure","category":"generator","osm_type":"node","osm_id":"8115058680"}},{"type":"Feature","geometry":{"type":"Point","coordinates":[-5.19375,49.96451]},"properties":{"name":"Power infrastructure","category":"generator","osm_type":"node","osm_id":"8187967816"}},{"type":"Feature","geometry":{"type":"Point","coordinates":[-5.19508,49.96539]},"properties":{"name":"Power infrastructure","category":"generator","osm_type":"node","osm_id":"8187969217"}},{"type":"Feature","geometry":{"type":"Point","coordinates":[-5.20297,49.96904]},"properties":{"name":"Power infrastructure","category":"generator","osm_type":"node","osm_id":"8187971747"}},{"type":"Feature","geometry":{"type":"Point","coordinates":[-5.20226,49.97072]},"properties":{"name":"Power infrastructure","category":"generator","osm_type":"node","osm_id":"8187972691"}},{"type":"Feature","geometry":{"type":"Point","coordinates":[-5.20164,49.97122]},"properties":{"name":"Power infrastructure","category":"generator","osm_type":"node","osm_id":"8187972692"}},{"type":"Feature","geometry":{"type":"Point","coordinates":[-5.20222,49.97254]},"properties":{"name":"Power infrastructure","category":"generator","osm_type":"node","osm_id":"8187973471"}},{"type":"Feature","geometry":{"type":"Point","coordinates":[-5.20231,49.9726]},"properties":{"name":"Power infrastructure","category":"generator","osm_type":"node","osm_id":"8187973475"}},{"type":"Feature","geometry":{"type":"Point","coordinates":[-5.18004,49.9878]},"properties":{"name":"Cadgwith Substation","category":"substation","osm_type":"node","osm_id":"8831841965","operator":"National Grid Electricity Distribution"}},{"type":"Feature","geometry":{"type":"Point","coordinates":[-5.20449,49.96048]},"properties":{"name":"Lizard Point Substation","category":"substation","osm_type":"node","osm_id":"8831841980","operator":"National Grid Electricity Distribution"}},{"type":"Feature","geometry":{"type":"Point","coordinates":[-5.18688,49.99487]},"properties":{"name":"Power infrastructure","category":"generator","osm_type":"node","osm_id":"10214454681"}},{"type":"Feature","geometry":{"type":"Point","coordinates":[-5.18673,49.99108]},"properties":{"name":"Power infrastructure","category":"generator","osm_type":"node","osm_id":"10214459665"}},{"type":"Feature","geometry":{"type":"Point","coordinates":[-5.18841,49.99353]},"properties":{"name":"Power infrastructure","category":"generator","osm_type":"node","osm_id":"10214459897"}},{"type":"Feature","geometry":{"type":"Point","coordinates":[-5.18838,49.99367]},"properties":{"name":"Power infrastructure","category":"generator","osm_type":"node","osm_id":"10214459910"}},{"type":"Feature","geometry":{"type":"Point","coordinates":[-5.19239,49.99648]},"properties":{"name":"Power infrastructure","category":"generator","osm_type":"node","osm_id":"10214459927"}},{"type":"Feature","geometry":{"type":"Point","coordinates":[-5.18996,49.99594]},"properties":{"name":"Power infrastructure","category":"generator","osm_type":"node","osm_id":"10214459974"}},{"type":"Feature","geometry":{"type":"Point","coordinates":[-5.18279,49.9919]},"properties":{"name":"Power infrastructure","category":"generator","osm_type":"node","osm_id":"10214460186"}},{"type":"Feature","geometry":{"type":"Point","coordinates":[-5.18461,49.99217]},"properties":{"name":"Power infrastructure","category":"generator","osm_type":"node","osm_id":"10214460211"}},{"type":"Feature","geometry":{"type":"Point","coordinates":[-5.18625,49.99474]},"properties":{"name":"Power infrastructure","category":"generator","osm_type":"node","osm_id":"10214460553"}},{"type":"Feature","geometry":{"type":"Point","coordinates":[-5.18111,49.99298]},"properties":{"name":"Power infrastructure","category":"generator","osm_type":"node","osm_id":"10214460657"}},{"type":"Feature","geometry":{"type":"Point","coordinates":[-5.18181,49.99266]},"properties":{"name":"Power infrastructure","category":"generator","osm_type":"node","osm_id":"10214460658"}},{"type":"Feature","geometry":{"type":"Point","coordinates":[-5.18443,49.98232]},"properties":{"name":"Power infrastructure","category":"generator","osm_type":"node","osm_id":"10217181859"}},{"type":"Feature","geometry":{"type":"Point","coordinates":[-5.18992,49.98932]},"properties":{"name":"Power infrastructure","category":"generator","osm_type":"node","osm_id":"10217182822"}},{"type":"Feature","geometry":{"type":"Point","coordinates":[-5.209,49.98604]},"properties":{"name":"Power infrastructure","category":"generator","osm_type":"node","osm_id":"10225853199"}},{"type":"Feature","geometry":{"type":"Point","coordinates":[-5.20906,49.9856]},"properties":{"name":"Power infrastructure","category":"generator","osm_type":"node","osm_id":"10225853200"}},{"type":"Feature","geometry":{"type":"Point","coordinates":[-5.20901,49.9856]},"properties":{"name":"Power infrastructure","category":"generator","osm_type":"node","osm_id":"10225853201"}},{"type":"Feature","geometry":{"type":"Point","coordinates":[-5.20901,49.98583]},"properties":{"name":"Power infrastructure","category":"generator","osm_type":"node","osm_id":"10225853216"}},{"type":"Feature","geometry":{"type":"Point","coordinates":[-5.20906,49.98604]},"properties":{"name":"Power infrastructure","category":"generator","osm_type":"node","osm_id":"10225853221"}},{"type":"Feature","geometry":{"type":"Point","coordinates":[-5.21322,49.99787]},"properties":{"name":"Power infrastructure","category":"generator","osm_type":"node","osm_id":"11598341412"}},{"type":"Feature","geometry":{"type":"Point","coordinates":[-5.1808,49.9837]},"properties":{"name":"Power infrastructure","category":"generator","osm_type":"way","osm_id":"854258967"}},{"type":"Feature","geometry":{"type":"Point","coordinates":[-5.17762,49.98777]},"properties":{"name":"Power infrastructure","category":"generator","osm_type":"way","osm_id":"854258989"}},{"type":"Feature","geometry":{"type":"Point","coordinates":[-5.19968,49.96922]},"properties":{"name":"Power infrastructure","category":"generator","osm_type":"way","osm_id":"880295473"}},{"type":"Feature","geometry":{"type":"Point","coordinates":[-5.19956,49.96936]},"properties":{"name":"Power infrastructure","category":"generator","osm_type":"way","osm_id":"880295474"}},{"type":"Feature","geometry":{"type":"Point","coordinates":[-5.19568,49.99701]},"properties":{"name":"Power infrastructure","category":"generator","osm_type":"way","osm_id":"1117836921"}},{"type":"Feature","geometry":{"type":"Point","coordinates":[-5.19701,49.99737]},"properties":{"name":"Power infrastructure","category":"generator","osm_type":"way","osm_id":"1117836922"}},{"type":"Feature","geometry":{"type":"Point","coordinates":[-5.19697,49.99745]},"properties":{"name":"Power infrastructure","category":"generator","osm_type":"way","osm_id":"1117836923"}},{"type":"Feature","geometry":{"type":"Point","coordinates":[-5.19692,49.99753]},"properties":{"name":"Power infrastructure","category":"generator","osm_type":"way","osm_id":"1117836924"}}]}