{"type":"FeatureCollection","features":[{"type":"Feature","geometry":{"type":"Point","coordinates":[-0.5027,51.87321]},"properties":{"name":"Larwood School","category":"school","osm_type":"way","osm_id":"1459901854","operator":"Brighter Futures Educational Trust","website":"https://larwood.org.uk/","addr:city":"Dunstable","addr:postcode":"LU6 3LY"}},{"type":"Feature","geometry":{"type":"Point","coordinates":[-0.7341,52.47215]},"properties":{"name":"Danesholme Junior Academy","category":"school","osm_type":"way","osm_id":"1460176830","operator":"Greenwood Academies Trust","ref":"9282178","website":"https://www.danesholmejunioracademy.org/","addr:city":"Corby","addr:postcode":"NN18 9DT","capacity":"360"}},{"type":"Feature","geometry":{"type":"Point","coordinates":[-1.60863,54.95987]},"properties":{"name":"Yeshivas Nezer Hatorah","category":"college","osm_type":"way","osm_id":"1462581622"}},{"type":"Feature","geometry":{"type":"Point","coordinates":[-1.93762,52.45617]},"properties":{"name":"University of Birmingham Pritchatts Park Village","category":"university","osm_type":"way","osm_id":"1462634701","website":"https://www.birmingham.ac.uk/study/accommodation/our-villages/pritchatts-park-village"}},{"type":"Feature","geometry":{"type":"Point","coordinates":[-1.93382,52.44638]},"properties":{"name":"University of Birmingham Selly Oak Village","category":"university","osm_type":"way","osm_id":"1462637728","website":"https://www.birmingham.ac.uk/study/accommodation/our-villages/selly-oak-village"}},{"type":"Feature","geometry":{"type":"Point","coordinates":[-1.4972,53.54585]},"properties":{"name":"Trinity Academy St Edward's School","category":"school","osm_type":"way","osm_id":"1462854881"}},{"type":"Feature","geometry":{"type":"Point","coordinates":[-1.23456,54.54799]},"properties":{"name":"Schools and higher education","category":"school","osm_type":"way","osm_id":"1463212884"}},{"type":"Feature","geometry":{"type":"Point","coordinates":[-0.66528,52.08713]},"properties":{"name":"Wellies Day Nursery","category":"kindergarten","osm_type":"way","osm_id":"1463677983"}},{"type":"Feature","geometry":{"type":"Point","coordinates":[-0.49848,51.99106]},"properties":{"name":"Merry Poppets Nursery","category":"kindergarten","osm_type":"way","osm_id":"1463703078"}},{"type":"Feature","geometry":{"type":"Point","coordinates":[-1.05378,50.79223]},"properties":{"name":"Wind in the Willows","category":"kindergarten","osm_type":"way","osm_id":"1464105381","website":"https://www.windinthewillowspreschool.co.uk/","addr:city":"Portsmouth","addr:postcode":"PO4 8HB"}},{"type":"Feature","geometry":{"type":"Point","coordinates":[0.33512,53.14803]},"properties":{"name":"Skegness Children's Centre","category":"kindergarten","osm_type":"way","osm_id":"1464122212","website":"https://www.lincolnshire.gov.uk/directory-record/62618/skegness-children-s-centre-part-of-the-family-hubs-programme","addr:city":"Skegness","addr:postcode":"PE25 2QT"}},{"type":"Feature","geometry":{"type":"Point","coordinates":[-1.11216,52.59608]},"properties":{"name":"Schools and higher education","category":"school","osm_type":"way","osm_id":"1465113756"}},{"type":"Feature","geometry":{"type":"Point","coordinates":[0.51244,51.0854]},"properties":{"name":"Schools and higher education","category":"school","osm_type":"way","osm_id":"1465659877"}},{"type":"Feature","geometry":{"type":"Point","coordinates":[-2.01552,52.50567]},"properties":{"name":"Nova Training","category":"college","osm_type":"way","osm_id":"1466119941","operator":"Nova Training","website":"https://novatraining.co.uk/training-centres/oldbury-sandwell"}},{"type":"Feature","geometry":{"type":"Point","coordinates":[-0.0579,51.5497]},"properties":{"name":"Pembury Preshool","category":"kindergarten","osm_type":"way","osm_id":"1466274224"}},{"type":"Feature","geometry":{"type":"Point","coordinates":[-0.07327,52.74424]},"properties":{"name":"Moulton Chapel Primary School","category":"school","osm_type":"way","osm_id":"1466404115","operator":"Lincolnshire County Council","website":"https://www.moultonchapel.lincs.sch.uk/","addr:city":"Spalding","addr:postcode":"PE12 0XJ","capacity":"78"}},{"type":"Feature","geometry":{"type":"Point","coordinates":[-0.31512,51.74542]},"properties":{"name":"Little Stars Pre-School Nursery","category":"kindergarten","osm_type":"way","osm_id":"1466826629","website":"https://www.littlestarspreschoolnursery.co.uk/","addr:city":"St Albans","addr:postcode":"AL1 5QJ"}},{"type":"Feature","geometry":{"type":"Point","coordinates":[-0.09435,51.51917]},"properties":{"name":"City of London School for Girls","category":"school","osm_type":"way","osm_id":"1467662623","operator":"City of London","website":"https://www.clsg.org.uk/","addr:city":"London","addr:postcode":"EC2Y 8BB","capacity":"860"}},{"type":"Feature","geometry":{"type":"Point","coordinates":[0.03828,53.72331]},"properties":{"name":"Sycamore House School","category":"school","osm_type":"way","osm_id":"1468018318","operator":"Hexagon Care Services","website":"https://www.hexagoncare.com/","addr:city":"Withernsea","addr:postcode":"HU19 2NT","capacity":"4"}},{"type":"Feature","geometry":{"type":"Point","coordinates":[-0.45055,51.37545]},"properties":{"name":"Schools and higher education","category":"kindergarten","osm_type":"way","osm_id":"1468983877"}},{"type":"Feature","geometry":{"type":"Point","coordinates":[-2.44406,52.67932]},"properties":{"name":"Schools and higher education","category":"university","osm_type":"way","osm_id":"1469219213"}},{"type":"Feature","geometry":{"type":"Point","coordinates":[-4.14325,50.37747]},"properties":{"name":"Schools and higher education","category":"university","osm_type":"way","osm_id":"1469430870"}},{"type":"Feature","geometry":{"type":"Point","coordinates":[-1.52123,53.37947]},"properties":{"name":"The Old School House","category":"kindergarten","osm_type":"way","osm_id":"1469630643","addr:city":"Sheffield","addr:postcode":"S10 5NF"}},{"type":"Feature","geometry":{"type":"Point","coordinates":[-1.05443,50.87598]},"properties":{"name":"Newlands Primary Academy","category":"school","osm_type":"way","osm_id":"1470254510"}},{"type":"Feature","geometry":{"type":"Point","coordinates":[-2.57092,51.51506]},"properties":{"name":"Eden Early Years","category":"kindergarten","osm_type":"way","osm_id":"1470290653","operator":"independent","website":"https://www.edenearlyyears.com/","opening_hours":"Mo-Fr 07:00-18:00","addr:city":"Bristol","addr:postcode":"BS34 7BH"}},{"type":"Feature","geometry":{"type":"Point","coordinates":[-1.41132,53.52501]},"properties":{"name":"Kids World","category":"school","osm_type":"way","osm_id":"1471623791"}},{"type":"Feature","geometry":{"type":"Point","coordinates":[-1.53714,52.25668]},"properties":{"name":"Oakley School","category":"school","osm_type":"way","osm_id":"1473393526"}},{"type":"Feature","geometry":{"type":"Point","coordinates":[-0.08147,51.45892]},"properties":{"name":"The Charter School East Dulwich","category":"school","osm_type":"way","osm_id":"1473808075","website":"https://www.chartereastdulwich.org.uk/","addr:city":"London","addr:postcode":"SE22 8RB"}},{"type":"Feature","geometry":{"type":"Point","coordinates":[0.50873,51.40467]},"properties":{"name":"Maritime Academy","category":"school","osm_type":"way","osm_id":"1474755369","operator":"The Thinking Schools Academy Trust","website":"https://www.maritimeacademy.org.uk/","addr:city":"Rochester","addr:postcode":"ME2 4YG","capacity":"1150"}},{"type":"Feature","geometry":{"type":"Point","coordinates":[0.46313,51.11343]},"properties":{"name":"Goudhurst Village Pre-School","category":"school","osm_type":"way","osm_id":"1474807032"}},{"type":"Feature","geometry":{"type":"Point","coordinates":[-1.50322,53.37095]},"properties":{"name":"The Old School House","category":"kindergarten","osm_type":"way","osm_id":"1475530297","addr:city":"Sheffield","addr:postcode":"S11 8RU"}},{"type":"Feature","geometry":{"type":"Point","coordinates":[-0.11984,50.84207]},"properties":{"name":"University of Brighton Moulesecoomb Campus","category":"university","osm_type":"way","osm_id":"1475973800"}},{"type":"Feature","geometry":{"type":"Point","coordinates":[-0.01193,51.56322]},"properties":{"name":"Strawberry Fields Nursery","category":"kindergarten","osm_type":"way","osm_id":"1476110569","website":"https://strawberryfieldsnursery.co.uk/","addr:city":"London","addr:postcode":"E10 5EP"}},{"type":"Feature","geometry":{"type":"Point","coordinates":[-0.60333,52.07424]},"properties":{"name":"Cranfield Church of England Academy","category":"school","osm_type":"way","osm_id":"1476243835"}},{"type":"Feature","geometry":{"type":"Point","coordinates":[-0.44333,51.89089]},"properties":{"name":"Kiddies Kingdom","category":"kindergarten","osm_type":"way","osm_id":"1476600267","addr:city":"Luton","addr:postcode":"LU4 8JZ"}},{"type":"Feature","geometry":{"type":"Point","coordinates":[-0.44288,51.8907]},"properties":{"name":"Treetop Nursery","category":"kindergarten","osm_type":"way","osm_id":"1476600269"}},{"type":"Feature","geometry":{"type":"Point","coordinates":[-0.57897,51.23984]},"properties":{"name":"Surrey Maths School","category":"school","osm_type":"way","osm_id":"1476663137"}},{"type":"Feature","geometry":{"type":"Point","coordinates":[-1.77912,51.57793]},"properties":{"name":"EOTAS – Riverside College","category":"school","osm_type":"way","osm_id":"1478554746","operator":"Swindon Borough Council","website":"https://www.eotas.org.uk/","addr:city":"Swindon","addr:postcode":"SN2 1FH"}},{"type":"Feature","geometry":{"type":"Point","coordinates":[-0.88696,52.0482]},"properties":{"name":"Willow Tree Pre-School","category":"kindergarten","osm_type":"way","osm_id":"1478672515","addr:city":"Milton Keynes","addr:postcode":"MK19 6HJ"}},{"type":"Feature","geometry":{"type":"Point","coordinates":[-0.85637,51.37616]},"properties":{"name":"Schools and higher education","category":"kindergarten","osm_type":"way","osm_id":"1479644770"}},{"type":"Feature","geometry":{"type":"Point","coordinates":[-1.45019,52.54364]},"properties":{"name":"Higham Lane North Academy","category":"school","osm_type":"way","osm_id":"1479966021","operator":"Central England Academy Trust","website":"https://www.hlna.co.uk/","addr:city":"Nuneaton","addr:postcode":"CV11 6YN","capacity":"920"}},{"type":"Feature","geometry":{"type":"Point","coordinates":[-2.70977,53.76091]},"properties":{"name":"University of Lancashire Pre-School Centre","category":"kindergarten","osm_type":"way","osm_id":"1481635978","operator":"University of Lancashire","website":"https://www.lancashire.ac.uk/support/pre-school","capacity":"90"}},{"type":"Feature","geometry":{"type":"Point","coordinates":[-1.65269,55.03737]},"properties":{"name":"Great Park Academy","category":"school","osm_type":"way","osm_id":"1481714469","operator":"The Gosforth Federated Academies Limited","website":"https://www.greatparkacademy.org.uk/","addr:city":"Newcastle upon Tyne","addr:postcode":"NE13 9FR","capacity":"1200"}},{"type":"Feature","geometry":{"type":"Point","coordinates":[-1.74022,53.78616]},"properties":{"name":"Bowling Park Primary School (Usher Street Site)","category":"school","osm_type":"way","osm_id":"1484180979"}},{"type":"Feature","geometry":{"type":"Point","coordinates":[0.41,52.74238]},"properties":{"name":"Little Bunnies Day Nursery","category":"kindergarten","osm_type":"way","osm_id":"1485125264","website":"https://www.littlebunniesnursery.com/","addr:city":"King's Lynn","addr:postcode":"PE30 4NE"}},{"type":"Feature","geometry":{"type":"Point","coordinates":[-2.24648,52.34799]},"properties":{"name":"Leapgate Activity Centre","category":"school","osm_type":"way","osm_id":"1485623888","addr:postcode":"DY13 9JH"}},{"type":"Feature","geometry":{"type":"Point","coordinates":[-0.02179,51.5463]},"properties":{"name":"University of Staffordshire London Campus","category":"university","osm_type":"way","osm_id":"1489375000"}},{"type":"Feature","geometry":{"type":"Point","coordinates":[0.81882,51.88376]},"properties":{"name":"Schools and higher education","category":"kindergarten","osm_type":"way","osm_id":"1489435644"}},{"type":"Feature","geometry":{"type":"Point","coordinates":[-0.02286,51.54753]},"properties":{"name":"University College London Here East","category":"university","osm_type":"way","osm_id":"1489604487"}},{"type":"Feature","geometry":{"type":"Point","coordinates":[-0.02323,51.54823]},"properties":{"name":"Loughborough University London","category":"university","osm_type":"way","osm_id":"1489604488","website":"https://www.lborolondon.ac.uk/","wheelchair":"yes","addr:city":"London","addr:postcode":"E15 2GZ"}},{"type":"Feature","geometry":{"type":"Point","coordinates":[-1.90037,50.75494]},"properties":{"name":"Longspee School (satellite site)","category":"school","osm_type":"way","osm_id":"1490953692"}},{"type":"Feature","geometry":{"type":"Point","coordinates":[-0.07856,51.33209]},"properties":{"name":"Schools and higher education","category":"kindergarten","osm_type":"way","osm_id":"1491235248"}},{"type":"Feature","geometry":{"type":"Point","coordinates":[-1.52635,52.27149]},"properties":{"name":"Whitnash Primary School","category":"school","osm_type":"way","osm_id":"1491362779","operator":"Warwickshire County Council","website":"https://www.whitnashprimaryschool.com/","addr:city":"Leamington Spa","addr:postcode":"CV31 2EX","capacity":"420"}},{"type":"Feature","geometry":{"type":"Point","coordinates":[-0.28743,51.41279]},"properties":{"name":"Spring School","category":"school","osm_type":"way","osm_id":"1491484081","operator":"Ambitious about Autism Schools","website":"https://www.springschool.org.uk/","addr:city":"Kingston upon Thames","addr:postcode":"KT2 7AB"}},{"type":"Feature","geometry":{"type":"Point","coordinates":[-2.59321,51.45629]},"properties":{"name":"Access Creative College","category":"college","osm_type":"way","osm_id":"1491603973","addr:city":"Bristol","addr:postcode":"BS1 2LZ"}},{"type":"Feature","geometry":{"type":"Point","coordinates":[-0.24246,51.96795]},"properties":{"name":"North Herts Education Support Centre","category":"school","osm_type":"way","osm_id":"1493320689","operator":"Hertfordshire County Council","website":"https://northhertsesc.herts.sch.uk/","addr:postcode":"SG6 3LY"}},{"type":"Feature","geometry":{"type":"Point","coordinates":[-0.22457,52.01645]},"properties":{"name":"The Academy of Central Bedfordshire","category":"school","osm_type":"way","osm_id":"1493455720","operator":"The Academy of Central Bedfordshire","website":"https://www.acb.beds.sch.uk/","addr:city":"Stotfold","addr:postcode":"SG5 4NE"}},{"type":"Feature","geometry":{"type":"Point","coordinates":[0.68399,51.72764]},"properties":{"name":"Plume Academy Mill Road Campus","category":"school","osm_type":"way","osm_id":"1493514469","operator":"Plume School","website":"https://www.plume.essex.sch.uk/","addr:city":"Maldon","addr:postcode":"CM9 5DU"}},{"type":"Feature","geometry":{"type":"Point","coordinates":[-1.07635,52.6529]},"properties":{"name":"Avanti Fields School","category":"school","osm_type":"way","osm_id":"1493534911","website":"https://www.avantifields.org.uk/","addr:city":"Leicester","addr:postcode":"LE5 0BX"}},{"type":"Feature","geometry":{"type":"Point","coordinates":[-0.61052,51.50602]},"properties":{"name":"Grove Academy","category":"school","osm_type":"way","osm_id":"1493887280","operator":"The Slough and East Berkshire C of E Multi Academy Trust","website":"https://www.groveacademy.co.uk","addr:city":"Slough","addr:postcode":"SL1 2SR","capacity":"1940"}},{"type":"Feature","geometry":{"type":"Point","coordinates":[-1.18427,52.94668]},"properties":{"name":"Kids Planet","category":"kindergarten","osm_type":"way","osm_id":"1493978522","website":"https://kidsplanetdaynurseries.co.uk/","addr:city":"Nottingham","addr:postcode":"NG7 2DZ"}},{"type":"Feature","geometry":{"type":"Point","coordinates":[-1.42886,54.71108]},"properties":{"name":"Trimdon Hill School","category":"school","osm_type":"way","osm_id":"1495400175","website":"https://www.trimdonhillschool.co.uk/","addr:city":"Trimdon","addr:postcode":"TS29 6EY","capacity":"42"}},{"type":"Feature","geometry":{"type":"Point","coordinates":[-1.28534,52.77387]},"properties":{"name":"Bowman Academy","category":"school","osm_type":"way","osm_id":"1496216521","operator":"Community Inclusive Trust","website":"https://bowman-cit.co.uk/","addr:city":"Loughborough","addr:postcode":"LE12 9BN","capacity":"64"}},{"type":"Feature","geometry":{"type":"Point","coordinates":[-1.1121,51.38818]},"properties":{"name":"Jubilee Day Nursery","category":"kindergarten","osm_type":"way","osm_id":"1496584930"}},{"type":"Feature","geometry":{"type":"Point","coordinates":[1.4173,51.33411]},"properties":{"name":"Chatham & Clarendon Grammar School - Sixth Form","category":"school","osm_type":"way","osm_id":"1496654496","operator":"Chatham & Clarendon Grammar School","website":"https://www.ccgrammarschool.co.uk/","addr:city":"Ramsgate","addr:postcode":"CT11 9AL"}},{"type":"Feature","geometry":{"type":"Point","coordinates":[1.28962,52.63617]},"properties":{"name":"St Eds Training Centre","category":"college","osm_type":"way","osm_id":"1496733667"}},{"type":"Feature","geometry":{"type":"Point","coordinates":[-2.48565,53.24641]},"properties":{"name":"OneSchool Global Northwich","category":"school","osm_type":"way","osm_id":"1496916137","website":"https://www.oneschoolglobal.com/campus/united-kingdom/northwich/","addr:city":"Northwich","addr:postcode":"CW9 7UE","capacity":"160"}},{"type":"Feature","geometry":{"type":"Point","coordinates":[-0.40256,51.88185]},"properties":{"name":"Hart Hill Nursery School","category":"kindergarten","osm_type":"way","osm_id":"1497090536","operator":"Luton Borough Council","website":"https://www.harthillnursery.co.uk/","addr:city":"Luton","addr:postcode":"LU2 0JS"}},{"type":"Feature","geometry":{"type":"Point","coordinates":[-0.38364,51.89453]},"properties":{"name":"Someries Infant and Junior Schools","category":"school","osm_type":"way","osm_id":"1497094644"}},{"type":"Feature","geometry":{"type":"Point","coordinates":[-3.09473,54.19063]},"properties":{"name":"Sandside Lodge School","category":"school","osm_type":"way","osm_id":"1497122720","operator":"Westmorland and Furness Council","website":"https://www.sandsidelodge.cumbria.sch.uk/","addr:postcode":"LA12 0DZ","capacity":"92"}},{"type":"Feature","geometry":{"type":"Point","coordinates":[-0.44696,51.36848]},"properties":{"name":"Schools and higher education","category":"kindergarten","osm_type":"way","osm_id":"1497184662"}},{"type":"Feature","geometry":{"type":"Point","coordinates":[0.52695,51.3528]},"properties":{"name":"Fortis Trust","category":"school","osm_type":"way","osm_id":"1497356587","operator":"Fortis Trust","website":"https://www.fortistrust.co.uk","addr:city":"Chatham","addr:postcode":"ME5 0LB"}},{"type":"Feature","geometry":{"type":"Point","coordinates":[0.54512,51.23411]},"properties":{"name":"Schools and higher education","category":"kindergarten","osm_type":"way","osm_id":"1498154414"}},{"type":"Feature","geometry":{"type":"Point","coordinates":[0.54572,51.22909]},"properties":{"name":"Schools and higher education","category":"kindergarten","osm_type":"way","osm_id":"1498154428"}},{"type":"Feature","geometry":{"type":"Point","coordinates":[-0.93753,50.84748]},"properties":{"name":"Lift Off","category":"school","osm_type":"way","osm_id":"1498444816","operator":"Bishop Luffa Lerning Partnership"}},{"type":"Feature","geometry":{"type":"Point","coordinates":[-0.03577,53.5529]},"properties":{"name":"Thrunscoe Primary and Nursery Academy","category":"school","osm_type":"way","osm_id":"1498845245","website":"https://thrunscoeacademy.co.uk/","addr:city":"Cleethorpes","addr:postcode":"DN35 8UL","capacity":"315"}},{"type":"Feature","geometry":{"type":"Point","coordinates":[-2.58499,51.69986]},"properties":{"name":"Schools and higher education","category":"school","osm_type":"way","osm_id":"1498868449"}},{"type":"Feature","geometry":{"type":"Point","coordinates":[-1.77648,53.81671]},"properties":{"name":"Bradford University School of Management","category":"university","osm_type":"way","osm_id":"1499386853","website":"https://www.bradford.ac.uk/faculties/management-sciences-engineering/management/"}},{"type":"Feature","geometry":{"type":"Point","coordinates":[-0.80855,52.24916]},"properties":{"name":"Home From Home","category":"kindergarten","osm_type":"way","osm_id":"1499647171","website":"https://monkeypuzzleriverside.co.uk/","opening_hours":"Mo-Fr 07:30-18:30","addr:city":"Northampton","addr:postcode":"NN3 9BX"}},{"type":"Feature","geometry":{"type":"Point","coordinates":[1.08072,51.29198]},"properties":{"name":"St Stephen's Infant School","category":"school","osm_type":"way","osm_id":"1499649458","operator":"Turner Schools","website":"https://www.turnerststephensinfant.com/","addr:city":"Canterbury","addr:postcode":"CT2 7AB","capacity":"270"}},{"type":"Feature","geometry":{"type":"Point","coordinates":[-2.08678,51.89849]},"properties":{"name":"Schools and higher education","category":"school","osm_type":"way","osm_id":"1500293383"}},{"type":"Feature","geometry":{"type":"Point","coordinates":[-2.08479,51.89742]},"properties":{"name":"Schools and higher education","category":"school","osm_type":"way","osm_id":"1500293384"}},{"type":"Feature","geometry":{"type":"Point","coordinates":[-2.08306,51.89727]},"properties":{"name":"Schools and higher education","category":"school","osm_type":"way","osm_id":"1500293385"}},{"type":"Feature","geometry":{"type":"Point","coordinates":[0.04011,50.78674]},"properties":{"name":"Seahaven Academy","category":"school","osm_type":"way","osm_id":"1502059300","operator":"United Learning Trust","website":"https://www.seahavenacademy.org.uk/","addr:city":"Newhaven","addr:postcode":"BN9 9TD","capacity":"900"}},{"type":"Feature","geometry":{"type":"Point","coordinates":[0.26001,50.86689]},"properties":{"name":"The Ropemakers' Academy","category":"school","osm_type":"way","osm_id":"1502063216","operator":"The Beckmead Trust","website":"https://www.beckmeadtrust.org/ropemakers","addr:city":"Hailsham","addr:postcode":"BN27 1FB","capacity":"80"}},{"type":"Feature","geometry":{"type":"Point","coordinates":[-0.81602,52.25164]},"properties":{"name":"Ecton Brook Primary School - Bellinge Campus","category":"school","osm_type":"way","osm_id":"1502729057","operator":"Northampton Primary Academy Trust","ref":"9282290","website":"https://www.ectonbrook.org.uk/","addr:city":"Northampton","addr:postcode":"NN3 9DG"}},{"type":"Feature","geometry":{"type":"Point","coordinates":[-2.36562,52.07686]},"properties":{"name":"Colwall CofE Primary School and Nursery","category":"school","osm_type":"way","osm_id":"1502988421","website":"https://www.colwallceprimary.co.uk/","addr:city":"Malvern","addr:postcode":"WR13 6EQ","capacity":"210"}},{"type":"Feature","geometry":{"type":"Point","coordinates":[-0.47607,52.08677]},"properties":{"name":"Willow Grove Primary School","category":"school","osm_type":"way","osm_id":"1504353308","operator":"Kingsbridge Educational Trust","website":"https://www.willowgrove.school/","addr:city":"Bedford","addr:postcode":"MK45 3TE","capacity":"840"}},{"type":"Feature","geometry":{"type":"Point","coordinates":[-0.46744,52.08835]},"properties":{"name":"Schools and higher education","category":"school","osm_type":"way","osm_id":"1504353310"}},{"type":"Feature","geometry":{"type":"Point","coordinates":[-0.47112,52.08854]},"properties":{"name":"Schools and higher education","category":"school","osm_type":"way","osm_id":"1504353311"}},{"type":"Feature","geometry":{"type":"Point","coordinates":[-0.45983,52.09039]},"properties":{"name":"Schools and higher education","category":"school","osm_type":"way","osm_id":"1505732594"}},{"type":"Feature","geometry":{"type":"Point","coordinates":[-1.92784,52.45728]},"properties":{"name":"Elms Day Nursery","category":"kindergarten","osm_type":"way","osm_id":"1507441306","ref":"G22","addr:city":"Birmingham","addr:postcode":"B15 2RS"}},{"type":"Feature","geometry":{"type":"Point","coordinates":[-3.6368,50.58605]},"properties":{"name":"Schools and higher education","category":"kindergarten","osm_type":"way","osm_id":"1507492475"}},{"type":"Feature","geometry":{"type":"Point","coordinates":[-1.2934,52.95913]},"properties":{"name":"R.E.A.L Ilkeston","category":"school","osm_type":"way","osm_id":"1507512283","website":"https://real-education.org/"}},{"type":"Feature","geometry":{"type":"Point","coordinates":[-0.44638,51.39276]},"properties":{"name":"Shepperton Preschool","category":"kindergarten","osm_type":"way","osm_id":"1508044993","website":"https://sheppertonpreschool.com","addr:city":"Shepperton","addr:postcode":"TW17 9DH"}},{"type":"Feature","geometry":{"type":"Point","coordinates":[-2.98546,53.85286]},"properties":{"name":"Kids Planet Poulton","category":"kindergarten","osm_type":"way","osm_id":"1509591066","addr:city":"Poulton-le-Fylde","addr:postcode":"FY6 7HT"}},{"type":"Feature","geometry":{"type":"Point","coordinates":[-2.6677,53.49816]},"properties":{"name":"Learn 4 Life School","category":"school","osm_type":"way","osm_id":"1513513216","website":"https://careafloat.co.uk/learn4life/","addr:city":"Wigan","addr:postcode":"WN4 0QD","capacity":"16"}},{"type":"Feature","geometry":{"type":"Point","coordinates":[-2.42633,53.41809]},"properties":{"name":"Partington & Carrington Children's Centre","category":"school","osm_type":"way","osm_id":"1513864950"}},{"type":"Feature","geometry":{"type":"Point","coordinates":[-0.06239,51.49668]},"properties":{"name":"The Charter School Bermondsey","category":"school","osm_type":"way","osm_id":"1515568881","website":"https://www.charterbermondsey.org.uk/","addr:city":"London","addr:postcode":"SE16 4EE"}},{"type":"Feature","geometry":{"type":"Point","coordinates":[-0.78347,51.81591]},"properties":{"name":"Schools and higher education","category":"school","osm_type":"way","osm_id":"1516998801"}},{"type":"Feature","geometry":{"type":"Point","coordinates":[-0.78316,51.81655]},"properties":{"name":"Broughton Community Infant School","category":"school","osm_type":"way","osm_id":"1516998802","operator":"Buckinghamshire Council","website":"https://www.broughtoninfant.bucks.sch.uk","addr:city":"Aylesbury","addr:postcode":"HP20 1NX","capacity":"180"}},{"type":"Feature","geometry":{"type":"Point","coordinates":[-2.61413,53.44521]},"properties":{"name":"Willow Bank School","category":"school","osm_type":"way","osm_id":"1517558406","operator":"St Helens Metropolitan Borough Council","addr:city":"Newton-le-Willows","addr:postcode":"WA12 8DE","capacity":"65"}},{"type":"Feature","geometry":{"type":"Point","coordinates":[-2.12145,53.43133]},"properties":{"name":"Bridge House School","category":"school","osm_type":"way","osm_id":"1517675073","website":"https://bridgehouseschool.com/","addr:city":"Stockport","addr:postcode":"SK6 2SR","capacity":"42"}},{"type":"Feature","geometry":{"type":"Point","coordinates":[-1.79508,53.84307]},"properties":{"name":"Titus Salt School","category":"school","osm_type":"way","osm_id":"1518658854","operator":"City of Bradford Metropolitan District Council","website":"https://www.titussaltschool.co.uk/","addr:city":"Shipley","addr:postcode":"BD17 5RH","capacity":"1520"}},{"type":"Feature","geometry":{"type":"Point","coordinates":[-1.22044,52.52953]},"properties":{"name":"Old Mill Primary School","category":"school","osm_type":"way","osm_id":"1518701039","operator":"Symphony Learning Trust","website":"https://www.oldmillprimary.co.uk/","addr:city":"Leicester","addr:postcode":"LE9 6PT","capacity":"390"}},{"type":"Feature","geometry":{"type":"Point","coordinates":[-0.42889,51.90091]},"properties":{"name":"Greenside Nursery","category":"kindergarten","osm_type":"way","osm_id":"1520907396","addr:city":"Luton","addr:postcode":"LU3 1PZ"}},{"type":"Feature","geometry":{"type":"Point","coordinates":[-0.53858,51.88851]},"properties":{"name":"Westfield Nursery School","category":"kindergarten","osm_type":"way","osm_id":"1520907397","operator":"Central Bedfordshire Council","website":"https://www.westfieldnurseryschool.org/","addr:city":"Dunstable","addr:postcode":"LU6 1DL"}},{"type":"Feature","geometry":{"type":"Point","coordinates":[-0.42362,51.87724]},"properties":{"name":"Rothesay Nursery School","category":"kindergarten","osm_type":"way","osm_id":"1520907399","operator":"Luton Borough Council","website":"https://rothesaynursery.co.uk/","addr:city":"Luton","addr:postcode":"LU1 1RB"}},{"type":"Feature","geometry":{"type":"Point","coordinates":[-0.4737,52.12628]},"properties":{"name":"Peter Pan Nursery School","category":"kindergarten","osm_type":"way","osm_id":"1520907400","operator":"Bedford Borough Council","website":"https://www.peterpannurseryschool.co.uk/","addr:city":"Bedford","addr:postcode":"MK42 9DR"}},{"type":"Feature","geometry":{"type":"Point","coordinates":[-0.50409,51.89353]},"properties":{"name":"Willow Nursery School","category":"kindergarten","osm_type":"way","osm_id":"1520907401","operator":"Central Bedfordshire Council","website":"https://www.willownursery.co.uk/","addr:city":"Dunstable","addr:postcode":"LU5 4QU"}},{"type":"Feature","geometry":{"type":"Point","coordinates":[1.30384,52.62809]},"properties":{"name":"Schools and higher education","category":"school","osm_type":"way","osm_id":"1522831017"}},{"type":"Feature","geometry":{"type":"Point","coordinates":[1.23616,52.06204]},"properties":{"name":"Schools and higher education","category":"kindergarten","osm_type":"way","osm_id":"1524217380"}},{"type":"Feature","geometry":{"type":"Point","coordinates":[-0.86234,51.37816]},"properties":{"name":"Gorse Ride Junior School","category":"school","osm_type":"way","osm_id":"1524326581","operator":"Wokingham Borough Council","addr:city":"Wokingham","addr:postcode":"RG40 4JJ","capacity":"256"}},{"type":"Feature","geometry":{"type":"Point","coordinates":[-0.61364,51.51954]},"properties":{"name":"Slough Centre Nursery School","category":"kindergarten","osm_type":"way","osm_id":"1524326582","operator":"Slough Borough Council","website":"https://www.sloughcentrenursery.co.uk/","addr:city":"Slough","addr:postcode":"SL1 3EA"}},{"type":"Feature","geometry":{"type":"Point","coordinates":[-1.32105,51.4049]},"properties":{"name":"Victoria Park Nursery School","category":"kindergarten","osm_type":"way","osm_id":"1524326583","operator":"West Berkshire Council","website":"https://www.victoriapark.w-berks.sch.uk/","addr:postcode":"RG14 1EH"}},{"type":"Feature","geometry":{"type":"Point","coordinates":[1.29943,52.6319]},"properties":{"name":"Schools and higher education","category":"school","osm_type":"way","osm_id":"1524913295"}},{"type":"Feature","geometry":{"type":"Point","coordinates":[-0.46853,51.89733]},"properties":{"name":"Schools and higher education","category":"school","osm_type":"way","osm_id":"1525071996"}},{"type":"Feature","geometry":{"type":"Point","coordinates":[0.93444,51.87822]},"properties":{"name":"The Quays","category":"university","osm_type":"way","osm_id":"1525518402"}},{"type":"Feature","geometry":{"type":"Point","coordinates":[1.17153,52.06167]},"properties":{"name":"Woodbridge Road Academy","category":"school","osm_type":"way","osm_id":"1525623552","operator":"Paradigm Trust","addr:city":"Ipswich","addr:postcode":"IP4 2EB"}},{"type":"Feature","geometry":{"type":"Point","coordinates":[1.31686,52.60903]},"properties":{"name":"Trowse Primary School","category":"school","osm_type":"way","osm_id":"1526538180","operator":"Norfolk County Council","website":"https://www.trowseprimaryschool.co.uk/","addr:city":"Norwich","addr:postcode":"NR14 8TU","capacity":"210"}},{"type":"Feature","geometry":{"type":"Point","coordinates":[-2.43557,52.65553]},"properties":{"name":"Schools and higher education","category":"kindergarten","osm_type":"way","osm_id":"1526778898"}},{"type":"Feature","geometry":{"type":"Point","coordinates":[-2.47548,53.76214]},"properties":{"name":"St Thomas Centre","category":"school","osm_type":"way","osm_id":"1527489539","website":"https://www.stthomasscentre.com/"}},{"type":"Feature","geometry":{"type":"Point","coordinates":[-1.83038,52.58839]},"properties":{"name":"Schools and higher education","category":"kindergarten","osm_type":"way","osm_id":"1528439175"}},{"type":"Feature","geometry":{"type":"Point","coordinates":[-0.55493,53.23426]},"properties":{"name":"Lincoln Surestart Childrens Centre","category":"school","osm_type":"way","osm_id":"1528518071"}},{"type":"Feature","geometry":{"type":"Point","coordinates":[-1.8223,52.57316]},"properties":{"name":"Highclare St Pauls School","category":"school","osm_type":"way","osm_id":"1530312900"}},{"type":"Feature","geometry":{"type":"Point","coordinates":[-2.15098,51.34345]},"properties":{"name":"St George's Church of England Primary School, Semington","category":"school","osm_type":"way","osm_id":"1530546736","operator":"The White Horse Federation","website":"https://stgeorges.wilts.sch.uk/","addr:city":"Trowbridge","addr:postcode":"BA14 6LP","capacity":"90"}},{"type":"Feature","geometry":{"type":"Point","coordinates":[-1.35039,54.74885]},"properties":{"name":"Schools and higher education","category":"school","osm_type":"way","osm_id":"1530988945"}},{"type":"Feature","geometry":{"type":"Point","coordinates":[-1.39777,54.87442]},"properties":{"name":"St Leonard's Catholic Primary School","category":"school","osm_type":"way","osm_id":"1531203848","operator":"Bishop Chadwick Catholic Education Trust","addr:city":"Sunderland","addr:postcode":"SR3 2BB","capacity":"210"}},{"type":"Feature","geometry":{"type":"Point","coordinates":[-0.25713,51.50694]},"properties":{"name":"Schools and higher education","category":"school","osm_type":"way","osm_id":"1531517917"}},{"type":"Feature","geometry":{"type":"Point","coordinates":[-1.74761,52.48726]},"properties":{"name":"Child 1st","category":"kindergarten","osm_type":"way","osm_id":"1532416270","website":"https://child1st.net/solihull-day-nursery/","addr:city":"Birmingham","addr:postcode":"B37 6NU"}},{"type":"Feature","geometry":{"type":"Point","coordinates":[-2.45446,52.69466]},"properties":{"name":"Oakengates Nursery School","category":"kindergarten","osm_type":"way","osm_id":"1532851197"}},{"type":"Feature","geometry":{"type":"Point","coordinates":[-2.44404,51.11151]},"properties":{"name":"Kings School Sports Grounds","category":"school","osm_type":"way","osm_id":"1533331431"}},{"type":"Feature","geometry":{"type":"Point","coordinates":[-2.7248,53.27976]},"properties":{"name":"Ashton House Nursery","category":"kindergarten","osm_type":"way","osm_id":"1533484702"}},{"type":"Feature","geometry":{"type":"Point","coordinates":[-1.30787,52.96416]},"properties":{"name":"The Pines Day Nursery","category":"kindergarten","osm_type":"way","osm_id":"1533892418","website":"http://www.pinesnursery.co.uk/","addr:city":"Ilkeston","addr:postcode":"DE7 5FY"}},{"type":"Feature","geometry":{"type":"Point","coordinates":[0.78995,51.55486]},"properties":{"name":"Schools and higher education","category":"kindergarten","osm_type":"way","osm_id":"1534797164"}},{"type":"Feature","geometry":{"type":"Point","coordinates":[-0.04059,51.40105]},"properties":{"name":"Balgowan Primary School Field","category":"school","osm_type":"way","osm_id":"1534921819","operator":"Balgowan Primary School"}},{"type":"Feature","geometry":{"type":"Point","coordinates":[-1.37736,54.90609]},"properties":{"name":"Norfolk Street","category":"university","osm_type":"way","osm_id":"1534994080"}},{"type":"Feature","geometry":{"type":"Point","coordinates":[-1.62237,51.36135]},"properties":{"name":"Schools and higher education","category":"school","osm_type":"way","osm_id":"1535136125","website":"https://www.herdthyme.co.uk/"}},{"type":"Feature","geometry":{"type":"Point","coordinates":[0.34219,51.22295]},"properties":{"name":"Schools and higher education","category":"kindergarten","osm_type":"way","osm_id":"1535612289"}},{"type":"Feature","geometry":{"type":"Point","coordinates":[0.54321,51.63381]},"properties":{"name":"St Luke's Park Primary School","category":"school","osm_type":"way","osm_id":"1535855591"}},{"type":"Feature","geometry":{"type":"Point","coordinates":[-0.74797,51.28052]},"properties":{"name":"Bright Horizons Farnborough Day Nursery & Preschool","category":"kindergarten","osm_type":"way","osm_id":"1536101211","addr:city":"Farnborough","addr:postcode":"GU14 6NB"}},{"type":"Feature","geometry":{"type":"Point","coordinates":[-1.30822,52.97071]},"properties":{"name":"Cantelupe Pre-School","category":"kindergarten","osm_type":"way","osm_id":"1536120515","addr:city":"Ilkeston","addr:postcode":"DE7 5HY"}},{"type":"Feature","geometry":{"type":"Point","coordinates":[-0.39499,51.68979]},"properties":{"name":"Bright Little Stars","category":"kindergarten","osm_type":"way","osm_id":"1536291972","website":"https://www.brightlittlestars.com/watford/","addr:city":"Watford","addr:postcode":"WD25 0EA"}},{"type":"Feature","geometry":{"type":"Point","coordinates":[-1.38361,54.90319]},"properties":{"name":"Schools and higher education","category":"college","osm_type":"way","osm_id":"1536329592"}},{"type":"Feature","geometry":{"type":"Point","coordinates":[1.2014,52.0635]},"properties":{"name":"St Alban's Catholic High School","category":"school","osm_type":"way","osm_id":"1536404941","operator":"Our Lady of Walsingham Catholic Multi Academy Trust","website":"https://www.st-albans.suffolk.sch.uk/","addr:city":"Ipswich","addr:postcode":"IP4 3NJ","capacity":"1020"}},{"type":"Feature","geometry":{"type":"Point","coordinates":[-0.65948,51.9463]},"properties":{"name":"Schools and higher education","category":"school","osm_type":"way","osm_id":"1536464249"}},{"type":"Feature","geometry":{"type":"Point","coordinates":[-1.52624,53.54236]},"properties":{"name":"Schools and higher education","category":"kindergarten","osm_type":"way","osm_id":"1537449004"}},{"type":"Feature","geometry":{"type":"Point","coordinates":[0.49769,51.27074]},"properties":{"name":"Schools and higher education","category":"university","osm_type":"way","osm_id":"1539497743"}},{"type":"Feature","geometry":{"type":"Point","coordinates":[-1.4231,51.5881]},"properties":{"name":"Schools and higher education","category":"kindergarten","osm_type":"way","osm_id":"1540113566"}},{"type":"Feature","geometry":{"type":"Point","coordinates":[0.54388,51.27321]},"properties":{"name":"Schools and higher education","category":"school","osm_type":"way","osm_id":"1540296357"}},{"type":"Feature","geometry":{"type":"Point","coordinates":[-1.80589,52.39966]},"properties":{"name":"Solihull Academy","category":"school","osm_type":"way","osm_id":"1541222994","operator":"Solihull Alternative Provision Multi Academy Trust","website":"https://www.solihullacademy.org.uk/","addr:city":"Solihull","addr:postcode":"B90 4LE","capacity":"150"}},{"type":"Feature","geometry":{"type":"Point","coordinates":[0.15628,51.45399]},"properties":{"name":"St Catherine's Catholic School","category":"school","osm_type":"way","osm_id":"1542990272","operator":"St Catherine's Catholic School","website":"https://www.stccg.co.uk/","addr:city":"Bexleyheath","addr:postcode":"DA6 7QJ","capacity":"1050"}},{"type":"Feature","geometry":{"type":"Point","coordinates":[0.15347,51.45402]},"properties":{"name":"Gravel Hill Primary School","category":"school","osm_type":"way","osm_id":"1542990286","operator":"Cygnus Academies Trust","website":"https://www.gravelhillschool.co.uk/","addr:city":"Bexleyheath","addr:postcode":"DA6 7QJ","capacity":"450"}},{"type":"Feature","geometry":{"type":"Point","coordinates":[-0.62963,53.56346]},"properties":{"name":"Coritani Academy","category":"school","osm_type":"way","osm_id":"1543095328","website":"https://www.coritaniacademy.co.uk/","addr:city":"Scunthorpe","addr:postcode":"DN16 2PZ"}},{"type":"Feature","geometry":{"type":"Point","coordinates":[0.1075,51.43182]},"properties":{"name":"Bird College","category":"college","osm_type":"way","osm_id":"1544549425","website":"https://www.bird.ac.uk/","addr:city":"Sidcup","addr:postcode":"DA14 4ED"}},{"type":"Feature","geometry":{"type":"Point","coordinates":[-1.05791,53.19894]},"properties":{"name":"Thoresby Vale Primary Academy","category":"school","osm_type":"way","osm_id":"1544624377"}},{"type":"Feature","geometry":{"type":"Point","coordinates":[0.69554,51.88978]},"properties":{"name":"Soaring High Montessori School","category":"school","osm_type":"way","osm_id":"1545132308","addr:city":"Coggeshall","addr:postcode":"CO6 1TH"}},{"type":"Feature","geometry":{"type":"Point","coordinates":[-1.75777,53.83013]},"properties":{"name":"Wrose Rascals","category":"kindergarten","osm_type":"way","osm_id":"1545275331","addr:city":"Shipley","addr:postcode":"BD18 1JN"}},{"type":"Feature","geometry":{"type":"Point","coordinates":[-2.52481,51.45455]},"properties":{"name":"Partou Kingsway","category":"kindergarten","osm_type":"way","osm_id":"1546927112","operator":"Partou","website":"https://partou.co.uk/nurseries/kingsway-day-nursery-pre-school/","addr:city":"Bristol","addr:postcode":"BS5 8NT"}},{"type":"Feature","geometry":{"type":"Point","coordinates":[-2.77042,53.45386]},"properties":{"name":"Schools and higher education","category":"kindergarten","osm_type":"way","osm_id":"1547332425"}},{"type":"Feature","geometry":{"type":"Point","coordinates":[-2.15641,53.33926]},"properties":{"name":"Woodford Primary School","category":"school","osm_type":"way","osm_id":"1547413336","operator":"The Laurus Trust","website":"https://www.woodfordprimary.org.uk/","addr:postcode":"SK7 1GX"}},{"type":"Feature","geometry":{"type":"Point","coordinates":[-2.59451,51.4251]},"properties":{"name":"Knowle West Early Years Centre","category":"kindergarten","osm_type":"way","osm_id":"1547931317","operator":"Bristol City Council","addr:city":"Bristol","addr:postcode":"BS4 1NN"}},{"type":"Feature","geometry":{"type":"Point","coordinates":[-2.59626,51.4253]},"properties":{"name":"Knowle DGE Academy","category":"school","osm_type":"way","osm_id":"1547931318","operator":"Midsomer Norton Schools Partnership","website":"https://www.knowledgeacademysch.org.uk/","addr:city":"Bristol","addr:postcode":"BS4 1QY","capacity":"175"}},{"type":"Feature","geometry":{"type":"Point","coordinates":[-2.57535,51.49056]},"properties":{"name":"Filton Avenue Nursery School","category":"kindergarten","osm_type":"way","osm_id":"1547934252","operator":"Bristol City Council","website":"https://filtonavenue.org/","addr:city":"Bristol","addr:postcode":"BS7 0DL"}},{"type":"Feature","geometry":{"type":"Point","coordinates":[0.32216,51.29246]},"properties":{"name":"Schools and higher education","category":"school","osm_type":"way","osm_id":"1547942935"}},{"type":"Feature","geometry":{"type":"Point","coordinates":[-0.11102,51.01063]},"properties":{"name":"Harlands Primary School","category":"school","osm_type":"way","osm_id":"1548228382","operator":"Harlands Educational Trust","website":"https://www.harlandsprimaryschool.org/","addr:city":"Haywards Heath","addr:postcode":"RH16 1PJ","capacity":"450"}},{"type":"Feature","geometry":{"type":"Point","coordinates":[-1.50994,53.41074]},"properties":{"name":"Corner House Nursery School","category":"kindergarten","osm_type":"way","osm_id":"1548367427","addr:city":"Sheffield","addr:postcode":"S6 4ED"}},{"type":"Feature","geometry":{"type":"Point","coordinates":[-2.96807,53.38172]},"properties":{"name":"St Cleopas' Church of England Primary Academy","category":"school","osm_type":"way","osm_id":"1548525967","operator":"The Liverpool Joint Catholic and Church of England Academies Trust","website":"https://www.stcleopas.co.uk/","addr:city":"Liverpool","addr:postcode":"L8 4RP","capacity":"352"}},{"type":"Feature","geometry":{"type":"Point","coordinates":[-3.05481,53.39481]},"properties":{"name":"Birkenhead Sixth Form College","category":"college","osm_type":"way","osm_id":"1548526193","operator":"Bepart Educational Trust","wheelchair":"yes","addr:city":"Prenton","addr:postcode":"CH43 8SQ","capacity":"1500"}},{"type":"Feature","geometry":{"type":"Point","coordinates":[-0.20665,51.60999]},"properties":{"name":"Millbrook Park CE Primary School","category":"school","osm_type":"way","osm_id":"1548529313"}},{"type":"Feature","geometry":{"type":"Point","coordinates":[-0.20164,51.47875]},"properties":{"name":"Little Lillies Pre School","category":"kindergarten","osm_type":"way","osm_id":"1548665073"}},{"type":"Feature","geometry":{"type":"Point","coordinates":[-2.89889,51.35319]},"properties":{"name":"St Anne's Primary School Academy","category":"school","osm_type":"way","osm_id":"1548885433"}},{"type":"Feature","geometry":{"type":"Point","coordinates":[-1.51725,51.42108]},"properties":{"name":"Oaklands School","category":"school","osm_type":"way","osm_id":"1549090636","website":"https://www.oaklands-school.co.uk/","addr:city":"Hungerford","addr:postcode":"RG17 0YT","capacity":"80"}},{"type":"Feature","geometry":{"type":"Point","coordinates":[-0.18218,51.81287]},"properties":{"name":"Waterside Academy","category":"school","osm_type":"way","osm_id":"1549794658","operator":"Agora Learning Partnership","website":"https://www.waterside.herts.sch.uk/","addr:city":"Welwyn Garden City","addr:postcode":"AL7 1NZ","capacity":"210"}},{"type":"Feature","geometry":{"type":"Point","coordinates":[-0.94306,52.48995]},"properties":{"name":"Wellington Place Primary School","category":"school","osm_type":"way","osm_id":"1550202587"}},{"type":"Feature","geometry":{"type":"Point","coordinates":[-1.67765,52.79502]},"properties":{"name":"Branston Locks Primary and Nursery School","category":"school","osm_type":"way","osm_id":"1550744967","operator":"John Taylor MAT","website":"https://branstonlocksprimary.co.uk/","addr:city":"Burton-on-Trent","addr:postcode":"DE13 9WU","capacity":"472"}},{"type":"Feature","geometry":{"type":"Point","coordinates":[0.9009,51.9183]},"properties":{"name":"Bright Horizons","category":"kindergarten","osm_type":"way","osm_id":"1550824974"}},{"type":"Feature","geometry":{"type":"Point","coordinates":[-2.57882,51.08527]},"properties":{"name":"Brue Farm Day Nursery","category":"school","osm_type":"way","osm_id":"1551391522"}},{"type":"Feature","geometry":{"type":"Point","coordinates":[-1.21602,51.75084]},"properties":{"name":"Julia Durbin Day Nursery","category":"kindergarten","osm_type":"way","osm_id":"1551467726","operator":"Childbase Partnership","website":"https://childbasepartnership.com/nursery/julia-durbin-day-nursery/","addr:city":"Oxford","addr:postcode":"OX3 7JU","capacity":"164"}},{"type":"Feature","geometry":{"type":"Point","coordinates":[-2.5173,53.07582]},"properties":{"name":"Schools and higher education","category":"kindergarten","osm_type":"way","osm_id":"1553228039"}},{"type":"Feature","geometry":{"type":"Point","coordinates":[0.542,51.39383]},"properties":{"name":"MidKent College Gillingham Campus","category":"college","osm_type":"way","osm_id":"1553343531","website":"https://www.midkent.ac.uk/","addr:city":"Gillingham","addr:postcode":"ME7 1FN"}},{"type":"Feature","geometry":{"type":"Point","coordinates":[0.01628,50.86855]},"properties":{"name":"Priory School","category":"school","osm_type":"way","osm_id":"1553344442","operator":"The Lewes Co-operative Learning Partnership","website":"https://www.priory.e-sussex.sch.uk/","addr:city":"Lewes","addr:postcode":"BN7 2XN","capacity":"1160"}},{"type":"Feature","geometry":{"type":"Point","coordinates":[0.47422,51.69962]},"properties":{"name":"St Michael's Church of England Voluntary Aided Junior School","category":"school","osm_type":"way","osm_id":"1553345024","website":"https://st-michaels-jun.essex.sch.uk/","addr:city":"Chelmsford","addr:postcode":"CM2 8RR","capacity":"240"}},{"type":"Feature","geometry":{"type":"Point","coordinates":[0.47405,51.69893]},"properties":{"name":"Galleywood Infant School","category":"school","osm_type":"way","osm_id":"1553345026","operator":"Essex County Council","website":"https://www.galleywood.essex.sch.uk/","addr:city":"Chelmsford","addr:postcode":"CM2 8RR","capacity":"180"}},{"type":"Feature","geometry":{"type":"Point","coordinates":[0.45052,51.74385]},"properties":{"name":"The Sir Geoff Hurst Academy","category":"school","osm_type":"way","osm_id":"1553346702","operator":"The Beckmead Trust","website":"https://www.beckmeadtrust.org/sir-geoff-hurst","addr:city":"Chelmsford","addr:postcode":"CM1 2XT","capacity":"64"}},{"type":"Feature","geometry":{"type":"Point","coordinates":[0.45175,51.74371]},"properties":{"name":"The Hawthorns School","category":"school","osm_type":"way","osm_id":"1553346703","operator":"SEAX Trust","website":"https://www.thehawthornsschool.com/","addr:city":"Chelmsford","addr:postcode":"CM1 2XT","capacity":"70"}},{"type":"Feature","geometry":{"type":"Point","coordinates":[0.26316,51.18633]},"properties":{"name":"Schools and higher education","category":"university","osm_type":"way","osm_id":"1553937266"}},{"type":"Feature","geometry":{"type":"Point","coordinates":[0.27085,51.19238]},"properties":{"name":"Schools and higher education","category":"school","osm_type":"way","osm_id":"1554114924"}},{"type":"Feature","geometry":{"type":"Point","coordinates":[-2.32129,51.39621]},"properties":{"name":"Mulberry Garden Nursery & Pre-School","category":"kindergarten","osm_type":"way","osm_id":"1555142580","website":"https://www.mulberrygardenbath.co.uk/","addr:city":"Bathampton","addr:postcode":"BA2 6SY"}},{"type":"Feature","geometry":{"type":"Point","coordinates":[-0.6271,51.1385]},"properties":{"name":"St Dominic's School","category":"school","osm_type":"way","osm_id":"1556381937","operator":"Orchard Hill College Academy Trust","website":"https://stdominicsschool.org.uk/","addr:city":"Godalming","addr:postcode":"GU8 4DX","capacity":"150"}},{"type":"Feature","geometry":{"type":"Point","coordinates":[1.27956,52.64302]},"properties":{"name":"Norwich University of the Arts","category":"university","osm_type":"way","osm_id":"1557213832"}},{"type":"Feature","geometry":{"type":"Point","coordinates":[-0.20406,51.4743]},"properties":{"name":"Bright Horizons","category":"kindergarten","osm_type":"way","osm_id":"1557468279","website":"https://www.brighthorizons.co.uk/our-nurseries/parsons-green-day-nursery-and-preschool","addr:city":"London","addr:postcode":"SW6 4EH"}},{"type":"Feature","geometry":{"type":"Point","coordinates":[-1.90333,52.48124]},"properties":{"name":"Birmingham School of Art","category":"university","osm_type":"way","osm_id":"1557471672","operator":"Birmingham City University","website":"https://www.bcu.ac.uk/about-us/maps-and-campuses/school-of-art-margaret-street","opening_hours":"Mo-Fr 08:00-20:00","wheelchair":"yes","addr:city":"Birmingham","addr:postcode":"B3 3BX"}},{"type":"Feature","geometry":{"type":"Point","coordinates":[-2.75011,53.4658]},"properties":{"name":"Cowley International College","category":"school","osm_type":"way","osm_id":"1558601042","addr:city":"St Helens","addr:postcode":"WA10 6PN"}},{"type":"Feature","geometry":{"type":"Point","coordinates":[-0.50379,51.91362]},"properties":{"name":"The Academy of Central Bedfordshire","category":"school","osm_type":"way","osm_id":"1558835094","operator":"The Academy of Central Bedfordshire","website":"https://www.acb.beds.sch.uk/","addr:city":"Dunstable","addr:postcode":"LU5 5PX"}},{"type":"Feature","geometry":{"type":"Point","coordinates":[-1.44918,53.53215]},"properties":{"name":"West Riding Academy","category":"school","osm_type":"way","osm_id":"1559278392","operator":"Nexus Multi Academy Trust"}}]}