{"type":"FeatureCollection","features":[{"type":"Feature","geometry":{"type":"LineString","coordinates":[[-1.09357,51.75068],[-1.08836,51.74505]]},"properties":{"name":"Power lines","category":"minor_line","osm_type":"way","osm_id":"1452007600"}},{"type":"Feature","geometry":{"type":"LineString","coordinates":[[-1.04792,51.53783],[-1.05007,51.53771],[-1.05039,51.53835],[-1.05025,51.53921],[-1.04874,51.53978]]},"properties":{"name":"Power lines","category":"minor_line","osm_type":"way","osm_id":"1455230981"}},{"type":"Feature","geometry":{"type":"LineString","coordinates":[[-1.04351,51.53665],[-1.0453,51.53747],[-1.04792,51.53783],[-1.04441,51.53942],[-1.04174,51.54152]]},"properties":{"name":"Power lines","category":"minor_line","osm_type":"way","osm_id":"1455230982"}},{"type":"Feature","geometry":{"type":"LineString","coordinates":[[-1.41735,51.60078],[-1.42266,51.60045]]},"properties":{"name":"Power lines","category":"minor_line","osm_type":"way","osm_id":"1460482640"}},{"type":"Feature","geometry":{"type":"LineString","coordinates":[[-1.30878,51.86691],[-1.30818,51.8675]]},"properties":{"name":"Power lines","category":"minor_line","osm_type":"way","osm_id":"1462566764"}},{"type":"Feature","geometry":{"type":"LineString","coordinates":[[-1.30545,51.86168],[-1.30395,51.86203],[-1.30361,51.86332]]},"properties":{"name":"Power lines","category":"minor_line","osm_type":"way","osm_id":"1462566765"}},{"type":"Feature","geometry":{"type":"LineString","coordinates":[[-1.78504,51.6086],[-1.78278,51.60647],[-1.78165,51.60679],[-1.78147,51.60723]]},"properties":{"name":"Power lines","category":"minor_line","osm_type":"way","osm_id":"1465845263"}},{"type":"Feature","geometry":{"type":"LineString","coordinates":[[-1.30112,51.8052],[-1.30054,51.80508]]},"properties":{"name":"Power lines","category":"line","osm_type":"way","osm_id":"1470361099"}},{"type":"Feature","geometry":{"type":"LineString","coordinates":[[-1.30069,51.80502],[-1.30051,51.80533]]},"properties":{"name":"Power lines","category":"line","osm_type":"way","osm_id":"1470361108"}},{"type":"Feature","geometry":{"type":"LineString","coordinates":[[-1.3009,51.80541],[-1.30107,51.8051]]},"properties":{"name":"Power lines","category":"line","osm_type":"way","osm_id":"1470361109"}},{"type":"Feature","geometry":{"type":"LineString","coordinates":[[-1.30045,51.8052],[-1.29994,51.80542]]},"properties":{"name":"Power lines","category":"line","osm_type":"way","osm_id":"1470361110"}},{"type":"Feature","geometry":{"type":"LineString","coordinates":[[-1.2124,51.77011],[-1.21226,51.77009]]},"properties":{"name":"Power lines","category":"line","osm_type":"way","osm_id":"1470361694"}},{"type":"Feature","geometry":{"type":"LineString","coordinates":[[-1.21254,51.76973],[-1.21238,51.7697]]},"properties":{"name":"Power lines","category":"line","osm_type":"way","osm_id":"1470361695"}},{"type":"Feature","geometry":{"type":"LineString","coordinates":[[-1.21203,51.7691],[-1.21173,51.77002]]},"properties":{"name":"Power lines","category":"line","osm_type":"way","osm_id":"1470361696"}},{"type":"Feature","geometry":{"type":"LineString","coordinates":[[-1.21182,51.77004],[-1.21213,51.7691]]},"properties":{"name":"Power lines","category":"line","osm_type":"way","osm_id":"1470361697"}},{"type":"Feature","geometry":{"type":"LineString","coordinates":[[-1.21226,51.77009],[-1.21197,51.77004]]},"properties":{"name":"Power lines","category":"line","osm_type":"way","osm_id":"1470361700"}},{"type":"Feature","geometry":{"type":"LineString","coordinates":[[-1.21238,51.7697],[-1.21209,51.76968]]},"properties":{"name":"Power lines","category":"line","osm_type":"way","osm_id":"1470361701"}},{"type":"Feature","geometry":{"type":"LineString","coordinates":[[-1.48511,51.77193],[-1.48545,51.77178]]},"properties":{"name":"Power lines","category":"line","osm_type":"way","osm_id":"1470362819"}},{"type":"Feature","geometry":{"type":"LineString","coordinates":[[-1.48543,51.77216],[-1.48572,51.77198]]},"properties":{"name":"Power lines","category":"line","osm_type":"way","osm_id":"1470362820"}},{"type":"Feature","geometry":{"type":"LineString","coordinates":[[-1.48552,51.77245],[-1.48472,51.77186]]},"properties":{"name":"Power lines","category":"line","osm_type":"way","osm_id":"1470362823"}},{"type":"Feature","geometry":{"type":"LineString","coordinates":[[-1.48486,51.77186],[-1.4856,51.77241]]},"properties":{"name":"Power lines","category":"line","osm_type":"way","osm_id":"1470362824"}},{"type":"Feature","geometry":{"type":"LineString","coordinates":[[-1.48566,51.77236],[-1.48487,51.77178]]},"properties":{"name":"Power lines","category":"line","osm_type":"way","osm_id":"1470362825"}},{"type":"Feature","geometry":{"type":"LineString","coordinates":[[-1.05175,51.56299],[-1.05685,51.56298],[-1.0574,51.56323]]},"properties":{"name":"Power lines","category":"minor_line","osm_type":"way","osm_id":"1484601817"}},{"type":"Feature","geometry":{"type":"LineString","coordinates":[[-1.04565,51.56903],[-1.04582,51.56841]]},"properties":{"name":"Power lines","category":"minor_line","osm_type":"way","osm_id":"1484616273"}},{"type":"Feature","geometry":{"type":"LineString","coordinates":[[-1.04888,51.56885],[-1.04873,51.56824],[-1.04792,51.56768],[-1.04731,51.56773]]},"properties":{"name":"Power lines","category":"minor_line","osm_type":"way","osm_id":"1484616274"}},{"type":"Feature","geometry":{"type":"LineString","coordinates":[[-1.40909,51.59913],[-1.41762,51.60505]]},"properties":{"name":"Power lines","category":"minor_line","osm_type":"way","osm_id":"1486136288"}},{"type":"Feature","geometry":{"type":"LineString","coordinates":[[-1.00218,51.55343],[-1.00486,51.55458]]},"properties":{"name":"Power lines","category":"minor_line","osm_type":"way","osm_id":"1486900593"}},{"type":"Feature","geometry":{"type":"LineString","coordinates":[[-1.03366,51.56198],[-1.03982,51.56145]]},"properties":{"name":"Power lines","category":"minor_line","osm_type":"way","osm_id":"1491516597"}},{"type":"Feature","geometry":{"type":"LineString","coordinates":[[-1.23485,51.70559],[-1.23393,51.70455],[-1.23349,51.70213],[-1.23473,51.70175]]},"properties":{"name":"Power lines","category":"minor_line","osm_type":"way","osm_id":"1498153242"}},{"type":"Feature","geometry":{"type":"LineString","coordinates":[[-1.41811,51.60112],[-1.41359,51.59915]]},"properties":{"name":"Power lines","category":"minor_line","osm_type":"way","osm_id":"1498226323"}},{"type":"Feature","geometry":{"type":"LineString","coordinates":[[-1.40701,51.59631],[-1.40556,51.59567]]},"properties":{"name":"Power lines","category":"minor_line","osm_type":"way","osm_id":"1498226324"}},{"type":"Feature","geometry":{"type":"LineString","coordinates":[[-1.32732,51.63059],[-1.33277,51.62252]]},"properties":{"name":"Steventon-Harwell","category":"line","osm_type":"way","osm_id":"1499015037"}},{"type":"Feature","geometry":{"type":"LineString","coordinates":[[-1.00417,51.9301],[-1.00754,51.9317],[-1.01323,51.93255],[-1.01714,51.93257]]},"properties":{"name":"Power lines","category":"minor_line","osm_type":"way","osm_id":"1503304399"}},{"type":"Feature","geometry":{"type":"LineString","coordinates":[[-1.16049,51.53507],[-1.16029,51.5351]]},"properties":{"name":"Power lines","category":"line","osm_type":"way","osm_id":"1510265050"}},{"type":"Feature","geometry":{"type":"LineString","coordinates":[[-1.16057,51.53507],[-1.16029,51.5351]]},"properties":{"name":"Power lines","category":"line","osm_type":"way","osm_id":"1510265051"}},{"type":"Feature","geometry":{"type":"LineString","coordinates":[[-1.16063,51.53506],[-1.16029,51.5351]]},"properties":{"name":"Power lines","category":"line","osm_type":"way","osm_id":"1510265052"}},{"type":"Feature","geometry":{"type":"LineString","coordinates":[[-1.15991,51.53516],[-1.16029,51.5351]]},"properties":{"name":"Power lines","category":"line","osm_type":"way","osm_id":"1510265053"}},{"type":"Feature","geometry":{"type":"LineString","coordinates":[[-1.16029,51.5351],[-1.15999,51.53515]]},"properties":{"name":"Power lines","category":"line","osm_type":"way","osm_id":"1510265054"}},{"type":"Feature","geometry":{"type":"LineString","coordinates":[[-1.16029,51.5351],[-1.16005,51.53515]]},"properties":{"name":"Power lines","category":"line","osm_type":"way","osm_id":"1510265055"}},{"type":"Feature","geometry":{"type":"LineString","coordinates":[[-1.16012,51.53494],[-1.1601,51.53528]]},"properties":{"name":"Power lines","category":"line","osm_type":"way","osm_id":"1510265056"}},{"type":"Feature","geometry":{"type":"LineString","coordinates":[[-1.16005,51.53495],[-1.16001,51.53529]]},"properties":{"name":"Power lines","category":"line","osm_type":"way","osm_id":"1510265057"}},{"type":"Feature","geometry":{"type":"LineString","coordinates":[[-1.15994,51.53497],[-1.15994,51.5353]]},"properties":{"name":"Power lines","category":"line","osm_type":"way","osm_id":"1510265058"}},{"type":"Feature","geometry":{"type":"LineString","coordinates":[[-1.16337,51.51128],[-1.16311,51.51142]]},"properties":{"name":"Power lines","category":"line","osm_type":"way","osm_id":"1510265063"}},{"type":"Feature","geometry":{"type":"LineString","coordinates":[[-1.16332,51.51131],[-1.16311,51.51142]]},"properties":{"name":"Power lines","category":"line","osm_type":"way","osm_id":"1510265064"}},{"type":"Feature","geometry":{"type":"LineString","coordinates":[[-1.16326,51.51133],[-1.16311,51.51142]]},"properties":{"name":"Power lines","category":"line","osm_type":"way","osm_id":"1510265065"}},{"type":"Feature","geometry":{"type":"LineString","coordinates":[[-1.16314,51.51165],[-1.16281,51.51142]]},"properties":{"name":"Power lines","category":"line","osm_type":"way","osm_id":"1510265066"}},{"type":"Feature","geometry":{"type":"LineString","coordinates":[[-1.16308,51.51168],[-1.16275,51.51145]]},"properties":{"name":"Power lines","category":"line","osm_type":"way","osm_id":"1510265067"}},{"type":"Feature","geometry":{"type":"LineString","coordinates":[[-1.16303,51.5117],[-1.16269,51.51148]]},"properties":{"name":"Power lines","category":"line","osm_type":"way","osm_id":"1510265068"}},{"type":"Feature","geometry":{"type":"LineString","coordinates":[[-1.16311,51.51142],[-1.16295,51.51152]]},"properties":{"name":"Power lines","category":"line","osm_type":"way","osm_id":"1510265073"}},{"type":"Feature","geometry":{"type":"LineString","coordinates":[[-1.16311,51.51142],[-1.16291,51.51155]]},"properties":{"name":"Power lines","category":"line","osm_type":"way","osm_id":"1510265074"}},{"type":"Feature","geometry":{"type":"LineString","coordinates":[[-1.16311,51.51142],[-1.16287,51.51158]]},"properties":{"name":"Power lines","category":"line","osm_type":"way","osm_id":"1510265075"}},{"type":"Feature","geometry":{"type":"LineString","coordinates":[[-1.00298,51.70422],[-1.00362,51.70388]]},"properties":{"name":"Power lines","category":"line","osm_type":"way","osm_id":"1517446101"}},{"type":"Feature","geometry":{"type":"LineString","coordinates":[[-1.00315,51.70435],[-1.0038,51.70401]]},"properties":{"name":"Power lines","category":"line","osm_type":"way","osm_id":"1517446102"}},{"type":"Feature","geometry":{"type":"LineString","coordinates":[[-1.44641,51.98806],[-1.44651,51.98755]]},"properties":{"name":"Power lines","category":"minor_line","osm_type":"way","osm_id":"1517759345"}},{"type":"Feature","geometry":{"type":"LineString","coordinates":[[-1.46423,51.99986],[-1.46438,51.99917]]},"properties":{"name":"Power lines","category":"minor_line","osm_type":"way","osm_id":"1517759347"}},{"type":"Feature","geometry":{"type":"LineString","coordinates":[[-1.49598,51.98963],[-1.49646,51.98913]]},"properties":{"name":"Power lines","category":"minor_line","osm_type":"way","osm_id":"1517759360"}},{"type":"Feature","geometry":{"type":"LineString","coordinates":[[-1.49438,51.99114],[-1.49295,51.99247],[-1.49329,51.99428]]},"properties":{"name":"Power lines","category":"minor_line","osm_type":"way","osm_id":"1517759361"}},{"type":"Feature","geometry":{"type":"LineString","coordinates":[[-1.49438,51.99114],[-1.49598,51.98963]]},"properties":{"name":"Power lines","category":"minor_line","osm_type":"way","osm_id":"1517759362"}},{"type":"Feature","geometry":{"type":"LineString","coordinates":[[-1.47596,51.99553],[-1.47685,51.99327],[-1.47749,51.99311]]},"properties":{"name":"Power lines","category":"minor_line","osm_type":"way","osm_id":"1517759368"}},{"type":"Feature","geometry":{"type":"LineString","coordinates":[[-1.48713,51.99913],[-1.48623,51.9991]]},"properties":{"name":"Power lines","category":"minor_line","osm_type":"way","osm_id":"1517759379"}},{"type":"Feature","geometry":{"type":"LineString","coordinates":[[-1.42648,51.52522],[-1.4305,51.52617]]},"properties":{"name":"Power lines","category":"minor_line","osm_type":"way","osm_id":"1518111926"}},{"type":"Feature","geometry":{"type":"LineString","coordinates":[[-1.36645,51.99321],[-1.36663,51.99253]]},"properties":{"name":"Power lines","category":"minor_line","osm_type":"way","osm_id":"1518417241"}},{"type":"Feature","geometry":{"type":"LineString","coordinates":[[-1.36736,51.98806],[-1.36743,51.98788]]},"properties":{"name":"Power lines","category":"minor_line","osm_type":"way","osm_id":"1518417243"}},{"type":"Feature","geometry":{"type":"LineString","coordinates":[[-1.36343,51.98938],[-1.36584,51.98791],[-1.37004,51.98785],[-1.37338,51.99059]]},"properties":{"name":"Power lines","category":"minor_line","osm_type":"way","osm_id":"1518417244"}},{"type":"Feature","geometry":{"type":"LineString","coordinates":[[-1.37019,51.98992],[-1.37241,51.9898]]},"properties":{"name":"Power lines","category":"minor_line","osm_type":"way","osm_id":"1518417245"}},{"type":"Feature","geometry":{"type":"LineString","coordinates":[[-1.37377,51.99043],[-1.37338,51.99059]]},"properties":{"name":"Power lines","category":"minor_line","osm_type":"way","osm_id":"1518417246"}},{"type":"Feature","geometry":{"type":"LineString","coordinates":[[-1.38737,51.99308],[-1.38574,51.99161]]},"properties":{"name":"Power lines","category":"minor_line","osm_type":"way","osm_id":"1518417247"}},{"type":"Feature","geometry":{"type":"LineString","coordinates":[[-1.40848,51.9989],[-1.40863,51.99826]]},"properties":{"name":"Power lines","category":"minor_line","osm_type":"way","osm_id":"1518417250"}},{"type":"Feature","geometry":{"type":"LineString","coordinates":[[-1.42446,51.98676],[-1.42271,51.98863]]},"properties":{"name":"Power lines","category":"minor_line","osm_type":"way","osm_id":"1518417259"}},{"type":"Feature","geometry":{"type":"LineString","coordinates":[[-1.4384,51.99676],[-1.43692,51.99615]]},"properties":{"name":"Power lines","category":"minor_line","osm_type":"way","osm_id":"1518417260"}},{"type":"Feature","geometry":{"type":"LineString","coordinates":[[-1.43347,51.99653],[-1.43296,51.99648]]},"properties":{"name":"Power lines","category":"minor_line","osm_type":"way","osm_id":"1518417261"}},{"type":"Feature","geometry":{"type":"LineString","coordinates":[[-1.26086,51.99504],[-1.25871,51.99533]]},"properties":{"name":"Power lines","category":"minor_line","osm_type":"way","osm_id":"1522598218"}},{"type":"Feature","geometry":{"type":"LineString","coordinates":[[-1.26125,51.99423],[-1.26004,51.99696]]},"properties":{"name":"Power lines","category":"minor_line","osm_type":"way","osm_id":"1522598220"}},{"type":"Feature","geometry":{"type":"LineString","coordinates":[[-1.27696,51.99327],[-1.27338,51.9922]]},"properties":{"name":"Power lines","category":"minor_line","osm_type":"way","osm_id":"1522598221"}},{"type":"Feature","geometry":{"type":"LineString","coordinates":[[-1.20615,51.98911],[-1.19749,51.98982]]},"properties":{"name":"Power lines","category":"minor_line","osm_type":"way","osm_id":"1523635343"}},{"type":"Feature","geometry":{"type":"LineString","coordinates":[[-1.19572,51.99438],[-1.19539,51.9962]]},"properties":{"name":"Power lines","category":"minor_line","osm_type":"way","osm_id":"1523635348"}},{"type":"Feature","geometry":{"type":"LineString","coordinates":[[-1.00151,51.98616],[-1.00156,51.9863]]},"properties":{"name":"Power lines","category":"minor_line","osm_type":"way","osm_id":"1524085526"}},{"type":"Feature","geometry":{"type":"LineString","coordinates":[[-1.0355,52.00064],[-1.03457,52.00008],[-1.03029,52.00073],[-1.02754,52.00045],[-1.0253,51.99958],[-1.02405,51.99857]]},"properties":{"name":"Power lines","category":"minor_line","osm_type":"way","osm_id":"1524135098"}},{"type":"Feature","geometry":{"type":"LineString","coordinates":[[-1.00368,51.98144],[-1.00433,51.98119]]},"properties":{"name":"Power lines","category":"minor_line","osm_type":"way","osm_id":"1524392812"}},{"type":"Feature","geometry":{"type":"LineString","coordinates":[[-1.00655,51.98099],[-1.00618,51.97859]]},"properties":{"name":"Power lines","category":"minor_line","osm_type":"way","osm_id":"1524392813"}},{"type":"Feature","geometry":{"type":"LineString","coordinates":[[-1.00688,51.98253],[-1.00368,51.98144]]},"properties":{"name":"Power lines","category":"minor_line","osm_type":"way","osm_id":"1524392815"}},{"type":"Feature","geometry":{"type":"LineString","coordinates":[[-1.00688,51.98253],[-1.00677,51.98338],[-1.00572,51.98412]]},"properties":{"name":"Power lines","category":"minor_line","osm_type":"way","osm_id":"1524392816"}},{"type":"Feature","geometry":{"type":"LineString","coordinates":[[-1.02023,51.99822],[-1.01824,51.99715],[-1.01663,51.99523]]},"properties":{"name":"Power lines","category":"minor_line","osm_type":"way","osm_id":"1524392817"}},{"type":"Feature","geometry":{"type":"LineString","coordinates":[[-1.01148,51.98767],[-1.01099,51.98581]]},"properties":{"name":"Power lines","category":"minor_line","osm_type":"way","osm_id":"1524392831"}},{"type":"Feature","geometry":{"type":"LineString","coordinates":[[-1.0151,51.9887],[-1.01199,51.98827]]},"properties":{"name":"Power lines","category":"minor_line","osm_type":"way","osm_id":"1524392832"}},{"type":"Feature","geometry":{"type":"LineString","coordinates":[[-1.04459,51.97576],[-1.05435,51.97795]]},"properties":{"name":"Power lines","category":"minor_line","osm_type":"way","osm_id":"1524392840"}},{"type":"Feature","geometry":{"type":"LineString","coordinates":[[-1.04362,51.98591],[-1.0365,51.98685],[-1.03429,51.98567],[-1.02933,51.98424],[-1.01964,51.98325]]},"properties":{"name":"Power lines","category":"minor_line","osm_type":"way","osm_id":"1524392856"}},{"type":"Feature","geometry":{"type":"LineString","coordinates":[[-1.04388,51.98721],[-1.04362,51.98591]]},"properties":{"name":"Power lines","category":"minor_line","osm_type":"way","osm_id":"1524392859"}},{"type":"Feature","geometry":{"type":"LineString","coordinates":[[-1.04362,51.98591],[-1.0461,51.98588],[-1.04804,51.98635]]},"properties":{"name":"Power lines","category":"minor_line","osm_type":"way","osm_id":"1524392860"}},{"type":"Feature","geometry":{"type":"LineString","coordinates":[[-1.05643,51.99458],[-1.05354,51.99314]]},"properties":{"name":"Power lines","category":"minor_line","osm_type":"way","osm_id":"1524392874"}},{"type":"Feature","geometry":{"type":"LineString","coordinates":[[-1.05566,51.99132],[-1.05053,51.9957]]},"properties":{"name":"Power lines","category":"minor_line","osm_type":"way","osm_id":"1524392875"}},{"type":"Feature","geometry":{"type":"LineString","coordinates":[[-1.0346,51.93068],[-1.03383,51.93184],[-1.03456,51.93231]]},"properties":{"name":"Power lines","category":"minor_line","osm_type":"way","osm_id":"1524575165"}},{"type":"Feature","geometry":{"type":"LineString","coordinates":[[-1.02693,51.93076],[-1.0343,51.93114]]},"properties":{"name":"Power lines","category":"minor_line","osm_type":"way","osm_id":"1524575167"}},{"type":"Feature","geometry":{"type":"LineString","coordinates":[[-1.02232,51.93649],[-1.02145,51.9365]]},"properties":{"name":"Power lines","category":"minor_line","osm_type":"way","osm_id":"1524575168"}},{"type":"Feature","geometry":{"type":"LineString","coordinates":[[-1.024,51.93154],[-1.02558,51.93234]]},"properties":{"name":"Power lines","category":"minor_line","osm_type":"way","osm_id":"1524575169"}},{"type":"Feature","geometry":{"type":"LineString","coordinates":[[-1.02693,51.93076],[-1.024,51.93154]]},"properties":{"name":"Power lines","category":"minor_line","osm_type":"way","osm_id":"1524575170"}},{"type":"Feature","geometry":{"type":"LineString","coordinates":[[-1.02521,51.89234],[-1.02748,51.89322]]},"properties":{"name":"Power lines","category":"minor_line","osm_type":"way","osm_id":"1524575171"}},{"type":"Feature","geometry":{"type":"LineString","coordinates":[[-1.01752,51.89933],[-1.01342,51.90033],[-1.01166,51.89999]]},"properties":{"name":"Power lines","category":"minor_line","osm_type":"way","osm_id":"1524575172"}},{"type":"Feature","geometry":{"type":"LineString","coordinates":[[-1.02035,51.91257],[-1.02402,51.91356]]},"properties":{"name":"Power lines","category":"minor_line","osm_type":"way","osm_id":"1524575175"}},{"type":"Feature","geometry":{"type":"LineString","coordinates":[[-1.06288,51.90622],[-1.05956,51.90532]]},"properties":{"name":"Power lines","category":"minor_line","osm_type":"way","osm_id":"1524575178"}},{"type":"Feature","geometry":{"type":"LineString","coordinates":[[-1.05544,51.90567],[-1.05509,51.90708]]},"properties":{"name":"Power lines","category":"minor_line","osm_type":"way","osm_id":"1524575180"}},{"type":"Feature","geometry":{"type":"LineString","coordinates":[[-1.05407,51.91109],[-1.05703,51.91142]]},"properties":{"name":"Power lines","category":"minor_line","osm_type":"way","osm_id":"1524575181"}},{"type":"Feature","geometry":{"type":"LineString","coordinates":[[-1.04673,51.90381],[-1.05156,51.902]]},"properties":{"name":"Power lines","category":"minor_line","osm_type":"way","osm_id":"1524575182"}},{"type":"Feature","geometry":{"type":"LineString","coordinates":[[-1.03828,51.92252],[-1.03594,51.92248],[-1.03279,51.92299],[-1.02959,51.92479],[-1.02693,51.93076]]},"properties":{"name":"Power lines","category":"minor_line","osm_type":"way","osm_id":"1524575183"}},{"type":"Feature","geometry":{"type":"LineString","coordinates":[[-1.0438,51.9226],[-1.04362,51.92331]]},"properties":{"name":"Power lines","category":"minor_line","osm_type":"way","osm_id":"1524575185"}},{"type":"Feature","geometry":{"type":"LineString","coordinates":[[-1.05434,51.92721],[-1.05308,51.92752]]},"properties":{"name":"Power lines","category":"minor_line","osm_type":"way","osm_id":"1524575186"}},{"type":"Feature","geometry":{"type":"LineString","coordinates":[[-1.06028,51.92328],[-1.05688,51.92233],[-1.04271,51.92261]]},"properties":{"name":"Power lines","category":"minor_line","osm_type":"way","osm_id":"1524575187"}},{"type":"Feature","geometry":{"type":"LineString","coordinates":[[-1.05969,51.92165],[-1.06292,51.92234]]},"properties":{"name":"Power lines","category":"minor_line","osm_type":"way","osm_id":"1524575188"}},{"type":"Feature","geometry":{"type":"LineString","coordinates":[[-1.00703,51.95242],[-1.00437,51.95316]]},"properties":{"name":"Power lines","category":"minor_line","osm_type":"way","osm_id":"1524720299"}},{"type":"Feature","geometry":{"type":"LineString","coordinates":[[-1.00553,51.95591],[-1.0014,51.95495]]},"properties":{"name":"Power lines","category":"minor_line","osm_type":"way","osm_id":"1524720300"}},{"type":"Feature","geometry":{"type":"LineString","coordinates":[[-1.01008,51.95448],[-1.00439,51.95626]]},"properties":{"name":"Power lines","category":"minor_line","osm_type":"way","osm_id":"1524720301"}},{"type":"Feature","geometry":{"type":"LineString","coordinates":[[-1.01433,51.96322],[-1.01078,51.96277]]},"properties":{"name":"Power lines","category":"minor_line","osm_type":"way","osm_id":"1524720302"}},{"type":"Feature","geometry":{"type":"LineString","coordinates":[[-1.0221,51.9499],[-1.02404,51.95007]]},"properties":{"name":"Power lines","category":"minor_line","osm_type":"way","osm_id":"1524720303"}},{"type":"Feature","geometry":{"type":"LineString","coordinates":[[-1.04168,51.96258],[-1.04027,51.96404]]},"properties":{"name":"Power lines","category":"minor_line","osm_type":"way","osm_id":"1524720304"}},{"type":"Feature","geometry":{"type":"LineString","coordinates":[[-1.04331,51.95938],[-1.04317,51.96213]]},"properties":{"name":"Power lines","category":"minor_line","osm_type":"way","osm_id":"1524720305"}},{"type":"Feature","geometry":{"type":"LineString","coordinates":[[-1.04925,51.96023],[-1.04933,51.9596]]},"properties":{"name":"Power lines","category":"minor_line","osm_type":"way","osm_id":"1524720307"}},{"type":"Feature","geometry":{"type":"LineString","coordinates":[[-1.05396,51.9605],[-1.05326,51.96373],[-1.05633,51.96479]]},"properties":{"name":"Power lines","category":"minor_line","osm_type":"way","osm_id":"1524720308"}},{"type":"Feature","geometry":{"type":"LineString","coordinates":[[-1.07254,51.97682],[-1.07749,51.97481]]},"properties":{"name":"Power lines","category":"minor_line","osm_type":"way","osm_id":"1524720309"}},{"type":"Feature","geometry":{"type":"LineString","coordinates":[[-1.06293,51.97454],[-1.06836,51.97575],[-1.07031,51.97581],[-1.07429,51.97758]]},"properties":{"name":"Power lines","category":"minor_line","osm_type":"way","osm_id":"1524720310"}},{"type":"Feature","geometry":{"type":"LineString","coordinates":[[-1.06352,51.97274],[-1.06666,51.97319]]},"properties":{"name":"Power lines","category":"minor_line","osm_type":"way","osm_id":"1524720312"}},{"type":"Feature","geometry":{"type":"LineString","coordinates":[[-1.06193,51.9609],[-1.06601,51.96393],[-1.06294,51.97351]]},"properties":{"name":"Power lines","category":"minor_line","osm_type":"way","osm_id":"1524720313"}},{"type":"Feature","geometry":{"type":"LineString","coordinates":[[-1.06466,51.96049],[-1.06339,51.96029]]},"properties":{"name":"Power lines","category":"minor_line","osm_type":"way","osm_id":"1524720314"}},{"type":"Feature","geometry":{"type":"LineString","coordinates":[[-1.0816,51.96019],[-1.08149,51.96254]]},"properties":{"name":"Power lines","category":"minor_line","osm_type":"way","osm_id":"1524720316"}},{"type":"Feature","geometry":{"type":"LineString","coordinates":[[-1.08785,51.95984],[-1.08835,51.9595]]},"properties":{"name":"Power lines","category":"minor_line","osm_type":"way","osm_id":"1524720317"}},{"type":"Feature","geometry":{"type":"LineString","coordinates":[[-1.08785,51.95984],[-1.08643,51.95946]]},"properties":{"name":"Power lines","category":"minor_line","osm_type":"way","osm_id":"1524720318"}},{"type":"Feature","geometry":{"type":"LineString","coordinates":[[-1.08676,51.96067],[-1.08785,51.95984]]},"properties":{"name":"Power lines","category":"minor_line","osm_type":"way","osm_id":"1524720319"}},{"type":"Feature","geometry":{"type":"LineString","coordinates":[[-1.022,51.92818],[-1.02341,51.92846]]},"properties":{"name":"Power lines","category":"minor_line","osm_type":"way","osm_id":"1524866325"}},{"type":"Feature","geometry":{"type":"LineString","coordinates":[[-1.00439,51.93013],[-1.00355,51.9309],[-1.00332,51.93278]]},"properties":{"name":"Power lines","category":"minor_line","osm_type":"way","osm_id":"1524919227"}},{"type":"Feature","geometry":{"type":"LineString","coordinates":[[-1.38294,51.76606],[-1.38074,51.76796]]},"properties":{"name":"Power lines","category":"line","osm_type":"way","osm_id":"1554512285"}},{"type":"Feature","geometry":{"type":"LineString","coordinates":[[-1.38237,51.76615],[-1.38074,51.76796]]},"properties":{"name":"Power lines","category":"line","osm_type":"way","osm_id":"1554512286"}},{"type":"Feature","geometry":{"type":"LineString","coordinates":[[-1.3009,51.80502],[-1.30069,51.80502]]},"properties":{"name":"Power lines","category":"line","osm_type":"way","osm_id":"1554512287"}},{"type":"Feature","geometry":{"type":"LineString","coordinates":[[-1.30107,51.8051],[-1.3009,51.80502]]},"properties":{"name":"Power lines","category":"line","osm_type":"way","osm_id":"1554512288"}},{"type":"Feature","geometry":{"type":"LineString","coordinates":[[-1.30106,51.80533],[-1.30081,51.80528]]},"properties":{"name":"Power lines","category":"line","osm_type":"way","osm_id":"1554512289"}},{"type":"Feature","geometry":{"type":"LineString","coordinates":[[-1.30072,51.80526],[-1.30045,51.8052]]},"properties":{"name":"Power lines","category":"line","osm_type":"way","osm_id":"1554512290"}},{"type":"Feature","geometry":{"type":"LineString","coordinates":[[-1.35937,51.86237],[-1.35641,51.8633]]},"properties":{"name":"Power lines","category":"minor_line","osm_type":"way","osm_id":"1556563506"}},{"type":"Feature","geometry":{"type":"LineString","coordinates":[[-1.35418,51.85901],[-1.3555,51.86293],[-1.35741,51.86386],[-1.35874,51.86654],[-1.3611,51.86755],[-1.3616,51.86963]]},"properties":{"name":"Power lines","category":"minor_line","osm_type":"way","osm_id":"1556563507"}},{"type":"Feature","geometry":{"type":"LineString","coordinates":[[-1.35375,51.85433],[-1.35241,51.85457],[-1.35121,51.85419]]},"properties":{"name":"Power lines","category":"line","osm_type":"way","osm_id":"1556563508"}}]}