{"type":"FeatureCollection","features":[{"type":"Feature","geometry":{"type":"LineString","coordinates":[[-1.5339,55.14176],[-1.53379,55.14221]]},"properties":{"name":"Power lines","category":"line","osm_type":"way","osm_id":"1476844134","operator":"National Grid Electricity Transmission"}},{"type":"Feature","geometry":{"type":"LineString","coordinates":[[-1.53381,55.14175],[-1.53379,55.14221]]},"properties":{"name":"Power lines","category":"line","osm_type":"way","osm_id":"1476844135","operator":"National Grid Electricity Transmission"}},{"type":"Feature","geometry":{"type":"LineString","coordinates":[[-1.53379,55.14221],[-1.53373,55.14174]]},"properties":{"name":"Power lines","category":"line","osm_type":"way","osm_id":"1476844136","operator":"National Grid Electricity Transmission"}},{"type":"Feature","geometry":{"type":"LineString","coordinates":[[-1.53456,55.14164],[-1.5346,55.14148]]},"properties":{"name":"Power lines","category":"line","osm_type":"way","osm_id":"1476844137","operator":"National Grid Electricity Transmission"}},{"type":"Feature","geometry":{"type":"LineString","coordinates":[[-1.53453,55.14164],[-1.53457,55.14147]]},"properties":{"name":"Power lines","category":"line","osm_type":"way","osm_id":"1476844138","operator":"National Grid Electricity Transmission"}},{"type":"Feature","geometry":{"type":"LineString","coordinates":[[-1.53459,55.14153],[-1.53372,55.14154]]},"properties":{"name":"Power lines","category":"line","osm_type":"way","osm_id":"1476844139","operator":"National Grid Electricity Transmission"}},{"type":"Feature","geometry":{"type":"LineString","coordinates":[[-1.5346,55.14153],[-1.53384,55.1415]]},"properties":{"name":"Power lines","category":"line","osm_type":"way","osm_id":"1476844140","operator":"National Grid Electricity Transmission"}},{"type":"Feature","geometry":{"type":"LineString","coordinates":[[-1.5339,55.14146],[-1.53319,55.14146]]},"properties":{"name":"Power lines","category":"line","osm_type":"way","osm_id":"1476844141","operator":"National Grid Electricity Transmission"}},{"type":"Feature","geometry":{"type":"LineString","coordinates":[[-1.53397,55.14138],[-1.53326,55.14111]]},"properties":{"name":"Power lines","category":"line","osm_type":"way","osm_id":"1476844142","operator":"National Grid Electricity Transmission"}},{"type":"Feature","geometry":{"type":"LineString","coordinates":[[-1.53326,55.14111],[-1.53416,55.1414]]},"properties":{"name":"Power lines","category":"line","osm_type":"way","osm_id":"1476844143","operator":"National Grid Electricity Transmission"}},{"type":"Feature","geometry":{"type":"LineString","coordinates":[[-1.53407,55.14138],[-1.53326,55.14111]]},"properties":{"name":"Power lines","category":"line","osm_type":"way","osm_id":"1476844144","operator":"National Grid Electricity Transmission"}},{"type":"Feature","geometry":{"type":"LineString","coordinates":[[-1.53447,55.14156],[-1.53476,55.14158]]},"properties":{"name":"Power lines","category":"line","osm_type":"way","osm_id":"1476844145","operator":"National Grid Electricity Transmission"}},{"type":"Feature","geometry":{"type":"LineString","coordinates":[[-1.53476,55.14159],[-1.53447,55.14157]]},"properties":{"name":"Power lines","category":"line","osm_type":"way","osm_id":"1476844146","operator":"National Grid Electricity Transmission"}},{"type":"Feature","geometry":{"type":"LineString","coordinates":[[-1.53476,55.1416],[-1.53447,55.14157]]},"properties":{"name":"Power lines","category":"line","osm_type":"way","osm_id":"1476844147","operator":"National Grid Electricity Transmission"}},{"type":"Feature","geometry":{"type":"LineString","coordinates":[[-1.53469,55.14159],[-1.53476,55.14157]]},"properties":{"name":"Power lines","category":"line","osm_type":"way","osm_id":"1476844148","operator":"National Grid Electricity Transmission"}},{"type":"Feature","geometry":{"type":"LineString","coordinates":[[-1.53471,55.14159],[-1.53477,55.14157]]},"properties":{"name":"Power lines","category":"line","osm_type":"way","osm_id":"1476844149","operator":"National Grid Electricity Transmission"}},{"type":"Feature","geometry":{"type":"LineString","coordinates":[[-1.53477,55.14156],[-1.53472,55.14158]]},"properties":{"name":"Power lines","category":"line","osm_type":"way","osm_id":"1476844150","operator":"National Grid Electricity Transmission"}},{"type":"Feature","geometry":{"type":"LineString","coordinates":[[-1.53459,55.14156],[-1.53453,55.14156]]},"properties":{"name":"Power lines","category":"line","osm_type":"way","osm_id":"1476844151","operator":"National Grid Electricity Transmission"}},{"type":"Feature","geometry":{"type":"LineString","coordinates":[[-1.53459,55.14155],[-1.53453,55.14155]]},"properties":{"name":"Power lines","category":"line","osm_type":"way","osm_id":"1476844152","operator":"National Grid Electricity Transmission"}},{"type":"Feature","geometry":{"type":"LineString","coordinates":[[-1.53459,55.14155],[-1.53453,55.14154]]},"properties":{"name":"Power lines","category":"line","osm_type":"way","osm_id":"1476844153","operator":"National Grid Electricity Transmission"}},{"type":"Feature","geometry":{"type":"LineString","coordinates":[[-1.5346,55.14151],[-1.53397,55.14138]]},"properties":{"name":"Power lines","category":"line","osm_type":"way","osm_id":"1476844154","operator":"National Grid Electricity Transmission"}},{"type":"Feature","geometry":{"type":"LineString","coordinates":[[-1.5346,55.1415],[-1.53407,55.14138]]},"properties":{"name":"Power lines","category":"line","osm_type":"way","osm_id":"1476844155","operator":"National Grid Electricity Transmission"}},{"type":"Feature","geometry":{"type":"LineString","coordinates":[[-1.53416,55.1414],[-1.5346,55.1415]]},"properties":{"name":"Power lines","category":"line","osm_type":"way","osm_id":"1476844156","operator":"National Grid Electricity Transmission"}},{"type":"Feature","geometry":{"type":"LineString","coordinates":[[-1.5346,55.14152],[-1.5339,55.14146]]},"properties":{"name":"Power lines","category":"line","osm_type":"way","osm_id":"1476844157","operator":"National Grid Electricity Transmission"}},{"type":"Feature","geometry":{"type":"LineString","coordinates":[[-1.53384,55.1415],[-1.53319,55.14146]]},"properties":{"name":"Power lines","category":"line","osm_type":"way","osm_id":"1476844158","operator":"National Grid Electricity Transmission"}},{"type":"Feature","geometry":{"type":"LineString","coordinates":[[-1.53372,55.14154],[-1.53319,55.14146]]},"properties":{"name":"Power lines","category":"line","osm_type":"way","osm_id":"1476844159","operator":"National Grid Electricity Transmission"}},{"type":"Feature","geometry":{"type":"LineString","coordinates":[[-1.53373,55.14174],[-1.53375,55.14163]]},"properties":{"name":"Power lines","category":"line","osm_type":"way","osm_id":"1476844160","operator":"National Grid Electricity Transmission"}},{"type":"Feature","geometry":{"type":"LineString","coordinates":[[-1.53383,55.14164],[-1.53381,55.14175]]},"properties":{"name":"Power lines","category":"line","osm_type":"way","osm_id":"1476844161","operator":"National Grid Electricity Transmission"}},{"type":"Feature","geometry":{"type":"LineString","coordinates":[[-1.53392,55.14164],[-1.5339,55.14176]]},"properties":{"name":"Power lines","category":"line","osm_type":"way","osm_id":"1476844162","operator":"National Grid Electricity Transmission"}},{"type":"Feature","geometry":{"type":"LineString","coordinates":[[-1.53407,55.14177],[-1.5341,55.14166]]},"properties":{"name":"Power lines","category":"line","osm_type":"way","osm_id":"1476844163","operator":"National Grid Electricity Transmission"}},{"type":"Feature","geometry":{"type":"LineString","coordinates":[[-1.53417,55.14167],[-1.53415,55.14178]]},"properties":{"name":"Power lines","category":"line","osm_type":"way","osm_id":"1476844164","operator":"National Grid Electricity Transmission"}},{"type":"Feature","geometry":{"type":"LineString","coordinates":[[-1.53423,55.14178],[-1.53425,55.14167]]},"properties":{"name":"Power lines","category":"line","osm_type":"way","osm_id":"1476844165","operator":"National Grid Electricity Transmission"}},{"type":"Feature","geometry":{"type":"LineString","coordinates":[[-1.53326,55.14111],[-1.53314,55.14114]]},"properties":{"name":"Power lines","category":"line","osm_type":"way","osm_id":"1476844166","operator":"National Grid Electricity Transmission"}},{"type":"Feature","geometry":{"type":"LineString","coordinates":[[-1.53326,55.14111],[-1.53314,55.14111]]},"properties":{"name":"Power lines","category":"line","osm_type":"way","osm_id":"1476844167","operator":"National Grid Electricity Transmission"}},{"type":"Feature","geometry":{"type":"LineString","coordinates":[[-1.53326,55.14111],[-1.53315,55.14107]]},"properties":{"name":"Power lines","category":"line","osm_type":"way","osm_id":"1476844168","operator":"National Grid Electricity Transmission"}},{"type":"Feature","geometry":{"type":"LineString","coordinates":[[-1.53319,55.14146],[-1.53307,55.14143]]},"properties":{"name":"Power lines","category":"line","osm_type":"way","osm_id":"1476844169","operator":"National Grid Electricity Transmission"}},{"type":"Feature","geometry":{"type":"LineString","coordinates":[[-1.53319,55.14146],[-1.53306,55.14146]]},"properties":{"name":"Power lines","category":"line","osm_type":"way","osm_id":"1476844170","operator":"National Grid Electricity Transmission"}},{"type":"Feature","geometry":{"type":"LineString","coordinates":[[-1.53319,55.14146],[-1.53304,55.14149]]},"properties":{"name":"Power lines","category":"line","osm_type":"way","osm_id":"1476844171","operator":"National Grid Electricity Transmission"}},{"type":"Feature","geometry":{"type":"LineString","coordinates":[[-1.53145,55.14065],[-1.5314,55.14049]]},"properties":{"name":"Power lines","category":"line","osm_type":"way","osm_id":"1476844172","operator":"National Grid Electricity Transmission"}},{"type":"Feature","geometry":{"type":"LineString","coordinates":[[-1.53136,55.14065],[-1.5314,55.14049]]},"properties":{"name":"Power lines","category":"line","osm_type":"way","osm_id":"1476844173","operator":"National Grid Electricity Transmission"}},{"type":"Feature","geometry":{"type":"LineString","coordinates":[[-1.53127,55.14064],[-1.5314,55.14049]]},"properties":{"name":"Power lines","category":"line","osm_type":"way","osm_id":"1476844174","operator":"National Grid Electricity Transmission"}},{"type":"Feature","geometry":{"type":"LineString","coordinates":[[-1.53114,55.14063],[-1.53094,55.14031]]},"properties":{"name":"Power lines","category":"line","osm_type":"way","osm_id":"1476844175","operator":"National Grid Electricity Transmission"}},{"type":"Feature","geometry":{"type":"LineString","coordinates":[[-1.53105,55.14062],[-1.53094,55.14031]]},"properties":{"name":"Power lines","category":"line","osm_type":"way","osm_id":"1476844176","operator":"National Grid Electricity Transmission"}},{"type":"Feature","geometry":{"type":"LineString","coordinates":[[-1.53097,55.14061],[-1.53094,55.14031]]},"properties":{"name":"Power lines","category":"line","osm_type":"way","osm_id":"1476844177","operator":"National Grid Electricity Transmission"}},{"type":"Feature","geometry":{"type":"LineString","coordinates":[[-1.5304,55.14056],[-1.53051,55.14031]]},"properties":{"name":"Power lines","category":"line","osm_type":"way","osm_id":"1476844178","operator":"National Grid Electricity Transmission"}},{"type":"Feature","geometry":{"type":"LineString","coordinates":[[-1.53031,55.14055],[-1.53051,55.14031]]},"properties":{"name":"Power lines","category":"line","osm_type":"way","osm_id":"1476844179","operator":"National Grid Electricity Transmission"}},{"type":"Feature","geometry":{"type":"LineString","coordinates":[[-1.53023,55.14055],[-1.53051,55.14031]]},"properties":{"name":"Power lines","category":"line","osm_type":"way","osm_id":"1476844180","operator":"National Grid Electricity Transmission"}},{"type":"Feature","geometry":{"type":"LineString","coordinates":[[-1.52988,55.14052],[-1.53034,55.13999]]},"properties":{"name":"National Grid Blyth-Tynemouth","category":"line","osm_type":"way","osm_id":"1476844181","operator":"National Grid Electricity Transmission","ref":"ZZA"}},{"type":"Feature","geometry":{"type":"LineString","coordinates":[[-1.52979,55.14051],[-1.53034,55.13999]]},"properties":{"name":"National Grid Blyth-Tynemouth","category":"line","osm_type":"way","osm_id":"1476844182","operator":"National Grid Electricity Transmission","ref":"ZZA"}},{"type":"Feature","geometry":{"type":"LineString","coordinates":[[-1.5297,55.1405],[-1.53034,55.13999]]},"properties":{"name":"National Grid Blyth-Tynemouth","category":"line","osm_type":"way","osm_id":"1476844183","operator":"National Grid Electricity Transmission","ref":"ZZA"}},{"type":"Feature","geometry":{"type":"LineString","coordinates":[[-1.95231,55.48115],[-1.95151,55.48066]]},"properties":{"name":"Power lines","category":"minor_line","osm_type":"way","osm_id":"1534825257"}},{"type":"Feature","geometry":{"type":"LineString","coordinates":[[-1.53436,55.19813],[-1.53513,55.19766]]},"properties":{"name":"Power lines","category":"line","osm_type":"way","osm_id":"1546047812"}},{"type":"Feature","geometry":{"type":"LineString","coordinates":[[-1.53513,55.19766],[-1.53347,55.19738]]},"properties":{"name":"Power lines","category":"line","osm_type":"way","osm_id":"1546047813"}},{"type":"Feature","geometry":{"type":"LineString","coordinates":[[-1.7314,55.00385],[-1.73164,55.00351]]},"properties":{"name":"Power lines","category":"minor_line","osm_type":"way","osm_id":"1548077549","operator":"Northern Powergrid"}}]}