{"type":"FeatureCollection","features":[{"type":"Feature","geometry":{"type":"LineString","coordinates":[[-1.28641,53.67226],[-1.27545,53.67249],[-1.27492,53.67412]]},"properties":{"name":"Power lines","category":"minor_line","osm_type":"way","osm_id":"1492777691"}},{"type":"Feature","geometry":{"type":"LineString","coordinates":[[-1.30974,53.67464],[-1.32294,53.67197],[-1.32822,53.67274],[-1.33203,53.67286],[-1.33975,53.67145]]},"properties":{"name":"Power lines","category":"minor_line","osm_type":"way","osm_id":"1492777692"}},{"type":"Feature","geometry":{"type":"LineString","coordinates":[[-1.2805,53.70178],[-1.28538,53.7013],[-1.28434,53.70075]]},"properties":{"name":"Power lines","category":"minor_line","osm_type":"way","osm_id":"1492777693"}},{"type":"Feature","geometry":{"type":"LineString","coordinates":[[-1.28991,53.70988],[-1.29255,53.70841],[-1.29823,53.70716]]},"properties":{"name":"Power lines","category":"minor_line","osm_type":"way","osm_id":"1492777694"}},{"type":"Feature","geometry":{"type":"LineString","coordinates":[[-1.29241,53.70848],[-1.29168,53.70754]]},"properties":{"name":"Power lines","category":"minor_line","osm_type":"way","osm_id":"1492777695"}},{"type":"Feature","geometry":{"type":"LineString","coordinates":[[-1.25061,53.64717],[-1.25288,53.64696],[-1.2599,53.64895],[-1.26058,53.64958]]},"properties":{"name":"Power lines","category":"minor_line","osm_type":"way","osm_id":"1493031485"}},{"type":"Feature","geometry":{"type":"LineString","coordinates":[[-1.2595,53.6506],[-1.26051,53.65038]]},"properties":{"name":"Power lines","category":"minor_line","osm_type":"way","osm_id":"1493031486"}},{"type":"Feature","geometry":{"type":"LineString","coordinates":[[-1.26657,53.6641],[-1.27235,53.66341],[-1.27981,53.66015],[-1.2797,53.65813],[-1.2683,53.65202],[-1.26604,53.65133]]},"properties":{"name":"Power lines","category":"minor_line","osm_type":"way","osm_id":"1493031487"}},{"type":"Feature","geometry":{"type":"LineString","coordinates":[[-1.2486,53.65203],[-1.24476,53.65114],[-1.24116,53.64815],[-1.23587,53.647]]},"properties":{"name":"Power lines","category":"minor_line","osm_type":"way","osm_id":"1493031488"}},{"type":"Feature","geometry":{"type":"LineString","coordinates":[[-1.23578,53.66755],[-1.23796,53.66924],[-1.23468,53.67058]]},"properties":{"name":"Power lines","category":"minor_line","osm_type":"way","osm_id":"1493031489"}},{"type":"Feature","geometry":{"type":"LineString","coordinates":[[-1.25908,53.67452],[-1.25291,53.67424],[-1.25125,53.67358],[-1.24839,53.67135],[-1.24275,53.6687],[-1.23768,53.669]]},"properties":{"name":"Power lines","category":"minor_line","osm_type":"way","osm_id":"1493031490"}},{"type":"Feature","geometry":{"type":"LineString","coordinates":[[-1.25898,53.67378],[-1.26036,53.67945],[-1.26381,53.68681],[-1.26365,53.6901],[-1.26576,53.6913],[-1.2659,53.69444]]},"properties":{"name":"Power lines","category":"minor_line","osm_type":"way","osm_id":"1493031491"}},{"type":"Feature","geometry":{"type":"LineString","coordinates":[[-1.25924,53.67599],[-1.25753,53.67615],[-1.25738,53.67678]]},"properties":{"name":"Power lines","category":"minor_line","osm_type":"way","osm_id":"1493031492"}},{"type":"Feature","geometry":{"type":"LineString","coordinates":[[-1.22955,53.67553],[-1.22898,53.67511],[-1.22962,53.67138],[-1.2268,53.67116],[-1.22548,53.67157],[-1.223,53.67048],[-1.22211,53.6673]]},"properties":{"name":"Power lines","category":"minor_line","osm_type":"way","osm_id":"1493031493"}},{"type":"Feature","geometry":{"type":"LineString","coordinates":[[-1.21039,53.68165],[-1.21376,53.68129],[-1.21433,53.68196]]},"properties":{"name":"Power lines","category":"minor_line","osm_type":"way","osm_id":"1493031494"}},{"type":"Feature","geometry":{"type":"LineString","coordinates":[[-1.21175,53.68531],[-1.21445,53.68956]]},"properties":{"name":"Power lines","category":"minor_line","osm_type":"way","osm_id":"1493031495"}},{"type":"Feature","geometry":{"type":"LineString","coordinates":[[-1.21596,53.68738],[-1.2199,53.69118]]},"properties":{"name":"Power lines","category":"minor_line","osm_type":"way","osm_id":"1493031496"}},{"type":"Feature","geometry":{"type":"LineString","coordinates":[[-1.21793,53.68928],[-1.21304,53.68975],[-1.21032,53.6894]]},"properties":{"name":"Power lines","category":"minor_line","osm_type":"way","osm_id":"1493031497"}},{"type":"Feature","geometry":{"type":"LineString","coordinates":[[-1.20057,53.64258],[-1.20564,53.64314],[-1.20671,53.64255],[-1.20802,53.64041]]},"properties":{"name":"Power lines","category":"minor_line","osm_type":"way","osm_id":"1493031498"}},{"type":"Feature","geometry":{"type":"LineString","coordinates":[[-1.21249,53.64136],[-1.20807,53.64036],[-1.20523,53.63858],[-1.19947,53.63758],[-1.19672,53.6366],[-1.19022,53.63555]]},"properties":{"name":"Power lines","category":"minor_line","osm_type":"way","osm_id":"1493031499"}},{"type":"Feature","geometry":{"type":"LineString","coordinates":[[-1.18577,53.65049],[-1.18558,53.65141],[-1.17229,53.65821]]},"properties":{"name":"Power lines","category":"minor_line","osm_type":"way","osm_id":"1493031500"}},{"type":"Feature","geometry":{"type":"LineString","coordinates":[[-1.17345,53.66057],[-1.17346,53.6597],[-1.17169,53.65746],[-1.16558,53.65577],[-1.16324,53.65637],[-1.15853,53.6566],[-1.1508,53.65904]]},"properties":{"name":"Power lines","category":"minor_line","osm_type":"way","osm_id":"1493031501"}},{"type":"Feature","geometry":{"type":"LineString","coordinates":[[-1.20859,53.66783],[-1.20937,53.66699],[-1.20822,53.6658],[-1.20083,53.66567],[-1.1998,53.66637],[-1.19514,53.66692],[-1.19018,53.6654],[-1.18887,53.6654],[-1.18741,53.66422],[-1.1759,53.66019],[-1.17098,53.66074]]},"properties":{"name":"Power lines","category":"minor_line","osm_type":"way","osm_id":"1493031502"}},{"type":"Feature","geometry":{"type":"LineString","coordinates":[[-1.19514,53.66692],[-1.19519,53.66659]]},"properties":{"name":"Power lines","category":"minor_line","osm_type":"way","osm_id":"1493031503"}},{"type":"Feature","geometry":{"type":"LineString","coordinates":[[-1.17913,53.69434],[-1.17276,53.693],[-1.16518,53.6937],[-1.16194,53.69346]]},"properties":{"name":"Power lines","category":"minor_line","osm_type":"way","osm_id":"1493031504"}},{"type":"Feature","geometry":{"type":"LineString","coordinates":[[-1.17276,53.693],[-1.17294,53.69437]]},"properties":{"name":"Power lines","category":"minor_line","osm_type":"way","osm_id":"1493031505"}},{"type":"Feature","geometry":{"type":"LineString","coordinates":[[-1.17358,53.6771],[-1.16954,53.67716],[-1.16158,53.67861]]},"properties":{"name":"Power lines","category":"minor_line","osm_type":"way","osm_id":"1493031506"}},{"type":"Feature","geometry":{"type":"LineString","coordinates":[[-1.15985,53.67327],[-1.15429,53.67463]]},"properties":{"name":"Power lines","category":"minor_line","osm_type":"way","osm_id":"1493031507"}},{"type":"Feature","geometry":{"type":"LineString","coordinates":[[-1.14748,53.67885],[-1.1529,53.67793],[-1.15548,53.67703],[-1.15391,53.67375],[-1.14728,53.66819],[-1.14193,53.66475],[-1.13809,53.66419],[-1.13037,53.65734],[-1.12713,53.6525],[-1.12997,53.64979],[-1.13331,53.64766],[-1.13731,53.64698],[-1.13758,53.64665],[-1.13676,53.64443],[-1.14153,53.64111],[-1.14113,53.63911],[-1.14379,53.6364],[-1.1451,53.63322],[-1.14425,53.63021],[-1.14626,53.62724]]},"properties":{"name":"Power lines","category":"minor_line","osm_type":"way","osm_id":"1493031508"}},{"type":"Feature","geometry":{"type":"LineString","coordinates":[[-1.14273,53.66527],[-1.14321,53.66367]]},"properties":{"name":"Power lines","category":"minor_line","osm_type":"way","osm_id":"1493031509"}},{"type":"Feature","geometry":{"type":"LineString","coordinates":[[-1.13643,53.66271],[-1.13375,53.66313],[-1.12783,53.66597],[-1.1252,53.67028]]},"properties":{"name":"Power lines","category":"minor_line","osm_type":"way","osm_id":"1493031510"}},{"type":"Feature","geometry":{"type":"LineString","coordinates":[[-1.13267,53.66364],[-1.13341,53.66496]]},"properties":{"name":"Power lines","category":"minor_line","osm_type":"way","osm_id":"1493031511"}},{"type":"Feature","geometry":{"type":"LineString","coordinates":[[-1.1312,53.66435],[-1.12918,53.66325]]},"properties":{"name":"Power lines","category":"minor_line","osm_type":"way","osm_id":"1493031512"}},{"type":"Feature","geometry":{"type":"LineString","coordinates":[[-1.132,53.65878],[-1.12802,53.65956]]},"properties":{"name":"Power lines","category":"minor_line","osm_type":"way","osm_id":"1493031513"}},{"type":"Feature","geometry":{"type":"LineString","coordinates":[[-1.12756,53.65314],[-1.10082,53.65455],[-1.0997,53.65422],[-1.08998,53.65679],[-1.07904,53.6573],[-1.07688,53.65682]]},"properties":{"name":"Power lines","category":"minor_line","osm_type":"way","osm_id":"1493031514"}},{"type":"Feature","geometry":{"type":"LineString","coordinates":[[-1.0881,53.65693],[-1.08845,53.65781]]},"properties":{"name":"Power lines","category":"minor_line","osm_type":"way","osm_id":"1493031515"}},{"type":"Feature","geometry":{"type":"LineString","coordinates":[[-1.1451,53.63322],[-1.1462,53.63351]]},"properties":{"name":"Power lines","category":"minor_line","osm_type":"way","osm_id":"1493031516"}},{"type":"Feature","geometry":{"type":"LineString","coordinates":[[-1.07499,53.65763],[-1.07089,53.65781],[-1.06629,53.65732],[-1.04841,53.65776]]},"properties":{"name":"Power lines","category":"minor_line","osm_type":"way","osm_id":"1493031517"}},{"type":"Feature","geometry":{"type":"LineString","coordinates":[[-1.0712,53.65781],[-1.07097,53.66572]]},"properties":{"name":"Power lines","category":"minor_line","osm_type":"way","osm_id":"1493031518"}},{"type":"Feature","geometry":{"type":"LineString","coordinates":[[-1.11665,53.65635],[-1.11698,53.65371]]},"properties":{"name":"Power lines","category":"minor_line","osm_type":"way","osm_id":"1493031519"}},{"type":"Feature","geometry":{"type":"LineString","coordinates":[[-1.11123,53.65636],[-1.11041,53.65405]]},"properties":{"name":"Power lines","category":"minor_line","osm_type":"way","osm_id":"1493031520"}},{"type":"Feature","geometry":{"type":"LineString","coordinates":[[-1.11909,53.66112],[-1.11455,53.66536]]},"properties":{"name":"Power lines","category":"minor_line","osm_type":"way","osm_id":"1493031521"}},{"type":"Feature","geometry":{"type":"LineString","coordinates":[[-1.105,53.66339],[-1.10481,53.66422]]},"properties":{"name":"Power lines","category":"minor_line","osm_type":"way","osm_id":"1493031522"}},{"type":"Feature","geometry":{"type":"LineString","coordinates":[[-1.1062,53.66448],[-1.10351,53.66409]]},"properties":{"name":"Power lines","category":"minor_line","osm_type":"way","osm_id":"1493031523"}},{"type":"Feature","geometry":{"type":"LineString","coordinates":[[-1.12725,53.66748],[-1.11837,53.66632],[-1.10732,53.66351],[-1.09606,53.66285],[-1.09038,53.66354],[-1.08773,53.66592],[-1.08666,53.6662],[-1.08238,53.66606]]},"properties":{"name":"Power lines","category":"minor_line","osm_type":"way","osm_id":"1493031524"}},{"type":"Feature","geometry":{"type":"LineString","coordinates":[[-1.1051,53.66944],[-1.11193,53.66968],[-1.11322,53.66501]]},"properties":{"name":"Power lines","category":"minor_line","osm_type":"way","osm_id":"1493031525"}},{"type":"Feature","geometry":{"type":"LineString","coordinates":[[-1.07585,53.66634],[-1.07456,53.66628]]},"properties":{"name":"Power lines","category":"minor_line","osm_type":"way","osm_id":"1493031526"}},{"type":"Feature","geometry":{"type":"LineString","coordinates":[[-1.11687,53.6818],[-1.1153,53.687]]},"properties":{"name":"Power lines","category":"minor_line","osm_type":"way","osm_id":"1493031527"}},{"type":"Feature","geometry":{"type":"LineString","coordinates":[[-1.09808,53.68313],[-1.10351,53.68332],[-1.10967,53.68463],[-1.12487,53.69096],[-1.12442,53.69344]]},"properties":{"name":"Power lines","category":"minor_line","osm_type":"way","osm_id":"1493031528"}},{"type":"Feature","geometry":{"type":"LineString","coordinates":[[-1.12452,53.69284],[-1.13076,53.6923],[-1.13302,53.69103]]},"properties":{"name":"Power lines","category":"minor_line","osm_type":"way","osm_id":"1493031529"}},{"type":"Feature","geometry":{"type":"LineString","coordinates":[[-1.12775,53.69257],[-1.12723,53.69346]]},"properties":{"name":"Power lines","category":"minor_line","osm_type":"way","osm_id":"1493031530"}},{"type":"Feature","geometry":{"type":"LineString","coordinates":[[-1.12394,53.69459],[-1.12267,53.69701],[-1.11892,53.69749]]},"properties":{"name":"Power lines","category":"minor_line","osm_type":"way","osm_id":"1493031531"}},{"type":"Feature","geometry":{"type":"LineString","coordinates":[[-1.06382,53.66766],[-1.06428,53.6668]]},"properties":{"name":"Power lines","category":"minor_line","osm_type":"way","osm_id":"1493031533"}},{"type":"Feature","geometry":{"type":"LineString","coordinates":[[-1.05769,53.66901],[-1.0576,53.66767],[-1.05849,53.66671],[-1.06149,53.66642],[-1.06393,53.66687]]},"properties":{"name":"Power lines","category":"minor_line","osm_type":"way","osm_id":"1493031534"}},{"type":"Feature","geometry":{"type":"LineString","coordinates":[[-1.05719,53.67189],[-1.05304,53.67168],[-1.04985,53.67046],[-1.04957,53.6696],[-1.0504,53.66782],[-1.04922,53.66739],[-1.0477,53.66757],[-1.04426,53.66519],[-1.04433,53.66311],[-1.04333,53.66213],[-1.04384,53.66097]]},"properties":{"name":"Power lines","category":"minor_line","osm_type":"way","osm_id":"1493031535"}},{"type":"Feature","geometry":{"type":"LineString","coordinates":[[-1.04073,53.66068],[-1.04678,53.66139]]},"properties":{"name":"Power lines","category":"minor_line","osm_type":"way","osm_id":"1493031536"}},{"type":"Feature","geometry":{"type":"LineString","coordinates":[[-1.05758,53.67113],[-1.05552,53.68052]]},"properties":{"name":"Power lines","category":"minor_line","osm_type":"way","osm_id":"1493031537"}},{"type":"Feature","geometry":{"type":"LineString","coordinates":[[-1.0571,53.67103],[-1.06304,53.67221]]},"properties":{"name":"Power lines","category":"minor_line","osm_type":"way","osm_id":"1493031538"}},{"type":"Feature","geometry":{"type":"LineString","coordinates":[[-1.06768,53.68881],[-1.06337,53.68682]]},"properties":{"name":"Power lines","category":"minor_line","osm_type":"way","osm_id":"1493031539"}},{"type":"Feature","geometry":{"type":"LineString","coordinates":[[-1.05486,53.69308],[-1.0559,53.69363],[-1.05896,53.69364],[-1.06487,53.68494]]},"properties":{"name":"Power lines","category":"minor_line","osm_type":"way","osm_id":"1493031540"}},{"type":"Feature","geometry":{"type":"LineString","coordinates":[[-1.08877,53.68867],[-1.09467,53.69097]]},"properties":{"name":"Power lines","category":"minor_line","osm_type":"way","osm_id":"1493031541"}},{"type":"Feature","geometry":{"type":"LineString","coordinates":[[-1.07065,53.69479],[-1.0749,53.69569]]},"properties":{"name":"Power lines","category":"minor_line","osm_type":"way","osm_id":"1493031542"}},{"type":"Feature","geometry":{"type":"LineString","coordinates":[[-1.16742,53.7137],[-1.17125,53.71828],[-1.17266,53.72115]]},"properties":{"name":"Power lines","category":"minor_line","osm_type":"way","osm_id":"1493034653"}},{"type":"Feature","geometry":{"type":"LineString","coordinates":[[-1.16832,53.7148],[-1.16968,53.71459],[-1.17092,53.71502]]},"properties":{"name":"Power lines","category":"minor_line","osm_type":"way","osm_id":"1493034654"}},{"type":"Feature","geometry":{"type":"LineString","coordinates":[[-1.16978,53.71655],[-1.16758,53.71702]]},"properties":{"name":"Power lines","category":"minor_line","osm_type":"way","osm_id":"1493034655"}},{"type":"Feature","geometry":{"type":"LineString","coordinates":[[-1.16716,53.72031],[-1.18766,53.72275]]},"properties":{"name":"Power lines","category":"minor_line","osm_type":"way","osm_id":"1493034656"}},{"type":"Feature","geometry":{"type":"LineString","coordinates":[[-1.18646,53.72261],[-1.18733,53.72207],[-1.18707,53.72073]]},"properties":{"name":"Power lines","category":"minor_line","osm_type":"way","osm_id":"1493034657"}},{"type":"Feature","geometry":{"type":"LineString","coordinates":[[-1.14322,53.71729],[-1.14669,53.72227]]},"properties":{"name":"Power lines","category":"minor_line","osm_type":"way","osm_id":"1493034658"}},{"type":"Feature","geometry":{"type":"LineString","coordinates":[[-1.14245,53.71645],[-1.1389,53.71659],[-1.13851,53.71844]]},"properties":{"name":"Power lines","category":"minor_line","osm_type":"way","osm_id":"1493034659"}},{"type":"Feature","geometry":{"type":"LineString","coordinates":[[-1.11585,53.69922],[-1.11702,53.69957],[-1.11581,53.7026],[-1.11622,53.70378],[-1.11549,53.705]]},"properties":{"name":"Power lines","category":"minor_line","osm_type":"way","osm_id":"1493034660"}},{"type":"Feature","geometry":{"type":"LineString","coordinates":[[-1.11593,53.70427],[-1.12276,53.70427]]},"properties":{"name":"Power lines","category":"minor_line","osm_type":"way","osm_id":"1493034661"}},{"type":"Feature","geometry":{"type":"LineString","coordinates":[[-1.1153,53.70529],[-1.11038,53.70528]]},"properties":{"name":"Power lines","category":"minor_line","osm_type":"way","osm_id":"1493034662"}},{"type":"Feature","geometry":{"type":"LineString","coordinates":[[-0.99804,53.66965],[-1.0105,53.6686]]},"properties":{"name":"Power lines","category":"minor_line","osm_type":"way","osm_id":"1493087092"}},{"type":"Feature","geometry":{"type":"LineString","coordinates":[[-1.02269,53.68627],[-1.02881,53.68484],[-1.03063,53.68488]]},"properties":{"name":"Power lines","category":"minor_line","osm_type":"way","osm_id":"1493087096"}},{"type":"Feature","geometry":{"type":"MultiLineString","coordinates":[[[-1.00643,53.61434],[-1.00688,53.6153],[-1.01207,53.61964],[-1.01292,53.62497],[-1.01612,53.62738],[-1.01809,53.63015],[-1.02539,53.63758],[-1.02448,53.64458],[-1.0144,53.64804],[-1.00513,53.64894],[-0.99882,53.6504],[-0.99841,53.65085],[-0.99585,53.65144],[-0.99175,53.65394]],[[-0.99128,53.65422],[-0.98586,53.65562]]]},"properties":{"name":"Power lines","category":"minor_line","osm_type":"way","osm_id":"1493087120"}},{"type":"Feature","geometry":{"type":"LineString","coordinates":[[-1.73861,53.52389],[-1.736,53.52628],[-1.72375,53.53008],[-1.72366,53.53087]]},"properties":{"name":"Power lines","category":"minor_line","osm_type":"way","osm_id":"1493128551"}},{"type":"Feature","geometry":{"type":"LineString","coordinates":[[-1.72647,53.52924],[-1.72425,53.52655],[-1.7207,53.52541],[-1.71726,53.52291],[-1.71371,53.52267],[-1.71138,53.52147],[-1.70683,53.52037],[-1.6989,53.51981],[-1.69033,53.51788],[-1.68868,53.51869],[-1.6819,53.51986]]},"properties":{"name":"Power lines","category":"minor_line","osm_type":"way","osm_id":"1493128552"}},{"type":"Feature","geometry":{"type":"LineString","coordinates":[[-1.70797,53.52065],[-1.7076,53.52181]]},"properties":{"name":"Power lines","category":"minor_line","osm_type":"way","osm_id":"1493128553"}},{"type":"Feature","geometry":{"type":"LineString","coordinates":[[-1.72769,53.53132],[-1.72366,53.53087],[-1.72003,53.52981],[-1.71769,53.53112],[-1.71635,53.5329]]},"properties":{"name":"Power lines","category":"minor_line","osm_type":"way","osm_id":"1493128554"}},{"type":"Feature","geometry":{"type":"LineString","coordinates":[[-1.71691,53.53216],[-1.712,53.53045],[-1.70976,53.52811]]},"properties":{"name":"Power lines","category":"minor_line","osm_type":"way","osm_id":"1493128555"}},{"type":"Feature","geometry":{"type":"LineString","coordinates":[[-1.71395,53.53125],[-1.71434,53.53221]]},"properties":{"name":"Power lines","category":"minor_line","osm_type":"way","osm_id":"1493128556"}},{"type":"Feature","geometry":{"type":"LineString","coordinates":[[-1.71294,53.53084],[-1.71156,53.53127]]},"properties":{"name":"Power lines","category":"minor_line","osm_type":"way","osm_id":"1493128557"}},{"type":"Feature","geometry":{"type":"LineString","coordinates":[[-1.7165,53.5327],[-1.71897,53.53531],[-1.71949,53.53706]]},"properties":{"name":"Power lines","category":"minor_line","osm_type":"way","osm_id":"1493128558"}},{"type":"Feature","geometry":{"type":"LineString","coordinates":[[-1.74349,53.5341],[-1.74373,53.53604],[-1.74782,53.53739],[-1.74926,53.53872],[-1.74935,53.53989]]},"properties":{"name":"Power lines","category":"minor_line","osm_type":"way","osm_id":"1493128559"}},{"type":"Feature","geometry":{"type":"LineString","coordinates":[[-1.70322,53.53374],[-1.69521,53.53127],[-1.69056,53.53247]]},"properties":{"name":"Power lines","category":"minor_line","osm_type":"way","osm_id":"1493128560"}},{"type":"Feature","geometry":{"type":"LineString","coordinates":[[-1.69909,53.52759],[-1.69863,53.52813],[-1.69425,53.52811],[-1.68772,53.5248],[-1.6841,53.52462],[-1.68302,53.52412]]},"properties":{"name":"Power lines","category":"minor_line","osm_type":"way","osm_id":"1493128561"}},{"type":"Feature","geometry":{"type":"LineString","coordinates":[[-1.69132,53.52662],[-1.68991,53.52698]]},"properties":{"name":"Power lines","category":"minor_line","osm_type":"way","osm_id":"1493128562"}},{"type":"Feature","geometry":{"type":"LineString","coordinates":[[-1.68474,53.52465],[-1.68588,53.52677]]},"properties":{"name":"Power lines","category":"minor_line","osm_type":"way","osm_id":"1493128563"}},{"type":"Feature","geometry":{"type":"LineString","coordinates":[[-1.68162,53.52348],[-1.68,53.52461],[-1.68047,53.52578],[-1.67955,53.52755],[-1.67575,53.53167],[-1.67925,53.53365]]},"properties":{"name":"Power lines","category":"minor_line","osm_type":"way","osm_id":"1493128564"}},{"type":"Feature","geometry":{"type":"LineString","coordinates":[[-1.68107,53.52389],[-1.68113,53.52293],[-1.67762,53.52157]]},"properties":{"name":"Power lines","category":"minor_line","osm_type":"way","osm_id":"1493128565"}},{"type":"Feature","geometry":{"type":"LineString","coordinates":[[-1.67288,53.51882],[-1.66895,53.52323]]},"properties":{"name":"Power lines","category":"minor_line","osm_type":"way","osm_id":"1493128566"}},{"type":"Feature","geometry":{"type":"LineString","coordinates":[[-1.68457,53.53427],[-1.681,53.53302],[-1.67775,53.53248]]},"properties":{"name":"Power lines","category":"minor_line","osm_type":"way","osm_id":"1493128567"}},{"type":"Feature","geometry":{"type":"LineString","coordinates":[[-1.67729,53.53257],[-1.67956,53.53214]]},"properties":{"name":"Power lines","category":"minor_line","osm_type":"way","osm_id":"1493128568"}},{"type":"Feature","geometry":{"type":"LineString","coordinates":[[-1.6616,53.54705],[-1.65811,53.54621],[-1.65603,53.54639],[-1.65505,53.54647],[-1.6549,53.54762]]},"properties":{"name":"Power lines","category":"minor_line","osm_type":"way","osm_id":"1493128569"}},{"type":"Feature","geometry":{"type":"LineString","coordinates":[[-1.66125,53.53985],[-1.65942,53.53795]]},"properties":{"name":"Power lines","category":"minor_line","osm_type":"way","osm_id":"1493128570"}},{"type":"Feature","geometry":{"type":"LineString","coordinates":[[-1.66988,53.52839],[-1.6668,53.52911],[-1.66644,53.53303],[-1.66525,53.53316],[-1.65997,53.53762],[-1.65687,53.53955]]},"properties":{"name":"Power lines","category":"minor_line","osm_type":"way","osm_id":"1493128571"}},{"type":"Feature","geometry":{"type":"LineString","coordinates":[[-1.66819,53.5271],[-1.66988,53.52839],[-1.67448,53.52977],[-1.67713,53.52998]]},"properties":{"name":"Power lines","category":"minor_line","osm_type":"way","osm_id":"1493128572"}},{"type":"Feature","geometry":{"type":"LineString","coordinates":[[-1.67508,53.5231],[-1.67222,53.5231],[-1.66973,53.52238]]},"properties":{"name":"Power lines","category":"minor_line","osm_type":"way","osm_id":"1493128573"}},{"type":"Feature","geometry":{"type":"LineString","coordinates":[[-1.64608,53.5301],[-1.64326,53.5286],[-1.64188,53.52594]]},"properties":{"name":"Power lines","category":"minor_line","osm_type":"way","osm_id":"1493128574"}},{"type":"Feature","geometry":{"type":"LineString","coordinates":[[-1.64274,53.52711],[-1.64388,53.5267]]},"properties":{"name":"Power lines","category":"minor_line","osm_type":"way","osm_id":"1493128575"}},{"type":"Feature","geometry":{"type":"LineString","coordinates":[[-1.6653,53.52141],[-1.66228,53.52372]]},"properties":{"name":"Power lines","category":"minor_line","osm_type":"way","osm_id":"1493128576"}},{"type":"Feature","geometry":{"type":"LineString","coordinates":[[-1.6645,53.52333],[-1.65865,53.5246]]},"properties":{"name":"Power lines","category":"minor_line","osm_type":"way","osm_id":"1493128577"}},{"type":"Feature","geometry":{"type":"LineString","coordinates":[[-1.65278,53.52334],[-1.65458,53.52257]]},"properties":{"name":"Power lines","category":"minor_line","osm_type":"way","osm_id":"1493128578"}},{"type":"Feature","geometry":{"type":"LineString","coordinates":[[-1.63847,53.51837],[-1.64083,53.51706],[-1.63877,53.5143],[-1.63591,53.51324],[-1.63641,53.51087],[-1.6384,53.50768]]},"properties":{"name":"Power lines","category":"minor_line","osm_type":"way","osm_id":"1493128579"}},{"type":"Feature","geometry":{"type":"LineString","coordinates":[[-1.64056,53.51669],[-1.64153,53.51601]]},"properties":{"name":"Power lines","category":"minor_line","osm_type":"way","osm_id":"1493128580"}},{"type":"Feature","geometry":{"type":"LineString","coordinates":[[-1.63987,53.51576],[-1.63917,53.51598]]},"properties":{"name":"Power lines","category":"minor_line","osm_type":"way","osm_id":"1493128581"}},{"type":"Feature","geometry":{"type":"LineString","coordinates":[[-1.63624,53.5117],[-1.63208,53.51212]]},"properties":{"name":"Power lines","category":"minor_line","osm_type":"way","osm_id":"1493128582"}},{"type":"Feature","geometry":{"type":"LineString","coordinates":[[-1.64457,53.50655],[-1.64206,53.50653]]},"properties":{"name":"Power lines","category":"minor_line","osm_type":"way","osm_id":"1493128583"}},{"type":"Feature","geometry":{"type":"LineString","coordinates":[[-1.64186,53.50255],[-1.6425,53.50461],[-1.64161,53.50856]]},"properties":{"name":"Power lines","category":"minor_line","osm_type":"way","osm_id":"1493128584"}},{"type":"Feature","geometry":{"type":"LineString","coordinates":[[-1.63299,53.49998],[-1.62999,53.50087],[-1.62809,53.50275],[-1.62369,53.50242]]},"properties":{"name":"Power lines","category":"minor_line","osm_type":"way","osm_id":"1493128585"}},{"type":"Feature","geometry":{"type":"LineString","coordinates":[[-1.63562,53.50516],[-1.63514,53.50716]]},"properties":{"name":"Power lines","category":"minor_line","osm_type":"way","osm_id":"1493128586"}},{"type":"Feature","geometry":{"type":"LineString","coordinates":[[-1.56566,53.49833],[-1.56355,53.50229]]},"properties":{"name":"Power lines","category":"minor_line","osm_type":"way","osm_id":"1493128599"}},{"type":"Feature","geometry":{"type":"LineString","coordinates":[[-1.59334,53.50527],[-1.59564,53.50746],[-1.59853,53.5082],[-1.60603,53.50896],[-1.61152,53.50849],[-1.61329,53.5102]]},"properties":{"name":"Power lines","category":"minor_line","osm_type":"way","osm_id":"1493438119"}},{"type":"Feature","geometry":{"type":"LineString","coordinates":[[-1.60197,53.50854],[-1.60104,53.50954],[-1.59924,53.51041]]},"properties":{"name":"Power lines","category":"minor_line","osm_type":"way","osm_id":"1493438120"}},{"type":"Feature","geometry":{"type":"LineString","coordinates":[[-1.60328,53.50867],[-1.6029,53.50945],[-1.6039,53.51014]]},"properties":{"name":"Power lines","category":"minor_line","osm_type":"way","osm_id":"1493438121"}},{"type":"Feature","geometry":{"type":"LineString","coordinates":[[-1.59075,53.50868],[-1.5907,53.50938],[-1.59187,53.51055]]},"properties":{"name":"Power lines","category":"minor_line","osm_type":"way","osm_id":"1493438122"}},{"type":"Feature","geometry":{"type":"LineString","coordinates":[[-1.59069,53.51118],[-1.58689,53.51122],[-1.58513,53.51014]]},"properties":{"name":"Power lines","category":"minor_line","osm_type":"way","osm_id":"1493438123"}},{"type":"Feature","geometry":{"type":"LineString","coordinates":[[-1.58499,53.51005],[-1.59069,53.51112]]},"properties":{"name":"Power lines","category":"minor_line","osm_type":"way","osm_id":"1493438124"}},{"type":"Feature","geometry":{"type":"LineString","coordinates":[[-1.60117,53.5189],[-1.59983,53.51985]]},"properties":{"name":"Power lines","category":"minor_line","osm_type":"way","osm_id":"1493438125"}},{"type":"Feature","geometry":{"type":"LineString","coordinates":[[-1.58648,53.51838],[-1.58573,53.51828],[-1.58469,53.51522]]},"properties":{"name":"Power lines","category":"minor_line","osm_type":"way","osm_id":"1493438126"}},{"type":"Feature","geometry":{"type":"LineString","coordinates":[[-1.57875,53.51893],[-1.58,53.51634],[-1.57775,53.51592],[-1.57009,53.51247]]},"properties":{"name":"Power lines","category":"minor_line","osm_type":"way","osm_id":"1493438127"}},{"type":"Feature","geometry":{"type":"LineString","coordinates":[[-1.57775,53.51592],[-1.57839,53.51466]]},"properties":{"name":"Power lines","category":"minor_line","osm_type":"way","osm_id":"1493438128"}},{"type":"Feature","geometry":{"type":"LineString","coordinates":[[-1.57052,53.51032],[-1.57139,53.51224],[-1.57107,53.51294]]},"properties":{"name":"Power lines","category":"minor_line","osm_type":"way","osm_id":"1493438129"}},{"type":"Feature","geometry":{"type":"LineString","coordinates":[[-1.58501,53.52703],[-1.58759,53.52354],[-1.58613,53.52134],[-1.58071,53.51924],[-1.57521,53.51837]]},"properties":{"name":"Power lines","category":"minor_line","osm_type":"way","osm_id":"1493438130"}},{"type":"Feature","geometry":{"type":"LineString","coordinates":[[-1.59015,53.52279],[-1.58759,53.52354]]},"properties":{"name":"Power lines","category":"minor_line","osm_type":"way","osm_id":"1493438131"}},{"type":"Feature","geometry":{"type":"LineString","coordinates":[[-1.58291,53.52377],[-1.58648,53.52486]]},"properties":{"name":"Power lines","category":"minor_line","osm_type":"way","osm_id":"1493438132"}},{"type":"Feature","geometry":{"type":"LineString","coordinates":[[-1.57007,53.52656],[-1.56989,53.52839],[-1.56858,53.53042]]},"properties":{"name":"Power lines","category":"minor_line","osm_type":"way","osm_id":"1493438133"}},{"type":"Feature","geometry":{"type":"LineString","coordinates":[[-1.57046,53.53084],[-1.57246,53.53211],[-1.57464,53.53204]]},"properties":{"name":"Power lines","category":"minor_line","osm_type":"way","osm_id":"1493438134"}},{"type":"Feature","geometry":{"type":"LineString","coordinates":[[-1.56846,53.52658],[-1.56048,53.5232],[-1.55933,53.5242],[-1.5553,53.52455]]},"properties":{"name":"Power lines","category":"minor_line","osm_type":"way","osm_id":"1493438135"}},{"type":"Feature","geometry":{"type":"LineString","coordinates":[[-1.55731,53.52437],[-1.55756,53.52594]]},"properties":{"name":"Power lines","category":"minor_line","osm_type":"way","osm_id":"1493438136"}},{"type":"Feature","geometry":{"type":"LineString","coordinates":[[-1.56832,53.51797],[-1.57307,53.51773]]},"properties":{"name":"Power lines","category":"minor_line","osm_type":"way","osm_id":"1493438137"}},{"type":"Feature","geometry":{"type":"LineString","coordinates":[[-1.56048,53.5232],[-1.55684,53.52039],[-1.55386,53.52053],[-1.54365,53.52346],[-1.53668,53.52586],[-1.5332,53.52759]]},"properties":{"name":"Power lines","category":"minor_line","osm_type":"way","osm_id":"1493438138"}},{"type":"Feature","geometry":{"type":"LineString","coordinates":[[-1.56312,53.52979],[-1.56412,53.53228]]},"properties":{"name":"Power lines","category":"minor_line","osm_type":"way","osm_id":"1493438139"}},{"type":"Feature","geometry":{"type":"LineString","coordinates":[[-1.55184,53.53008],[-1.55339,53.53091]]},"properties":{"name":"Power lines","category":"minor_line","osm_type":"way","osm_id":"1493438140"}},{"type":"Feature","geometry":{"type":"LineString","coordinates":[[-1.56771,53.54145],[-1.56845,53.54201]]},"properties":{"name":"Power lines","category":"minor_line","osm_type":"way","osm_id":"1493438141"}},{"type":"Feature","geometry":{"type":"LineString","coordinates":[[-1.57268,53.55095],[-1.57087,53.5498]]},"properties":{"name":"Power lines","category":"minor_line","osm_type":"way","osm_id":"1493438142"}},{"type":"Feature","geometry":{"type":"LineString","coordinates":[[-1.55523,53.55633],[-1.55373,53.55621]]},"properties":{"name":"Power lines","category":"minor_line","osm_type":"way","osm_id":"1493438143"}},{"type":"Feature","geometry":{"type":"LineString","coordinates":[[-1.55434,53.55626],[-1.55178,53.5502]]},"properties":{"name":"Power lines","category":"minor_line","osm_type":"way","osm_id":"1493438144"}},{"type":"Feature","geometry":{"type":"LineString","coordinates":[[-1.53439,53.55905],[-1.53177,53.55666],[-1.52609,53.55337],[-1.52477,53.55299],[-1.52349,53.55389],[-1.51551,53.55459]]},"properties":{"name":"Power lines","category":"minor_line","osm_type":"way","osm_id":"1493438145"}},{"type":"Feature","geometry":{"type":"LineString","coordinates":[[-1.53237,53.55721],[-1.53362,53.55005]]},"properties":{"name":"Power lines","category":"minor_line","osm_type":"way","osm_id":"1493438146"}},{"type":"Feature","geometry":{"type":"LineString","coordinates":[[-1.5337,53.55011],[-1.53253,53.5572],[-1.53489,53.55909]]},"properties":{"name":"Power lines","category":"minor_line","osm_type":"way","osm_id":"1493438147"}},{"type":"Feature","geometry":{"type":"LineString","coordinates":[[-1.53373,53.5598],[-1.53283,53.56017]]},"properties":{"name":"Power lines","category":"minor_line","osm_type":"way","osm_id":"1493438148"}},{"type":"Feature","geometry":{"type":"LineString","coordinates":[[-1.53366,53.55973],[-1.53277,53.56011]]},"properties":{"name":"Power lines","category":"minor_line","osm_type":"way","osm_id":"1493438149"}},{"type":"Feature","geometry":{"type":"LineString","coordinates":[[-1.52841,53.56206],[-1.52683,53.56332],[-1.51938,53.56626]]},"properties":{"name":"Power lines","category":"minor_line","osm_type":"way","osm_id":"1493438150"}},{"type":"Feature","geometry":{"type":"LineString","coordinates":[[-1.5193,53.56604],[-1.52837,53.562]]},"properties":{"name":"Power lines","category":"minor_line","osm_type":"way","osm_id":"1493438151"}},{"type":"Feature","geometry":{"type":"LineString","coordinates":[[-1.53376,53.55758],[-1.53305,53.55649],[-1.53427,53.55243],[-1.5357,53.54941],[-1.53747,53.54797]]},"properties":{"name":"Power lines","category":"minor_line","osm_type":"way","osm_id":"1493438156"}},{"type":"Feature","geometry":{"type":"LineString","coordinates":[[-1.55483,53.53678],[-1.54774,53.53888],[-1.54192,53.54203],[-1.54173,53.54392],[-1.54019,53.54616]]},"properties":{"name":"Power lines","category":"minor_line","osm_type":"way","osm_id":"1493438157"}},{"type":"Feature","geometry":{"type":"LineString","coordinates":[[-1.54774,53.53888],[-1.54549,53.53895]]},"properties":{"name":"Power lines","category":"minor_line","osm_type":"way","osm_id":"1493438158"}},{"type":"Feature","geometry":{"type":"LineString","coordinates":[[-1.54181,53.54322],[-1.5437,53.5446],[-1.54402,53.54891]]},"properties":{"name":"Power lines","category":"minor_line","osm_type":"way","osm_id":"1493438159"}},{"type":"Feature","geometry":{"type":"LineString","coordinates":[[-1.53739,53.54375],[-1.53681,53.54197],[-1.53711,53.53815],[-1.53829,53.53533],[-1.5359,53.53266],[-1.5365,53.53118],[-1.53202,53.52603],[-1.53538,53.52347],[-1.53562,53.52253],[-1.54062,53.51802],[-1.54773,53.51444],[-1.55134,53.51204],[-1.55817,53.51151]]},"properties":{"name":"Power lines","category":"minor_line","osm_type":"way","osm_id":"1493438160"}},{"type":"Feature","geometry":{"type":"LineString","coordinates":[[-1.54574,53.51539],[-1.54634,53.51584]]},"properties":{"name":"Power lines","category":"minor_line","osm_type":"way","osm_id":"1493438161"}},{"type":"Feature","geometry":{"type":"LineString","coordinates":[[-1.5403,53.52732],[-1.53971,53.52483]]},"properties":{"name":"Power lines","category":"minor_line","osm_type":"way","osm_id":"1493438162"}},{"type":"Feature","geometry":{"type":"LineString","coordinates":[[-1.53194,53.53994],[-1.53527,53.53889],[-1.53704,53.53888]]},"properties":{"name":"Power lines","category":"minor_line","osm_type":"way","osm_id":"1493438163"}},{"type":"Feature","geometry":{"type":"LineString","coordinates":[[-1.50776,53.50225],[-1.50088,53.50506]]},"properties":{"name":"Power lines","category":"minor_line","osm_type":"way","osm_id":"1493438164"}},{"type":"Feature","geometry":{"type":"LineString","coordinates":[[-1.50474,53.50336],[-1.50244,53.50167]]},"properties":{"name":"Power lines","category":"minor_line","osm_type":"way","osm_id":"1493438165"}},{"type":"Feature","geometry":{"type":"LineString","coordinates":[[-1.48492,53.50176],[-1.48448,53.50233],[-1.48586,53.50439]]},"properties":{"name":"Power lines","category":"minor_line","osm_type":"way","osm_id":"1493438168"}},{"type":"Feature","geometry":{"type":"LineString","coordinates":[[-1.4799,53.59029],[-1.4708,53.59382],[-1.46651,53.59428]]},"properties":{"name":"Power lines","category":"minor_line","osm_type":"way","osm_id":"1493600697"}},{"type":"Feature","geometry":{"type":"LineString","coordinates":[[-1.47211,53.59331],[-1.47477,53.59627],[-1.47562,53.59686],[-1.47671,53.59655]]},"properties":{"name":"Power lines","category":"minor_line","osm_type":"way","osm_id":"1493600698"}},{"type":"Feature","geometry":{"type":"LineString","coordinates":[[-1.40338,53.60621],[-1.40302,53.6053],[-1.40367,53.60415],[-1.40527,53.60332]]},"properties":{"name":"Power lines","category":"minor_line","osm_type":"way","osm_id":"1493600699"}},{"type":"Feature","geometry":{"type":"LineString","coordinates":[[-1.40775,53.60798],[-1.40758,53.60729],[-1.40457,53.60601],[-1.40032,53.60676]]},"properties":{"name":"Power lines","category":"minor_line","osm_type":"way","osm_id":"1493600700"}},{"type":"Feature","geometry":{"type":"LineString","coordinates":[[-1.41714,53.59921],[-1.41822,53.5977],[-1.41681,53.59401],[-1.41822,53.59229]]},"properties":{"name":"Power lines","category":"minor_line","osm_type":"way","osm_id":"1493600701"}},{"type":"Feature","geometry":{"type":"LineString","coordinates":[[-1.41223,53.5898],[-1.41582,53.5904],[-1.42074,53.59357],[-1.43219,53.59361]]},"properties":{"name":"Power lines","category":"minor_line","osm_type":"way","osm_id":"1493600702"}},{"type":"Feature","geometry":{"type":"LineString","coordinates":[[-1.43217,53.59302],[-1.43234,53.59712]]},"properties":{"name":"Power lines","category":"minor_line","osm_type":"way","osm_id":"1493600703"}},{"type":"Feature","geometry":{"type":"LineString","coordinates":[[-1.43679,53.59129],[-1.43634,53.59171]]},"properties":{"name":"Power lines","category":"minor_line","osm_type":"way","osm_id":"1493600704"}},{"type":"Feature","geometry":{"type":"LineString","coordinates":[[-1.41366,53.59004],[-1.41631,53.58895],[-1.41849,53.58866]]},"properties":{"name":"Power lines","category":"minor_line","osm_type":"way","osm_id":"1493600705"}},{"type":"Feature","geometry":{"type":"LineString","coordinates":[[-1.42165,53.59044],[-1.42562,53.59026],[-1.42749,53.58876]]},"properties":{"name":"Power lines","category":"minor_line","osm_type":"way","osm_id":"1493600706"}},{"type":"Feature","geometry":{"type":"LineString","coordinates":[[-1.38858,53.59378],[-1.3848,53.59082]]},"properties":{"name":"Power lines","category":"minor_line","osm_type":"way","osm_id":"1493600707"}},{"type":"Feature","geometry":{"type":"LineString","coordinates":[[-1.38137,53.60373],[-1.37549,53.60959]]},"properties":{"name":"Power lines","category":"minor_line","osm_type":"way","osm_id":"1493600708"}},{"type":"Feature","geometry":{"type":"LineString","coordinates":[[-1.37841,53.60665],[-1.3797,53.60709],[-1.38679,53.60679]]},"properties":{"name":"Power lines","category":"minor_line","osm_type":"way","osm_id":"1493600709"}},{"type":"Feature","geometry":{"type":"LineString","coordinates":[[-1.37109,53.59329],[-1.3715,53.59249],[-1.37458,53.59109],[-1.37371,53.59011],[-1.37361,53.58847],[-1.37542,53.58561],[-1.37405,53.58241]]},"properties":{"name":"Power lines","category":"minor_line","osm_type":"way","osm_id":"1493600710"}},{"type":"Feature","geometry":{"type":"LineString","coordinates":[[-1.42518,53.56965],[-1.42345,53.56796],[-1.42184,53.56712],[-1.41796,53.56763]]},"properties":{"name":"Power lines","category":"minor_line","osm_type":"way","osm_id":"1493600711"}},{"type":"Feature","geometry":{"type":"LineString","coordinates":[[-1.41506,53.56706],[-1.41408,53.56494]]},"properties":{"name":"Power lines","category":"minor_line","osm_type":"way","osm_id":"1493600712"}},{"type":"Feature","geometry":{"type":"LineString","coordinates":[[-1.40798,53.56302],[-1.40626,53.56366]]},"properties":{"name":"Power lines","category":"minor_line","osm_type":"way","osm_id":"1493600713"}},{"type":"Feature","geometry":{"type":"LineString","coordinates":[[-1.40708,53.56335],[-1.40403,53.56058],[-1.40475,53.5593],[-1.40171,53.55716]]},"properties":{"name":"Power lines","category":"minor_line","osm_type":"way","osm_id":"1493600714"}},{"type":"Feature","geometry":{"type":"LineString","coordinates":[[-1.40481,53.56128],[-1.4021,53.56109],[-1.39975,53.56181]]},"properties":{"name":"Power lines","category":"minor_line","osm_type":"way","osm_id":"1493600715"}},{"type":"Feature","geometry":{"type":"LineString","coordinates":[[-1.39729,53.54252],[-1.40151,53.54137],[-1.40713,53.54063],[-1.40973,53.5408]]},"properties":{"name":"Power lines","category":"minor_line","osm_type":"way","osm_id":"1493600716"}},{"type":"Feature","geometry":{"type":"LineString","coordinates":[[-1.39818,53.54228],[-1.39941,53.54388]]},"properties":{"name":"Power lines","category":"minor_line","osm_type":"way","osm_id":"1493600717"}},{"type":"Feature","geometry":{"type":"LineString","coordinates":[[-1.41791,53.53617],[-1.41477,53.53729],[-1.41161,53.53995],[-1.40654,53.54225]]},"properties":{"name":"Power lines","category":"minor_line","osm_type":"way","osm_id":"1493600718"}},{"type":"Feature","geometry":{"type":"LineString","coordinates":[[-1.38327,53.52762],[-1.3831,53.52824],[-1.38478,53.5298]]},"properties":{"name":"Power lines","category":"minor_line","osm_type":"way","osm_id":"1493600719"}},{"type":"Feature","geometry":{"type":"LineString","coordinates":[[-1.36826,53.52266],[-1.36821,53.53172],[-1.36543,53.53449]]},"properties":{"name":"Power lines","category":"minor_line","osm_type":"way","osm_id":"1493600720"}},{"type":"Feature","geometry":{"type":"LineString","coordinates":[[-1.36729,53.52241],[-1.36464,53.52177],[-1.36323,53.52222]]},"properties":{"name":"Power lines","category":"minor_line","osm_type":"way","osm_id":"1493600721"}},{"type":"Feature","geometry":{"type":"LineString","coordinates":[[-1.36005,53.53645],[-1.35898,53.54272],[-1.36189,53.54524]]},"properties":{"name":"Power lines","category":"minor_line","osm_type":"way","osm_id":"1493600722"}},{"type":"Feature","geometry":{"type":"LineString","coordinates":[[-1.35965,53.53902],[-1.35334,53.53705],[-1.35028,53.53742],[-1.34879,53.54027]]},"properties":{"name":"Power lines","category":"minor_line","osm_type":"way","osm_id":"1493600723"}},{"type":"Feature","geometry":{"type":"LineString","coordinates":[[-1.35008,53.53777],[-1.34796,53.53796],[-1.34564,53.53742],[-1.34244,53.53768],[-1.34148,53.53984]]},"properties":{"name":"Power lines","category":"minor_line","osm_type":"way","osm_id":"1493600724"}},{"type":"Feature","geometry":{"type":"LineString","coordinates":[[-1.37903,53.54257],[-1.37424,53.54393]]},"properties":{"name":"Power lines","category":"minor_line","osm_type":"way","osm_id":"1493600725"}},{"type":"Feature","geometry":{"type":"LineString","coordinates":[[-1.36808,53.53943],[-1.37159,53.54125],[-1.3733,53.54322],[-1.38258,53.55022],[-1.38677,53.5523]]},"properties":{"name":"Power lines","category":"minor_line","osm_type":"way","osm_id":"1493600726"}},{"type":"Feature","geometry":{"type":"LineString","coordinates":[[-1.35269,53.55288],[-1.35514,53.55415],[-1.36107,53.55931],[-1.3692,53.56377],[-1.3729,53.57011]]},"properties":{"name":"Power lines","category":"minor_line","osm_type":"way","osm_id":"1493600727"}},{"type":"Feature","geometry":{"type":"LineString","coordinates":[[-1.35578,53.55473],[-1.3548,53.55531]]},"properties":{"name":"Power lines","category":"minor_line","osm_type":"way","osm_id":"1493600728"}},{"type":"Feature","geometry":{"type":"LineString","coordinates":[[-1.35489,53.56021],[-1.35134,53.56151],[-1.35,53.56134],[-1.34047,53.55719],[-1.32903,53.5544],[-1.32628,53.55445]]},"properties":{"name":"Power lines","category":"minor_line","osm_type":"way","osm_id":"1493600729"}},{"type":"Feature","geometry":{"type":"LineString","coordinates":[[-1.33436,53.56949],[-1.33965,53.57022],[-1.34829,53.57263],[-1.34799,53.57041]]},"properties":{"name":"Power lines","category":"minor_line","osm_type":"way","osm_id":"1493600730"}},{"type":"Feature","geometry":{"type":"LineString","coordinates":[[-1.35467,53.57784],[-1.35463,53.57852],[-1.34847,53.58375],[-1.34676,53.58601],[-1.34435,53.58662]]},"properties":{"name":"Power lines","category":"minor_line","osm_type":"way","osm_id":"1493600731"}},{"type":"Feature","geometry":{"type":"LineString","coordinates":[[-1.34105,53.59025],[-1.3435,53.58797],[-1.34519,53.58529]]},"properties":{"name":"Power lines","category":"minor_line","osm_type":"way","osm_id":"1493600732"}},{"type":"Feature","geometry":{"type":"LineString","coordinates":[[-1.34792,53.58986],[-1.34485,53.58807],[-1.3435,53.58797]]},"properties":{"name":"Power lines","category":"minor_line","osm_type":"way","osm_id":"1493600733"}},{"type":"Feature","geometry":{"type":"LineString","coordinates":[[-1.34735,53.58953],[-1.34946,53.58873]]},"properties":{"name":"Power lines","category":"minor_line","osm_type":"way","osm_id":"1493600734"}},{"type":"Feature","geometry":{"type":"LineString","coordinates":[[-1.34095,53.5883],[-1.34219,53.58917]]},"properties":{"name":"Power lines","category":"minor_line","osm_type":"way","osm_id":"1493600735"}},{"type":"Feature","geometry":{"type":"LineString","coordinates":[[-1.37436,53.58323],[-1.37105,53.58328],[-1.36574,53.58571],[-1.3587,53.58586]]},"properties":{"name":"Power lines","category":"minor_line","osm_type":"way","osm_id":"1493600736"}},{"type":"Feature","geometry":{"type":"LineString","coordinates":[[-1.36864,53.59387],[-1.36305,53.59384],[-1.35609,53.59505],[-1.35258,53.59433],[-1.34254,53.59807],[-1.33612,53.59885]]},"properties":{"name":"Power lines","category":"minor_line","osm_type":"way","osm_id":"1493600737"}},{"type":"Feature","geometry":{"type":"LineString","coordinates":[[-1.35709,53.59487],[-1.35689,53.59566]]},"properties":{"name":"Power lines","category":"minor_line","osm_type":"way","osm_id":"1493600738"}},{"type":"Feature","geometry":{"type":"LineString","coordinates":[[-1.3396,53.59854],[-1.33903,53.59728],[-1.33958,53.59568],[-1.33898,53.59075]]},"properties":{"name":"Power lines","category":"minor_line","osm_type":"way","osm_id":"1493600739"}},{"type":"Feature","geometry":{"type":"LineString","coordinates":[[-1.26237,53.59548],[-1.2612,53.59816],[-1.26054,53.60222],[-1.26487,53.60939],[-1.25419,53.60953]]},"properties":{"name":"Power lines","category":"minor_line","osm_type":"way","osm_id":"1493600740"}},{"type":"Feature","geometry":{"type":"LineString","coordinates":[[-1.26568,53.61145],[-1.26653,53.61443],[-1.26591,53.61538]]},"properties":{"name":"Power lines","category":"minor_line","osm_type":"way","osm_id":"1493600741"}},{"type":"Feature","geometry":{"type":"LineString","coordinates":[[-1.28386,53.59335],[-1.27798,53.5915],[-1.27668,53.59196],[-1.2776,53.59266],[-1.27705,53.59536]]},"properties":{"name":"Power lines","category":"minor_line","osm_type":"way","osm_id":"1493600743"}},{"type":"Feature","geometry":{"type":"LineString","coordinates":[[-1.27465,53.59596],[-1.27064,53.59641]]},"properties":{"name":"Power lines","category":"minor_line","osm_type":"way","osm_id":"1493600744"}},{"type":"Feature","geometry":{"type":"LineString","coordinates":[[-1.25263,53.60888],[-1.2512,53.60945],[-1.24891,53.60961]]},"properties":{"name":"Power lines","category":"minor_line","osm_type":"way","osm_id":"1493600745"}},{"type":"Feature","geometry":{"type":"LineString","coordinates":[[-1.24567,53.60985],[-1.24258,53.60703],[-1.23254,53.60335],[-1.23043,53.6015],[-1.22898,53.59883],[-1.22805,53.59445],[-1.2234,53.59311],[-1.22554,53.58989],[-1.22428,53.58831],[-1.22605,53.58458]]},"properties":{"name":"Power lines","category":"minor_line","osm_type":"way","osm_id":"1493600746"}},{"type":"Feature","geometry":{"type":"LineString","coordinates":[[-1.23548,53.60445],[-1.23429,53.60782],[-1.23174,53.60853],[-1.22337,53.60757]]},"properties":{"name":"Power lines","category":"minor_line","osm_type":"way","osm_id":"1493600747"}},{"type":"Feature","geometry":{"type":"LineString","coordinates":[[-1.22938,53.59968],[-1.22013,53.60224]]},"properties":{"name":"Power lines","category":"minor_line","osm_type":"way","osm_id":"1493600748"}},{"type":"Feature","geometry":{"type":"LineString","coordinates":[[-1.26579,53.56774],[-1.26391,53.57178],[-1.26711,53.57875],[-1.26376,53.5835],[-1.25613,53.58696],[-1.24909,53.58735],[-1.24374,53.58807],[-1.24328,53.58842],[-1.23556,53.5877],[-1.22884,53.58514],[-1.21715,53.58281],[-1.21214,53.5812]]},"properties":{"name":"Power lines","category":"minor_line","osm_type":"way","osm_id":"1493600749"}},{"type":"Feature","geometry":{"type":"LineString","coordinates":[[-1.2121,53.58163],[-1.21216,53.58111]]},"properties":{"name":"Power lines","category":"minor_line","osm_type":"way","osm_id":"1493600750"}},{"type":"Feature","geometry":{"type":"LineString","coordinates":[[-1.24328,53.58842],[-1.24338,53.58872]]},"properties":{"name":"Power lines","category":"minor_line","osm_type":"way","osm_id":"1493600751"}},{"type":"Feature","geometry":{"type":"LineString","coordinates":[[-1.24623,53.58778],[-1.24556,53.58739]]},"properties":{"name":"Power lines","category":"minor_line","osm_type":"way","osm_id":"1493600752"}},{"type":"Feature","geometry":{"type":"LineString","coordinates":[[-1.26577,53.58069],[-1.27546,53.58102]]},"properties":{"name":"Power lines","category":"minor_line","osm_type":"way","osm_id":"1493600753"}},{"type":"Feature","geometry":{"type":"LineString","coordinates":[[-1.22567,53.57947],[-1.22439,53.58115]]},"properties":{"name":"Power lines","category":"minor_line","osm_type":"way","osm_id":"1493600754"}},{"type":"Feature","geometry":{"type":"LineString","coordinates":[[-1.24739,53.56916],[-1.25027,53.56876],[-1.24694,53.56615],[-1.2432,53.56503],[-1.23862,53.56031]]},"properties":{"name":"Power lines","category":"minor_line","osm_type":"way","osm_id":"1493600755"}},{"type":"Feature","geometry":{"type":"LineString","coordinates":[[-1.24554,53.56573],[-1.2484,53.56274],[-1.25349,53.56113],[-1.26679,53.55517],[-1.26761,53.55246],[-1.26808,53.55233]]},"properties":{"name":"Power lines","category":"minor_line","osm_type":"way","osm_id":"1493600756"}},{"type":"Feature","geometry":{"type":"LineString","coordinates":[[-1.25917,53.5586],[-1.25738,53.55725]]},"properties":{"name":"Power lines","category":"minor_line","osm_type":"way","osm_id":"1493600757"}},{"type":"Feature","geometry":{"type":"LineString","coordinates":[[-1.24005,53.5618],[-1.23172,53.56254],[-1.22822,53.56137],[-1.22126,53.56279]]},"properties":{"name":"Power lines","category":"minor_line","osm_type":"way","osm_id":"1493600758"}},{"type":"Feature","geometry":{"type":"LineString","coordinates":[[-1.2188,53.56456],[-1.22038,53.56775]]},"properties":{"name":"Power lines","category":"minor_line","osm_type":"way","osm_id":"1493600759"}},{"type":"Feature","geometry":{"type":"LineString","coordinates":[[-1.25027,53.56876],[-1.25038,53.56886]]},"properties":{"name":"Power lines","category":"minor_line","osm_type":"way","osm_id":"1493600760"}},{"type":"Feature","geometry":{"type":"LineString","coordinates":[[-1.30428,53.56913],[-1.30514,53.56282],[-1.29344,53.56323]]},"properties":{"name":"Power lines","category":"minor_line","osm_type":"way","osm_id":"1493600761"}},{"type":"Feature","geometry":{"type":"LineString","coordinates":[[-1.29602,53.56311],[-1.29622,53.5574],[-1.29763,53.55156]]},"properties":{"name":"Power lines","category":"minor_line","osm_type":"way","osm_id":"1493600762"}},{"type":"Feature","geometry":{"type":"LineString","coordinates":[[-1.30549,53.55979],[-1.30564,53.55825]]},"properties":{"name":"Power lines","category":"minor_line","osm_type":"way","osm_id":"1493600763"}},{"type":"Feature","geometry":{"type":"LineString","coordinates":[[-1.30592,53.5559],[-1.3062,53.55439]]},"properties":{"name":"Power lines","category":"minor_line","osm_type":"way","osm_id":"1493600764"}},{"type":"Feature","geometry":{"type":"LineString","coordinates":[[-1.30727,53.55002],[-1.30729,53.54995]]},"properties":{"name":"Power lines","category":"minor_line","osm_type":"way","osm_id":"1493600765"}},{"type":"Feature","geometry":{"type":"LineString","coordinates":[[-1.31209,53.58304],[-1.30855,53.58617],[-1.30643,53.58665]]},"properties":{"name":"Power lines","category":"minor_line","osm_type":"way","osm_id":"1493600766"}},{"type":"Feature","geometry":{"type":"LineString","coordinates":[[-1.31058,53.58438],[-1.30315,53.58356]]},"properties":{"name":"Power lines","category":"minor_line","osm_type":"way","osm_id":"1493600767"}},{"type":"Feature","geometry":{"type":"LineString","coordinates":[[-1.33613,53.54412],[-1.33907,53.54632],[-1.3399,53.54746],[-1.35185,53.54952],[-1.35577,53.54989],[-1.35818,53.54926],[-1.36191,53.54716]]},"properties":{"name":"Power lines","category":"minor_line","osm_type":"way","osm_id":"1493600768"}},{"type":"Feature","geometry":{"type":"LineString","coordinates":[[-1.33931,53.54664],[-1.33182,53.54996],[-1.32903,53.5544]]},"properties":{"name":"Power lines","category":"minor_line","osm_type":"way","osm_id":"1493600769"}},{"type":"Feature","geometry":{"type":"LineString","coordinates":[[-1.33759,53.53007],[-1.31895,53.52971]]},"properties":{"name":"Power lines","category":"minor_line","osm_type":"way","osm_id":"1493600770"}},{"type":"Feature","geometry":{"type":"LineString","coordinates":[[-1.32719,53.52995],[-1.32782,53.53152]]},"properties":{"name":"Power lines","category":"minor_line","osm_type":"way","osm_id":"1493600771"}},{"type":"Feature","geometry":{"type":"LineString","coordinates":[[-1.34191,53.53709],[-1.34057,53.53204]]},"properties":{"name":"Power lines","category":"minor_line","osm_type":"way","osm_id":"1493600772"}},{"type":"Feature","geometry":{"type":"LineString","coordinates":[[-1.3107,53.51832],[-1.30717,53.5206],[-1.30432,53.52455]]},"properties":{"name":"Power lines","category":"minor_line","osm_type":"way","osm_id":"1493642136"}},{"type":"Feature","geometry":{"type":"LineString","coordinates":[[-1.30779,53.52018],[-1.30982,53.52114]]},"properties":{"name":"Power lines","category":"minor_line","osm_type":"way","osm_id":"1493642137"}},{"type":"Feature","geometry":{"type":"LineString","coordinates":[[-1.30518,53.52346],[-1.30199,53.5236],[-1.30064,53.52577],[-1.29625,53.5261],[-1.2926,53.52831],[-1.29039,53.52913]]},"properties":{"name":"Power lines","category":"minor_line","osm_type":"way","osm_id":"1493642138"}},{"type":"Feature","geometry":{"type":"LineString","coordinates":[[-1.28491,53.5475],[-1.28928,53.5504]]},"properties":{"name":"Power lines","category":"minor_line","osm_type":"way","osm_id":"1493642139"}},{"type":"Feature","geometry":{"type":"LineString","coordinates":[[-1.29192,53.5749],[-1.28985,53.57735],[-1.28934,53.579]]},"properties":{"name":"Power lines","category":"minor_line","osm_type":"way","osm_id":"1493642140"}},{"type":"Feature","geometry":{"type":"LineString","coordinates":[[-1.22532,53.54299],[-1.21916,53.54323],[-1.21911,53.54247]]},"properties":{"name":"Power lines","category":"minor_line","osm_type":"way","osm_id":"1493642141"}},{"type":"Feature","geometry":{"type":"LineString","coordinates":[[-1.22296,53.54312],[-1.22346,53.54237]]},"properties":{"name":"Power lines","category":"minor_line","osm_type":"way","osm_id":"1493642142"}},{"type":"Feature","geometry":{"type":"LineString","coordinates":[[-1.22333,53.54416],[-1.22321,53.54517],[-1.2103,53.54609],[-1.20826,53.5474],[-1.20182,53.54822],[-1.1969,53.54781],[-1.19084,53.54667],[-1.18681,53.54713],[-1.17467,53.54152]]},"properties":{"name":"Power lines","category":"minor_line","osm_type":"way","osm_id":"1493642143"}},{"type":"Feature","geometry":{"type":"LineString","coordinates":[[-1.20555,53.54773],[-1.20457,53.54227]]},"properties":{"name":"Power lines","category":"minor_line","osm_type":"way","osm_id":"1493642144"}},{"type":"Feature","geometry":{"type":"LineString","coordinates":[[-1.20835,53.53648],[-1.21132,53.54208],[-1.21148,53.54452],[-1.21298,53.54589]]},"properties":{"name":"Power lines","category":"minor_line","osm_type":"way","osm_id":"1493642145"}},{"type":"Feature","geometry":{"type":"LineString","coordinates":[[-1.19537,53.52622],[-1.19575,53.51856],[-1.19444,53.51747],[-1.19243,53.51679]]},"properties":{"name":"Power lines","category":"minor_line","osm_type":"way","osm_id":"1493642146"}},{"type":"Feature","geometry":{"type":"LineString","coordinates":[[-1.21225,53.52337],[-1.22232,53.52212],[-1.22521,53.51849]]},"properties":{"name":"Power lines","category":"minor_line","osm_type":"way","osm_id":"1493642147"}},{"type":"Feature","geometry":{"type":"LineString","coordinates":[[-1.29116,53.50937],[-1.28297,53.50913],[-1.28015,53.5115]]},"properties":{"name":"Power lines","category":"minor_line","osm_type":"way","osm_id":"1493642150"}},{"type":"Feature","geometry":{"type":"LineString","coordinates":[[-1.27929,53.51887],[-1.28311,53.5167],[-1.28446,53.51546],[-1.28134,53.51283],[-1.28111,53.51207],[-1.26958,53.5032]]},"properties":{"name":"Power lines","category":"minor_line","osm_type":"way","osm_id":"1493642151"}},{"type":"Feature","geometry":{"type":"LineString","coordinates":[[-1.27837,53.5103],[-1.27183,53.51044]]},"properties":{"name":"Power lines","category":"minor_line","osm_type":"way","osm_id":"1493642152"}},{"type":"Feature","geometry":{"type":"LineString","coordinates":[[-1.27675,53.52074],[-1.28236,53.52084],[-1.2868,53.52204],[-1.28851,53.52322],[-1.2891,53.52861]]},"properties":{"name":"Power lines","category":"minor_line","osm_type":"way","osm_id":"1493642153"}},{"type":"Feature","geometry":{"type":"LineString","coordinates":[[-1.26891,53.52853],[-1.26934,53.53055],[-1.27098,53.53131],[-1.26894,53.53404]]},"properties":{"name":"Power lines","category":"minor_line","osm_type":"way","osm_id":"1493642154"}},{"type":"Feature","geometry":{"type":"LineString","coordinates":[[-1.26755,53.52379],[-1.26713,53.52222]]},"properties":{"name":"Power lines","category":"minor_line","osm_type":"way","osm_id":"1493642155"}},{"type":"Feature","geometry":{"type":"LineString","coordinates":[[-1.26289,53.51925],[-1.26406,53.51817],[-1.26375,53.5163],[-1.27224,53.5165]]},"properties":{"name":"Power lines","category":"minor_line","osm_type":"way","osm_id":"1493642156"}},{"type":"Feature","geometry":{"type":"LineString","coordinates":[[-1.1963,53.50272],[-1.19701,53.50346],[-1.19576,53.50496],[-1.19333,53.50586]]},"properties":{"name":"Power lines","category":"minor_line","osm_type":"way","osm_id":"1493642157"}},{"type":"Feature","geometry":{"type":"LineString","coordinates":[[-1.1956,53.50193],[-1.19326,53.50071],[-1.19225,53.50068]]},"properties":{"name":"Power lines","category":"minor_line","osm_type":"way","osm_id":"1493642158"}},{"type":"Feature","geometry":{"type":"LineString","coordinates":[[-1.25687,53.50021],[-1.25351,53.50341],[-1.24824,53.50558],[-1.23865,53.51298]]},"properties":{"name":"Power lines","category":"minor_line","osm_type":"way","osm_id":"1493642160"}},{"type":"Feature","geometry":{"type":"LineString","coordinates":[[-1.24589,53.50744],[-1.24693,53.50797]]},"properties":{"name":"Power lines","category":"minor_line","osm_type":"way","osm_id":"1493642161"}},{"type":"Feature","geometry":{"type":"LineString","coordinates":[[-1.23579,53.51335],[-1.22601,53.51586],[-1.21493,53.51542],[-1.20621,53.51604]]},"properties":{"name":"Power lines","category":"minor_line","osm_type":"way","osm_id":"1493642162"}},{"type":"Feature","geometry":{"type":"LineString","coordinates":[[-1.22601,53.51586],[-1.22587,53.51685]]},"properties":{"name":"Power lines","category":"minor_line","osm_type":"way","osm_id":"1493642163"}},{"type":"Feature","geometry":{"type":"LineString","coordinates":[[-1.20273,53.51634],[-1.19774,53.515]]},"properties":{"name":"Power lines","category":"minor_line","osm_type":"way","osm_id":"1493642164"}},{"type":"Feature","geometry":{"type":"LineString","coordinates":[[-1.20265,53.51631],[-1.20284,53.51267]]},"properties":{"name":"Power lines","category":"minor_line","osm_type":"way","osm_id":"1493642165"}},{"type":"Feature","geometry":{"type":"LineString","coordinates":[[-1.19924,53.51216],[-1.19785,53.50927],[-1.19229,53.50794]]},"properties":{"name":"Power lines","category":"minor_line","osm_type":"way","osm_id":"1493642166"}},{"type":"Feature","geometry":{"type":"LineString","coordinates":[[-1.19869,53.5107],[-1.195,53.51177]]},"properties":{"name":"Power lines","category":"minor_line","osm_type":"way","osm_id":"1493642167"}},{"type":"Feature","geometry":{"type":"LineString","coordinates":[[-1.19869,53.5107],[-1.20171,53.51018],[-1.20126,53.50861],[-1.20494,53.50619],[-1.20751,53.50572]]},"properties":{"name":"Power lines","category":"minor_line","osm_type":"way","osm_id":"1493642168"}},{"type":"Feature","geometry":{"type":"LineString","coordinates":[[-1.17478,53.51955],[-1.17169,53.52145],[-1.16826,53.52213]]},"properties":{"name":"Power lines","category":"minor_line","osm_type":"way","osm_id":"1493642169"}},{"type":"Feature","geometry":{"type":"LineString","coordinates":[[-1.18311,53.53996],[-1.18161,53.54121]]},"properties":{"name":"Power lines","category":"minor_line","osm_type":"way","osm_id":"1493642170"}},{"type":"Feature","geometry":{"type":"LineString","coordinates":[[-1.18253,53.54043],[-1.18496,53.54053],[-1.18604,53.54103],[-1.18965,53.54075]]},"properties":{"name":"Power lines","category":"minor_line","osm_type":"way","osm_id":"1493642171"}},{"type":"Feature","geometry":{"type":"LineString","coordinates":[[-1.12874,53.53894],[-1.13055,53.5388],[-1.13628,53.53594]]},"properties":{"name":"Power lines","category":"minor_line","osm_type":"way","osm_id":"1493642172"}},{"type":"Feature","geometry":{"type":"LineString","coordinates":[[-1.18338,53.55325],[-1.17841,53.55416]]},"properties":{"name":"Power lines","category":"minor_line","osm_type":"way","osm_id":"1493642173"}},{"type":"Feature","geometry":{"type":"LineString","coordinates":[[-1.16122,53.55045],[-1.15681,53.55141],[-1.15462,53.55511]]},"properties":{"name":"Power lines","category":"minor_line","osm_type":"way","osm_id":"1493642174"}},{"type":"Feature","geometry":{"type":"LineString","coordinates":[[-1.15728,53.57289],[-1.15098,53.57247],[-1.14981,53.57145],[-1.14761,53.57094],[-1.14456,53.57472]]},"properties":{"name":"Power lines","category":"minor_line","osm_type":"way","osm_id":"1493642175"}},{"type":"Feature","geometry":{"type":"LineString","coordinates":[[-1.15116,53.57633],[-1.14267,53.57425],[-1.14033,53.57122],[-1.1331,53.56785],[-1.12851,53.56779]]},"properties":{"name":"Power lines","category":"minor_line","osm_type":"way","osm_id":"1493642176"}},{"type":"Feature","geometry":{"type":"LineString","coordinates":[[-1.1421,53.5735],[-1.13734,53.57478],[-1.13732,53.57723],[-1.13785,53.57749]]},"properties":{"name":"Power lines","category":"minor_line","osm_type":"way","osm_id":"1493642177"}},{"type":"Feature","geometry":{"type":"LineString","coordinates":[[-1.14754,53.57545],[-1.1508,53.57903]]},"properties":{"name":"Power lines","category":"minor_line","osm_type":"way","osm_id":"1493642178"}},{"type":"Feature","geometry":{"type":"LineString","coordinates":[[-1.15019,53.57835],[-1.15405,53.57817]]},"properties":{"name":"Power lines","category":"minor_line","osm_type":"way","osm_id":"1493642179"}},{"type":"Feature","geometry":{"type":"LineString","coordinates":[[-1.12187,53.55902],[-1.11609,53.56398],[-1.10889,53.56666],[-1.10441,53.57273]]},"properties":{"name":"Power lines","category":"minor_line","osm_type":"way","osm_id":"1493642180"}},{"type":"Feature","geometry":{"type":"LineString","coordinates":[[-1.10283,53.57261],[-1.0999,53.57491],[-1.09882,53.57486]]},"properties":{"name":"Power lines","category":"minor_line","osm_type":"way","osm_id":"1493642181"}},{"type":"Feature","geometry":{"type":"LineString","coordinates":[[-1.20974,53.59178],[-1.21116,53.59398]]},"properties":{"name":"Power lines","category":"minor_line","osm_type":"way","osm_id":"1493642182"}},{"type":"Feature","geometry":{"type":"LineString","coordinates":[[-1.21046,53.59263],[-1.20879,53.59276]]},"properties":{"name":"Power lines","category":"minor_line","osm_type":"way","osm_id":"1493642183"}},{"type":"Feature","geometry":{"type":"LineString","coordinates":[[-1.19115,53.60139],[-1.18928,53.60121],[-1.17925,53.60434],[-1.1701,53.60645]]},"properties":{"name":"Power lines","category":"minor_line","osm_type":"way","osm_id":"1493642184"}},{"type":"Feature","geometry":{"type":"LineString","coordinates":[[-1.17259,53.60585],[-1.17577,53.60752]]},"properties":{"name":"Power lines","category":"minor_line","osm_type":"way","osm_id":"1493642185"}},{"type":"Feature","geometry":{"type":"LineString","coordinates":[[-1.17259,53.60585],[-1.17064,53.60446],[-1.16663,53.6001],[-1.16638,53.5981],[-1.1683,53.59469]]},"properties":{"name":"Power lines","category":"minor_line","osm_type":"way","osm_id":"1493642186"}},{"type":"Feature","geometry":{"type":"LineString","coordinates":[[-1.16673,53.59742],[-1.169,53.59844],[-1.17268,53.59895]]},"properties":{"name":"Power lines","category":"minor_line","osm_type":"way","osm_id":"1493642187"}},{"type":"Feature","geometry":{"type":"LineString","coordinates":[[-1.16748,53.59607],[-1.16617,53.59405],[-1.16674,53.59341],[-1.16621,53.59109],[-1.16408,53.58958]]},"properties":{"name":"Power lines","category":"minor_line","osm_type":"way","osm_id":"1493642188"}},{"type":"Feature","geometry":{"type":"LineString","coordinates":[[-1.16546,53.59056],[-1.16625,53.59041]]},"properties":{"name":"Power lines","category":"minor_line","osm_type":"way","osm_id":"1493642189"}},{"type":"Feature","geometry":{"type":"LineString","coordinates":[[-1.16397,53.58962],[-1.17011,53.58807],[-1.17387,53.58518],[-1.17548,53.58179]]},"properties":{"name":"Power lines","category":"minor_line","osm_type":"way","osm_id":"1493642190"}},{"type":"Feature","geometry":{"type":"LineString","coordinates":[[-1.17408,53.58469],[-1.17759,53.58369]]},"properties":{"name":"Power lines","category":"minor_line","osm_type":"way","osm_id":"1493642191"}},{"type":"Feature","geometry":{"type":"LineString","coordinates":[[-1.14816,53.58991],[-1.14549,53.59028],[-1.14379,53.59218],[-1.13761,53.59175],[-1.13514,53.59119],[-1.13024,53.59084],[-1.12795,53.58796],[-1.12492,53.58756]]},"properties":{"name":"Power lines","category":"minor_line","osm_type":"way","osm_id":"1493642192"}},{"type":"Feature","geometry":{"type":"LineString","coordinates":[[-1.13357,53.59115],[-1.13489,53.5943],[-1.13341,53.59714],[-1.13107,53.59789],[-1.1275,53.59777],[-1.1192,53.59832],[-1.11486,53.59809],[-1.10896,53.60119],[-1.10509,53.60158],[-1.09368,53.60165]]},"properties":{"name":"Power lines","category":"minor_line","osm_type":"way","osm_id":"1493642193"}},{"type":"Feature","geometry":{"type":"LineString","coordinates":[[-1.1192,53.59832],[-1.11979,53.59955]]},"properties":{"name":"Power lines","category":"minor_line","osm_type":"way","osm_id":"1493642194"}},{"type":"Feature","geometry":{"type":"LineString","coordinates":[[-1.10757,53.60134],[-1.108,53.6017]]},"properties":{"name":"Power lines","category":"minor_line","osm_type":"way","osm_id":"1493642195"}},{"type":"Feature","geometry":{"type":"LineString","coordinates":[[-1.09268,53.60489],[-1.08902,53.60473]]},"properties":{"name":"Power lines","category":"minor_line","osm_type":"way","osm_id":"1493642196"}},{"type":"Feature","geometry":{"type":"LineString","coordinates":[[-1.09504,53.61345],[-1.08835,53.61373]]},"properties":{"name":"Power lines","category":"minor_line","osm_type":"way","osm_id":"1493642197"}},{"type":"Feature","geometry":{"type":"LineString","coordinates":[[-1.10447,53.61756],[-1.10251,53.61677],[-1.09549,53.61572],[-1.09445,53.61016],[-1.09357,53.60875],[-1.09245,53.60405],[-1.0948,53.59958]]},"properties":{"name":"Power lines","category":"minor_line","osm_type":"way","osm_id":"1493642198"}},{"type":"Feature","geometry":{"type":"LineString","coordinates":[[-1.09438,53.60033],[-1.09221,53.59984]]},"properties":{"name":"Power lines","category":"minor_line","osm_type":"way","osm_id":"1493642199"}},{"type":"Feature","geometry":{"type":"LineString","coordinates":[[-1.10909,53.58738],[-1.10678,53.59007],[-1.09732,53.59497]]},"properties":{"name":"Power lines","category":"minor_line","osm_type":"way","osm_id":"1493642200"}},{"type":"Feature","geometry":{"type":"LineString","coordinates":[[-1.09445,53.61016],[-1.1003,53.60872],[-1.11628,53.6081]]},"properties":{"name":"Power lines","category":"minor_line","osm_type":"way","osm_id":"1493642201"}},{"type":"Feature","geometry":{"type":"LineString","coordinates":[[-1.11655,53.60751],[-1.11517,53.61022],[-1.1218,53.61382]]},"properties":{"name":"Power lines","category":"minor_line","osm_type":"way","osm_id":"1493642202"}},{"type":"Feature","geometry":{"type":"LineString","coordinates":[[-1.13569,53.60668],[-1.12974,53.60723],[-1.12465,53.6071],[-1.12447,53.60613],[-1.12282,53.60462]]},"properties":{"name":"Power lines","category":"minor_line","osm_type":"way","osm_id":"1493642203"}},{"type":"Feature","geometry":{"type":"LineString","coordinates":[[-1.13568,53.61346],[-1.13407,53.60683]]},"properties":{"name":"Power lines","category":"minor_line","osm_type":"way","osm_id":"1493642204"}},{"type":"Feature","geometry":{"type":"LineString","coordinates":[[-1.13482,53.61089],[-1.13063,53.6114]]},"properties":{"name":"Power lines","category":"minor_line","osm_type":"way","osm_id":"1493642205"}},{"type":"Feature","geometry":{"type":"LineString","coordinates":[[-1.1311,53.60096],[-1.13121,53.59785]]},"properties":{"name":"Power lines","category":"minor_line","osm_type":"way","osm_id":"1493642206"}},{"type":"Feature","geometry":{"type":"LineString","coordinates":[[-1.13947,53.61753],[-1.14224,53.61864],[-1.14859,53.6183]]},"properties":{"name":"Power lines","category":"minor_line","osm_type":"way","osm_id":"1493642207"}},{"type":"Feature","geometry":{"type":"LineString","coordinates":[[-1.14035,53.61788],[-1.1318,53.62035],[-1.12271,53.62227],[-1.11705,53.62298],[-1.10864,53.62271],[-1.08766,53.62372],[-1.08555,53.62336]]},"properties":{"name":"Power lines","category":"minor_line","osm_type":"way","osm_id":"1493642208"}},{"type":"Feature","geometry":{"type":"LineString","coordinates":[[-1.13681,53.61894],[-1.13725,53.61948]]},"properties":{"name":"Power lines","category":"minor_line","osm_type":"way","osm_id":"1493642209"}},{"type":"Feature","geometry":{"type":"LineString","coordinates":[[-1.13047,53.62063],[-1.13006,53.61883]]},"properties":{"name":"Power lines","category":"minor_line","osm_type":"way","osm_id":"1493642210"}},{"type":"Feature","geometry":{"type":"LineString","coordinates":[[-1.14626,53.62724],[-1.14968,53.62206],[-1.14844,53.62],[-1.15133,53.6186]]},"properties":{"name":"Power lines","category":"minor_line","osm_type":"way","osm_id":"1493642211"}},{"type":"Feature","geometry":{"type":"LineString","coordinates":[[-1.11107,53.63847],[-1.12191,53.62587],[-1.1239,53.62205]]},"properties":{"name":"Power lines","category":"minor_line","osm_type":"way","osm_id":"1493642212"}},{"type":"Feature","geometry":{"type":"LineString","coordinates":[[-1.11537,53.63359],[-1.11647,53.63374]]},"properties":{"name":"Power lines","category":"minor_line","osm_type":"way","osm_id":"1493642213"}},{"type":"Feature","geometry":{"type":"LineString","coordinates":[[-1.11322,53.63875],[-1.1097,53.63829],[-1.09527,53.63811],[-1.0903,53.63859],[-1.07254,53.63926],[-1.06463,53.64226],[-1.05803,53.64042],[-1.05311,53.64073],[-1.03764,53.64769],[-1.0384,53.65202]]},"properties":{"name":"Power lines","category":"minor_line","osm_type":"way","osm_id":"1493642214"}},{"type":"Feature","geometry":{"type":"LineString","coordinates":[[-1.08527,53.63876],[-1.08551,53.64083]]},"properties":{"name":"Power lines","category":"minor_line","osm_type":"way","osm_id":"1493642215"}},{"type":"Feature","geometry":{"type":"LineString","coordinates":[[-1.08122,53.63889],[-1.08196,53.63985]]},"properties":{"name":"Power lines","category":"minor_line","osm_type":"way","osm_id":"1493642216"}},{"type":"Feature","geometry":{"type":"LineString","coordinates":[[-1.0739,53.6392],[-1.0715,53.63638],[-1.07136,53.63557]]},"properties":{"name":"Power lines","category":"minor_line","osm_type":"way","osm_id":"1493642217"}},{"type":"Feature","geometry":{"type":"LineString","coordinates":[[-1.062,53.64154],[-1.06399,53.64651],[-1.06207,53.64865]]},"properties":{"name":"Power lines","category":"minor_line","osm_type":"way","osm_id":"1493642218"}},{"type":"Feature","geometry":{"type":"LineString","coordinates":[[-1.04766,53.64324],[-1.04896,53.64472]]},"properties":{"name":"Power lines","category":"minor_line","osm_type":"way","osm_id":"1493642219"}},{"type":"Feature","geometry":{"type":"LineString","coordinates":[[-1.00964,53.61034],[-1.00799,53.61101]]},"properties":{"name":"Power lines","category":"minor_line","osm_type":"way","osm_id":"1493656028"}},{"type":"Feature","geometry":{"type":"LineString","coordinates":[[-1.00237,53.62569],[-1.00527,53.62563],[-1.01269,53.6235]]},"properties":{"name":"Power lines","category":"minor_line","osm_type":"way","osm_id":"1493656029"}},{"type":"Feature","geometry":{"type":"LineString","coordinates":[[-1.02986,53.65242],[-1.03396,53.65159],[-1.03829,53.65136]]},"properties":{"name":"Power lines","category":"minor_line","osm_type":"way","osm_id":"1493656030"}},{"type":"Feature","geometry":{"type":"LineString","coordinates":[[-1.03868,53.64721],[-1.03536,53.64251],[-1.03843,53.63894]]},"properties":{"name":"Power lines","category":"minor_line","osm_type":"way","osm_id":"1493656031"}},{"type":"Feature","geometry":{"type":"LineString","coordinates":[[-1.03712,53.64514],[-1.02961,53.64811],[-1.02737,53.64821]]},"properties":{"name":"Power lines","category":"minor_line","osm_type":"way","osm_id":"1493656032"}},{"type":"Feature","geometry":{"type":"LineString","coordinates":[[-1.03794,53.63951],[-1.03933,53.63905],[-1.04048,53.63794],[-1.04054,53.63542],[-1.04403,53.63056]]},"properties":{"name":"Power lines","category":"minor_line","osm_type":"way","osm_id":"1493656033"}},{"type":"Feature","geometry":{"type":"LineString","coordinates":[[-1.04051,53.63624],[-1.03823,53.63576],[-1.03312,53.6364]]},"properties":{"name":"Power lines","category":"minor_line","osm_type":"way","osm_id":"1493656034"}},{"type":"Feature","geometry":{"type":"LineString","coordinates":[[-1.05174,53.64792],[-1.05091,53.64555]]},"properties":{"name":"Power lines","category":"minor_line","osm_type":"way","osm_id":"1493656035"}},{"type":"Feature","geometry":{"type":"LineString","coordinates":[[-1.06983,53.60388],[-1.06959,53.60461]]},"properties":{"name":"Power lines","category":"minor_line","osm_type":"way","osm_id":"1493656037"}},{"type":"Feature","geometry":{"type":"LineString","coordinates":[[-1.0383,53.59231],[-1.03485,53.59308]]},"properties":{"name":"Power lines","category":"minor_line","osm_type":"way","osm_id":"1493656038"}},{"type":"Feature","geometry":{"type":"MultiLineString","coordinates":[[[-1.03025,53.60259],[-1.02766,53.60423]],[[-1.02742,53.60449],[-1.02695,53.605],[-1.02041,53.60655]]]},"properties":{"name":"Power lines","category":"minor_line","osm_type":"way","osm_id":"1493656039"}},{"type":"Feature","geometry":{"type":"LineString","coordinates":[[-1.02695,53.605],[-1.03333,53.60825]]},"properties":{"name":"Power lines","category":"minor_line","osm_type":"way","osm_id":"1493656040"}},{"type":"Feature","geometry":{"type":"MultiLineString","coordinates":[[[-1.01706,53.6119],[-1.02099,53.60563]],[[-1.02121,53.60528],[-1.02252,53.60316],[-1.02561,53.60168]]]},"properties":{"name":"Power lines","category":"minor_line","osm_type":"way","osm_id":"1493656041"}},{"type":"Feature","geometry":{"type":"LineString","coordinates":[[-1.01742,53.61132],[-1.02055,53.61235],[-1.02312,53.61179],[-1.02413,53.61246]]},"properties":{"name":"Power lines","category":"minor_line","osm_type":"way","osm_id":"1493656042"}},{"type":"Feature","geometry":{"type":"LineString","coordinates":[[-1.06805,53.60571],[-1.06141,53.61296],[-1.05945,53.61623]]},"properties":{"name":"Power lines","category":"minor_line","osm_type":"way","osm_id":"1493656043"}},{"type":"Feature","geometry":{"type":"LineString","coordinates":[[-1.06031,53.61478],[-1.05721,53.61411],[-1.05626,53.61442],[-1.05548,53.61733],[-1.05126,53.62038],[-1.04978,53.62211],[-1.04962,53.62339]]},"properties":{"name":"Power lines","category":"minor_line","osm_type":"way","osm_id":"1493656044"}},{"type":"Feature","geometry":{"type":"LineString","coordinates":[[-1.06,53.61523],[-1.06404,53.61555],[-1.06632,53.61633]]},"properties":{"name":"Power lines","category":"minor_line","osm_type":"way","osm_id":"1493656045"}},{"type":"Feature","geometry":{"type":"LineString","coordinates":[[-1.0738,53.62884],[-1.07331,53.63572],[-1.0715,53.63638]]},"properties":{"name":"Power lines","category":"minor_line","osm_type":"way","osm_id":"1493656046"}},{"type":"Feature","geometry":{"type":"LineString","coordinates":[[-1.02976,53.62204],[-1.02271,53.62185],[-1.01211,53.62023]]},"properties":{"name":"Power lines","category":"minor_line","osm_type":"way","osm_id":"1493656047"}},{"type":"Feature","geometry":{"type":"LineString","coordinates":[[-1.02271,53.62185],[-1.02278,53.62123],[-1.02066,53.61837]]},"properties":{"name":"Power lines","category":"minor_line","osm_type":"way","osm_id":"1493656048"}},{"type":"Feature","geometry":{"type":"LineString","coordinates":[[-1.0112,53.58505],[-1.01014,53.58637],[-1.00581,53.58721],[-0.99689,53.59213],[-0.99268,53.59249]]},"properties":{"name":"Power lines","category":"minor_line","osm_type":"way","osm_id":"1493656049"}},{"type":"Feature","geometry":{"type":"LineString","coordinates":[[-1.05146,53.56391],[-1.05147,53.5664]]},"properties":{"name":"Power lines","category":"minor_line","osm_type":"way","osm_id":"1493860717"}},{"type":"Feature","geometry":{"type":"LineString","coordinates":[[-1.06886,53.58163],[-1.06905,53.5837],[-1.06567,53.58594],[-1.0634,53.58856],[-1.0565,53.59155]]},"properties":{"name":"Power lines","category":"minor_line","osm_type":"way","osm_id":"1493860718"}},{"type":"Feature","geometry":{"type":"LineString","coordinates":[[-1.06903,53.58317],[-1.07025,53.58319]]},"properties":{"name":"Power lines","category":"minor_line","osm_type":"way","osm_id":"1493860719"}},{"type":"Feature","geometry":{"type":"LineString","coordinates":[[-1.04581,53.58421],[-1.05502,53.58404],[-1.05683,53.58496],[-1.05893,53.58535],[-1.06535,53.58759],[-1.06717,53.58883],[-1.06989,53.58983],[-1.07159,53.59156],[-1.07043,53.59309]]},"properties":{"name":"Power lines","category":"minor_line","osm_type":"way","osm_id":"1493860720"}},{"type":"Feature","geometry":{"type":"LineString","coordinates":[[-1.04562,53.578],[-1.04205,53.57678]]},"properties":{"name":"Power lines","category":"minor_line","osm_type":"way","osm_id":"1493860721"}},{"type":"Feature","geometry":{"type":"LineString","coordinates":[[-1.05069,53.56615],[-1.04739,53.57461],[-1.0426,53.57552],[-1.04205,53.57678],[-1.03346,53.58059],[-1.03287,53.5822],[-1.026,53.58616]]},"properties":{"name":"Power lines","category":"minor_line","osm_type":"way","osm_id":"1493860722"}},{"type":"Feature","geometry":{"type":"LineString","coordinates":[[-1.02983,53.57623],[-1.02818,53.57407],[-1.02736,53.56967]]},"properties":{"name":"Power lines","category":"minor_line","osm_type":"way","osm_id":"1493860723"}},{"type":"Feature","geometry":{"type":"LineString","coordinates":[[-1.03276,53.56453],[-1.03082,53.56814],[-1.02852,53.56957],[-1.02103,53.57028]]},"properties":{"name":"Power lines","category":"minor_line","osm_type":"way","osm_id":"1493860724"}},{"type":"Feature","geometry":{"type":"LineString","coordinates":[[-1.02679,53.56611],[-1.02871,53.5661],[-1.03082,53.56814]]},"properties":{"name":"Power lines","category":"minor_line","osm_type":"way","osm_id":"1493860725"}},{"type":"Feature","geometry":{"type":"LineString","coordinates":[[-0.99912,53.57732],[-0.99469,53.5758],[-0.99438,53.57414],[-0.99727,53.57031],[-0.99672,53.56766],[-0.99935,53.56721],[-1.00019,53.56655],[-1.00463,53.56543],[-1.0055,53.56211],[-1.00315,53.5597],[-1.00683,53.55856],[-1.01198,53.5557],[-1.01232,53.55514],[-1.02699,53.54889],[-1.02905,53.5472],[-1.02925,53.54631],[-1.03321,53.54387]]},"properties":{"name":"Power lines","category":"minor_line","osm_type":"way","osm_id":"1493860726"}},{"type":"Feature","geometry":{"type":"LineString","coordinates":[[-1.01113,53.55618],[-1.01656,53.55872]]},"properties":{"name":"Power lines","category":"minor_line","osm_type":"way","osm_id":"1493860727"}},{"type":"Feature","geometry":{"type":"LineString","coordinates":[[-1.04114,53.55528],[-1.04236,53.55548],[-1.04564,53.55504],[-1.04672,53.55532]]},"properties":{"name":"Power lines","category":"minor_line","osm_type":"way","osm_id":"1493860728"}},{"type":"Feature","geometry":{"type":"LineString","coordinates":[[-1.04844,53.55465],[-1.04767,53.5503],[-1.04592,53.54817],[-1.04716,53.54741],[-1.04669,53.54457]]},"properties":{"name":"Power lines","category":"minor_line","osm_type":"way","osm_id":"1493860729"}},{"type":"Feature","geometry":{"type":"LineString","coordinates":[[-1.06266,53.54594],[-1.06211,53.54895]]},"properties":{"name":"Power lines","category":"minor_line","osm_type":"way","osm_id":"1493860730"}},{"type":"Feature","geometry":{"type":"LineString","coordinates":[[-1.06317,53.54911],[-1.05162,53.54735]]},"properties":{"name":"Power lines","category":"minor_line","osm_type":"way","osm_id":"1493860731"}},{"type":"Feature","geometry":{"type":"LineString","coordinates":[[-1.00665,53.57024],[-0.99703,53.56913]]},"properties":{"name":"Power lines","category":"minor_line","osm_type":"way","osm_id":"1493860732"}},{"type":"Feature","geometry":{"type":"LineString","coordinates":[[-0.99981,53.55229],[-1.00045,53.55362],[-1.00371,53.5553],[-1.00469,53.55649]]},"properties":{"name":"Power lines","category":"minor_line","osm_type":"way","osm_id":"1493860745"}},{"type":"Feature","geometry":{"type":"LineString","coordinates":[[-1.00586,53.55738],[-1.00712,53.55888]]},"properties":{"name":"Power lines","category":"minor_line","osm_type":"way","osm_id":"1493860746"}},{"type":"Feature","geometry":{"type":"LineString","coordinates":[[-1.01244,53.52281],[-1.01381,53.52294],[-1.0378,53.5152]]},"properties":{"name":"Power lines","category":"minor_line","osm_type":"way","osm_id":"1493860748"}},{"type":"Feature","geometry":{"type":"LineString","coordinates":[[-1.02905,53.51797],[-1.02731,53.51612],[-1.02722,53.51408]]},"properties":{"name":"Power lines","category":"minor_line","osm_type":"way","osm_id":"1493860749"}},{"type":"Feature","geometry":{"type":"LineString","coordinates":[[-1.04091,53.52459],[-1.04149,53.53604]]},"properties":{"name":"Power lines","category":"line","osm_type":"way","osm_id":"1493860750"}},{"type":"Feature","geometry":{"type":"LineString","coordinates":[[-1.04302,53.52639],[-1.04536,53.52015],[-1.0454,53.51785]]},"properties":{"name":"Power lines","category":"minor_line","osm_type":"way","osm_id":"1493860751"}},{"type":"Feature","geometry":{"type":"LineString","coordinates":[[-1.04669,53.51617],[-1.05151,53.51329]]},"properties":{"name":"Power lines","category":"minor_line","osm_type":"way","osm_id":"1493860752"}},{"type":"Feature","geometry":{"type":"LineString","coordinates":[[-1.05064,53.51373],[-1.05345,53.51514],[-1.05663,53.51595]]},"properties":{"name":"Power lines","category":"minor_line","osm_type":"way","osm_id":"1493860753"}},{"type":"Feature","geometry":{"type":"LineString","coordinates":[[-1.06944,53.51629],[-1.06931,53.51784],[-1.06798,53.51889],[-1.06887,53.52085],[-1.062,53.5236],[-1.05966,53.52649],[-1.05633,53.52712]]},"properties":{"name":"Power lines","category":"minor_line","osm_type":"way","osm_id":"1493860754"}},{"type":"Feature","geometry":{"type":"LineString","coordinates":[[-1.06024,53.52576],[-1.06162,53.52637]]},"properties":{"name":"Power lines","category":"minor_line","osm_type":"way","osm_id":"1493860755"}},{"type":"Feature","geometry":{"type":"LineString","coordinates":[[-1.02563,53.52157],[-1.02377,53.5196]]},"properties":{"name":"Power lines","category":"minor_line","osm_type":"way","osm_id":"1493860756"}},{"type":"Feature","geometry":{"type":"LineString","coordinates":[[-1.02171,53.53679],[-1.01691,53.53816]]},"properties":{"name":"Power lines","category":"minor_line","osm_type":"way","osm_id":"1493860757"}},{"type":"Feature","geometry":{"type":"LineString","coordinates":[[-1.00647,53.54254],[-1.00895,53.54419],[-1.01734,53.54345]]},"properties":{"name":"Power lines","category":"minor_line","osm_type":"way","osm_id":"1493860759"}},{"type":"Feature","geometry":{"type":"LineString","coordinates":[[-1.01478,53.51162],[-1.01522,53.51195],[-1.01732,53.51209],[-1.02476,53.50714]]},"properties":{"name":"Power lines","category":"minor_line","osm_type":"way","osm_id":"1493860768"}},{"type":"Feature","geometry":{"type":"LineString","coordinates":[[-1.02968,53.51052],[-1.02194,53.50547]]},"properties":{"name":"Power lines","category":"minor_line","osm_type":"way","osm_id":"1493860769"}},{"type":"Feature","geometry":{"type":"LineString","coordinates":[[-1.04215,53.50131],[-1.04221,53.50124]]},"properties":{"name":"Power lines","category":"minor_line","osm_type":"way","osm_id":"1493860770"}},{"type":"Feature","geometry":{"type":"LineString","coordinates":[[-1.02887,53.50465],[-1.02471,53.50482]]},"properties":{"name":"Power lines","category":"minor_line","osm_type":"way","osm_id":"1493860771"}},{"type":"Feature","geometry":{"type":"LineString","coordinates":[[-1.02294,53.95741],[-1.02198,53.95763]]},"properties":{"name":"Power lines","category":"line","osm_type":"way","osm_id":"1493897152"}},{"type":"Feature","geometry":{"type":"LineString","coordinates":[[-1.0229,53.95737],[-1.02198,53.95763]]},"properties":{"name":"Power lines","category":"line","osm_type":"way","osm_id":"1493897153"}},{"type":"Feature","geometry":{"type":"LineString","coordinates":[[-1.02285,53.95733],[-1.02198,53.95763]]},"properties":{"name":"Power lines","category":"line","osm_type":"way","osm_id":"1493897154"}},{"type":"Feature","geometry":{"type":"LineString","coordinates":[[-1.02294,53.95741],[-1.0235,53.95717]]},"properties":{"name":"Power lines","category":"line","osm_type":"way","osm_id":"1493897155"}},{"type":"Feature","geometry":{"type":"LineString","coordinates":[[-1.02347,53.95713],[-1.0229,53.95737]]},"properties":{"name":"Power lines","category":"line","osm_type":"way","osm_id":"1493897156"}},{"type":"Feature","geometry":{"type":"LineString","coordinates":[[-1.02342,53.9571],[-1.02285,53.95733]]},"properties":{"name":"Power lines","category":"line","osm_type":"way","osm_id":"1493897157"}},{"type":"Feature","geometry":{"type":"LineString","coordinates":[[-1.02119,53.95625],[-1.02192,53.95602],[-1.02343,53.95725]]},"properties":{"name":"Power lines","category":"line","osm_type":"way","osm_id":"1493897158"}},{"type":"Feature","geometry":{"type":"LineString","coordinates":[[-1.02336,53.95727],[-1.02189,53.95606],[-1.02125,53.95628]]},"properties":{"name":"Power lines","category":"line","osm_type":"way","osm_id":"1493897159"}},{"type":"Feature","geometry":{"type":"LineString","coordinates":[[-1.02129,53.95632],[-1.02179,53.95609],[-1.0233,53.9573]]},"properties":{"name":"Power lines","category":"line","osm_type":"way","osm_id":"1493897160"}},{"type":"Feature","geometry":{"type":"LineString","coordinates":[[-1.02198,53.95763],[-1.02214,53.957]]},"properties":{"name":"Power lines","category":"line","osm_type":"way","osm_id":"1493897162"}},{"type":"Feature","geometry":{"type":"LineString","coordinates":[[-1.02198,53.95763],[-1.02198,53.95704]]},"properties":{"name":"Power lines","category":"line","osm_type":"way","osm_id":"1493897163"}},{"type":"Feature","geometry":{"type":"LineString","coordinates":[[-1.02198,53.95763],[-1.02206,53.95702]]},"properties":{"name":"Power lines","category":"line","osm_type":"way","osm_id":"1493897164"}},{"type":"Feature","geometry":{"type":"LineString","coordinates":[[-1.02214,53.957],[-1.02163,53.95668]]},"properties":{"name":"Power lines","category":"line","osm_type":"way","osm_id":"1493897165"}},{"type":"Feature","geometry":{"type":"LineString","coordinates":[[-1.02206,53.95702],[-1.02163,53.95668]]},"properties":{"name":"Power lines","category":"line","osm_type":"way","osm_id":"1493897166"}},{"type":"Feature","geometry":{"type":"LineString","coordinates":[[-1.02198,53.95704],[-1.02163,53.95668]]},"properties":{"name":"Power lines","category":"line","osm_type":"way","osm_id":"1493897167"}},{"type":"Feature","geometry":{"type":"LineString","coordinates":[[-1.02126,53.95733],[-1.02045,53.95742]]},"properties":{"name":"Power lines","category":"line","osm_type":"way","osm_id":"1493897168"}},{"type":"Feature","geometry":{"type":"LineString","coordinates":[[-1.02122,53.95729],[-1.02045,53.95742]]},"properties":{"name":"Power lines","category":"line","osm_type":"way","osm_id":"1493897169"}},{"type":"Feature","geometry":{"type":"LineString","coordinates":[[-1.02117,53.95725],[-1.02045,53.95742]]},"properties":{"name":"Power lines","category":"line","osm_type":"way","osm_id":"1493897170"}},{"type":"Feature","geometry":{"type":"LineString","coordinates":[[-1.02104,53.95714],[-1.02045,53.95742]]},"properties":{"name":"Power lines","category":"line","osm_type":"way","osm_id":"1493897171"}},{"type":"Feature","geometry":{"type":"LineString","coordinates":[[-1.02099,53.9571],[-1.02045,53.95742]]},"properties":{"name":"Power lines","category":"line","osm_type":"way","osm_id":"1493897172"}},{"type":"Feature","geometry":{"type":"LineString","coordinates":[[-1.02093,53.95706],[-1.02045,53.95742]]},"properties":{"name":"Power lines","category":"line","osm_type":"way","osm_id":"1493897173"}},{"type":"Feature","geometry":{"type":"LineString","coordinates":[[-1.02155,53.95725],[-1.02254,53.95703],[-1.02127,53.95622]]},"properties":{"name":"Power lines","category":"line","osm_type":"way","osm_id":"1493897174"}},{"type":"Feature","geometry":{"type":"LineString","coordinates":[[-1.0213,53.95626],[-1.02252,53.95703],[-1.02162,53.95721]]},"properties":{"name":"Power lines","category":"line","osm_type":"way","osm_id":"1493897175"}},{"type":"Feature","geometry":{"type":"LineString","coordinates":[[-1.02133,53.9563],[-1.02249,53.95703],[-1.02167,53.95718]]},"properties":{"name":"Power lines","category":"line","osm_type":"way","osm_id":"1493897176"}},{"type":"Feature","geometry":{"type":"LineString","coordinates":[[-1.02104,53.95714],[-1.0211,53.95666]]},"properties":{"name":"Power lines","category":"line","osm_type":"way","osm_id":"1493897177"}},{"type":"Feature","geometry":{"type":"LineString","coordinates":[[-1.02099,53.9571],[-1.021,53.95665]]},"properties":{"name":"Power lines","category":"line","osm_type":"way","osm_id":"1493897178"}},{"type":"Feature","geometry":{"type":"LineString","coordinates":[[-1.02093,53.95706],[-1.02089,53.95664]]},"properties":{"name":"Power lines","category":"line","osm_type":"way","osm_id":"1493897179"}},{"type":"Feature","geometry":{"type":"LineString","coordinates":[[-1.02261,53.95658],[-1.02157,53.95705],[-1.0208,53.95647]]},"properties":{"name":"Power lines","category":"line","osm_type":"way","osm_id":"1493897180"}},{"type":"Feature","geometry":{"type":"LineString","coordinates":[[-1.0208,53.95647],[-1.02146,53.95703],[-1.02252,53.95658]]},"properties":{"name":"Power lines","category":"line","osm_type":"way","osm_id":"1493897181"}},{"type":"Feature","geometry":{"type":"LineString","coordinates":[[-1.02241,53.95657],[-1.02135,53.95702],[-1.0208,53.95647]]},"properties":{"name":"Power lines","category":"line","osm_type":"way","osm_id":"1493897182"}},{"type":"Feature","geometry":{"type":"LineString","coordinates":[[-1.0208,53.95647],[-1.02074,53.95639]]},"properties":{"name":"Power lines","category":"line","osm_type":"way","osm_id":"1493897183"}},{"type":"Feature","geometry":{"type":"LineString","coordinates":[[-1.0208,53.95647],[-1.0207,53.9564]]},"properties":{"name":"Power lines","category":"line","osm_type":"way","osm_id":"1493897184"}},{"type":"Feature","geometry":{"type":"LineString","coordinates":[[-1.0208,53.95647],[-1.02067,53.95642]]},"properties":{"name":"Power lines","category":"line","osm_type":"way","osm_id":"1493897185"}},{"type":"Feature","geometry":{"type":"LineString","coordinates":[[-1.02256,53.95603],[-1.02204,53.9563]]},"properties":{"name":"Power lines","category":"line","osm_type":"way","osm_id":"1493897186"}},{"type":"Feature","geometry":{"type":"LineString","coordinates":[[-1.02256,53.95603],[-1.022,53.95627]]},"properties":{"name":"Power lines","category":"line","osm_type":"way","osm_id":"1493897187"}},{"type":"Feature","geometry":{"type":"LineString","coordinates":[[-1.02195,53.95623],[-1.02256,53.95603]]},"properties":{"name":"Power lines","category":"line","osm_type":"way","osm_id":"1493897188"}},{"type":"Feature","geometry":{"type":"LineString","coordinates":[[-1.02275,53.95598],[-1.02256,53.95603]]},"properties":{"name":"Power lines","category":"line","osm_type":"way","osm_id":"1493897189"}},{"type":"Feature","geometry":{"type":"LineString","coordinates":[[-1.02274,53.95596],[-1.02256,53.95603]]},"properties":{"name":"Power lines","category":"line","osm_type":"way","osm_id":"1493897190"}},{"type":"Feature","geometry":{"type":"LineString","coordinates":[[-1.02272,53.95594],[-1.02256,53.95603]]},"properties":{"name":"Power lines","category":"line","osm_type":"way","osm_id":"1493897191"}},{"type":"Feature","geometry":{"type":"LineString","coordinates":[[-1.02163,53.95668],[-1.02158,53.95659]]},"properties":{"name":"Power lines","category":"line","osm_type":"way","osm_id":"1493897192"}},{"type":"Feature","geometry":{"type":"LineString","coordinates":[[-1.02163,53.95668],[-1.02154,53.95661]]},"properties":{"name":"Power lines","category":"line","osm_type":"way","osm_id":"1493897193"}},{"type":"Feature","geometry":{"type":"LineString","coordinates":[[-1.02163,53.95668],[-1.02151,53.95662]]},"properties":{"name":"Power lines","category":"line","osm_type":"way","osm_id":"1493897194"}},{"type":"Feature","geometry":{"type":"LineString","coordinates":[[-1.02126,53.95733],[-1.02155,53.95725]]},"properties":{"name":"Power lines","category":"line","osm_type":"way","osm_id":"1493897195"}},{"type":"Feature","geometry":{"type":"LineString","coordinates":[[-1.02162,53.95721],[-1.02122,53.95729]]},"properties":{"name":"Power lines","category":"line","osm_type":"way","osm_id":"1493897196"}},{"type":"Feature","geometry":{"type":"LineString","coordinates":[[-1.02167,53.95718],[-1.02117,53.95725]]},"properties":{"name":"Power lines","category":"line","osm_type":"way","osm_id":"1493897197"}},{"type":"Feature","geometry":{"type":"LineString","coordinates":[[-1.47499,53.71579],[-1.47193,53.71748],[-1.46744,53.7173],[-1.46243,53.71653]]},"properties":{"name":"ZP","category":"line","osm_type":"way","osm_id":"1494362759","operator":"National Grid Electricity Transmission","ref":"ZP"}},{"type":"Feature","geometry":{"type":"LineString","coordinates":[[-1.38295,53.50041],[-1.37953,53.50055]]},"properties":{"name":"Power lines","category":"minor_line","osm_type":"way","osm_id":"1497690344"}},{"type":"Feature","geometry":{"type":"LineString","coordinates":[[-1.38293,53.50026],[-1.37963,53.50045]]},"properties":{"name":"Power lines","category":"minor_line","osm_type":"way","osm_id":"1497690345"}},{"type":"Feature","geometry":{"type":"LineString","coordinates":[[-1.98336,53.52708],[-1.98146,53.52714]]},"properties":{"name":"Power lines","category":"minor_line","osm_type":"way","osm_id":"1498188111"}},{"type":"Feature","geometry":{"type":"LineString","coordinates":[[-1.98658,53.91284],[-1.98673,53.91463]]},"properties":{"name":"Power lines","category":"minor_line","osm_type":"way","osm_id":"1521336377"}},{"type":"Feature","geometry":{"type":"LineString","coordinates":[[-1.13175,53.70666],[-1.1242,53.70515],[-1.11091,53.70587]]},"properties":{"name":"Power lines","category":"line","osm_type":"way","osm_id":"1531980797","operator":"Northern Powergrid"}},{"type":"Feature","geometry":{"type":"LineString","coordinates":[[-1.10902,53.70552],[-1.1025,53.70716],[-1.09911,53.70663],[-1.0929,53.70446]]},"properties":{"name":"Power lines","category":"minor_line","osm_type":"way","osm_id":"1531980798"}},{"type":"Feature","geometry":{"type":"LineString","coordinates":[[-1.10897,53.70546],[-1.10692,53.70519]]},"properties":{"name":"Power lines","category":"line","osm_type":"way","osm_id":"1531980799"}},{"type":"Feature","geometry":{"type":"LineString","coordinates":[[-1.81109,53.86141],[-1.81242,53.86248]]},"properties":{"name":"Power lines","category":"minor_line","osm_type":"way","osm_id":"1535475539"}},{"type":"Feature","geometry":{"type":"LineString","coordinates":[[-1.34997,53.70329],[-1.34414,53.70457]]},"properties":{"name":"Power lines","category":"line","osm_type":"way","osm_id":"1536352592"}},{"type":"Feature","geometry":{"type":"LineString","coordinates":[[-1.86401,53.881],[-1.86648,53.8814]]},"properties":{"name":"Power lines","category":"minor_line","osm_type":"way","osm_id":"1539337417"}},{"type":"Feature","geometry":{"type":"LineString","coordinates":[[-1.4081,53.6642],[-1.40751,53.66461]]},"properties":{"name":"Power lines","category":"minor_line","osm_type":"way","osm_id":"1541359565"}},{"type":"Feature","geometry":{"type":"LineString","coordinates":[[-1.40779,53.66439],[-1.40749,53.66409]]},"properties":{"name":"Power lines","category":"minor_line","osm_type":"way","osm_id":"1541359566"}}]}