{"type":"FeatureCollection","features":[{"type":"Feature","geometry":{"type":"LineString","coordinates":[[-2.88994,54.03196],[-2.88892,54.0318]]},"properties":{"name":"Power lines","category":"line","osm_type":"way","osm_id":"1493415489"}},{"type":"Feature","geometry":{"type":"LineString","coordinates":[[-2.88991,54.0318],[-2.88892,54.0318]]},"properties":{"name":"Power lines","category":"line","osm_type":"way","osm_id":"1493415490"}},{"type":"Feature","geometry":{"type":"LineString","coordinates":[[-2.88892,54.0318],[-2.88987,54.03174]]},"properties":{"name":"Power lines","category":"line","osm_type":"way","osm_id":"1493415491"}},{"type":"Feature","geometry":{"type":"LineString","coordinates":[[-2.88892,54.0318],[-2.88983,54.03167]]},"properties":{"name":"Power lines","category":"line","osm_type":"way","osm_id":"1493415492"}},{"type":"Feature","geometry":{"type":"LineString","coordinates":[[-2.8897,54.0335],[-2.89051,54.03304]]},"properties":{"name":"Power lines","category":"line","osm_type":"way","osm_id":"1493415493"}},{"type":"Feature","geometry":{"type":"LineString","coordinates":[[-2.8897,54.0335],[-2.89054,54.0331]]},"properties":{"name":"Power lines","category":"line","osm_type":"way","osm_id":"1493415494"}},{"type":"Feature","geometry":{"type":"LineString","coordinates":[[-2.8897,54.0335],[-2.89056,54.03314]]},"properties":{"name":"Power lines","category":"line","osm_type":"way","osm_id":"1493415495"}},{"type":"Feature","geometry":{"type":"LineString","coordinates":[[-2.91838,54.03096],[-2.91806,54.03153]]},"properties":{"name":"Power lines","category":"line","osm_type":"way","osm_id":"1493415496"}},{"type":"Feature","geometry":{"type":"LineString","coordinates":[[-2.91828,54.03098],[-2.91806,54.03153]]},"properties":{"name":"Power lines","category":"line","osm_type":"way","osm_id":"1493415497"}},{"type":"Feature","geometry":{"type":"LineString","coordinates":[[-2.9182,54.03099],[-2.91806,54.03153]]},"properties":{"name":"Power lines","category":"line","osm_type":"way","osm_id":"1493415498"}},{"type":"Feature","geometry":{"type":"LineString","coordinates":[[-2.91806,54.03153],[-2.91764,54.03112]]},"properties":{"name":"Power lines","category":"line","osm_type":"way","osm_id":"1493415499"}},{"type":"Feature","geometry":{"type":"LineString","coordinates":[[-2.91806,54.03153],[-2.91772,54.0311]]},"properties":{"name":"Power lines","category":"line","osm_type":"way","osm_id":"1493415500"}},{"type":"Feature","geometry":{"type":"LineString","coordinates":[[-2.91806,54.03153],[-2.91781,54.03109]]},"properties":{"name":"Power lines","category":"line","osm_type":"way","osm_id":"1493415501"}},{"type":"Feature","geometry":{"type":"LineString","coordinates":[[-2.91838,54.03096],[-2.91821,54.03084]]},"properties":{"name":"Power lines","category":"line","osm_type":"way","osm_id":"1493415504"}},{"type":"Feature","geometry":{"type":"LineString","coordinates":[[-2.91828,54.03098],[-2.91821,54.03084]]},"properties":{"name":"Power lines","category":"line","osm_type":"way","osm_id":"1493415505"}},{"type":"Feature","geometry":{"type":"LineString","coordinates":[[-2.9182,54.03099],[-2.91821,54.03084]]},"properties":{"name":"Power lines","category":"line","osm_type":"way","osm_id":"1493415506"}},{"type":"Feature","geometry":{"type":"LineString","coordinates":[[-2.91781,54.03109],[-2.91763,54.03096]]},"properties":{"name":"Power lines","category":"line","osm_type":"way","osm_id":"1493415507"}},{"type":"Feature","geometry":{"type":"LineString","coordinates":[[-2.91772,54.0311],[-2.91763,54.03096]]},"properties":{"name":"Power lines","category":"line","osm_type":"way","osm_id":"1493415508"}},{"type":"Feature","geometry":{"type":"LineString","coordinates":[[-2.91764,54.03112],[-2.91763,54.03096]]},"properties":{"name":"Power lines","category":"line","osm_type":"way","osm_id":"1493415509"}},{"type":"Feature","geometry":{"type":"LineString","coordinates":[[-2.89064,54.03331],[-2.8897,54.0335]]},"properties":{"name":"Power lines","category":"line","osm_type":"way","osm_id":"1493415510"}},{"type":"Feature","geometry":{"type":"LineString","coordinates":[[-2.89062,54.03327],[-2.8897,54.0335]]},"properties":{"name":"Power lines","category":"line","osm_type":"way","osm_id":"1493415511"}},{"type":"Feature","geometry":{"type":"LineString","coordinates":[[-2.89059,54.03321],[-2.8897,54.0335]]},"properties":{"name":"Power lines","category":"line","osm_type":"way","osm_id":"1493415512"}},{"type":"Feature","geometry":{"type":"LineString","coordinates":[[-2.76502,54.27189],[-2.76393,54.27433]]},"properties":{"name":"Power lines","category":"minor_line","osm_type":"way","osm_id":"1493481145"}},{"type":"Feature","geometry":{"type":"LineString","coordinates":[[-2.06866,54.02162],[-2.07022,54.02336]]},"properties":{"name":"Power lines","category":"minor_line","osm_type":"way","osm_id":"1508066589"}},{"type":"Feature","geometry":{"type":"LineString","coordinates":[[-2.60718,54.1064],[-2.61048,54.1073]]},"properties":{"name":"Power lines","category":"minor_line","osm_type":"way","osm_id":"1517107166"}},{"type":"Feature","geometry":{"type":"LineString","coordinates":[[-2.79547,54.14801],[-2.79259,54.14943],[-2.7901,54.14776]]},"properties":{"name":"Power lines","category":"minor_line","osm_type":"way","osm_id":"1536986492","operator":"Electricity North West"}},{"type":"Feature","geometry":{"type":"LineString","coordinates":[[-2.7755,54.13574],[-2.78226,54.13773]]},"properties":{"name":"Power lines","category":"minor_line","osm_type":"way","osm_id":"1536986609"}},{"type":"Feature","geometry":{"type":"LineString","coordinates":[[-2.04975,54.02478],[-2.05172,54.0281]]},"properties":{"name":"Power lines","category":"minor_line","osm_type":"way","osm_id":"1544384260"}},{"type":"Feature","geometry":{"type":"LineString","coordinates":[[-2.62869,54.10689],[-2.61773,54.10877],[-2.60079,54.11637]]},"properties":{"name":"Power lines","category":"minor_line","osm_type":"way","osm_id":"1544755769"}},{"type":"Feature","geometry":{"type":"LineString","coordinates":[[-2.49737,54.11796],[-2.50035,54.11848]]},"properties":{"name":"Power lines","category":"minor_line","osm_type":"way","osm_id":"1551505307"}}]}