{"type":"FeatureCollection","features":[{"type":"Feature","geometry":{"type":"LineString","coordinates":[[-2.97741,55.04215],[-3.01066,55.04069],[-3.02837,55.03701]]},"properties":{"name":"National Grid Gretna-?","category":"line","osm_type":"way","osm_id":"69156353","operator":"National Grid Electricity Transmission","ref":"AL"}},{"type":"Feature","geometry":{"type":"LineString","coordinates":[[-3.04572,55.04737],[-3.04375,55.05492]]},"properties":{"name":"Power lines","category":"minor_line","osm_type":"way","osm_id":"473632331"}},{"type":"Feature","geometry":{"type":"LineString","coordinates":[[-3.04796,55.00952],[-3.04768,55.00698]]},"properties":{"name":"Power lines","category":"minor_line","osm_type":"way","osm_id":"473638690"}},{"type":"Feature","geometry":{"type":"LineString","coordinates":[[-3.03428,55.02977],[-3.02911,55.0274]]},"properties":{"name":"Power lines","category":"minor_line","osm_type":"way","osm_id":"1092398201"}},{"type":"Feature","geometry":{"type":"LineString","coordinates":[[-3.01779,55.03731],[-3.0248,55.03755],[-3.02671,55.03659]]},"properties":{"name":"Power lines","category":"minor_line","osm_type":"way","osm_id":"1092398203"}},{"type":"Feature","geometry":{"type":"LineString","coordinates":[[-3.0248,55.03755],[-3.02549,55.03886]]},"properties":{"name":"Power lines","category":"minor_line","osm_type":"way","osm_id":"1092398204"}},{"type":"Feature","geometry":{"type":"MultiLineString","coordinates":[[[-3.05344,55.04855],[-3.05113,55.04833]],[[-3.0483,55.04807],[-3.04212,55.0475],[-3.03965,55.04822]]]},"properties":{"name":"Power lines","category":"minor_line","osm_type":"way","osm_id":"1092398225"}},{"type":"Feature","geometry":{"type":"LineString","coordinates":[[-3.01779,55.03731],[-3.01521,55.03572],[-3.01112,55.03417]]},"properties":{"name":"Power lines","category":"minor_line","osm_type":"way","osm_id":"1251560235"}},{"type":"Feature","geometry":{"type":"LineString","coordinates":[[-2.99779,55.02131],[-3.00155,55.02063],[-3.0042,55.01896]]},"properties":{"name":"Power lines","category":"minor_line","osm_type":"way","osm_id":"1266560448"}},{"type":"Feature","geometry":{"type":"LineString","coordinates":[[-3.02146,55.04184],[-3.01787,55.04143]]},"properties":{"name":"Power lines","category":"minor_line","osm_type":"way","osm_id":"1266560449"}},{"type":"Feature","geometry":{"type":"LineString","coordinates":[[-3.01779,55.03731],[-3.01787,55.04143],[-3.01642,55.04896],[-3.01749,55.05057]]},"properties":{"name":"Power lines","category":"minor_line","osm_type":"way","osm_id":"1266560450"}},{"type":"Feature","geometry":{"type":"LineString","coordinates":[[-3.01724,55.04363],[-3.01397,55.04329],[-3.00709,55.04365],[-3.00232,55.04571],[-2.9922,55.04551],[-2.98947,55.04436],[-2.98381,55.04502],[-2.98299,55.04442]]},"properties":{"name":"Power lines","category":"minor_line","osm_type":"way","osm_id":"1266560451"}},{"type":"Feature","geometry":{"type":"LineString","coordinates":[[-3.00596,55.04235],[-3.00614,55.04405],[-3.00372,55.04386]]},"properties":{"name":"Power lines","category":"minor_line","osm_type":"way","osm_id":"1266560452"}},{"type":"Feature","geometry":{"type":"LineString","coordinates":[[-3.04416,55.01334],[-3.04412,55.01323]]},"properties":{"name":"SP Transmission Harker-Gretna","category":"line","osm_type":"way","osm_id":"1390700036","operator":"SP Transmission","ref":"ZV"}}]}