{"type":"FeatureCollection","features":[{"type":"Feature","geometry":{"type":"LineString","coordinates":[[-2.98663,53.87816],[-2.98391,53.87638],[-2.98335,53.8659],[-2.98586,53.86548],[-2.98981,53.86016],[-3.01648,53.85872],[-3.01837,53.85634],[-3.01757,53.85101],[-3.02741,53.84722]]},"properties":{"name":"Power lines","category":"line","osm_type":"way","osm_id":"142740994","operator":"Electricity North West"}},{"type":"Feature","geometry":{"type":"LineString","coordinates":[[-3.02741,53.84722],[-3.02953,53.84917]]},"properties":{"name":"Bispham-Penwortham","category":"line","osm_type":"way","osm_id":"367014897","operator":"Electricity North West"}},{"type":"Feature","geometry":{"type":"LineString","coordinates":[[-3.02953,53.84917],[-3.02938,53.8493]]},"properties":{"name":"Bispham-Penwortham","category":"line","osm_type":"way","osm_id":"367015762","operator":"Electricity North West"}},{"type":"Feature","geometry":{"type":"LineString","coordinates":[[-3.02995,53.84915],[-3.02926,53.84943]]},"properties":{"name":"Power lines","category":"line","osm_type":"way","osm_id":"367015763"}},{"type":"Feature","geometry":{"type":"LineString","coordinates":[[-3.02906,53.84945],[-3.02871,53.8493]]},"properties":{"name":"Power lines","category":"line","osm_type":"way","osm_id":"367015765"}},{"type":"Feature","geometry":{"type":"LineString","coordinates":[[-3.02985,53.84928],[-3.02953,53.84917]]},"properties":{"name":"Bispham-Penwortham","category":"line","osm_type":"way","osm_id":"367015767","operator":"Electricity North West"}},{"type":"Feature","geometry":{"type":"LineString","coordinates":[[-3.02999,53.89023],[-3.03032,53.89088],[-3.02981,53.89026]]},"properties":{"name":"Power lines","category":"line","osm_type":"way","osm_id":"409537130"}},{"type":"Feature","geometry":{"type":"LineString","coordinates":[[-3.03032,53.89088],[-3.03146,53.89277],[-3.02717,53.90024]]},"properties":{"name":"Power lines","category":"line","osm_type":"way","osm_id":"409537132"}},{"type":"Feature","geometry":{"type":"LineString","coordinates":[[-3.02553,53.89098],[-3.02307,53.89133],[-3.02328,53.89182],[-3.02318,53.89136],[-3.02558,53.89105]]},"properties":{"name":"Power lines","category":"line","osm_type":"way","osm_id":"409537634"}},{"type":"Feature","geometry":{"type":"LineString","coordinates":[[-3.02328,53.89182],[-3.02616,53.90025]]},"properties":{"name":"Power lines","category":"line","osm_type":"way","osm_id":"409537635"}},{"type":"Feature","geometry":{"type":"LineString","coordinates":[[-3.04281,53.55495],[-3.02941,53.55785],[-3.00804,53.55942],[-2.98207,53.55312]]},"properties":{"name":"Power lines","category":"line","osm_type":"way","osm_id":"576061599","operator":"Scottish Power"}},{"type":"Feature","geometry":{"type":"LineString","coordinates":[[-3.02938,53.8493],[-3.02943,53.84961]]},"properties":{"name":"Power lines","category":"line","osm_type":"way","osm_id":"971886403"}},{"type":"Feature","geometry":{"type":"LineString","coordinates":[[-3.02985,53.84928],[-3.02996,53.84956]]},"properties":{"name":"Power lines","category":"line","osm_type":"way","osm_id":"971886404"}},{"type":"Feature","geometry":{"type":"LineString","coordinates":[[-3.02901,53.84927],[-3.02868,53.84922]]},"properties":{"name":"Bispham-Penwortham","category":"line","osm_type":"way","osm_id":"971886405","operator":"Electricity North West"}},{"type":"Feature","geometry":{"type":"LineString","coordinates":[[-3.02926,53.84943],[-3.02906,53.84945]]},"properties":{"name":"Power lines","category":"line","osm_type":"way","osm_id":"971886406"}},{"type":"Feature","geometry":{"type":"LineString","coordinates":[[-3.0291,53.84926],[-3.02901,53.84927]]},"properties":{"name":"Power lines","category":"line","osm_type":"way","osm_id":"971886408"}},{"type":"Feature","geometry":{"type":"LineString","coordinates":[[-3.03466,53.58037],[-3.03339,53.57491],[-3.02999,53.57038],[-3.04028,53.56581],[-3.0405,53.56168],[-3.04127,53.55923],[-3.04107,53.55646],[-3.04033,53.55537]]},"properties":{"name":"Power lines","category":"minor_line","osm_type":"way","osm_id":"1053886957"}},{"type":"Feature","geometry":{"type":"LineString","coordinates":[[-3.06757,53.54429],[-3.05871,53.52836]]},"properties":{"name":"Power lines","category":"minor_line","osm_type":"way","osm_id":"1372104465"}},{"type":"Feature","geometry":{"type":"LineString","coordinates":[[-3.01671,53.57058],[-3.01764,53.56985],[-3.00902,53.56424],[-3.02869,53.55768]]},"properties":{"name":"Power lines","category":"minor_line","osm_type":"way","osm_id":"1424847353"}},{"type":"Feature","geometry":{"type":"LineString","coordinates":[[-3.01453,53.56761],[-3.02127,53.5655],[-3.03059,53.56478],[-3.03799,53.56227],[-3.03891,53.56227]]},"properties":{"name":"Power lines","category":"minor_line","osm_type":"way","osm_id":"1424847354"}},{"type":"Feature","geometry":{"type":"LineString","coordinates":[[-3.02869,53.55768],[-3.03885,53.55425],[-3.03846,53.55325]]},"properties":{"name":"Power lines","category":"minor_line","osm_type":"way","osm_id":"1424847355"}},{"type":"Feature","geometry":{"type":"LineString","coordinates":[[-3.02919,53.55568],[-3.03042,53.55564]]},"properties":{"name":"Power lines","category":"minor_line","osm_type":"way","osm_id":"1424847356"}},{"type":"Feature","geometry":{"type":"LineString","coordinates":[[-3.02748,53.5513],[-3.0263,53.55239]]},"properties":{"name":"Power lines","category":"minor_line","osm_type":"way","osm_id":"1424847357"}},{"type":"Feature","geometry":{"type":"LineString","coordinates":[[-3.04324,53.57016],[-3.02542,53.57711]]},"properties":{"name":"Power lines","category":"minor_line","osm_type":"way","osm_id":"1424847358"}},{"type":"Feature","geometry":{"type":"LineString","coordinates":[[-3.03214,53.58055],[-3.02984,53.58164],[-3.01926,53.57115]]},"properties":{"name":"Power lines","category":"minor_line","osm_type":"way","osm_id":"1424847359"}},{"type":"Feature","geometry":{"type":"LineString","coordinates":[[-3.02482,53.53952],[-3.0194,53.54777],[-3.01663,53.54875]]},"properties":{"name":"Power lines","category":"minor_line","osm_type":"way","osm_id":"1424847360"}},{"type":"Feature","geometry":{"type":"LineString","coordinates":[[-3.02018,53.54647],[-3.02405,53.54837],[-3.02911,53.55228],[-3.02959,53.55373],[-3.02839,53.55969],[-3.02881,53.56392],[-3.02961,53.56497]]},"properties":{"name":"Power lines","category":"minor_line","osm_type":"way","osm_id":"1424847361"}},{"type":"Feature","geometry":{"type":"LineString","coordinates":[[-3.01988,53.54938],[-3.01465,53.54842],[-3.01039,53.54675],[-2.99332,53.5461],[-2.9857,53.54764]]},"properties":{"name":"Power lines","category":"minor_line","osm_type":"way","osm_id":"1424847362"}},{"type":"Feature","geometry":{"type":"LineString","coordinates":[[-3.01141,53.54713],[-3.01229,53.54655]]},"properties":{"name":"Power lines","category":"minor_line","osm_type":"way","osm_id":"1424847363"}},{"type":"Feature","geometry":{"type":"LineString","coordinates":[[-3.00621,53.54661],[-3.00709,53.54767]]},"properties":{"name":"Power lines","category":"minor_line","osm_type":"way","osm_id":"1424847364"}},{"type":"Feature","geometry":{"type":"LineString","coordinates":[[-3.02946,53.5391],[-3.02482,53.53952],[-3.01563,53.53562],[-3.00746,53.52954],[-3.00464,53.52938],[-3.00188,53.52865],[-3.00032,53.52781],[-3.00032,53.52676],[-3.00362,53.52505],[-3.00573,53.52257]]},"properties":{"name":"Power lines","category":"minor_line","osm_type":"way","osm_id":"1424847365"}},{"type":"Feature","geometry":{"type":"LineString","coordinates":[[-3.01374,53.53419],[-3.01424,53.5334]]},"properties":{"name":"Power lines","category":"minor_line","osm_type":"way","osm_id":"1424847366"}},{"type":"Feature","geometry":{"type":"LineString","coordinates":[[-3.00362,53.52505],[-3.00795,53.52648],[-3.01672,53.52603]]},"properties":{"name":"Power lines","category":"minor_line","osm_type":"way","osm_id":"1424847367"}},{"type":"Feature","geometry":{"type":"LineString","coordinates":[[-3.01737,53.52683],[-3.02292,53.52611],[-3.02646,53.52487]]},"properties":{"name":"Power lines","category":"minor_line","osm_type":"way","osm_id":"1424847368"}},{"type":"Feature","geometry":{"type":"LineString","coordinates":[[-3.00094,53.50926],[-3.00071,53.50936]]},"properties":{"name":"Power lines","category":"minor_line","osm_type":"way","osm_id":"1424973974"}},{"type":"Feature","geometry":{"type":"LineString","coordinates":[[-3.05028,53.51589],[-3.04948,53.51699],[-3.04553,53.51805],[-3.04027,53.52105],[-3.03699,53.52221],[-3.02986,53.52348]]},"properties":{"name":"Power lines","category":"minor_line","osm_type":"way","osm_id":"1424973975"}},{"type":"Feature","geometry":{"type":"LineString","coordinates":[[-3.03055,53.52336],[-3.03206,53.52559]]},"properties":{"name":"Power lines","category":"minor_line","osm_type":"way","osm_id":"1424973976"}},{"type":"Feature","geometry":{"type":"LineString","coordinates":[[-3.0536,53.53137],[-3.05406,53.53544]]},"properties":{"name":"Power lines","category":"minor_line","osm_type":"way","osm_id":"1424973977"}},{"type":"Feature","geometry":{"type":"LineString","coordinates":[[-3.06184,53.53436],[-3.05824,53.5276]]},"properties":{"name":"Power lines","category":"minor_line","osm_type":"way","osm_id":"1424973978"}},{"type":"Feature","geometry":{"type":"LineString","coordinates":[[-3.06141,53.53468],[-3.05767,53.53496]]},"properties":{"name":"Power lines","category":"minor_line","osm_type":"way","osm_id":"1424973979"}},{"type":"Feature","geometry":{"type":"LineString","coordinates":[[-3.04245,53.53665],[-3.04156,53.53696],[-3.04099,53.53829],[-3.03755,53.54067]]},"properties":{"name":"Power lines","category":"minor_line","osm_type":"way","osm_id":"1424973980"}},{"type":"Feature","geometry":{"type":"LineString","coordinates":[[-3.04375,53.54264],[-3.0391,53.54154],[-3.0345,53.53882]]},"properties":{"name":"Power lines","category":"minor_line","osm_type":"way","osm_id":"1424973981"}},{"type":"Feature","geometry":{"type":"LineString","coordinates":[[-3.06559,53.542],[-3.06443,53.54232],[-3.0637,53.54333],[-3.05487,53.54596]]},"properties":{"name":"Power lines","category":"minor_line","osm_type":"way","osm_id":"1424973982"}},{"type":"Feature","geometry":{"type":"LineString","coordinates":[[-3.05362,53.51248],[-3.05312,53.51047],[-3.04944,53.50364],[-3.04638,53.50109]]},"properties":{"name":"Power lines","category":"minor_line","osm_type":"way","osm_id":"1424973983"}},{"type":"Feature","geometry":{"type":"LineString","coordinates":[[-3.05458,53.51203],[-3.0552,53.51473]]},"properties":{"name":"Power lines","category":"minor_line","osm_type":"way","osm_id":"1424973984"}},{"type":"Feature","geometry":{"type":"LineString","coordinates":[[-3.05503,53.51465],[-3.05441,53.51191]]},"properties":{"name":"Power lines","category":"minor_line","osm_type":"way","osm_id":"1424973985"}},{"type":"Feature","geometry":{"type":"LineString","coordinates":[[-3.04324,53.55516],[-3.04281,53.55495]]},"properties":{"name":"Power lines","category":"line","osm_type":"way","osm_id":"1433614410"}},{"type":"Feature","geometry":{"type":"LineString","coordinates":[[-3.04281,53.55495],[-3.04333,53.55498]]},"properties":{"name":"Power lines","category":"line","osm_type":"way","osm_id":"1433614411"}}]}