{"type":"FeatureCollection","features":[{"type":"Feature","geometry":{"type":"LineString","coordinates":[[1.35086,52.81191],[1.34582,52.81274]]},"properties":{"name":"Power lines","category":"minor_line","osm_type":"way","osm_id":"1477392132"}},{"type":"Feature","geometry":{"type":"LineString","coordinates":[[1.34549,52.82616],[1.34698,52.82585]]},"properties":{"name":"Power lines","category":"minor_line","osm_type":"way","osm_id":"1477392133"}},{"type":"Feature","geometry":{"type":"LineString","coordinates":[[1.36696,52.81914],[1.36601,52.81792]]},"properties":{"name":"Power lines","category":"minor_line","osm_type":"way","osm_id":"1477754364"}},{"type":"Feature","geometry":{"type":"LineString","coordinates":[[1.69118,52.64405],[1.69155,52.64215],[1.69249,52.64092]]},"properties":{"name":"Power lines","category":"minor_line","osm_type":"way","osm_id":"1479222173"}},{"type":"Feature","geometry":{"type":"LineString","coordinates":[[1.69498,52.64371],[1.69133,52.64352]]},"properties":{"name":"Power lines","category":"minor_line","osm_type":"way","osm_id":"1479222174"}},{"type":"Feature","geometry":{"type":"LineString","coordinates":[[1.6923,52.64353],[1.69336,52.64368]]},"properties":{"name":"Power lines","category":"minor_line","osm_type":"way","osm_id":"1479222175"}},{"type":"Feature","geometry":{"type":"LineString","coordinates":[[1.70292,52.64474],[1.69337,52.64414],[1.69336,52.64368]]},"properties":{"name":"Power lines","category":"minor_line","osm_type":"way","osm_id":"1479222176"}},{"type":"Feature","geometry":{"type":"LineString","coordinates":[[1.51284,52.66636],[1.5114,52.66601],[1.51027,52.66659]]},"properties":{"name":"Power lines","category":"minor_line","osm_type":"way","osm_id":"1479240794"}},{"type":"Feature","geometry":{"type":"LineString","coordinates":[[1.51107,52.66674],[1.51027,52.66659]]},"properties":{"name":"Power lines","category":"minor_line","osm_type":"way","osm_id":"1479240795"}},{"type":"Feature","geometry":{"type":"LineString","coordinates":[[1.51051,52.6665],[1.51027,52.66659]]},"properties":{"name":"Power lines","category":"minor_line","osm_type":"way","osm_id":"1479240796"}},{"type":"Feature","geometry":{"type":"LineString","coordinates":[[1.5089,52.6652],[1.50473,52.66528]]},"properties":{"name":"Power lines","category":"minor_line","osm_type":"way","osm_id":"1479240797"}},{"type":"Feature","geometry":{"type":"LineString","coordinates":[[1.50801,52.66177],[1.50996,52.66758]]},"properties":{"name":"Power lines","category":"minor_line","osm_type":"way","osm_id":"1479240798"}},{"type":"Feature","geometry":{"type":"LineString","coordinates":[[1.50922,52.66628],[1.51027,52.66659],[1.50996,52.66758]]},"properties":{"name":"Power lines","category":"minor_line","osm_type":"way","osm_id":"1479240799"}},{"type":"Feature","geometry":{"type":"LineString","coordinates":[[1.40907,52.71973],[1.40536,52.73813]]},"properties":{"name":"Power lines","category":"minor_line","osm_type":"way","osm_id":"1479294399"}},{"type":"Feature","geometry":{"type":"LineString","coordinates":[[1.5361,52.71987],[1.53658,52.72059],[1.53175,52.72114]]},"properties":{"name":"Power lines","category":"minor_line","osm_type":"way","osm_id":"1479758169"}},{"type":"Feature","geometry":{"type":"LineString","coordinates":[[1.51569,52.71424],[1.51653,52.71725],[1.51564,52.72199]]},"properties":{"name":"Power lines","category":"minor_line","osm_type":"way","osm_id":"1479758170"}},{"type":"Feature","geometry":{"type":"LineString","coordinates":[[1.51378,52.71475],[1.51023,52.7126]]},"properties":{"name":"Power lines","category":"minor_line","osm_type":"way","osm_id":"1479758171"}},{"type":"Feature","geometry":{"type":"LineString","coordinates":[[1.53094,52.7249],[1.53174,52.72445],[1.53257,52.72269],[1.52749,52.71304],[1.51569,52.71424],[1.51261,52.71501]]},"properties":{"name":"Power lines","category":"minor_line","osm_type":"way","osm_id":"1479758172"}},{"type":"Feature","geometry":{"type":"LineString","coordinates":[[1.5451,52.71003],[1.54287,52.70602]]},"properties":{"name":"Power lines","category":"minor_line","osm_type":"way","osm_id":"1479779242"}},{"type":"Feature","geometry":{"type":"LineString","coordinates":[[1.55598,52.71052],[1.56369,52.7026]]},"properties":{"name":"Power lines","category":"minor_line","osm_type":"way","osm_id":"1479786093"}},{"type":"Feature","geometry":{"type":"LineString","coordinates":[[1.13055,52.88845],[1.12809,52.88824]]},"properties":{"name":"Power lines","category":"minor_line","osm_type":"way","osm_id":"1480031029"}},{"type":"Feature","geometry":{"type":"LineString","coordinates":[[1.12636,52.89112],[1.12541,52.89172]]},"properties":{"name":"Power lines","category":"minor_line","osm_type":"way","osm_id":"1480031030"}},{"type":"Feature","geometry":{"type":"LineString","coordinates":[[1.11579,52.89186],[1.11847,52.89187],[1.12092,52.89119],[1.12891,52.89213]]},"properties":{"name":"Power lines","category":"minor_line","osm_type":"way","osm_id":"1480031031"}},{"type":"Feature","geometry":{"type":"LineString","coordinates":[[1.12281,52.89447],[1.12348,52.89301],[1.12459,52.89255]]},"properties":{"name":"Power lines","category":"minor_line","osm_type":"way","osm_id":"1480031032"}},{"type":"Feature","geometry":{"type":"LineString","coordinates":[[1.00025,52.95435],[1.00049,52.95333],[1.00119,52.95336]]},"properties":{"name":"Power lines","category":"minor_line","osm_type":"way","osm_id":"1480333177"}},{"type":"Feature","geometry":{"type":"LineString","coordinates":[[1.00119,52.95336],[1.00154,52.95383]]},"properties":{"name":"Power lines","category":"minor_line","osm_type":"way","osm_id":"1480333178"}},{"type":"Feature","geometry":{"type":"LineString","coordinates":[[1.19918,52.72055],[1.19811,52.72045]]},"properties":{"name":"Power lines","category":"minor_line","osm_type":"way","osm_id":"1481073914"}},{"type":"Feature","geometry":{"type":"LineString","coordinates":[[1.20541,52.7234],[1.20289,52.72079]]},"properties":{"name":"Power lines","category":"minor_line","osm_type":"way","osm_id":"1481073916"}},{"type":"Feature","geometry":{"type":"LineString","coordinates":[[1.16416,52.72869],[1.16407,52.72586]]},"properties":{"name":"Power lines","category":"minor_line","osm_type":"way","osm_id":"1481073917"}},{"type":"Feature","geometry":{"type":"LineString","coordinates":[[1.1607,52.72471],[1.15957,52.72588]]},"properties":{"name":"Power lines","category":"minor_line","osm_type":"way","osm_id":"1481073918"}},{"type":"Feature","geometry":{"type":"LineString","coordinates":[[1.15938,52.72851],[1.15993,52.72844]]},"properties":{"name":"Power lines","category":"minor_line","osm_type":"way","osm_id":"1481073919"}},{"type":"Feature","geometry":{"type":"LineString","coordinates":[[1.15916,52.72777],[1.1599,52.72788]]},"properties":{"name":"Power lines","category":"minor_line","osm_type":"way","osm_id":"1481073920"}},{"type":"Feature","geometry":{"type":"LineString","coordinates":[[1.15908,52.72738],[1.15984,52.72753]]},"properties":{"name":"Power lines","category":"minor_line","osm_type":"way","osm_id":"1481073921"}},{"type":"Feature","geometry":{"type":"LineString","coordinates":[[1.15957,52.72588],[1.16006,52.72675],[1.15983,52.72878]]},"properties":{"name":"Power lines","category":"minor_line","osm_type":"way","osm_id":"1481073922"}},{"type":"Feature","geometry":{"type":"LineString","coordinates":[[1.15926,52.72657],[1.15984,52.72637]]},"properties":{"name":"Power lines","category":"minor_line","osm_type":"way","osm_id":"1481073923"}},{"type":"Feature","geometry":{"type":"LineString","coordinates":[[1.17174,52.7245],[1.17542,52.7249]]},"properties":{"name":"Power lines","category":"minor_line","osm_type":"way","osm_id":"1481073924"}},{"type":"Feature","geometry":{"type":"LineString","coordinates":[[1.16494,52.72927],[1.1643,52.72933],[1.16416,52.72869]]},"properties":{"name":"Power lines","category":"minor_line","osm_type":"way","osm_id":"1481073925"}},{"type":"Feature","geometry":{"type":"LineString","coordinates":[[1.16212,52.72519],[1.16172,52.72587]]},"properties":{"name":"Power lines","category":"minor_line","osm_type":"way","osm_id":"1481073926"}},{"type":"Feature","geometry":{"type":"LineString","coordinates":[[1.15488,52.72538],[1.15494,52.72512]]},"properties":{"name":"Power lines","category":"minor_line","osm_type":"way","osm_id":"1481073927"}},{"type":"Feature","geometry":{"type":"LineString","coordinates":[[1.17701,52.9156],[1.17688,52.91469]]},"properties":{"name":"Power lines","category":"minor_line","osm_type":"way","osm_id":"1486828690"}},{"type":"Feature","geometry":{"type":"LineString","coordinates":[[1.17707,52.9156],[1.17688,52.91469]]},"properties":{"name":"Power lines","category":"minor_line","osm_type":"way","osm_id":"1486828691"}},{"type":"Feature","geometry":{"type":"LineString","coordinates":[[1.17774,52.91587],[1.1784,52.91882],[1.17686,52.91915],[1.17097,52.92185]]},"properties":{"name":"Power lines","category":"minor_line","osm_type":"way","osm_id":"1486828692"}},{"type":"Feature","geometry":{"type":"LineString","coordinates":[[1.14565,52.91108],[1.14486,52.91096]]},"properties":{"name":"Power lines","category":"minor_line","osm_type":"way","osm_id":"1486839613"}},{"type":"Feature","geometry":{"type":"LineString","coordinates":[[1.14565,52.91108],[1.14567,52.91143]]},"properties":{"name":"Power lines","category":"minor_line","osm_type":"way","osm_id":"1486839614"}},{"type":"Feature","geometry":{"type":"LineString","coordinates":[[1.14734,52.91133],[1.14565,52.91108]]},"properties":{"name":"Power lines","category":"minor_line","osm_type":"way","osm_id":"1486839615"}},{"type":"Feature","geometry":{"type":"LineString","coordinates":[[1.0451,52.95197],[1.04667,52.94852]]},"properties":{"name":"Power lines","category":"minor_line","osm_type":"way","osm_id":"1486887346"}},{"type":"Feature","geometry":{"type":"LineString","coordinates":[[1.04512,52.94908],[1.04505,52.94938],[1.04607,52.94952]]},"properties":{"name":"Power lines","category":"minor_line","osm_type":"way","osm_id":"1486888224"}},{"type":"Feature","geometry":{"type":"LineString","coordinates":[[1.04701,52.94626],[1.04664,52.94658]]},"properties":{"name":"Power lines","category":"minor_line","osm_type":"way","osm_id":"1486888937"}},{"type":"Feature","geometry":{"type":"LineString","coordinates":[[1.04726,52.94651],[1.04664,52.94658]]},"properties":{"name":"Power lines","category":"minor_line","osm_type":"way","osm_id":"1486888938"}},{"type":"Feature","geometry":{"type":"LineString","coordinates":[[1.04664,52.94658],[1.04596,52.94603],[1.04614,52.94537]]},"properties":{"name":"Power lines","category":"minor_line","osm_type":"way","osm_id":"1486888939"}},{"type":"Feature","geometry":{"type":"LineString","coordinates":[[1.24425,52.85426],[1.24624,52.85085],[1.24847,52.84953]]},"properties":{"name":"Power lines","category":"minor_line","osm_type":"way","osm_id":"1487151158"}},{"type":"Feature","geometry":{"type":"LineString","coordinates":[[1.24551,52.85587],[1.24422,52.8544],[1.24195,52.85319]]},"properties":{"name":"Power lines","category":"minor_line","osm_type":"way","osm_id":"1487151159"}},{"type":"Feature","geometry":{"type":"LineString","coordinates":[[1.24195,52.85319],[1.23663,52.85323]]},"properties":{"name":"Power lines","category":"minor_line","osm_type":"way","osm_id":"1487151161"}},{"type":"Feature","geometry":{"type":"LineString","coordinates":[[1.2435,52.83971],[1.24339,52.83896],[1.24402,52.83872]]},"properties":{"name":"Power lines","category":"minor_line","osm_type":"way","osm_id":"1487159765"}},{"type":"Feature","geometry":{"type":"LineString","coordinates":[[1.23652,52.83963],[1.23646,52.83958]]},"properties":{"name":"Power lines","category":"minor_line","osm_type":"way","osm_id":"1487159766"}},{"type":"Feature","geometry":{"type":"LineString","coordinates":[[1.24542,52.83948],[1.24305,52.83982],[1.23593,52.83966]]},"properties":{"name":"Power lines","category":"minor_line","osm_type":"way","osm_id":"1487159767"}},{"type":"Feature","geometry":{"type":"LineString","coordinates":[[1.24289,52.83976],[1.24305,52.83982]]},"properties":{"name":"Power lines","category":"minor_line","osm_type":"way","osm_id":"1487159768"}},{"type":"Feature","geometry":{"type":"LineString","coordinates":[[1.24666,52.83873],[1.24363,52.83954]]},"properties":{"name":"Power lines","category":"minor_line","osm_type":"way","osm_id":"1487159769"}},{"type":"Feature","geometry":{"type":"LineString","coordinates":[[1.25011,52.83757],[1.25,52.83715],[1.25134,52.83671]]},"properties":{"name":"Power lines","category":"minor_line","osm_type":"way","osm_id":"1487161389"}},{"type":"Feature","geometry":{"type":"LineString","coordinates":[[1.25524,52.84102],[1.25548,52.83986]]},"properties":{"name":"Power lines","category":"minor_line","osm_type":"way","osm_id":"1487171894"}},{"type":"Feature","geometry":{"type":"LineString","coordinates":[[1.256,52.84115],[1.25453,52.84093]]},"properties":{"name":"Power lines","category":"minor_line","osm_type":"way","osm_id":"1487171895"}},{"type":"Feature","geometry":{"type":"LineString","coordinates":[[1.25373,52.84469],[1.2548,52.84381]]},"properties":{"name":"Power lines","category":"minor_line","osm_type":"way","osm_id":"1487171896"}},{"type":"Feature","geometry":{"type":"LineString","coordinates":[[1.25489,52.84226],[1.2548,52.84381]]},"properties":{"name":"Power lines","category":"minor_line","osm_type":"way","osm_id":"1487171897"}},{"type":"Feature","geometry":{"type":"LineString","coordinates":[[1.24247,52.86118],[1.24222,52.86086]]},"properties":{"name":"Power lines","category":"minor_line","osm_type":"way","osm_id":"1487592810"}},{"type":"Feature","geometry":{"type":"LineString","coordinates":[[1.24372,52.86159],[1.24306,52.86112],[1.24207,52.86125]]},"properties":{"name":"Power lines","category":"minor_line","osm_type":"way","osm_id":"1487592811"}},{"type":"Feature","geometry":{"type":"LineString","coordinates":[[1.24637,52.86235],[1.24619,52.86246]]},"properties":{"name":"Power lines","category":"minor_line","osm_type":"way","osm_id":"1487592812"}},{"type":"Feature","geometry":{"type":"LineString","coordinates":[[1.24728,52.86225],[1.24671,52.86265],[1.24521,52.86188]]},"properties":{"name":"Power lines","category":"minor_line","osm_type":"way","osm_id":"1487592813"}},{"type":"Feature","geometry":{"type":"LineString","coordinates":[[1.24476,52.86215],[1.24513,52.86219]]},"properties":{"name":"Power lines","category":"minor_line","osm_type":"way","osm_id":"1487592814"}},{"type":"Feature","geometry":{"type":"LineString","coordinates":[[1.2431,52.86296],[1.24314,52.86265]]},"properties":{"name":"Power lines","category":"minor_line","osm_type":"way","osm_id":"1487592815"}},{"type":"Feature","geometry":{"type":"LineString","coordinates":[[1.24187,52.86073],[1.24218,52.86253],[1.24428,52.86255],[1.24538,52.86206]]},"properties":{"name":"Power lines","category":"minor_line","osm_type":"way","osm_id":"1487592816"}},{"type":"Feature","geometry":{"type":"LineString","coordinates":[[1.09894,52.74685],[1.0978,52.74658],[1.09665,52.74705]]},"properties":{"name":"Power lines","category":"minor_line","osm_type":"way","osm_id":"1488560964"}},{"type":"Feature","geometry":{"type":"LineString","coordinates":[[1.11496,52.74898],[1.11903,52.74972]]},"properties":{"name":"Power lines","category":"minor_line","osm_type":"way","osm_id":"1488562602"}},{"type":"Feature","geometry":{"type":"LineString","coordinates":[[1.11646,52.74889],[1.1164,52.74923]]},"properties":{"name":"Power lines","category":"minor_line","osm_type":"way","osm_id":"1488562603"}},{"type":"Feature","geometry":{"type":"LineString","coordinates":[[1.11482,52.76714],[1.11458,52.7671]]},"properties":{"name":"Power lines","category":"minor_line","osm_type":"way","osm_id":"1488575447"}},{"type":"Feature","geometry":{"type":"LineString","coordinates":[[1.1863,52.74585],[1.187,52.74573]]},"properties":{"name":"Power lines","category":"minor_line","osm_type":"way","osm_id":"1489483795"}},{"type":"Feature","geometry":{"type":"LineString","coordinates":[[1.1857,52.74947],[1.1807,52.74855],[1.17804,52.7476],[1.17775,52.74581],[1.17665,52.74592],[1.17532,52.74434],[1.17575,52.74374]]},"properties":{"name":"Power lines","category":"minor_line","osm_type":"way","osm_id":"1489483796"}},{"type":"Feature","geometry":{"type":"LineString","coordinates":[[1.17823,52.74902],[1.17816,52.74813],[1.17903,52.74813]]},"properties":{"name":"Power lines","category":"minor_line","osm_type":"way","osm_id":"1489483797"}},{"type":"Feature","geometry":{"type":"LineString","coordinates":[[1.187,52.74573],[1.18845,52.74556]]},"properties":{"name":"Power lines","category":"minor_line","osm_type":"way","osm_id":"1489483798"}},{"type":"Feature","geometry":{"type":"LineString","coordinates":[[1.12642,52.76105],[1.12632,52.76085]]},"properties":{"name":"Power lines","category":"minor_line","osm_type":"way","osm_id":"1489707966"}},{"type":"Feature","geometry":{"type":"LineString","coordinates":[[1.12588,52.76118],[1.12754,52.76066]]},"properties":{"name":"Power lines","category":"minor_line","osm_type":"way","osm_id":"1489707967"}},{"type":"Feature","geometry":{"type":"LineString","coordinates":[[1.12563,52.76048],[1.12588,52.76118],[1.12499,52.76185],[1.12244,52.76186]]},"properties":{"name":"Power lines","category":"minor_line","osm_type":"way","osm_id":"1489707968"}},{"type":"Feature","geometry":{"type":"LineString","coordinates":[[1.12499,52.76185],[1.12504,52.76157]]},"properties":{"name":"Power lines","category":"minor_line","osm_type":"way","osm_id":"1489707969"}},{"type":"Feature","geometry":{"type":"LineString","coordinates":[[1.1247,52.76153],[1.12499,52.76185]]},"properties":{"name":"Power lines","category":"minor_line","osm_type":"way","osm_id":"1489707970"}},{"type":"Feature","geometry":{"type":"LineString","coordinates":[[1.12348,52.76173],[1.12354,52.76177]]},"properties":{"name":"Power lines","category":"minor_line","osm_type":"way","osm_id":"1489707971"}},{"type":"Feature","geometry":{"type":"LineString","coordinates":[[1.12099,52.76242],[1.11995,52.76272]]},"properties":{"name":"Power lines","category":"minor_line","osm_type":"way","osm_id":"1489708400"}},{"type":"Feature","geometry":{"type":"LineString","coordinates":[[1.12541,52.76554],[1.12352,52.76519]]},"properties":{"name":"Power lines","category":"minor_line","osm_type":"way","osm_id":"1489712788"}},{"type":"Feature","geometry":{"type":"LineString","coordinates":[[1.12322,52.76566],[1.12302,52.76524]]},"properties":{"name":"Power lines","category":"minor_line","osm_type":"way","osm_id":"1489712789"}},{"type":"Feature","geometry":{"type":"LineString","coordinates":[[1.19257,52.7466],[1.19201,52.74634]]},"properties":{"name":"Power lines","category":"minor_line","osm_type":"way","osm_id":"1490167114"}},{"type":"Feature","geometry":{"type":"LineString","coordinates":[[1.19343,52.74676],[1.19257,52.7466]]},"properties":{"name":"Power lines","category":"minor_line","osm_type":"way","osm_id":"1490167115"}},{"type":"Feature","geometry":{"type":"LineString","coordinates":[[1.20762,52.74567],[1.19799,52.74443],[1.19673,52.74629],[1.19444,52.7461],[1.18929,52.74923],[1.1848,52.75073]]},"properties":{"name":"Power lines","category":"minor_line","osm_type":"way","osm_id":"1490167116"}},{"type":"Feature","geometry":{"type":"LineString","coordinates":[[1.19325,52.75676],[1.19362,52.75642]]},"properties":{"name":"Power lines","category":"minor_line","osm_type":"way","osm_id":"1490167135"}},{"type":"Feature","geometry":{"type":"LineString","coordinates":[[1.16024,52.74946],[1.16004,52.74942]]},"properties":{"name":"Power lines","category":"minor_line","osm_type":"way","osm_id":"1490169049"}},{"type":"Feature","geometry":{"type":"LineString","coordinates":[[1.16115,52.75065],[1.16024,52.74946],[1.16077,52.74862]]},"properties":{"name":"Power lines","category":"minor_line","osm_type":"way","osm_id":"1490169050"}},{"type":"Feature","geometry":{"type":"LineString","coordinates":[[1.14679,52.75222],[1.14929,52.75289]]},"properties":{"name":"Power lines","category":"minor_line","osm_type":"way","osm_id":"1490186452"}},{"type":"Feature","geometry":{"type":"LineString","coordinates":[[1.14115,52.75778],[1.15061,52.75713],[1.15105,52.75777]]},"properties":{"name":"Power lines","category":"minor_line","osm_type":"way","osm_id":"1490191700"}},{"type":"Feature","geometry":{"type":"LineString","coordinates":[[1.14971,52.75525],[1.15013,52.75718]]},"properties":{"name":"Power lines","category":"minor_line","osm_type":"way","osm_id":"1490191702"}},{"type":"Feature","geometry":{"type":"LineString","coordinates":[[1.16049,52.76923],[1.16027,52.76925]]},"properties":{"name":"Power lines","category":"minor_line","osm_type":"way","osm_id":"1490195355"}},{"type":"Feature","geometry":{"type":"LineString","coordinates":[[1.1594,52.76885],[1.15977,52.76884]]},"properties":{"name":"Power lines","category":"minor_line","osm_type":"way","osm_id":"1490195356"}},{"type":"Feature","geometry":{"type":"LineString","coordinates":[[1.15842,52.76886],[1.15926,52.76869],[1.16092,52.7694]]},"properties":{"name":"Power lines","category":"minor_line","osm_type":"way","osm_id":"1490195357"}},{"type":"Feature","geometry":{"type":"LineString","coordinates":[[1.24852,52.78321],[1.2465,52.78279]]},"properties":{"name":"Power lines","category":"minor_line","osm_type":"way","osm_id":"1490274556"}},{"type":"Feature","geometry":{"type":"LineString","coordinates":[[1.24808,52.78304],[1.24828,52.78335]]},"properties":{"name":"Power lines","category":"minor_line","osm_type":"way","osm_id":"1490274557"}},{"type":"Feature","geometry":{"type":"LineString","coordinates":[[1.24606,52.78277],[1.24693,52.7827]]},"properties":{"name":"Power lines","category":"minor_line","osm_type":"way","osm_id":"1490274558"}},{"type":"Feature","geometry":{"type":"LineString","coordinates":[[1.23912,52.78071],[1.23797,52.7806]]},"properties":{"name":"Power lines","category":"minor_line","osm_type":"way","osm_id":"1490274559"}},{"type":"Feature","geometry":{"type":"LineString","coordinates":[[1.23726,52.78309],[1.23423,52.78194]]},"properties":{"name":"Power lines","category":"minor_line","osm_type":"way","osm_id":"1490274560"}},{"type":"Feature","geometry":{"type":"LineString","coordinates":[[1.24218,52.85804],[1.24188,52.85825]]},"properties":{"name":"Power lines","category":"minor_line","osm_type":"way","osm_id":"1490526060"}},{"type":"Feature","geometry":{"type":"LineString","coordinates":[[1.24122,52.85747],[1.24218,52.85852]]},"properties":{"name":"Power lines","category":"minor_line","osm_type":"way","osm_id":"1490526061"}},{"type":"Feature","geometry":{"type":"LineString","coordinates":[[1.2421,52.85966],[1.24135,52.85963]]},"properties":{"name":"Power lines","category":"minor_line","osm_type":"way","osm_id":"1490526062"}},{"type":"Feature","geometry":{"type":"LineString","coordinates":[[1.24488,52.85884],[1.24516,52.85886]]},"properties":{"name":"Power lines","category":"minor_line","osm_type":"way","osm_id":"1490526063"}},{"type":"Feature","geometry":{"type":"LineString","coordinates":[[1.24195,52.86008],[1.24218,52.85852],[1.24463,52.85835],[1.24486,52.85914]]},"properties":{"name":"Power lines","category":"minor_line","osm_type":"way","osm_id":"1490526064"}},{"type":"Feature","geometry":{"type":"LineString","coordinates":[[1.24857,52.85752],[1.24823,52.85771]]},"properties":{"name":"Power lines","category":"minor_line","osm_type":"way","osm_id":"1490526863"}},{"type":"Feature","geometry":{"type":"LineString","coordinates":[[1.25688,52.86162],[1.25691,52.8623]]},"properties":{"name":"Power lines","category":"minor_line","osm_type":"way","osm_id":"1494976191"}},{"type":"Feature","geometry":{"type":"LineString","coordinates":[[1.25369,52.86134],[1.25527,52.86087],[1.25812,52.86087]]},"properties":{"name":"Power lines","category":"minor_line","osm_type":"way","osm_id":"1494976192"}},{"type":"Feature","geometry":{"type":"LineString","coordinates":[[1.25782,52.86],[1.25701,52.86014]]},"properties":{"name":"Power lines","category":"minor_line","osm_type":"way","osm_id":"1494976193"}},{"type":"Feature","geometry":{"type":"LineString","coordinates":[[1.44942,52.79538],[1.44936,52.79528]]},"properties":{"name":"Power lines","category":"minor_line","osm_type":"way","osm_id":"1494999505"}},{"type":"Feature","geometry":{"type":"LineString","coordinates":[[1.44893,52.7961],[1.44908,52.7962]]},"properties":{"name":"Power lines","category":"minor_line","osm_type":"way","osm_id":"1494999506"}},{"type":"Feature","geometry":{"type":"LineString","coordinates":[[1.48582,52.7898],[1.48523,52.79122]]},"properties":{"name":"Power lines","category":"minor_line","osm_type":"way","osm_id":"1495154293"}},{"type":"Feature","geometry":{"type":"LineString","coordinates":[[1.47915,52.79084],[1.47842,52.79133]]},"properties":{"name":"Power lines","category":"minor_line","osm_type":"way","osm_id":"1495154294"}},{"type":"Feature","geometry":{"type":"LineString","coordinates":[[1.47852,52.79109],[1.47813,52.79169]]},"properties":{"name":"Power lines","category":"minor_line","osm_type":"way","osm_id":"1495154295"}},{"type":"Feature","geometry":{"type":"LineString","coordinates":[[1.48129,52.79218],[1.47833,52.79164]]},"properties":{"name":"Power lines","category":"minor_line","osm_type":"way","osm_id":"1495154296"}},{"type":"Feature","geometry":{"type":"LineString","coordinates":[[1.47669,52.7919],[1.47833,52.79164]]},"properties":{"name":"Power lines","category":"minor_line","osm_type":"way","osm_id":"1495154297"}},{"type":"Feature","geometry":{"type":"LineString","coordinates":[[1.54689,52.813],[1.54677,52.81284]]},"properties":{"name":"Power lines","category":"minor_line","osm_type":"way","osm_id":"1495430491"}},{"type":"Feature","geometry":{"type":"LineString","coordinates":[[1.55266,52.81472],[1.54862,52.81287],[1.54677,52.81284]]},"properties":{"name":"Power lines","category":"minor_line","osm_type":"way","osm_id":"1495430492"}},{"type":"Feature","geometry":{"type":"LineString","coordinates":[[1.55539,52.81343],[1.55107,52.81547]]},"properties":{"name":"Power lines","category":"minor_line","osm_type":"way","osm_id":"1495430493"}},{"type":"Feature","geometry":{"type":"LineString","coordinates":[[1.50632,52.82415],[1.50694,52.82344],[1.50915,52.82327]]},"properties":{"name":"Power lines","category":"minor_line","osm_type":"way","osm_id":"1495435891"}},{"type":"Feature","geometry":{"type":"LineString","coordinates":[[1.50599,52.82354],[1.50676,52.82372]]},"properties":{"name":"Power lines","category":"minor_line","osm_type":"way","osm_id":"1495435892"}},{"type":"Feature","geometry":{"type":"LineString","coordinates":[[1.50783,52.82067],[1.50786,52.82099]]},"properties":{"name":"Power lines","category":"minor_line","osm_type":"way","osm_id":"1495435893"}},{"type":"Feature","geometry":{"type":"LineString","coordinates":[[1.50984,52.82105],[1.50786,52.82099],[1.50694,52.8215],[1.50478,52.82156]]},"properties":{"name":"Power lines","category":"minor_line","osm_type":"way","osm_id":"1495435894"}},{"type":"Feature","geometry":{"type":"LineString","coordinates":[[1.4821,52.8245],[1.48199,52.82491]]},"properties":{"name":"Power lines","category":"minor_line","osm_type":"way","osm_id":"1495460270"}},{"type":"Feature","geometry":{"type":"LineString","coordinates":[[1.48458,52.82516],[1.47852,52.82471]]},"properties":{"name":"Power lines","category":"minor_line","osm_type":"way","osm_id":"1495460271"}},{"type":"Feature","geometry":{"type":"LineString","coordinates":[[1.48726,52.83702],[1.48817,52.83499]]},"properties":{"name":"Power lines","category":"minor_line","osm_type":"way","osm_id":"1495461757"}},{"type":"Feature","geometry":{"type":"LineString","coordinates":[[1.48987,52.83823],[1.48859,52.83838]]},"properties":{"name":"Power lines","category":"minor_line","osm_type":"way","osm_id":"1495461758"}},{"type":"Feature","geometry":{"type":"LineString","coordinates":[[1.48871,52.83829],[1.48976,52.83929]]},"properties":{"name":"Power lines","category":"minor_line","osm_type":"way","osm_id":"1495461759"}},{"type":"Feature","geometry":{"type":"LineString","coordinates":[[1.50249,52.83709],[1.50245,52.83726]]},"properties":{"name":"Power lines","category":"minor_line","osm_type":"way","osm_id":"1495466880"}},{"type":"Feature","geometry":{"type":"LineString","coordinates":[[1.37352,52.83179],[1.37468,52.83365]]},"properties":{"name":"Power lines","category":"minor_line","osm_type":"way","osm_id":"1495609577"}},{"type":"Feature","geometry":{"type":"LineString","coordinates":[[1.37647,52.83381],[1.37468,52.83365]]},"properties":{"name":"Power lines","category":"minor_line","osm_type":"way","osm_id":"1495609578"}},{"type":"Feature","geometry":{"type":"LineString","coordinates":[[1.37094,52.83488],[1.37378,52.83414]]},"properties":{"name":"Power lines","category":"minor_line","osm_type":"way","osm_id":"1495609580"}},{"type":"Feature","geometry":{"type":"LineString","coordinates":[[1.37468,52.83365],[1.37378,52.83414]]},"properties":{"name":"Power lines","category":"minor_line","osm_type":"way","osm_id":"1495609581"}},{"type":"Feature","geometry":{"type":"LineString","coordinates":[[1.36994,52.87611],[1.37312,52.87996]]},"properties":{"name":"Power lines","category":"minor_line","osm_type":"way","osm_id":"1497371272"}},{"type":"Feature","geometry":{"type":"LineString","coordinates":[[1.42445,52.87188],[1.4244,52.87147]]},"properties":{"name":"Power lines","category":"minor_line","osm_type":"way","osm_id":"1497372526"}},{"type":"Feature","geometry":{"type":"LineString","coordinates":[[1.42673,52.87144],[1.42266,52.87215],[1.42038,52.87181]]},"properties":{"name":"Power lines","category":"minor_line","osm_type":"way","osm_id":"1497372527"}},{"type":"Feature","geometry":{"type":"LineString","coordinates":[[1.41534,52.87158],[1.41779,52.87181]]},"properties":{"name":"Power lines","category":"minor_line","osm_type":"way","osm_id":"1497372788"}},{"type":"Feature","geometry":{"type":"LineString","coordinates":[[1.39867,52.88362],[1.39888,52.88423]]},"properties":{"name":"Power lines","category":"minor_line","osm_type":"way","osm_id":"1497391219"}},{"type":"Feature","geometry":{"type":"LineString","coordinates":[[1.39941,52.88317],[1.39883,52.88322]]},"properties":{"name":"Power lines","category":"minor_line","osm_type":"way","osm_id":"1497391220"}},{"type":"Feature","geometry":{"type":"LineString","coordinates":[[1.39917,52.88238],[1.3985,52.8824]]},"properties":{"name":"Power lines","category":"minor_line","osm_type":"way","osm_id":"1497391221"}},{"type":"Feature","geometry":{"type":"LineString","coordinates":[[1.24131,52.89514],[1.23947,52.89514]]},"properties":{"name":"Power lines","category":"minor_line","osm_type":"way","osm_id":"1497394455"}},{"type":"Feature","geometry":{"type":"LineString","coordinates":[[1.24123,52.89421],[1.24076,52.89434],[1.24192,52.89589]]},"properties":{"name":"Power lines","category":"minor_line","osm_type":"way","osm_id":"1497394456"}},{"type":"Feature","geometry":{"type":"LineString","coordinates":[[1.25096,52.89697],[1.24601,52.89564],[1.24162,52.89552]]},"properties":{"name":"Power lines","category":"minor_line","osm_type":"way","osm_id":"1497394457"}},{"type":"Feature","geometry":{"type":"LineString","coordinates":[[1.42784,52.8772],[1.42819,52.87757]]},"properties":{"name":"Power lines","category":"minor_line","osm_type":"way","osm_id":"1497642517"}},{"type":"Feature","geometry":{"type":"LineString","coordinates":[[1.42751,52.87706],[1.42741,52.87747]]},"properties":{"name":"Power lines","category":"minor_line","osm_type":"way","osm_id":"1497642518"}},{"type":"Feature","geometry":{"type":"LineString","coordinates":[[1.42588,52.87757],[1.42584,52.87718]]},"properties":{"name":"Power lines","category":"minor_line","osm_type":"way","osm_id":"1497642519"}},{"type":"Feature","geometry":{"type":"LineString","coordinates":[[1.42231,52.87639],[1.42417,52.87713],[1.42819,52.87757],[1.42883,52.87749],[1.42872,52.87707]]},"properties":{"name":"Power lines","category":"minor_line","osm_type":"way","osm_id":"1497642520"}},{"type":"Feature","geometry":{"type":"LineString","coordinates":[[1.40217,52.8613],[1.4014,52.86173]]},"properties":{"name":"Power lines","category":"minor_line","osm_type":"way","osm_id":"1497655345"}},{"type":"Feature","geometry":{"type":"LineString","coordinates":[[1.40124,52.86142],[1.40157,52.86276]]},"properties":{"name":"Power lines","category":"minor_line","osm_type":"way","osm_id":"1497655346"}},{"type":"Feature","geometry":{"type":"LineString","coordinates":[[1.39902,52.86255],[1.39916,52.86262]]},"properties":{"name":"Power lines","category":"minor_line","osm_type":"way","osm_id":"1497655347"}},{"type":"Feature","geometry":{"type":"LineString","coordinates":[[1.40357,52.86279],[1.39867,52.86253]]},"properties":{"name":"Power lines","category":"minor_line","osm_type":"way","osm_id":"1497655348"}},{"type":"Feature","geometry":{"type":"LineString","coordinates":[[1.40017,52.86085],[1.4001,52.86113]]},"properties":{"name":"Power lines","category":"minor_line","osm_type":"way","osm_id":"1497682522"}},{"type":"Feature","geometry":{"type":"LineString","coordinates":[[1.4001,52.86113],[1.39985,52.86096]]},"properties":{"name":"Power lines","category":"minor_line","osm_type":"way","osm_id":"1497682523"}},{"type":"Feature","geometry":{"type":"LineString","coordinates":[[1.39921,52.86148],[1.40102,52.86081]]},"properties":{"name":"Power lines","category":"minor_line","osm_type":"way","osm_id":"1497682524"}},{"type":"Feature","geometry":{"type":"LineString","coordinates":[[1.39975,52.86126],[1.39949,52.86115]]},"properties":{"name":"Power lines","category":"minor_line","osm_type":"way","osm_id":"1497682525"}},{"type":"Feature","geometry":{"type":"LineString","coordinates":[[1.39418,52.86198],[1.39542,52.8621]]},"properties":{"name":"Power lines","category":"minor_line","osm_type":"way","osm_id":"1497699300"}},{"type":"Feature","geometry":{"type":"LineString","coordinates":[[1.3954,52.86232],[1.39542,52.8621]]},"properties":{"name":"Power lines","category":"minor_line","osm_type":"way","osm_id":"1497699301"}},{"type":"Feature","geometry":{"type":"LineString","coordinates":[[1.3956,52.8626],[1.39525,52.8617]]},"properties":{"name":"Power lines","category":"minor_line","osm_type":"way","osm_id":"1497699302"}},{"type":"Feature","geometry":{"type":"LineString","coordinates":[[1.22775,52.62875],[1.22754,52.62884]]},"properties":{"name":"PS","category":"line","osm_type":"way","osm_id":"1497706884","operator":"UK Power Networks","ref":"PS"}},{"type":"Feature","geometry":{"type":"LineString","coordinates":[[1.38938,52.86107],[1.38875,52.86267]]},"properties":{"name":"Power lines","category":"minor_line","osm_type":"way","osm_id":"1497708272"}},{"type":"Feature","geometry":{"type":"LineString","coordinates":[[1.38859,52.86289],[1.38875,52.86267]]},"properties":{"name":"Power lines","category":"minor_line","osm_type":"way","osm_id":"1497708273"}},{"type":"Feature","geometry":{"type":"LineString","coordinates":[[1.39063,52.8623],[1.38994,52.86312]]},"properties":{"name":"Power lines","category":"minor_line","osm_type":"way","osm_id":"1497708274"}},{"type":"Feature","geometry":{"type":"LineString","coordinates":[[1.38707,52.86331],[1.38748,52.86291],[1.38859,52.86289],[1.39229,52.86371]]},"properties":{"name":"Power lines","category":"minor_line","osm_type":"way","osm_id":"1497708275"}},{"type":"Feature","geometry":{"type":"LineString","coordinates":[[1.35918,52.86782],[1.35834,52.86704]]},"properties":{"name":"Power lines","category":"minor_line","osm_type":"way","osm_id":"1497882922"}},{"type":"Feature","geometry":{"type":"LineString","coordinates":[[1.35895,52.86731],[1.35867,52.86718]]},"properties":{"name":"Power lines","category":"minor_line","osm_type":"way","osm_id":"1497882923"}},{"type":"Feature","geometry":{"type":"LineString","coordinates":[[1.36019,52.86654],[1.36012,52.86641]]},"properties":{"name":"Power lines","category":"minor_line","osm_type":"way","osm_id":"1497882924"}},{"type":"Feature","geometry":{"type":"LineString","coordinates":[[1.35957,52.86686],[1.36035,52.86558]]},"properties":{"name":"Power lines","category":"minor_line","osm_type":"way","osm_id":"1497882925"}},{"type":"Feature","geometry":{"type":"LineString","coordinates":[[1.35961,52.86669],[1.35957,52.86686]]},"properties":{"name":"Power lines","category":"minor_line","osm_type":"way","osm_id":"1497882926"}},{"type":"Feature","geometry":{"type":"LineString","coordinates":[[1.35384,52.88076],[1.35213,52.88105]]},"properties":{"name":"Power lines","category":"minor_line","osm_type":"way","osm_id":"1497890955"}},{"type":"Feature","geometry":{"type":"LineString","coordinates":[[1.35219,52.87886],[1.35126,52.8774],[1.35199,52.87726]]},"properties":{"name":"Power lines","category":"minor_line","osm_type":"way","osm_id":"1497890956"}},{"type":"Feature","geometry":{"type":"LineString","coordinates":[[1.35271,52.88089],[1.35161,52.87937],[1.3523,52.87859]]},"properties":{"name":"Power lines","category":"minor_line","osm_type":"way","osm_id":"1497890957"}},{"type":"Feature","geometry":{"type":"LineString","coordinates":[[1.35576,52.87836],[1.35468,52.8769]]},"properties":{"name":"Power lines","category":"minor_line","osm_type":"way","osm_id":"1497890958"}},{"type":"Feature","geometry":{"type":"LineString","coordinates":[[1.34852,52.87779],[1.3485,52.87738]]},"properties":{"name":"Power lines","category":"minor_line","osm_type":"way","osm_id":"1497892069"}},{"type":"Feature","geometry":{"type":"LineString","coordinates":[[1.33655,52.90363],[1.33662,52.90205]]},"properties":{"name":"Power lines","category":"minor_line","osm_type":"way","osm_id":"1497950140"}},{"type":"Feature","geometry":{"type":"LineString","coordinates":[[1.33724,52.9048],[1.33641,52.90467]]},"properties":{"name":"Power lines","category":"minor_line","osm_type":"way","osm_id":"1497950142"}},{"type":"Feature","geometry":{"type":"LineString","coordinates":[[1.33572,52.90408],[1.33721,52.904],[1.33728,52.90662]]},"properties":{"name":"Power lines","category":"minor_line","osm_type":"way","osm_id":"1497950143"}},{"type":"Feature","geometry":{"type":"LineString","coordinates":[[1.28929,52.90808],[1.29055,52.90506],[1.29054,52.90247],[1.29118,52.90171]]},"properties":{"name":"Power lines","category":"minor_line","osm_type":"way","osm_id":"1498153273"}},{"type":"Feature","geometry":{"type":"LineString","coordinates":[[1.29433,52.90843],[1.29209,52.909]]},"properties":{"name":"Power lines","category":"minor_line","osm_type":"way","osm_id":"1498153274"}},{"type":"Feature","geometry":{"type":"LineString","coordinates":[[1.28974,52.907],[1.2922,52.90687]]},"properties":{"name":"Power lines","category":"minor_line","osm_type":"way","osm_id":"1498153275"}},{"type":"Feature","geometry":{"type":"LineString","coordinates":[[1.29122,52.90167],[1.29118,52.90171]]},"properties":{"name":"Power lines","category":"minor_line","osm_type":"way","osm_id":"1498153276"}},{"type":"Feature","geometry":{"type":"LineString","coordinates":[[1.33953,52.91927],[1.33999,52.91757],[1.3411,52.9175],[1.34099,52.91668]]},"properties":{"name":"Power lines","category":"minor_line","osm_type":"way","osm_id":"1498220458"}},{"type":"Feature","geometry":{"type":"LineString","coordinates":[[1.34003,52.91937],[1.33902,52.91921]]},"properties":{"name":"Power lines","category":"minor_line","osm_type":"way","osm_id":"1498220459"}},{"type":"Feature","geometry":{"type":"LineString","coordinates":[[1.3387,52.91932],[1.33902,52.91921]]},"properties":{"name":"Power lines","category":"minor_line","osm_type":"way","osm_id":"1498220461"}},{"type":"Feature","geometry":{"type":"LineString","coordinates":[[1.33914,52.91938],[1.33902,52.91921]]},"properties":{"name":"Power lines","category":"minor_line","osm_type":"way","osm_id":"1498220462"}},{"type":"Feature","geometry":{"type":"LineString","coordinates":[[1.33907,52.91916],[1.33902,52.91921]]},"properties":{"name":"Power lines","category":"minor_line","osm_type":"way","osm_id":"1498220463"}},{"type":"Feature","geometry":{"type":"LineString","coordinates":[[1.21321,52.9121],[1.21342,52.91229]]},"properties":{"name":"Power lines","category":"minor_line","osm_type":"way","osm_id":"1499002026"}},{"type":"Feature","geometry":{"type":"LineString","coordinates":[[1.21326,52.91253],[1.21298,52.91242]]},"properties":{"name":"Power lines","category":"minor_line","osm_type":"way","osm_id":"1499002027"}},{"type":"Feature","geometry":{"type":"LineString","coordinates":[[1.23709,52.929],[1.23585,52.93062],[1.23436,52.9312],[1.23305,52.93114]]},"properties":{"name":"Power lines","category":"minor_line","osm_type":"way","osm_id":"1499021512"}},{"type":"Feature","geometry":{"type":"LineString","coordinates":[[1.20629,52.92385],[1.20424,52.92236]]},"properties":{"name":"Power lines","category":"minor_line","osm_type":"way","osm_id":"1499025050"}},{"type":"Feature","geometry":{"type":"LineString","coordinates":[[1.18749,52.93228],[1.18781,52.93242]]},"properties":{"name":"Power lines","category":"minor_line","osm_type":"way","osm_id":"1499061188"}},{"type":"Feature","geometry":{"type":"LineString","coordinates":[[1.18919,52.93199],[1.18749,52.93253]]},"properties":{"name":"Power lines","category":"minor_line","osm_type":"way","osm_id":"1499061189"}},{"type":"Feature","geometry":{"type":"LineString","coordinates":[[1.18846,52.93041],[1.18853,52.93212]]},"properties":{"name":"Power lines","category":"minor_line","osm_type":"way","osm_id":"1499061190"}},{"type":"Feature","geometry":{"type":"LineString","coordinates":[[1.18839,52.93215],[1.18853,52.93212]]},"properties":{"name":"Power lines","category":"minor_line","osm_type":"way","osm_id":"1499061191"}},{"type":"Feature","geometry":{"type":"LineString","coordinates":[[1.20389,52.61216],[1.20393,52.61351]]},"properties":{"name":"Power lines","category":"minor_line","osm_type":"way","osm_id":"1509820500"}},{"type":"Feature","geometry":{"type":"LineString","coordinates":[[1.10824,52.59447],[1.10493,52.59485],[1.09482,52.59398]]},"properties":{"name":"Power lines","category":"minor_line","osm_type":"way","osm_id":"1510217554"}},{"type":"Feature","geometry":{"type":"LineString","coordinates":[[1.12166,52.59222],[1.11805,52.59133],[1.1148,52.59269],[1.10862,52.59351],[1.1076,52.59588],[1.10384,52.60011],[1.1032,52.60218]]},"properties":{"name":"Power lines","category":"minor_line","osm_type":"way","osm_id":"1510217555"}},{"type":"Feature","geometry":{"type":"LineString","coordinates":[[1.12843,52.58748],[1.12429,52.58876],[1.12166,52.59222],[1.12149,52.59386]]},"properties":{"name":"Power lines","category":"minor_line","osm_type":"way","osm_id":"1510217556"}},{"type":"Feature","geometry":{"type":"LineString","coordinates":[[1.12825,52.5998],[1.12554,52.59872]]},"properties":{"name":"Power lines","category":"minor_line","osm_type":"way","osm_id":"1510217557"}},{"type":"Feature","geometry":{"type":"LineString","coordinates":[[1.13043,52.59456],[1.12655,52.6038],[1.11875,52.60947],[1.11597,52.61314]]},"properties":{"name":"Power lines","category":"minor_line","osm_type":"way","osm_id":"1510217558"}},{"type":"Feature","geometry":{"type":"LineString","coordinates":[[1.13768,52.59757],[1.13504,52.59534],[1.13043,52.59456]]},"properties":{"name":"Power lines","category":"minor_line","osm_type":"way","osm_id":"1510217559"}},{"type":"Feature","geometry":{"type":"LineString","coordinates":[[1.12654,52.58207],[1.12986,52.59028],[1.13043,52.59456]]},"properties":{"name":"Power lines","category":"minor_line","osm_type":"way","osm_id":"1510217561"}},{"type":"Feature","geometry":{"type":"LineString","coordinates":[[1.12655,52.6038],[1.13199,52.60552],[1.1388,52.61044],[1.1393,52.61163]]},"properties":{"name":"Power lines","category":"minor_line","osm_type":"way","osm_id":"1510482394"}},{"type":"Feature","geometry":{"type":"LineString","coordinates":[[1.11501,52.61262],[1.11645,52.61347]]},"properties":{"name":"Power lines","category":"minor_line","osm_type":"way","osm_id":"1510482395"}},{"type":"Feature","geometry":{"type":"LineString","coordinates":[[1.05104,52.59088],[1.05081,52.59074]]},"properties":{"name":"Power lines","category":"minor_line","osm_type":"way","osm_id":"1525458825"}},{"type":"Feature","geometry":{"type":"LineString","coordinates":[[1.17645,52.912],[1.17656,52.91196]]},"properties":{"name":"Power lines","category":"minor_line","osm_type":"way","osm_id":"1526798269"}},{"type":"Feature","geometry":{"type":"LineString","coordinates":[[1.42455,52.60877],[1.42733,52.60952]]},"properties":{"name":"Power lines","category":"minor_line","osm_type":"way","osm_id":"1530628113"}},{"type":"Feature","geometry":{"type":"LineString","coordinates":[[1.42494,52.60945],[1.42755,52.60971]]},"properties":{"name":"Power lines","category":"minor_line","osm_type":"way","osm_id":"1530628114"}},{"type":"Feature","geometry":{"type":"LineString","coordinates":[[1.42755,52.60971],[1.42869,52.61052],[1.4322,52.61122]]},"properties":{"name":"Power lines","category":"minor_line","osm_type":"way","osm_id":"1530628121"}},{"type":"Feature","geometry":{"type":"LineString","coordinates":[[1.43272,52.61129],[1.43232,52.61167]]},"properties":{"name":"Power lines","category":"minor_line","osm_type":"way","osm_id":"1530628134"}},{"type":"Feature","geometry":{"type":"LineString","coordinates":[[1.43232,52.61167],[1.43184,52.61212]]},"properties":{"name":"Power lines","category":"minor_line","osm_type":"way","osm_id":"1530628135"}},{"type":"Feature","geometry":{"type":"LineString","coordinates":[[1.43242,52.61132],[1.43305,52.61117]]},"properties":{"name":"Power lines","category":"minor_line","osm_type":"way","osm_id":"1530628137"}},{"type":"Feature","geometry":{"type":"LineString","coordinates":[[1.41726,52.61152],[1.41229,52.60983]]},"properties":{"name":"Power lines","category":"minor_line","osm_type":"way","osm_id":"1530628156"}},{"type":"Feature","geometry":{"type":"LineString","coordinates":[[1.40327,52.60492],[1.40577,52.6046]]},"properties":{"name":"Power lines","category":"minor_line","osm_type":"way","osm_id":"1530628222"}},{"type":"Feature","geometry":{"type":"LineString","coordinates":[[1.40577,52.6046],[1.40903,52.60468],[1.40938,52.60305]]},"properties":{"name":"Power lines","category":"minor_line","osm_type":"way","osm_id":"1530628224"}},{"type":"Feature","geometry":{"type":"LineString","coordinates":[[1.39982,52.59118],[1.4065,52.60596],[1.40862,52.6072]]},"properties":{"name":"Power lines","category":"minor_line","osm_type":"way","osm_id":"1530628230"}},{"type":"Feature","geometry":{"type":"LineString","coordinates":[[1.39632,52.58848],[1.39586,52.59143]]},"properties":{"name":"Power lines","category":"minor_line","osm_type":"way","osm_id":"1530628231"}},{"type":"Feature","geometry":{"type":"LineString","coordinates":[[1.13867,52.51878],[1.1386,52.5178]]},"properties":{"name":"Power lines","category":"line","osm_type":"way","osm_id":"1533229261"}},{"type":"Feature","geometry":{"type":"LineString","coordinates":[[1.34962,52.80343],[1.34812,52.8036],[1.34465,52.80201],[1.3427,52.79948],[1.34223,52.79759]]},"properties":{"name":"Power lines","category":"minor_line","osm_type":"way","osm_id":"1535809184"}},{"type":"Feature","geometry":{"type":"LineString","coordinates":[[1.35453,52.7961],[1.35088,52.79828],[1.34211,52.79817]]},"properties":{"name":"Power lines","category":"minor_line","osm_type":"way","osm_id":"1535809185"}},{"type":"Feature","geometry":{"type":"LineString","coordinates":[[1.45103,52.579],[1.44859,52.58009]]},"properties":{"name":"Power lines","category":"minor_line","osm_type":"way","osm_id":"1548808314"}},{"type":"Feature","geometry":{"type":"LineString","coordinates":[[1.02063,52.74329],[1.02346,52.74273]]},"properties":{"name":"Power lines","category":"minor_line","osm_type":"way","osm_id":"1553815032"}}]}