{"type":"FeatureCollection","features":[{"type":"Feature","geometry":{"type":"LineString","coordinates":[[1.01775,51.91691],[1.02854,51.95863],[1.02664,51.96788],[1.04194,51.98245],[1.06076,52.00358],[1.05911,52.01773],[1.08994,52.05054]]},"properties":{"name":"Bramford-Lawford","category":"line","osm_type":"way","osm_id":"25643348","operator":"UK Power Networks","ref":"PJ"}},{"type":"Feature","geometry":{"type":"MultiLineString","coordinates":[[[1.04952,51.94933],[1.04995,51.95016],[1.05498,51.95153]],[[1.05695,51.95208],[1.05964,51.95283]],[[1.06161,51.95336],[1.07098,51.95633],[1.08098,51.96394],[1.08657,51.97631],[1.08504,51.98221],[1.0918,51.99947],[1.09313,52.00528],[1.09672,52.00935],[1.11072,52.01962],[1.12325,52.03002],[1.13077,52.02847],[1.14946,52.02794],[1.15196,52.02814]]]},"properties":{"name":"Cliff Quay-Lawford","category":"line","osm_type":"way","osm_id":"28308118","operator":"UK Power Networks","ref":"PEC"}},{"type":"Feature","geometry":{"type":"LineString","coordinates":[[1.11666,51.93249],[1.10137,51.93301],[1.09518,51.93529]]},"properties":{"name":"Power lines","category":"minor_line","osm_type":"way","osm_id":"35795036"}},{"type":"Feature","geometry":{"type":"LineString","coordinates":[[1.24187,51.84394],[1.2341,51.84528]]},"properties":{"name":"Power lines","category":"minor_line","osm_type":"way","osm_id":"35946836"}},{"type":"Feature","geometry":{"type":"LineString","coordinates":[[0.93839,51.87638],[0.94699,51.86937],[0.97181,51.87077],[1.01921,51.85185],[1.0457,51.84289],[1.0652,51.8437],[1.07446,51.83877],[1.09928,51.82033],[1.12038,51.81098],[1.13483,51.81118]]},"properties":{"name":"Colchester-Chisbon Heath","category":"line","osm_type":"way","osm_id":"39274676","operator":"UK Power Networks","ref":"PZA"}},{"type":"Feature","geometry":{"type":"LineString","coordinates":[[1.13268,51.83781],[1.1446,51.84278],[1.16219,51.84586]]},"properties":{"name":"Power lines","category":"minor_line","osm_type":"way","osm_id":"40842608"}},{"type":"Feature","geometry":{"type":"LineString","coordinates":[[1.133,51.83808],[1.13369,51.83979],[1.13304,51.84076],[1.1253,51.84591],[1.12471,51.84939],[1.12068,51.85618]]},"properties":{"name":"Power lines","category":"minor_line","osm_type":"way","osm_id":"49788910"}},{"type":"Feature","geometry":{"type":"LineString","coordinates":[[1.01956,51.91635],[1.0227,51.91107],[1.03674,51.90463],[1.07872,51.90318],[1.09213,51.89151],[1.09894,51.8768],[1.12765,51.86397],[1.13391,51.857],[1.15688,51.84922],[1.15942,51.84735],[1.16346,51.84656],[1.17073,51.84014],[1.17924,51.82638]]},"properties":{"name":"Lawford-Clacton","category":"line","osm_type":"way","osm_id":"60450890","operator":"UK Power Networks","ref":"PYA"}},{"type":"Feature","geometry":{"type":"LineString","coordinates":[[1.16649,51.80551],[1.18577,51.80999],[1.19629,51.81319],[1.19312,51.81813],[1.18817,51.82115],[1.18437,51.82508]]},"properties":{"name":"Clacton-Valleybridge Road","category":"minor_line","osm_type":"way","osm_id":"60450892","ref":"J36"}},{"type":"Feature","geometry":{"type":"LineString","coordinates":[[1.17895,51.82598],[1.17924,51.82638]]},"properties":{"name":"Lawford-Clacton","category":"line","osm_type":"way","osm_id":"60450893","operator":"UK Power Networks","ref":"PYA"}},{"type":"Feature","geometry":{"type":"LineString","coordinates":[[1.0393,51.91377],[1.0408,51.91321],[1.05606,51.91731],[1.13303,51.91604],[1.14269,51.91853]]},"properties":{"name":"Lawford-Wix","category":"minor_line","osm_type":"way","osm_id":"60495970","operator":"UK Power Networks","ref":"J35"}},{"type":"Feature","geometry":{"type":"LineString","coordinates":[[1.14269,51.91853],[1.14462,51.91889]]},"properties":{"name":"Lawford-Wix","category":"minor_line","osm_type":"way","osm_id":"60495971","operator":"UK Power Networks","ref":"J35"}},{"type":"Feature","geometry":{"type":"LineString","coordinates":[[1.13987,51.92746],[1.13945,51.92422],[1.14354,51.91991]]},"properties":{"name":"Power lines","category":"minor_line","osm_type":"way","osm_id":"60495972"}},{"type":"Feature","geometry":{"type":"LineString","coordinates":[[1.14421,51.91908],[1.14354,51.91991]]},"properties":{"name":"Power lines","category":"minor_line","osm_type":"way","osm_id":"60495973"}},{"type":"Feature","geometry":{"type":"LineString","coordinates":[[1.1799,51.82569],[1.18306,51.82721],[1.18659,51.83421],[1.18912,51.8356],[1.19083,51.8377],[1.19237,51.84041],[1.18818,51.84381],[1.18865,51.8447],[1.18812,51.84608],[1.19637,51.85436],[1.19727,51.85602],[1.21975,51.8478],[1.23227,51.84463],[1.23408,51.84486],[1.23435,51.84453]]},"properties":{"name":"Clacton-Frinton","category":"minor_line","osm_type":"way","osm_id":"60496756","operator":"UK Power Networks"}},{"type":"Feature","geometry":{"type":"LineString","coordinates":[[1.01375,51.90567],[1.01904,51.915]]},"properties":{"name":"Power lines","category":"minor_line","osm_type":"way","osm_id":"60500134"}},{"type":"Feature","geometry":{"type":"LineString","coordinates":[[1.03783,51.91437],[1.0393,51.91377]]},"properties":{"name":"Lawford-Wix","category":"minor_line","osm_type":"way","osm_id":"60500135","operator":"UK Power Networks","ref":"J35"}},{"type":"Feature","geometry":{"type":"LineString","coordinates":[[1.01819,51.9173],[1.01962,51.91999],[1.02842,51.92254],[1.03595,51.9297],[1.04152,51.93355]]},"properties":{"name":"Lawford-Cliff Quay","category":"line","osm_type":"way","osm_id":"60500139","operator":"UK Power Networks","ref":"PEC"}},{"type":"Feature","geometry":{"type":"LineString","coordinates":[[1.00267,51.92205],[1.00105,51.92276]]},"properties":{"name":"Power lines","category":"minor_line","osm_type":"way","osm_id":"60500142"}},{"type":"Feature","geometry":{"type":"LineString","coordinates":[[1.14898,51.83955],[1.14934,51.83778],[1.14707,51.83574]]},"properties":{"name":"Power lines","category":"minor_line","osm_type":"way","osm_id":"94207045"}},{"type":"Feature","geometry":{"type":"LineString","coordinates":[[1.17897,51.82562],[1.1759,51.82682],[1.16343,51.82748],[1.15806,51.82647],[1.15693,51.82535],[1.1561,51.82272]]},"properties":{"name":"Power lines","category":"minor_line","osm_type":"way","osm_id":"94207068"}},{"type":"Feature","geometry":{"type":"LineString","coordinates":[[1.14812,51.83645],[1.15002,51.83458],[1.15249,51.83382]]},"properties":{"name":"Power lines","category":"minor_line","osm_type":"way","osm_id":"94207071"}},{"type":"Feature","geometry":{"type":"LineString","coordinates":[[1.16319,51.84634],[1.16668,51.84435],[1.16847,51.83798],[1.17144,51.83499],[1.17478,51.82823],[1.17901,51.82569]]},"properties":{"name":"Power lines","category":"minor_line","osm_type":"way","osm_id":"94342268"}},{"type":"Feature","geometry":{"type":"LineString","coordinates":[[1.18437,51.82508],[1.18489,51.82506],[1.19312,51.83008],[1.19851,51.82981],[1.20133,51.82875],[1.20298,51.82892],[1.20461,51.82919],[1.21065,51.83209],[1.2197,51.83295],[1.23429,51.83603]]},"properties":{"name":"Clacton-Frinton","category":"minor_line","osm_type":"way","osm_id":"94391879"}},{"type":"Feature","geometry":{"type":"LineString","coordinates":[[1.20086,51.83083],[1.19718,51.82783],[1.19213,51.8276],[1.18437,51.82517],[1.18205,51.82527]]},"properties":{"name":"Power lines","category":"minor_line","osm_type":"way","osm_id":"94391893"}},{"type":"Feature","geometry":{"type":"LineString","coordinates":[[1.17998,51.82531],[1.18159,51.82098],[1.17913,51.81673],[1.17953,51.81584],[1.1711,51.80796],[1.16637,51.80562]]},"properties":{"name":"Clacton-Valleybridge Road","category":"minor_line","osm_type":"way","osm_id":"94399643","operator":"UK Power Networks","ref":"J36"}},{"type":"Feature","geometry":{"type":"LineString","coordinates":[[1.19041,51.84895],[1.183,51.85053],[1.17181,51.85041],[1.16823,51.85004],[1.16357,51.84752]]},"properties":{"name":"Power lines","category":"minor_line","osm_type":"way","osm_id":"94399648"}},{"type":"Feature","geometry":{"type":"LineString","coordinates":[[1.23432,51.84475],[1.23338,51.84782],[1.23171,51.84829],[1.2104,51.84911],[1.20899,51.84913],[1.20736,51.84529]]},"properties":{"name":"Power lines","category":"minor_line","osm_type":"way","osm_id":"94399653"}},{"type":"Feature","geometry":{"type":"LineString","coordinates":[[1.18677,51.80851],[1.1847,51.80844],[1.17867,51.80939],[1.17367,51.81098]]},"properties":{"name":"Power lines","category":"minor_line","osm_type":"way","osm_id":"94399658"}},{"type":"Feature","geometry":{"type":"LineString","coordinates":[[1.17214,51.85261],[1.17181,51.85041]]},"properties":{"name":"Power lines","category":"minor_line","osm_type":"way","osm_id":"94399663"}},{"type":"Feature","geometry":{"type":"LineString","coordinates":[[1.20899,51.84913],[1.20207,51.85036],[1.1913,51.84886]]},"properties":{"name":"Power lines","category":"minor_line","osm_type":"way","osm_id":"94399667"}},{"type":"Feature","geometry":{"type":"LineString","coordinates":[[1.20812,51.83526],[1.2071,51.83729],[1.20446,51.84009],[1.20506,51.84299]]},"properties":{"name":"Power lines","category":"minor_line","osm_type":"way","osm_id":"94448705"}},{"type":"Feature","geometry":{"type":"LineString","coordinates":[[1.23819,51.85119],[1.23888,51.85106],[1.2387,51.85038],[1.24086,51.84716]]},"properties":{"name":"Power lines","category":"minor_line","osm_type":"way","osm_id":"94506120"}},{"type":"Feature","geometry":{"type":"LineString","coordinates":[[1.15677,51.85287],[1.15371,51.8592],[1.15471,51.86125]]},"properties":{"name":"Power lines","category":"minor_line","osm_type":"way","osm_id":"94517884"}},{"type":"Feature","geometry":{"type":"LineString","coordinates":[[1.16545,51.84853],[1.15705,51.853]]},"properties":{"name":"Power lines","category":"minor_line","osm_type":"way","osm_id":"94517885"}},{"type":"Feature","geometry":{"type":"LineString","coordinates":[[1.16949,51.8577],[1.17613,51.85777],[1.17778,51.85905],[1.17932,51.86117],[1.17693,51.86237],[1.17462,51.86293]]},"properties":{"name":"Power lines","category":"minor_line","osm_type":"way","osm_id":"94543499"}},{"type":"Feature","geometry":{"type":"LineString","coordinates":[[1.18075,51.86249],[1.18984,51.8595],[1.18944,51.85735]]},"properties":{"name":"Power lines","category":"minor_line","osm_type":"way","osm_id":"94543506"}},{"type":"Feature","geometry":{"type":"LineString","coordinates":[[1.19708,51.84664],[1.19821,51.84982]]},"properties":{"name":"Power lines","category":"minor_line","osm_type":"way","osm_id":"94744299"}},{"type":"Feature","geometry":{"type":"LineString","coordinates":[[1.21944,51.84461],[1.21996,51.84788],[1.22161,51.84917],[1.22199,51.85133]]},"properties":{"name":"Power lines","category":"minor_line","osm_type":"way","osm_id":"94744451"}},{"type":"Feature","geometry":{"type":"LineString","coordinates":[[1.19174,51.86148],[1.18984,51.8595]]},"properties":{"name":"Power lines","category":"minor_line","osm_type":"way","osm_id":"94904205"}},{"type":"Feature","geometry":{"type":"LineString","coordinates":[[1.2032,51.85765],[1.20408,51.85841]]},"properties":{"name":"Power lines","category":"minor_line","osm_type":"way","osm_id":"94904211"}},{"type":"Feature","geometry":{"type":"LineString","coordinates":[[1.20418,51.85667],[1.20722,51.85652]]},"properties":{"name":"Power lines","category":"minor_line","osm_type":"way","osm_id":"94904216"}},{"type":"Feature","geometry":{"type":"LineString","coordinates":[[1.20207,51.85036],[1.20217,51.85229],[1.20322,51.85376],[1.20306,51.85737]]},"properties":{"name":"Power lines","category":"minor_line","osm_type":"way","osm_id":"94904242"}},{"type":"Feature","geometry":{"type":"LineString","coordinates":[[1.18606,51.86702],[1.18314,51.86699]]},"properties":{"name":"Power lines","category":"minor_line","osm_type":"way","osm_id":"95019575"}},{"type":"Feature","geometry":{"type":"LineString","coordinates":[[1.18437,51.867],[1.18429,51.8651],[1.18366,51.86431],[1.18307,51.86473]]},"properties":{"name":"Power lines","category":"minor_line","osm_type":"way","osm_id":"95019580"}},{"type":"Feature","geometry":{"type":"LineString","coordinates":[[1.18366,51.86431],[1.18406,51.8641]]},"properties":{"name":"Power lines","category":"minor_line","osm_type":"way","osm_id":"95019617"}},{"type":"Feature","geometry":{"type":"LineString","coordinates":[[1.17068,51.84636],[1.17346,51.84639]]},"properties":{"name":"Power lines","category":"minor_line","osm_type":"way","osm_id":"95068696"}},{"type":"Feature","geometry":{"type":"LineString","coordinates":[[1.17592,51.84582],[1.17745,51.85048]]},"properties":{"name":"Power lines","category":"minor_line","osm_type":"way","osm_id":"95068725"}},{"type":"Feature","geometry":{"type":"LineString","coordinates":[[1.1198,51.85729],[1.11801,51.85669]]},"properties":{"name":"Power lines","category":"minor_line","osm_type":"way","osm_id":"95407691"}},{"type":"Feature","geometry":{"type":"LineString","coordinates":[[1.12374,51.85101],[1.11999,51.85004]]},"properties":{"name":"Power lines","category":"minor_line","osm_type":"way","osm_id":"95407708"}},{"type":"Feature","geometry":{"type":"LineString","coordinates":[[1.12157,51.84227],[1.12118,51.84064],[1.12234,51.83922]]},"properties":{"name":"Power lines","category":"minor_line","osm_type":"way","osm_id":"95407713"}},{"type":"Feature","geometry":{"type":"LineString","coordinates":[[1.15545,51.84469],[1.15589,51.84343]]},"properties":{"name":"Power lines","category":"minor_line","osm_type":"way","osm_id":"95407715"}},{"type":"Feature","geometry":{"type":"LineString","coordinates":[[1.12127,51.84708],[1.12502,51.84759]]},"properties":{"name":"Power lines","category":"minor_line","osm_type":"way","osm_id":"95407716"}},{"type":"Feature","geometry":{"type":"LineString","coordinates":[[1.14218,51.84177],[1.14215,51.84545]]},"properties":{"name":"Power lines","category":"minor_line","osm_type":"way","osm_id":"95407725"}},{"type":"Feature","geometry":{"type":"LineString","coordinates":[[1.13205,51.84143],[1.13164,51.84091]]},"properties":{"name":"Power lines","category":"minor_line","osm_type":"way","osm_id":"95407728"}},{"type":"Feature","geometry":{"type":"LineString","coordinates":[[1.11911,51.85836],[1.12266,51.85898]]},"properties":{"name":"Power lines","category":"minor_line","osm_type":"way","osm_id":"95407744"}},{"type":"Feature","geometry":{"type":"LineString","coordinates":[[1.11051,51.85207],[1.10684,51.8511],[1.10437,51.84996],[1.10479,51.84747]]},"properties":{"name":"Power lines","category":"minor_line","osm_type":"way","osm_id":"95407752"}},{"type":"Feature","geometry":{"type":"LineString","coordinates":[[1.11202,51.87016],[1.10967,51.86871],[1.10592,51.86746],[1.10449,51.86733],[1.10306,51.86646]]},"properties":{"name":"Power lines","category":"minor_line","osm_type":"way","osm_id":"95411264"}},{"type":"Feature","geometry":{"type":"LineString","coordinates":[[1.13784,51.8636],[1.12897,51.8663],[1.12526,51.86535],[1.11499,51.86784],[1.11504,51.8682],[1.11001,51.87143],[1.10832,51.87356],[1.10597,51.87814],[1.10828,51.88466],[1.10615,51.887],[1.10401,51.88833],[1.10323,51.88999],[1.10031,51.89214],[1.10184,51.89334]]},"properties":{"name":"Power lines","category":"minor_line","osm_type":"way","osm_id":"95411290"}},{"type":"Feature","geometry":{"type":"LineString","coordinates":[[1.10364,51.88916],[1.10523,51.89055],[1.10734,51.89125]]},"properties":{"name":"Power lines","category":"minor_line","osm_type":"way","osm_id":"95411302"}},{"type":"Feature","geometry":{"type":"LineString","coordinates":[[1.10709,51.88144],[1.11106,51.88216],[1.11491,51.8813]]},"properties":{"name":"Power lines","category":"minor_line","osm_type":"way","osm_id":"95411319"}},{"type":"Feature","geometry":{"type":"LineString","coordinates":[[1.10615,51.887],[1.10727,51.88786]]},"properties":{"name":"Power lines","category":"minor_line","osm_type":"way","osm_id":"95411340"}},{"type":"Feature","geometry":{"type":"LineString","coordinates":[[1.08576,51.82239],[1.08196,51.82285],[1.08107,51.82241],[1.08313,51.81393],[1.08066,51.81195],[1.08017,51.80812],[1.08202,51.80463]]},"properties":{"name":"Power lines","category":"minor_line","osm_type":"way","osm_id":"95953324"}},{"type":"Feature","geometry":{"type":"LineString","coordinates":[[1.09276,51.82506],[1.0915,51.82422],[1.09011,51.82447],[1.08576,51.82239],[1.08595,51.82101],[1.08802,51.81933]]},"properties":{"name":"Power lines","category":"minor_line","osm_type":"way","osm_id":"95953325"}},{"type":"Feature","geometry":{"type":"LineString","coordinates":[[1.0924,51.82531],[1.08057,51.82311],[1.06148,51.82474],[1.05791,51.82738],[1.05491,51.82826],[1.05198,51.83561],[1.04766,51.83706]]},"properties":{"name":"Power lines","category":"minor_line","osm_type":"way","osm_id":"95953326"}},{"type":"Feature","geometry":{"type":"LineString","coordinates":[[1.05491,51.82826],[1.04057,51.82033],[1.04336,51.81937]]},"properties":{"name":"Power lines","category":"minor_line","osm_type":"way","osm_id":"95953327"}},{"type":"Feature","geometry":{"type":"LineString","coordinates":[[1.08136,51.84237],[1.08584,51.84144]]},"properties":{"name":"Power lines","category":"minor_line","osm_type":"way","osm_id":"95953328"}},{"type":"Feature","geometry":{"type":"LineString","coordinates":[[1.08043,51.81138],[1.0806,51.81135]]},"properties":{"name":"Power lines","category":"minor_line","osm_type":"way","osm_id":"95953329"}},{"type":"Feature","geometry":{"type":"LineString","coordinates":[[1.04648,51.83733],[1.04525,51.83746],[1.04511,51.83652]]},"properties":{"name":"Power lines","category":"minor_line","osm_type":"way","osm_id":"95953330"}},{"type":"Feature","geometry":{"type":"LineString","coordinates":[[1.04057,51.82033],[1.03747,51.82139],[1.0339,51.82108]]},"properties":{"name":"Power lines","category":"minor_line","osm_type":"way","osm_id":"95953332"}},{"type":"Feature","geometry":{"type":"LineString","coordinates":[[1.04168,51.83788],[1.03727,51.83838],[1.03274,51.83948],[1.02827,51.84409],[1.0246,51.84498]]},"properties":{"name":"Power lines","category":"minor_line","osm_type":"way","osm_id":"95953333"}},{"type":"Feature","geometry":{"type":"LineString","coordinates":[[1.11127,51.82623],[1.11186,51.82546]]},"properties":{"name":"Power lines","category":"minor_line","osm_type":"way","osm_id":"95953334"}},{"type":"Feature","geometry":{"type":"LineString","coordinates":[[1.04525,51.83746],[1.04168,51.83788],[1.04081,51.83572],[1.03757,51.83342],[1.03053,51.82],[1.0287,51.81965],[1.03403,51.81802]]},"properties":{"name":"Power lines","category":"minor_line","osm_type":"way","osm_id":"95953335"}},{"type":"Feature","geometry":{"type":"LineString","coordinates":[[1.07133,51.85284],[1.0722,51.85231],[1.08175,51.84969],[1.08236,51.84379],[1.08031,51.8409],[1.08179,51.83603],[1.08481,51.83437],[1.09734,51.83036],[1.10277,51.83046]]},"properties":{"name":"Power lines","category":"minor_line","osm_type":"way","osm_id":"95953337"}},{"type":"Feature","geometry":{"type":"LineString","coordinates":[[1.09282,51.82503],[1.09159,51.82421],[1.09563,51.82348],[1.10332,51.82398],[1.11246,51.82682]]},"properties":{"name":"Power lines","category":"minor_line","osm_type":"way","osm_id":"95953338"}},{"type":"Feature","geometry":{"type":"LineString","coordinates":[[1.08839,51.77911],[1.09233,51.77485]]},"properties":{"name":"Power lines","category":"minor_line","osm_type":"way","osm_id":"95975348"}},{"type":"Feature","geometry":{"type":"LineString","coordinates":[[1.09358,51.80145],[1.0977,51.79941],[1.09774,51.79303],[1.0953,51.77733],[1.0981,51.7767]]},"properties":{"name":"Power lines","category":"minor_line","osm_type":"way","osm_id":"95975361"}},{"type":"Feature","geometry":{"type":"LineString","coordinates":[[1.0953,51.77733],[1.08725,51.7734],[1.08232,51.77329],[1.07207,51.77328],[1.05461,51.77391],[1.05071,51.77637]]},"properties":{"name":"Power lines","category":"minor_line","osm_type":"way","osm_id":"95975363"}},{"type":"Feature","geometry":{"type":"LineString","coordinates":[[1.08978,51.8027],[1.09498,51.80598]]},"properties":{"name":"Power lines","category":"minor_line","osm_type":"way","osm_id":"95975364"}},{"type":"Feature","geometry":{"type":"LineString","coordinates":[[1.21119,51.92836],[1.21738,51.93156],[1.21843,51.93587]]},"properties":{"name":"Power lines","category":"minor_line","osm_type":"way","osm_id":"96559413"}},{"type":"Feature","geometry":{"type":"LineString","coordinates":[[1.24448,51.93905],[1.2431,51.93871],[1.23368,51.93931],[1.23213,51.93873]]},"properties":{"name":"Wix-Dovercourt","category":"minor_line","osm_type":"way","osm_id":"96559414","operator":"UK Power Networks","ref":"J35"}},{"type":"Feature","geometry":{"type":"LineString","coordinates":[[1.11536,51.93254],[1.11505,51.93103]]},"properties":{"name":"Power lines","category":"minor_line","osm_type":"way","osm_id":"96559420"}},{"type":"Feature","geometry":{"type":"LineString","coordinates":[[1.25815,51.9397],[1.25668,51.93978]]},"properties":{"name":"Wix-Dovercourt","category":"minor_line","osm_type":"way","osm_id":"96559422","operator":"UK Power Networks","ref":"J35"}},{"type":"Feature","geometry":{"type":"LineString","coordinates":[[1.19278,51.93248],[1.19276,51.93397]]},"properties":{"name":"Power lines","category":"minor_line","osm_type":"way","osm_id":"96559425"}},{"type":"Feature","geometry":{"type":"LineString","coordinates":[[1.13341,51.9298],[1.13205,51.9279],[1.12691,51.92483]]},"properties":{"name":"Power lines","category":"minor_line","osm_type":"way","osm_id":"96559427"}},{"type":"Feature","geometry":{"type":"LineString","coordinates":[[1.13085,51.93046],[1.13104,51.93718],[1.13223,51.93803]]},"properties":{"name":"Power lines","category":"minor_line","osm_type":"way","osm_id":"96559428"}},{"type":"Feature","geometry":{"type":"LineString","coordinates":[[1.11727,51.93196],[1.11927,51.93214],[1.13214,51.93027],[1.13987,51.92746],[1.16546,51.93139],[1.18092,51.93128],[1.19278,51.93248],[1.20662,51.93264],[1.21256,51.92738]]},"properties":{"name":"Power lines","category":"minor_line","osm_type":"way","osm_id":"96559433"}},{"type":"Feature","geometry":{"type":"LineString","coordinates":[[1.15531,51.92982],[1.15474,51.93133]]},"properties":{"name":"Power lines","category":"minor_line","osm_type":"way","osm_id":"96559439"}},{"type":"Feature","geometry":{"type":"LineString","coordinates":[[1.10449,51.93066],[1.1031,51.92805],[1.1093,51.92624]]},"properties":{"name":"Power lines","category":"minor_line","osm_type":"way","osm_id":"96582696"}},{"type":"Feature","geometry":{"type":"LineString","coordinates":[[1.10688,51.92694],[1.10695,51.92609]]},"properties":{"name":"Power lines","category":"minor_line","osm_type":"way","osm_id":"96582710"}},{"type":"Feature","geometry":{"type":"LineString","coordinates":[[1.08964,51.90582],[1.08879,51.9102],[1.09829,51.9137],[1.09698,51.92387],[1.09788,51.92559]]},"properties":{"name":"Power lines","category":"minor_line","osm_type":"way","osm_id":"96590883"}},{"type":"Feature","geometry":{"type":"LineString","coordinates":[[1.09698,51.92387],[1.09316,51.92291],[1.09073,51.92173],[1.07366,51.9253]]},"properties":{"name":"Power lines","category":"minor_line","osm_type":"way","osm_id":"96590884"}},{"type":"Feature","geometry":{"type":"LineString","coordinates":[[1.02342,51.9376],[1.02519,51.9436],[1.02224,51.94594],[1.02368,51.94674]]},"properties":{"name":"Power lines","category":"minor_line","osm_type":"way","osm_id":"96692156"}},{"type":"Feature","geometry":{"type":"LineString","coordinates":[[1.02334,51.93719],[1.0157,51.93456],[1.00724,51.9309]]},"properties":{"name":"J35","category":"minor_line","osm_type":"way","osm_id":"96692157","ref":"J35"}},{"type":"Feature","geometry":{"type":"LineString","coordinates":[[1.0236,51.9371],[1.0326,51.92242],[1.0342,51.91755],[1.03589,51.91567]]},"properties":{"name":"J35","category":"minor_line","osm_type":"way","osm_id":"96692158","ref":"J35"}},{"type":"Feature","geometry":{"type":"LineString","coordinates":[[1.0244,51.94363],[1.02409,51.94242]]},"properties":{"name":"Power lines","category":"minor_line","osm_type":"way","osm_id":"96692162"}},{"type":"Feature","geometry":{"type":"LineString","coordinates":[[1.02303,51.93745],[1.01165,51.93161],[1.00944,51.92868]]},"properties":{"name":"Power lines","category":"minor_line","osm_type":"way","osm_id":"96692165"}},{"type":"Feature","geometry":{"type":"LineString","coordinates":[[1.0231,51.93756],[1.02322,51.93818]]},"properties":{"name":"J35","category":"minor_line","osm_type":"way","osm_id":"96692168","operator":"UK Power Networks","ref":"J35"}},{"type":"Feature","geometry":{"type":"LineString","coordinates":[[1.02322,51.93818],[1.02409,51.94242]]},"properties":{"name":"J35","category":"minor_line","osm_type":"way","osm_id":"96692170","operator":"UK Power Networks","ref":"J35"}},{"type":"Feature","geometry":{"type":"LineString","coordinates":[[1.12249,51.92738],[1.1255,51.93123]]},"properties":{"name":"Power lines","category":"minor_line","osm_type":"way","osm_id":"96706522"}},{"type":"Feature","geometry":{"type":"LineString","coordinates":[[1.31037,51.96837],[1.29028,51.97838],[1.28486,51.98541],[1.2916,51.9915],[1.29111,51.99223],[1.28218,51.99634],[1.28087,52.00272],[1.26426,52.00991],[1.25123,52.01101],[1.24384,52.00829],[1.23561,52.00897]]},"properties":{"name":"Power lines","category":"minor_line","osm_type":"way","osm_id":"97241903"}},{"type":"Feature","geometry":{"type":"LineString","coordinates":[[1.05616,51.95367],[1.05709,51.95438]]},"properties":{"name":"Power lines","category":"minor_line","osm_type":"way","osm_id":"98532188"}},{"type":"Feature","geometry":{"type":"LineString","coordinates":[[1.06294,51.95714],[1.06148,51.95698]]},"properties":{"name":"Power lines","category":"minor_line","osm_type":"way","osm_id":"98532201"}},{"type":"Feature","geometry":{"type":"LineString","coordinates":[[1.10549,51.9994],[1.10451,51.99949]]},"properties":{"name":"Power lines","category":"minor_line","osm_type":"way","osm_id":"98532237"}},{"type":"Feature","geometry":{"type":"MultiLineString","coordinates":[[[1.05014,51.95044],[1.05456,51.95177]],[[1.05631,51.95284],[1.05841,51.95493]],[[1.05923,51.9558],[1.06053,51.95677],[1.06302,51.95701]]]},"properties":{"name":"Power lines","category":"minor_line","osm_type":"way","osm_id":"98532242"}},{"type":"Feature","geometry":{"type":"LineString","coordinates":[[1.04103,51.94946],[1.04291,51.94951]]},"properties":{"name":"Power lines","category":"minor_line","osm_type":"way","osm_id":"98532249"}},{"type":"Feature","geometry":{"type":"MultiLineString","coordinates":[[[1.06148,51.95698],[1.06008,51.95681],[1.0591,51.9559]],[[1.05825,51.95512],[1.05709,51.95438]]]},"properties":{"name":"Power lines","category":"minor_line","osm_type":"way","osm_id":"98532263"}},{"type":"Feature","geometry":{"type":"LineString","coordinates":[[1.04673,51.93669],[1.04663,51.93806]]},"properties":{"name":"Power lines","category":"minor_line","osm_type":"way","osm_id":"98532303"}},{"type":"Feature","geometry":{"type":"LineString","coordinates":[[1.04291,51.94951],[1.04824,51.94977],[1.05227,51.95148]]},"properties":{"name":"J35","category":"minor_line","osm_type":"way","osm_id":"98532310","operator":"UK Power Networks","ref":"J35"}},{"type":"Feature","geometry":{"type":"LineString","coordinates":[[1.06929,51.937],[1.06535,51.93624],[1.05257,51.93598]]},"properties":{"name":"Power lines","category":"minor_line","osm_type":"way","osm_id":"98532319"}},{"type":"Feature","geometry":{"type":"LineString","coordinates":[[1.0799,51.93995],[1.07883,51.94301]]},"properties":{"name":"Power lines","category":"minor_line","osm_type":"way","osm_id":"98588308"}},{"type":"Feature","geometry":{"type":"LineString","coordinates":[[1.06232,51.94165],[1.06008,51.94251]]},"properties":{"name":"Power lines","category":"minor_line","osm_type":"way","osm_id":"98799167"}},{"type":"Feature","geometry":{"type":"LineString","coordinates":[[1.02653,51.79844],[1.02797,51.7989],[1.02963,51.7988],[1.03473,51.79561],[1.0451,51.79758],[1.04508,51.79488]]},"properties":{"name":"Power lines","category":"minor_line","osm_type":"way","osm_id":"98858124"}},{"type":"Feature","geometry":{"type":"LineString","coordinates":[[1.0451,51.79758],[1.04457,51.80129]]},"properties":{"name":"Power lines","category":"minor_line","osm_type":"way","osm_id":"98858128"}},{"type":"Feature","geometry":{"type":"LineString","coordinates":[[1.02033,51.80031],[1.02072,51.79953],[1.02176,51.79899],[1.02359,51.79843],[1.0259,51.79839]]},"properties":{"name":"Power lines","category":"minor_line","osm_type":"way","osm_id":"98858159"}},{"type":"Feature","geometry":{"type":"LineString","coordinates":[[1.0214,51.93553],[1.02056,51.93598]]},"properties":{"name":"Power lines","category":"minor_line","osm_type":"way","osm_id":"99072221"}},{"type":"Feature","geometry":{"type":"LineString","coordinates":[[1.00908,51.84475],[1.00971,51.85245]]},"properties":{"name":"Power lines","category":"minor_line","osm_type":"way","osm_id":"99693573"}},{"type":"Feature","geometry":{"type":"LineString","coordinates":[[1.25668,51.93978],[1.25077,51.93976],[1.24448,51.93905]]},"properties":{"name":"Wix-Dovercourt","category":"minor_line","osm_type":"way","osm_id":"103074367","operator":"UK Power Networks","ref":"J35"}},{"type":"Feature","geometry":{"type":"LineString","coordinates":[[1.24448,51.93905],[1.24176,51.93883],[1.23379,51.93957],[1.23213,51.93873]]},"properties":{"name":"Wix-Dovercourt","category":"minor_line","osm_type":"way","osm_id":"103074398","operator":"UK Power Networks","ref":"J35"}},{"type":"Feature","geometry":{"type":"LineString","coordinates":[[1.23213,51.93873],[1.22613,51.93609],[1.22434,51.93568],[1.22046,51.93568],[1.21821,51.93676],[1.21133,51.93636],[1.19535,51.93451],[1.17823,51.928],[1.1734,51.92826],[1.17073,51.92751],[1.16487,51.92469],[1.16318,51.9219],[1.15841,51.92013],[1.1478,51.91991],[1.14652,51.91956]]},"properties":{"name":"Wix-Dovercourt","category":"minor_line","osm_type":"way","osm_id":"103074473","operator":"UK Power Networks","ref":"J35"}},{"type":"Feature","geometry":{"type":"LineString","coordinates":[[1.21928,51.91891],[1.22293,51.91877],[1.22754,51.92157]]},"properties":{"name":"Power lines","category":"minor_line","osm_type":"way","osm_id":"103523257"}},{"type":"Feature","geometry":{"type":"LineString","coordinates":[[1.21497,51.92292],[1.19968,51.9226],[1.19122,51.92318]]},"properties":{"name":"Power lines","category":"minor_line","osm_type":"way","osm_id":"103523258"}},{"type":"Feature","geometry":{"type":"LineString","coordinates":[[1.21353,51.92691],[1.21526,51.92212],[1.21928,51.91891],[1.21988,51.91697],[1.21805,51.91587],[1.21947,51.91487],[1.22208,51.91562]]},"properties":{"name":"Power lines","category":"minor_line","osm_type":"way","osm_id":"103523260"}},{"type":"Feature","geometry":{"type":"LineString","coordinates":[[1.04346,51.97594],[1.04521,51.97663],[1.05369,51.97451]]},"properties":{"name":"Power lines","category":"minor_line","osm_type":"way","osm_id":"103981180"}},{"type":"Feature","geometry":{"type":"LineString","coordinates":[[1.01808,51.91661],[1.01775,51.91691]]},"properties":{"name":"Bramford-Lawford","category":"line","osm_type":"way","osm_id":"103981188","operator":"UK Power Networks","ref":"PJ"}},{"type":"Feature","geometry":{"type":"LineString","coordinates":[[1.02898,51.96955],[1.03263,51.97205]]},"properties":{"name":"Power lines","category":"minor_line","osm_type":"way","osm_id":"103981192"}},{"type":"Feature","geometry":{"type":"LineString","coordinates":[[1.05504,51.97416],[1.0633,51.97285],[1.06877,51.9687],[1.06826,51.96647],[1.06721,51.966],[1.06475,51.96707]]},"properties":{"name":"Power lines","category":"minor_line","osm_type":"way","osm_id":"103981200"}},{"type":"Feature","geometry":{"type":"LineString","coordinates":[[1.03101,51.97094],[1.03153,51.96903]]},"properties":{"name":"Power lines","category":"minor_line","osm_type":"way","osm_id":"103981217"}},{"type":"Feature","geometry":{"type":"LineString","coordinates":[[1.01846,51.91709],[1.01819,51.9173]]},"properties":{"name":"Lawford-Cliff Quay","category":"line","osm_type":"way","osm_id":"103981227","operator":"UK Power Networks","ref":"PEC"}},{"type":"Feature","geometry":{"type":"LineString","coordinates":[[1.05078,51.97519],[1.05214,51.97738]]},"properties":{"name":"Power lines","category":"minor_line","osm_type":"way","osm_id":"103981231"}},{"type":"Feature","geometry":{"type":"LineString","coordinates":[[1.02501,51.92865],[1.02351,51.92577]]},"properties":{"name":"Power lines","category":"minor_line","osm_type":"way","osm_id":"103981243"}},{"type":"Feature","geometry":{"type":"LineString","coordinates":[[1.03204,51.98058],[1.03654,51.97778]]},"properties":{"name":"Power lines","category":"minor_line","osm_type":"way","osm_id":"103981255"}},{"type":"Feature","geometry":{"type":"LineString","coordinates":[[1.01792,51.91643],[1.01763,51.9166]]},"properties":{"name":"Power lines","category":"line","osm_type":"way","osm_id":"103981261"}},{"type":"Feature","geometry":{"type":"LineString","coordinates":[[1.15244,51.97822],[1.1558,51.97927],[1.15588,51.98003],[1.16346,51.976],[1.16467,51.97394],[1.17021,51.96905],[1.17846,51.96781]]},"properties":{"name":"Power lines","category":"minor_line","osm_type":"way","osm_id":"104661400"}},{"type":"Feature","geometry":{"type":"LineString","coordinates":[[1.1094,51.99893],[1.11572,51.99842]]},"properties":{"name":"Power lines","category":"minor_line","osm_type":"way","osm_id":"104661406"}},{"type":"Feature","geometry":{"type":"LineString","coordinates":[[1.10899,51.99906],[1.1094,51.99893]]},"properties":{"name":"Power lines","category":"minor_line","osm_type":"way","osm_id":"104661418"}},{"type":"Feature","geometry":{"type":"LineString","coordinates":[[1.18393,51.98192],[1.19144,51.98406],[1.19434,51.98659],[1.19818,51.98741],[1.19958,51.99042],[1.20087,51.99072],[1.20118,51.99128]]},"properties":{"name":"Power lines","category":"minor_line","osm_type":"way","osm_id":"104661419"}},{"type":"Feature","geometry":{"type":"LineString","coordinates":[[1.23188,51.97477],[1.23014,51.97506]]},"properties":{"name":"Power lines","category":"minor_line","osm_type":"way","osm_id":"104661421"}},{"type":"Feature","geometry":{"type":"LineString","coordinates":[[1.11765,51.99802],[1.11918,51.99784]]},"properties":{"name":"Power lines","category":"minor_line","osm_type":"way","osm_id":"104661433"}},{"type":"Feature","geometry":{"type":"LineString","coordinates":[[1.11918,51.99784],[1.1363,51.99536],[1.14834,51.99713],[1.1567,51.99625],[1.18867,51.98426],[1.19281,51.98369],[1.19414,51.98286],[1.19545,51.98121],[1.20438,51.97865],[1.20722,51.97725],[1.21183,51.97668],[1.21909,51.97812],[1.22038,51.97868],[1.2236,51.97769],[1.22636,51.97551],[1.23014,51.97506]]},"properties":{"name":"Power lines","category":"minor_line","osm_type":"way","osm_id":"104661435"}},{"type":"Feature","geometry":{"type":"LineString","coordinates":[[1.11748,51.99801],[1.12733,51.98816],[1.13042,51.99011]]},"properties":{"name":"Power lines","category":"minor_line","osm_type":"way","osm_id":"104661440"}},{"type":"Feature","geometry":{"type":"LineString","coordinates":[[1.11694,51.99819],[1.11193,51.99861]]},"properties":{"name":"Power lines","category":"minor_line","osm_type":"way","osm_id":"104661442"}},{"type":"Feature","geometry":{"type":"LineString","coordinates":[[1.11702,51.99825],[1.11572,51.99842]]},"properties":{"name":"Power lines","category":"minor_line","osm_type":"way","osm_id":"104661447"}},{"type":"Feature","geometry":{"type":"LineString","coordinates":[[1.06963,51.99192],[1.06946,51.99499]]},"properties":{"name":"Power lines","category":"minor_line","osm_type":"way","osm_id":"104720214"}},{"type":"Feature","geometry":{"type":"LineString","coordinates":[[1.09132,51.98003],[1.09085,51.97725]]},"properties":{"name":"Power lines","category":"minor_line","osm_type":"way","osm_id":"104720222"}},{"type":"Feature","geometry":{"type":"LineString","coordinates":[[1.09746,51.97659],[1.09965,51.97776]]},"properties":{"name":"Power lines","category":"minor_line","osm_type":"way","osm_id":"104720227"}},{"type":"Feature","geometry":{"type":"LineString","coordinates":[[1.07652,51.99211],[1.07946,51.99485]]},"properties":{"name":"Power lines","category":"minor_line","osm_type":"way","osm_id":"104720228"}},{"type":"Feature","geometry":{"type":"LineString","coordinates":[[1.06448,51.98608],[1.06475,51.98515]]},"properties":{"name":"Power lines","category":"minor_line","osm_type":"way","osm_id":"104720232"}},{"type":"Feature","geometry":{"type":"LineString","coordinates":[[1.06946,51.99499],[1.06837,51.99426],[1.06661,51.99441]]},"properties":{"name":"Power lines","category":"minor_line","osm_type":"way","osm_id":"104720256"}},{"type":"Feature","geometry":{"type":"LineString","coordinates":[[1.08408,51.98899],[1.07851,51.99195],[1.07652,51.99211],[1.05798,51.99967]]},"properties":{"name":"Power lines","category":"minor_line","osm_type":"way","osm_id":"104720262"}},{"type":"Feature","geometry":{"type":"LineString","coordinates":[[1.06004,51.98153],[1.0607,51.98562],[1.06962,51.9843],[1.07164,51.98291],[1.07561,51.98402],[1.08194,51.98346]]},"properties":{"name":"Power lines","category":"minor_line","osm_type":"way","osm_id":"104720263"}},{"type":"Feature","geometry":{"type":"LineString","coordinates":[[1.0817,51.98143],[1.08478,51.98165],[1.09132,51.98003],[1.09689,51.97741],[1.09811,51.97574],[1.10141,51.97423],[1.1037,51.97396]]},"properties":{"name":"Power lines","category":"minor_line","osm_type":"way","osm_id":"104720269"}},{"type":"Feature","geometry":{"type":"LineString","coordinates":[[1.0818,51.97842],[1.08271,51.98974]]},"properties":{"name":"Power lines","category":"minor_line","osm_type":"way","osm_id":"104720281"}},{"type":"Feature","geometry":{"type":"LineString","coordinates":[[1.05003,51.99411],[1.05543,51.99336]]},"properties":{"name":"Power lines","category":"minor_line","osm_type":"way","osm_id":"104720282"}},{"type":"Feature","geometry":{"type":"LineString","coordinates":[[1.10751,51.99297],[1.10921,51.99348],[1.1116,51.9927]]},"properties":{"name":"Power lines","category":"minor_line","osm_type":"way","osm_id":"104862844"}},{"type":"Feature","geometry":{"type":"LineString","coordinates":[[1.1054,51.99861],[1.10329,51.99756]]},"properties":{"name":"Power lines","category":"minor_line","osm_type":"way","osm_id":"104862845"}},{"type":"Feature","geometry":{"type":"LineString","coordinates":[[1.10616,51.99423],[1.10478,51.99647]]},"properties":{"name":"Power lines","category":"minor_line","osm_type":"way","osm_id":"104862893"}},{"type":"Feature","geometry":{"type":"LineString","coordinates":[[1.08608,51.98886],[1.09081,51.98941],[1.09442,51.99266],[1.10616,51.99423],[1.10719,51.99375],[1.10779,51.99216]]},"properties":{"name":"Power lines","category":"minor_line","osm_type":"way","osm_id":"104862902"}},{"type":"Feature","geometry":{"type":"LineString","coordinates":[[1.06349,51.95878],[1.0636,51.9594],[1.06267,51.95989]]},"properties":{"name":"Power lines","category":"minor_line","osm_type":"way","osm_id":"104966810"}},{"type":"Feature","geometry":{"type":"LineString","coordinates":[[1.06224,51.97237],[1.06194,51.97305]]},"properties":{"name":"Power lines","category":"minor_line","osm_type":"way","osm_id":"104966817"}},{"type":"Feature","geometry":{"type":"LineString","coordinates":[[1.19029,51.99484],[1.18858,51.99375]]},"properties":{"name":"Power lines","category":"minor_line","osm_type":"way","osm_id":"104994047"}},{"type":"Feature","geometry":{"type":"LineString","coordinates":[[1.1422,51.9997],[1.14433,51.99509]]},"properties":{"name":"Power lines","category":"minor_line","osm_type":"way","osm_id":"104994051"}},{"type":"Feature","geometry":{"type":"LineString","coordinates":[[1.20908,51.98665],[1.19871,51.98852],[1.17499,52.00059],[1.17282,52.00129],[1.16707,52.00228],[1.15754,52.00189],[1.15313,52.00101],[1.14094,51.99955]]},"properties":{"name":"Power lines","category":"minor_line","osm_type":"way","osm_id":"104994071"}},{"type":"Feature","geometry":{"type":"LineString","coordinates":[[1.20784,51.9869],[1.2084,51.98856]]},"properties":{"name":"Power lines","category":"minor_line","osm_type":"way","osm_id":"104994082"}},{"type":"Feature","geometry":{"type":"LineString","coordinates":[[1.19386,52.00069],[1.192,51.9996],[1.18221,51.99695]]},"properties":{"name":"Power lines","category":"minor_line","osm_type":"way","osm_id":"104994101"}},{"type":"Feature","geometry":{"type":"LineString","coordinates":[[1.22488,51.98291],[1.22651,51.98381]]},"properties":{"name":"Power lines","category":"minor_line","osm_type":"way","osm_id":"105013384"}},{"type":"Feature","geometry":{"type":"LineString","coordinates":[[1.25668,51.97133],[1.25716,51.97056],[1.26439,51.9699],[1.26764,51.96906],[1.27052,51.96543],[1.27324,51.96067]]},"properties":{"name":"Power lines","category":"minor_line","osm_type":"way","osm_id":"105013385"}},{"type":"Feature","geometry":{"type":"LineString","coordinates":[[1.21495,51.98878],[1.21435,51.98728]]},"properties":{"name":"Power lines","category":"minor_line","osm_type":"way","osm_id":"105013407"}},{"type":"Feature","geometry":{"type":"LineString","coordinates":[[1.23925,51.97325],[1.24065,51.9727]]},"properties":{"name":"Power lines","category":"minor_line","osm_type":"way","osm_id":"105013421"}},{"type":"Feature","geometry":{"type":"LineString","coordinates":[[1.22936,51.98011],[1.23263,51.98179]]},"properties":{"name":"Power lines","category":"minor_line","osm_type":"way","osm_id":"105013423"}},{"type":"Feature","geometry":{"type":"LineString","coordinates":[[1.22049,51.98555],[1.22263,51.98802]]},"properties":{"name":"Power lines","category":"minor_line","osm_type":"way","osm_id":"105013426"}},{"type":"Feature","geometry":{"type":"LineString","coordinates":[[1.14859,51.98643],[1.14649,51.98969]]},"properties":{"name":"Power lines","category":"minor_line","osm_type":"way","osm_id":"105013431"}},{"type":"Feature","geometry":{"type":"LineString","coordinates":[[1.19657,51.97836],[1.19791,51.98055],[1.20264,51.9852],[1.20407,51.98543],[1.20472,51.98624],[1.21435,51.98728],[1.22049,51.98555],[1.22852,51.98072],[1.23259,51.97753],[1.23609,51.9756],[1.2367,51.97475],[1.23867,51.97418]]},"properties":{"name":"Power lines","category":"minor_line","osm_type":"way","osm_id":"105013437"}},{"type":"Feature","geometry":{"type":"LineString","coordinates":[[1.25679,51.97715],[1.26006,51.97809]]},"properties":{"name":"Power lines","category":"minor_line","osm_type":"way","osm_id":"105013440"}},{"type":"Feature","geometry":{"type":"LineString","coordinates":[[1.25913,51.97895],[1.26006,51.97809]]},"properties":{"name":"Power lines","category":"minor_line","osm_type":"way","osm_id":"105013448"}},{"type":"Feature","geometry":{"type":"LineString","coordinates":[[1.25586,51.9717],[1.2554,51.97229]]},"properties":{"name":"Power lines","category":"minor_line","osm_type":"way","osm_id":"105013457"}},{"type":"Feature","geometry":{"type":"LineString","coordinates":[[1.2367,51.97475],[1.23465,51.97046]]},"properties":{"name":"Power lines","category":"minor_line","osm_type":"way","osm_id":"105013483"}},{"type":"Feature","geometry":{"type":"LineString","coordinates":[[1.25392,51.9774],[1.25366,51.97599],[1.25616,51.97196]]},"properties":{"name":"Power lines","category":"minor_line","osm_type":"way","osm_id":"105013490"}},{"type":"Feature","geometry":{"type":"LineString","coordinates":[[1.14158,51.99009],[1.14409,51.99081],[1.14649,51.98969],[1.14823,51.98948],[1.15084,51.99012],[1.15252,51.99132]]},"properties":{"name":"Power lines","category":"minor_line","osm_type":"way","osm_id":"105013494"}},{"type":"Feature","geometry":{"type":"LineString","coordinates":[[1.2554,51.97229],[1.2532,51.97362],[1.24265,51.97185],[1.24065,51.9727]]},"properties":{"name":"Power lines","category":"minor_line","osm_type":"way","osm_id":"105013508"}},{"type":"Feature","geometry":{"type":"LineString","coordinates":[[1.13356,51.82696],[1.13164,51.82549],[1.12948,51.82057]]},"properties":{"name":"Power lines","category":"minor_line","osm_type":"way","osm_id":"105156819"}},{"type":"Feature","geometry":{"type":"LineString","coordinates":[[1.12192,51.8314],[1.12771,51.83468],[1.13169,51.83763]]},"properties":{"name":"Power lines","category":"minor_line","osm_type":"way","osm_id":"105181758"}},{"type":"Feature","geometry":{"type":"LineString","coordinates":[[1.13993,51.82561],[1.13109,51.82748],[1.12423,51.82937],[1.12192,51.8314],[1.12107,51.83126]]},"properties":{"name":"Power lines","category":"minor_line","osm_type":"way","osm_id":"105181762"}},{"type":"Feature","geometry":{"type":"LineString","coordinates":[[1.34817,51.97195],[1.35353,51.97867],[1.3549,51.98149],[1.34555,51.98092],[1.33662,51.98246],[1.33541,51.98406],[1.33096,51.9875],[1.32771,51.99076]]},"properties":{"name":"Power lines","category":"minor_line","osm_type":"way","osm_id":"105893897"}},{"type":"Feature","geometry":{"type":"LineString","coordinates":[[1.34555,51.98092],[1.34516,51.97967]]},"properties":{"name":"Power lines","category":"minor_line","osm_type":"way","osm_id":"105893903"}},{"type":"Feature","geometry":{"type":"LineString","coordinates":[[1.38942,51.98883],[1.38901,51.98819],[1.38566,51.9892],[1.38076,51.98956],[1.36313,51.98366],[1.35587,51.98242],[1.35441,51.98196],[1.35424,51.98153]]},"properties":{"name":"Power lines","category":"minor_line","osm_type":"way","osm_id":"105893906"}},{"type":"Feature","geometry":{"type":"LineString","coordinates":[[1.31564,51.99991],[1.31403,51.99958]]},"properties":{"name":"Power lines","category":"minor_line","osm_type":"way","osm_id":"105893908"}},{"type":"Feature","geometry":{"type":"LineString","coordinates":[[1.14918,51.83853],[1.14639,51.83803]]},"properties":{"name":"Power lines","category":"minor_line","osm_type":"way","osm_id":"106650361"}},{"type":"Feature","geometry":{"type":"LineString","coordinates":[[1.3729,51.97835],[1.36968,51.97925],[1.36951,51.98004],[1.36766,51.98155],[1.3687,51.98297]]},"properties":{"name":"Power lines","category":"minor_line","osm_type":"way","osm_id":"107107107"}},{"type":"Feature","geometry":{"type":"LineString","coordinates":[[1.34392,51.97638],[1.34485,51.97737],[1.34516,51.97967]]},"properties":{"name":"Power lines","category":"minor_line","osm_type":"way","osm_id":"107107138"}},{"type":"Feature","geometry":{"type":"LineString","coordinates":[[1.34861,51.99479],[1.34488,51.9957],[1.34397,51.99719]]},"properties":{"name":"Power lines","category":"minor_line","osm_type":"way","osm_id":"107107163"}},{"type":"Feature","geometry":{"type":"LineString","coordinates":[[1.30961,51.98762],[1.31095,51.98859]]},"properties":{"name":"Power lines","category":"minor_line","osm_type":"way","osm_id":"107463091"}},{"type":"Feature","geometry":{"type":"LineString","coordinates":[[1.30376,51.98288],[1.30489,51.98805]]},"properties":{"name":"Power lines","category":"minor_line","osm_type":"way","osm_id":"107463120"}},{"type":"Feature","geometry":{"type":"LineString","coordinates":[[1.11873,51.79486],[1.11638,51.79702],[1.11032,51.79965],[1.11008,51.80016],[1.10137,51.8001],[1.0977,51.79941]]},"properties":{"name":"Power lines","category":"minor_line","osm_type":"way","osm_id":"115713147"}},{"type":"Feature","geometry":{"type":"LineString","coordinates":[[1.21805,51.91587],[1.21299,51.91276],[1.21688,51.9114]]},"properties":{"name":"Power lines","category":"minor_line","osm_type":"way","osm_id":"118047672"}},{"type":"Feature","geometry":{"type":"MultiLineString","coordinates":[[[1.18726,51.8782],[1.18311,51.87222]],[[1.18311,51.87217],[1.18311,51.8721]],[[1.18311,51.87172],[1.18311,51.87166]],[[1.18311,51.87147],[1.18307,51.86473]]]},"properties":{"name":"Power lines","category":"minor_line","osm_type":"way","osm_id":"118047674"}},{"type":"Feature","geometry":{"type":"LineString","coordinates":[[1.16772,51.88315],[1.16627,51.88194]]},"properties":{"name":"Power lines","category":"minor_line","osm_type":"way","osm_id":"118047675"}},{"type":"Feature","geometry":{"type":"LineString","coordinates":[[1.21947,51.91487],[1.22295,51.91258]]},"properties":{"name":"Power lines","category":"minor_line","osm_type":"way","osm_id":"118047676"}},{"type":"Feature","geometry":{"type":"LineString","coordinates":[[1.21299,51.91276],[1.20689,51.90559],[1.20002,51.89567],[1.19753,51.89313],[1.19379,51.8905],[1.19302,51.88634],[1.18726,51.8782],[1.17947,51.88021],[1.17495,51.88086],[1.16772,51.88315],[1.16704,51.88556]]},"properties":{"name":"Power lines","category":"minor_line","osm_type":"way","osm_id":"118047679"}},{"type":"Feature","geometry":{"type":"LineString","coordinates":[[1.10229,51.89479],[1.10223,51.89787],[1.10071,51.89952],[1.09582,51.90162],[1.08964,51.90582],[1.08587,51.90523]]},"properties":{"name":"Power lines","category":"minor_line","osm_type":"way","osm_id":"128491825"}},{"type":"Feature","geometry":{"type":"LineString","coordinates":[[1.1704,51.88231],[1.16894,51.88079],[1.16878,51.87977],[1.16726,51.87834],[1.16615,51.87818]]},"properties":{"name":"Power lines","category":"minor_line","osm_type":"way","osm_id":"128510161"}},{"type":"Feature","geometry":{"type":"LineString","coordinates":[[1.16479,51.88391],[1.16338,51.88398],[1.16207,51.88352],[1.15958,51.88176]]},"properties":{"name":"Power lines","category":"minor_line","osm_type":"way","osm_id":"128510163"}},{"type":"Feature","geometry":{"type":"LineString","coordinates":[[1.10071,51.89952],[1.11893,51.90596]]},"properties":{"name":"Power lines","category":"minor_line","osm_type":"way","osm_id":"128511657"}},{"type":"Feature","geometry":{"type":"LineString","coordinates":[[1.11564,51.90478],[1.11491,51.90596]]},"properties":{"name":"Power lines","category":"minor_line","osm_type":"way","osm_id":"128511658"}},{"type":"Feature","geometry":{"type":"LineString","coordinates":[[1.03765,51.87167],[1.039,51.87367],[1.03986,51.87674],[1.03806,51.8823]]},"properties":{"name":"Power lines","category":"minor_line","osm_type":"way","osm_id":"131519075"}},{"type":"Feature","geometry":{"type":"LineString","coordinates":[[1.04366,51.88483],[1.03901,51.88512],[1.04018,51.88992],[1.03839,51.89403],[1.03455,51.89732],[1.03783,51.89871],[1.03649,51.90051]]},"properties":{"name":"Power lines","category":"minor_line","osm_type":"way","osm_id":"131519076"}},{"type":"Feature","geometry":{"type":"LineString","coordinates":[[1.01744,51.90422],[1.00605,51.90922],[1.00593,51.91014]]},"properties":{"name":"Power lines","category":"minor_line","osm_type":"way","osm_id":"131523986"}},{"type":"Feature","geometry":{"type":"LineString","coordinates":[[1.03455,51.89732],[1.0212,51.9023],[1.01744,51.90422],[1.01451,51.90299],[1.01411,51.9035],[1.01184,51.90271]]},"properties":{"name":"Power lines","category":"minor_line","osm_type":"way","osm_id":"131523987"}},{"type":"Feature","geometry":{"type":"LineString","coordinates":[[1.00605,51.90922],[1.00543,51.90865]]},"properties":{"name":"Power lines","category":"minor_line","osm_type":"way","osm_id":"131523988"}},{"type":"Feature","geometry":{"type":"LineString","coordinates":[[1.07805,51.88731],[1.08092,51.88828],[1.09113,51.89022],[1.09113,51.89099]]},"properties":{"name":"Power lines","category":"minor_line","osm_type":"way","osm_id":"131596142"}},{"type":"Feature","geometry":{"type":"LineString","coordinates":[[1.09113,51.89022],[1.10031,51.89214]]},"properties":{"name":"Power lines","category":"minor_line","osm_type":"way","osm_id":"131596143"}},{"type":"Feature","geometry":{"type":"LineString","coordinates":[[1.03616,51.87256],[1.03913,51.87182]]},"properties":{"name":"Power lines","category":"minor_line","osm_type":"way","osm_id":"131653670"}},{"type":"Feature","geometry":{"type":"LineString","coordinates":[[1.16126,51.86635],[1.15078,51.86662],[1.14648,51.86639],[1.14758,51.88297],[1.14677,51.88504],[1.1445,51.88823]]},"properties":{"name":"Power lines","category":"minor_line","osm_type":"way","osm_id":"131668074"}},{"type":"Feature","geometry":{"type":"LineString","coordinates":[[1.12043,51.87448],[1.12422,51.8736],[1.14299,51.87418],[1.14714,51.87378]]},"properties":{"name":"Power lines","category":"minor_line","osm_type":"way","osm_id":"131668081"}},{"type":"Feature","geometry":{"type":"LineString","coordinates":[[1.10348,51.86904],[1.10274,51.86711]]},"properties":{"name":"Power lines","category":"minor_line","osm_type":"way","osm_id":"131671027"}},{"type":"Feature","geometry":{"type":"LineString","coordinates":[[1.14708,51.86363],[1.15371,51.8592]]},"properties":{"name":"Power lines","category":"minor_line","osm_type":"way","osm_id":"131673922"}},{"type":"Feature","geometry":{"type":"LineString","coordinates":[[1.13217,51.89209],[1.13302,51.89191],[1.13385,51.89459],[1.13286,51.89533]]},"properties":{"name":"Power lines","category":"minor_line","osm_type":"way","osm_id":"131704895"}},{"type":"Feature","geometry":{"type":"LineString","coordinates":[[1.1135,51.90082],[1.1134,51.89939],[1.11206,51.89809]]},"properties":{"name":"Power lines","category":"minor_line","osm_type":"way","osm_id":"131722185"}},{"type":"Feature","geometry":{"type":"LineString","coordinates":[[1.11844,51.90028],[1.1205,51.9009]]},"properties":{"name":"Power lines","category":"minor_line","osm_type":"way","osm_id":"131722186"}},{"type":"Feature","geometry":{"type":"LineString","coordinates":[[1.11844,51.90028],[1.11391,51.90046],[1.11089,51.90313]]},"properties":{"name":"Power lines","category":"minor_line","osm_type":"way","osm_id":"131752722"}},{"type":"Feature","geometry":{"type":"LineString","coordinates":[[1.14318,51.89015],[1.14593,51.8957]]},"properties":{"name":"Power lines","category":"minor_line","osm_type":"way","osm_id":"131752753"}},{"type":"Feature","geometry":{"type":"LineString","coordinates":[[1.13873,51.9103],[1.14423,51.90902]]},"properties":{"name":"Power lines","category":"minor_line","osm_type":"way","osm_id":"131752758"}},{"type":"Feature","geometry":{"type":"LineString","coordinates":[[1.15245,51.89018],[1.14744,51.88942],[1.1445,51.88823],[1.14318,51.89015],[1.1417,51.88983],[1.13911,51.89055],[1.13661,51.89045],[1.13422,51.8915]]},"properties":{"name":"Power lines","category":"minor_line","osm_type":"way","osm_id":"131752768"}},{"type":"Feature","geometry":{"type":"LineString","coordinates":[[1.14701,51.89667],[1.14578,51.90595],[1.14423,51.90902]]},"properties":{"name":"Power lines","category":"minor_line","osm_type":"way","osm_id":"134124437"}},{"type":"Feature","geometry":{"type":"LineString","coordinates":[[1.16091,51.89768],[1.17535,51.89996],[1.17798,51.90295],[1.18302,51.90655],[1.18294,51.90871]]},"properties":{"name":"Power lines","category":"minor_line","osm_type":"way","osm_id":"134124471"}},{"type":"Feature","geometry":{"type":"LineString","coordinates":[[1.1527,51.91126],[1.15356,51.90909],[1.15617,51.90875],[1.15914,51.90782],[1.16175,51.90814],[1.16328,51.9079],[1.16486,51.90837],[1.1692,51.90815],[1.17871,51.90352]]},"properties":{"name":"Power lines","category":"minor_line","osm_type":"way","osm_id":"134124491"}},{"type":"Feature","geometry":{"type":"LineString","coordinates":[[1.15404,51.91179],[1.15134,51.91076],[1.14878,51.91117],[1.14729,51.91089],[1.14469,51.90967],[1.14423,51.90902]]},"properties":{"name":"Power lines","category":"minor_line","osm_type":"way","osm_id":"134124492"}},{"type":"Feature","geometry":{"type":"LineString","coordinates":[[1.20617,51.83828],[1.20184,51.8368]]},"properties":{"name":"Power lines","category":"minor_line","osm_type":"way","osm_id":"134204655"}},{"type":"Feature","geometry":{"type":"LineString","coordinates":[[1.13115,51.92179],[1.12387,51.92304],[1.12139,51.91985]]},"properties":{"name":"Power lines","category":"minor_line","osm_type":"way","osm_id":"137815745"}},{"type":"Feature","geometry":{"type":"LineString","coordinates":[[1.1219,51.92048],[1.12325,51.91855],[1.12198,51.91671],[1.1218,51.91406],[1.11423,51.91047]]},"properties":{"name":"Power lines","category":"minor_line","osm_type":"way","osm_id":"137815748"}},{"type":"Feature","geometry":{"type":"LineString","coordinates":[[1.12387,51.92304],[1.12547,51.92402]]},"properties":{"name":"Power lines","category":"minor_line","osm_type":"way","osm_id":"137815751"}},{"type":"Feature","geometry":{"type":"LineString","coordinates":[[1.22992,52.01448],[1.23141,52.0123],[1.23563,52.0091],[1.24398,52.00846],[1.2512,52.01109],[1.26431,52.01001],[1.28141,52.0026],[1.28234,51.99642],[1.29134,51.99225],[1.29185,51.99155],[1.28541,51.9852],[1.29046,51.97846],[1.30917,51.96909]]},"properties":{"name":"Power lines","category":"minor_line","osm_type":"way","osm_id":"151225511"}},{"type":"Feature","geometry":{"type":"LineString","coordinates":[[1.12643,51.81008],[1.12182,51.80461]]},"properties":{"name":"Power lines","category":"minor_line","osm_type":"way","osm_id":"169003736"}},{"type":"Feature","geometry":{"type":"LineString","coordinates":[[1.05361,51.95197],[1.05227,51.95148]]},"properties":{"name":"Power lines","category":"minor_line","osm_type":"way","osm_id":"188696896"}},{"type":"Feature","geometry":{"type":"LineString","coordinates":[[1.20437,51.90195],[1.19842,51.90693]]},"properties":{"name":"Power lines","category":"minor_line","osm_type":"way","osm_id":"204400508"}},{"type":"Feature","geometry":{"type":"LineString","coordinates":[[1.12771,51.83468],[1.12983,51.83318]]},"properties":{"name":"Power lines","category":"minor_line","osm_type":"way","osm_id":"225696404"}},{"type":"Feature","geometry":{"type":"LineString","coordinates":[[1.17516,51.85618],[1.1746,51.85774]]},"properties":{"name":"Power lines","category":"minor_line","osm_type":"way","osm_id":"226080622"}},{"type":"Feature","geometry":{"type":"LineString","coordinates":[[1.19762,51.82512],[1.197,51.82865]]},"properties":{"name":"Power lines","category":"minor_line","osm_type":"way","osm_id":"226280627"}},{"type":"Feature","geometry":{"type":"LineString","coordinates":[[1.20761,51.83253],[1.20086,51.83083]]},"properties":{"name":"Power lines","category":"minor_line","osm_type":"way","osm_id":"226280629"}},{"type":"Feature","geometry":{"type":"LineString","coordinates":[[1.20066,51.83871],[1.1987,51.83984],[1.19646,51.84041],[1.20192,51.84281]]},"properties":{"name":"Power lines","category":"minor_line","osm_type":"way","osm_id":"226280630"}},{"type":"Feature","geometry":{"type":"LineString","coordinates":[[1.10452,51.83986],[1.09974,51.83919],[1.09853,51.84247],[1.09541,51.84267]]},"properties":{"name":"Power lines","category":"minor_line","osm_type":"way","osm_id":"232154540"}},{"type":"Feature","geometry":{"type":"LineString","coordinates":[[1.12722,51.96887],[1.12441,51.96671],[1.12196,51.96615],[1.12152,51.96541],[1.11599,51.96217]]},"properties":{"name":"Power lines","category":"line","osm_type":"way","osm_id":"241050611"}},{"type":"Feature","geometry":{"type":"LineString","coordinates":[[1.12152,51.96541],[1.12097,51.96627]]},"properties":{"name":"Power lines","category":"line","osm_type":"way","osm_id":"241050613"}},{"type":"Feature","geometry":{"type":"LineString","coordinates":[[1.01035,51.82955],[1.0076,51.82785],[1.0074,51.82699],[1.00858,51.82571],[1.00796,51.82371],[1.0072,51.82296]]},"properties":{"name":"Power lines","category":"minor_line","osm_type":"way","osm_id":"263051850"}},{"type":"Feature","geometry":{"type":"LineString","coordinates":[[1.17924,51.82638],[1.17952,51.82599]]},"properties":{"name":"Lawford-Clacton","category":"line","osm_type":"way","osm_id":"291527291","operator":"UK Power Networks","ref":"PYA"}},{"type":"Feature","geometry":{"type":"LineString","coordinates":[[1.2554,51.97229],[1.25603,51.97172]]},"properties":{"name":"Power lines","category":"minor_line","osm_type":"way","osm_id":"291680456"}},{"type":"Feature","geometry":{"type":"LineString","coordinates":[[1.21449,51.80997],[1.20864,51.80768],[1.20631,51.80713]]},"properties":{"name":"Power lines","category":"minor_line","osm_type":"way","osm_id":"321597426"}},{"type":"Feature","geometry":{"type":"LineString","coordinates":[[1.00059,51.90631],[1.00754,51.9086]]},"properties":{"name":"Power lines","category":"minor_line","osm_type":"way","osm_id":"343908891"}},{"type":"Feature","geometry":{"type":"LineString","coordinates":[[1.17535,51.89996],[1.17905,51.89992],[1.18128,51.89946],[1.18444,51.89956]]},"properties":{"name":"Power lines","category":"minor_line","osm_type":"way","osm_id":"352615572"}},{"type":"Feature","geometry":{"type":"LineString","coordinates":[[1.30376,51.98288],[1.30352,51.98197]]},"properties":{"name":"Power lines","category":"minor_line","osm_type":"way","osm_id":"353057983"}},{"type":"Feature","geometry":{"type":"LineString","coordinates":[[1.30376,51.98288],[1.29998,51.98362],[1.29746,51.98478],[1.29597,51.98338]]},"properties":{"name":"Power lines","category":"minor_line","osm_type":"way","osm_id":"353057984"}},{"type":"Feature","geometry":{"type":"LineString","coordinates":[[1.28982,51.99909],[1.29091,51.99798],[1.29228,51.99456],[1.29372,51.99318]]},"properties":{"name":"Power lines","category":"minor_line","osm_type":"way","osm_id":"362762616"}},{"type":"Feature","geometry":{"type":"LineString","coordinates":[[1.17932,51.86117],[1.1827,51.86433]]},"properties":{"name":"Power lines","category":"minor_line","osm_type":"way","osm_id":"527767247"}},{"type":"Feature","geometry":{"type":"LineString","coordinates":[[1.18718,51.81689],[1.18332,51.80866]]},"properties":{"name":"Power lines","category":"line","osm_type":"way","osm_id":"614132887"}},{"type":"Feature","geometry":{"type":"LineString","coordinates":[[1.14955,51.82488],[1.14938,51.82561]]},"properties":{"name":"Power lines","category":"line","osm_type":"way","osm_id":"614132888"}},{"type":"Feature","geometry":{"type":"LineString","coordinates":[[1.16138,51.82181],[1.15191,51.82335],[1.14955,51.82488],[1.14502,51.82472]]},"properties":{"name":"Power lines","category":"line","osm_type":"way","osm_id":"614132890"}},{"type":"Feature","geometry":{"type":"LineString","coordinates":[[1.09389,51.93576],[1.09148,51.93675]]},"properties":{"name":"Power lines","category":"minor_line","osm_type":"way","osm_id":"673391527"}},{"type":"Feature","geometry":{"type":"LineString","coordinates":[[1.09388,51.93498],[1.09322,51.93441],[1.0937,51.93331]]},"properties":{"name":"Power lines","category":"minor_line","osm_type":"way","osm_id":"673391528"}},{"type":"Feature","geometry":{"type":"LineString","coordinates":[[1.09734,51.83036],[1.0961,51.82885]]},"properties":{"name":"Power lines","category":"minor_line","osm_type":"way","osm_id":"687676058"}},{"type":"Feature","geometry":{"type":"LineString","coordinates":[[1.01775,51.91691],[1.01815,51.9167]]},"properties":{"name":"Bramford-Lawford","category":"line","osm_type":"way","osm_id":"721219716","operator":"UK Power Networks","ref":"PJ"}},{"type":"Feature","geometry":{"type":"LineString","coordinates":[[1.01763,51.9166],[1.01799,51.91651]]},"properties":{"name":"Power lines","category":"line","osm_type":"way","osm_id":"721219717"}},{"type":"Feature","geometry":{"type":"LineString","coordinates":[[1.01819,51.9173],[1.01861,51.91728]]},"properties":{"name":"Lawford-Cliff Quay","category":"line","osm_type":"way","osm_id":"721219718","operator":"UK Power Networks","ref":"PEC"}},{"type":"Feature","geometry":{"type":"LineString","coordinates":[[1.03779,51.9143],[1.0393,51.91377]]},"properties":{"name":"Lawford-Wix","category":"minor_line","osm_type":"way","osm_id":"857545590","operator":"UK Power Networks","ref":"J35"}},{"type":"Feature","geometry":{"type":"LineString","coordinates":[[1.25668,51.93978],[1.25814,51.93963]]},"properties":{"name":"Wix-Dovercourt","category":"minor_line","osm_type":"way","osm_id":"857545613","operator":"UK Power Networks","ref":"J35"}},{"type":"Feature","geometry":{"type":"LineString","coordinates":[[1.14652,51.91956],[1.1453,51.91931]]},"properties":{"name":"Wix-Dovercourt","category":"minor_line","osm_type":"way","osm_id":"857545615","operator":"UK Power Networks","ref":"J35"}},{"type":"Feature","geometry":{"type":"LineString","coordinates":[[1.14354,51.91991],[1.14431,51.91911]]},"properties":{"name":"Power lines","category":"minor_line","osm_type":"way","osm_id":"857545616"}},{"type":"Feature","geometry":{"type":"LineString","coordinates":[[1.14269,51.91853],[1.1443,51.91903]]},"properties":{"name":"J35","category":"minor_line","osm_type":"way","osm_id":"857545617","operator":"UK Power Networks","ref":"J35"}},{"type":"Feature","geometry":{"type":"LineString","coordinates":[[1.14514,51.91901],[1.14652,51.91956]]},"properties":{"name":"Wix-Dovercourt","category":"minor_line","osm_type":"way","osm_id":"857545618","operator":"UK Power Networks","ref":"J35"}},{"type":"Feature","geometry":{"type":"LineString","coordinates":[[1.10451,51.99949],[1.10521,51.99926]]},"properties":{"name":"Power lines","category":"minor_line","osm_type":"way","osm_id":"857550712"}},{"type":"Feature","geometry":{"type":"LineString","coordinates":[[1.1094,51.99893],[1.10903,51.99891]]},"properties":{"name":"Power lines","category":"minor_line","osm_type":"way","osm_id":"857550715"}},{"type":"Feature","geometry":{"type":"LineString","coordinates":[[1.11572,51.99842],[1.11707,51.99836]]},"properties":{"name":"Power lines","category":"minor_line","osm_type":"way","osm_id":"857550716"}},{"type":"Feature","geometry":{"type":"LineString","coordinates":[[1.11918,51.99784],[1.11779,51.99817]]},"properties":{"name":"Power lines","category":"minor_line","osm_type":"way","osm_id":"857550717"}},{"type":"Feature","geometry":{"type":"LineString","coordinates":[[1.23014,51.97506],[1.23117,51.975]]},"properties":{"name":"Power lines","category":"minor_line","osm_type":"way","osm_id":"857550721"}},{"type":"Feature","geometry":{"type":"LineString","coordinates":[[1.24065,51.9727],[1.23918,51.97339]]},"properties":{"name":"Power lines","category":"minor_line","osm_type":"way","osm_id":"857550722"}},{"type":"Feature","geometry":{"type":"LineString","coordinates":[[1.31102,51.96844],[1.30917,51.96909]]},"properties":{"name":"Power lines","category":"minor_line","osm_type":"way","osm_id":"857554131"}},{"type":"Feature","geometry":{"type":"LineString","coordinates":[[1.31093,51.96836],[1.30917,51.96909]]},"properties":{"name":"Power lines","category":"minor_line","osm_type":"way","osm_id":"857554132"}},{"type":"Feature","geometry":{"type":"LineString","coordinates":[[1.31082,51.96821],[1.31037,51.96837]]},"properties":{"name":"Power lines","category":"minor_line","osm_type":"way","osm_id":"857554133"}},{"type":"Feature","geometry":{"type":"LineString","coordinates":[[1.31073,51.96813],[1.31037,51.96837]]},"properties":{"name":"Power lines","category":"minor_line","osm_type":"way","osm_id":"857554134"}},{"type":"Feature","geometry":{"type":"LineString","coordinates":[[1.20086,51.83083],[1.20327,51.82899],[1.20618,51.8242]]},"properties":{"name":"Power lines","category":"minor_line","osm_type":"way","osm_id":"924777531"}},{"type":"Feature","geometry":{"type":"LineString","coordinates":[[1.00105,51.92276],[1.00269,51.92191]]},"properties":{"name":"Power lines","category":"minor_line","osm_type":"way","osm_id":"924786841"}},{"type":"Feature","geometry":{"type":"LineString","coordinates":[[0.99841,51.9278],[1.00281,51.92694]]},"properties":{"name":"Power lines","category":"minor_line","osm_type":"way","osm_id":"924786846"}},{"type":"Feature","geometry":{"type":"LineString","coordinates":[[1.04291,51.94951],[1.04103,51.94939]]},"properties":{"name":"Power lines","category":"minor_line","osm_type":"way","osm_id":"924786847"}},{"type":"Feature","geometry":{"type":"LineString","coordinates":[[1.05227,51.95148],[1.05352,51.95204]]},"properties":{"name":"Power lines","category":"minor_line","osm_type":"way","osm_id":"924786848"}},{"type":"Feature","geometry":{"type":"LineString","coordinates":[[1.05709,51.95438],[1.05604,51.95374]]},"properties":{"name":"Power lines","category":"minor_line","osm_type":"way","osm_id":"924786849"}},{"type":"Feature","geometry":{"type":"LineString","coordinates":[[1.06148,51.95698],[1.06292,51.95721]]},"properties":{"name":"Power lines","category":"minor_line","osm_type":"way","osm_id":"924786850"}},{"type":"Feature","geometry":{"type":"LineString","coordinates":[[1.02409,51.94242],[1.0243,51.94362]]},"properties":{"name":"Power lines","category":"minor_line","osm_type":"way","osm_id":"924786853"}},{"type":"Feature","geometry":{"type":"LineString","coordinates":[[1.02329,51.93731],[1.02322,51.93818]]},"properties":{"name":"J35","category":"minor_line","osm_type":"way","osm_id":"924786854","operator":"UK Power Networks","ref":"J35"}},{"type":"Feature","geometry":{"type":"LineString","coordinates":[[1.11921,51.96409],[1.11561,51.9684]]},"properties":{"name":"Power lines","category":"line","osm_type":"way","osm_id":"935143943"}},{"type":"Feature","geometry":{"type":"LineString","coordinates":[[1.11227,51.98689],[1.11189,51.98502],[1.11421,51.9826],[1.11575,51.98184]]},"properties":{"name":"Power lines","category":"line","osm_type":"way","osm_id":"935143957"}},{"type":"Feature","geometry":{"type":"LineString","coordinates":[[1.11575,51.98184],[1.1166,51.98249],[1.12531,51.98013]]},"properties":{"name":"Power lines","category":"line","osm_type":"way","osm_id":"935143958"}},{"type":"Feature","geometry":{"type":"LineString","coordinates":[[1.11575,51.98184],[1.11331,51.97997]]},"properties":{"name":"Power lines","category":"line","osm_type":"way","osm_id":"935143959"}},{"type":"Feature","geometry":{"type":"LineString","coordinates":[[1.17118,51.93671],[1.16361,51.938],[1.16103,51.94317]]},"properties":{"name":"Power lines","category":"minor_line","osm_type":"way","osm_id":"938821149"}},{"type":"Feature","geometry":{"type":"LineString","coordinates":[[1.1588,51.94349],[1.16103,51.94317]]},"properties":{"name":"Power lines","category":"minor_line","osm_type":"way","osm_id":"938821150"}},{"type":"Feature","geometry":{"type":"LineString","coordinates":[[1.17118,51.93671],[1.17142,51.93772]]},"properties":{"name":"Power lines","category":"minor_line","osm_type":"way","osm_id":"938821151"}},{"type":"Feature","geometry":{"type":"LineString","coordinates":[[1.17118,51.93671],[1.17472,51.93611]]},"properties":{"name":"Power lines","category":"minor_line","osm_type":"way","osm_id":"938821152"}},{"type":"Feature","geometry":{"type":"LineString","coordinates":[[1.15499,51.92006],[1.15499,51.91994]]},"properties":{"name":"Power lines","category":"line","osm_type":"way","osm_id":"938828944"}},{"type":"Feature","geometry":{"type":"LineString","coordinates":[[1.16988,51.94532],[1.16571,51.94545],[1.16503,51.94397],[1.16103,51.94317]]},"properties":{"name":"Power lines","category":"minor_line","osm_type":"way","osm_id":"939238543"}},{"type":"Feature","geometry":{"type":"LineString","coordinates":[[1.16546,51.93139],[1.16444,51.9327]]},"properties":{"name":"Power lines","category":"minor_line","osm_type":"way","osm_id":"939323872"}},{"type":"Feature","geometry":{"type":"LineString","coordinates":[[1.16422,51.93305],[1.16517,51.9355],[1.1669,51.93796]]},"properties":{"name":"Power lines","category":"minor_line","osm_type":"way","osm_id":"939323873"}},{"type":"Feature","geometry":{"type":"LineString","coordinates":[[1.15416,51.93193],[1.14829,51.93816],[1.14853,51.93929]]},"properties":{"name":"Power lines","category":"minor_line","osm_type":"way","osm_id":"939336936"}},{"type":"Feature","geometry":{"type":"LineString","coordinates":[[1.21795,51.93093],[1.21738,51.93156]]},"properties":{"name":"Power lines","category":"minor_line","osm_type":"way","osm_id":"940480023"}},{"type":"Feature","geometry":{"type":"LineString","coordinates":[[1.21441,51.93162],[1.21685,51.93128]]},"properties":{"name":"Power lines","category":"minor_line","osm_type":"way","osm_id":"940480026"}},{"type":"Feature","geometry":{"type":"LineString","coordinates":[[1.22862,51.93227],[1.22555,51.93121],[1.21748,51.9323]]},"properties":{"name":"Power lines","category":"minor_line","osm_type":"way","osm_id":"940480034"}},{"type":"Feature","geometry":{"type":"LineString","coordinates":[[1.11141,51.93948],[1.10496,51.93146]]},"properties":{"name":"Power lines","category":"minor_line","osm_type":"way","osm_id":"940673003"}},{"type":"Feature","geometry":{"type":"LineString","coordinates":[[1.11346,51.93766],[1.11073,51.93868]]},"properties":{"name":"Power lines","category":"minor_line","osm_type":"way","osm_id":"940673005"}},{"type":"Feature","geometry":{"type":"LineString","coordinates":[[1.10687,51.9254],[1.10748,51.92428],[1.10612,51.92361]]},"properties":{"name":"Power lines","category":"minor_line","osm_type":"way","osm_id":"940698810"}},{"type":"Feature","geometry":{"type":"LineString","coordinates":[[1.09313,51.90346],[1.09843,51.90455],[1.09946,51.90509],[1.09875,51.90624]]},"properties":{"name":"Power lines","category":"minor_line","osm_type":"way","osm_id":"940808482"}},{"type":"Feature","geometry":{"type":"LineString","coordinates":[[1.11893,51.90596],[1.12674,51.90868],[1.12941,51.90906]]},"properties":{"name":"Power lines","category":"minor_line","osm_type":"way","osm_id":"940808483"}},{"type":"Feature","geometry":{"type":"LineString","coordinates":[[1.1229,51.89039],[1.12926,51.88856],[1.13005,51.88794]]},"properties":{"name":"Power lines","category":"minor_line","osm_type":"way","osm_id":"940831726"}},{"type":"Feature","geometry":{"type":"LineString","coordinates":[[1.13422,51.8915],[1.13005,51.88794],[1.12925,51.88628],[1.12808,51.88573]]},"properties":{"name":"Power lines","category":"minor_line","osm_type":"way","osm_id":"940831727"}},{"type":"Feature","geometry":{"type":"LineString","coordinates":[[1.13302,51.89191],[1.13422,51.8915]]},"properties":{"name":"Power lines","category":"minor_line","osm_type":"way","osm_id":"940831728"}},{"type":"Feature","geometry":{"type":"LineString","coordinates":[[1.04918,51.91504],[1.04837,51.91274],[1.0533,51.91145],[1.05383,51.9096],[1.05318,51.9061],[1.05141,51.90441]]},"properties":{"name":"Power lines","category":"minor_line","osm_type":"way","osm_id":"940859046"}},{"type":"Feature","geometry":{"type":"LineString","coordinates":[[1.03442,51.91623],[1.03341,51.91579],[1.02968,51.91551]]},"properties":{"name":"Power lines","category":"minor_line","osm_type":"way","osm_id":"941001683"}},{"type":"Feature","geometry":{"type":"LineString","coordinates":[[1.029,51.91571],[1.02458,51.91429],[1.02246,51.91306],[1.01964,51.91055]]},"properties":{"name":"Power lines","category":"minor_line","osm_type":"way","osm_id":"941001703"}},{"type":"Feature","geometry":{"type":"LineString","coordinates":[[1.01508,51.90901],[1.01828,51.91049]]},"properties":{"name":"Power lines","category":"minor_line","osm_type":"way","osm_id":"941001724"}},{"type":"Feature","geometry":{"type":"LineString","coordinates":[[1.02458,51.91429],[1.02277,51.91533]]},"properties":{"name":"Power lines","category":"minor_line","osm_type":"way","osm_id":"941001727"}},{"type":"Feature","geometry":{"type":"LineString","coordinates":[[1.02341,51.92578],[1.01537,51.92717]]},"properties":{"name":"Power lines","category":"minor_line","osm_type":"way","osm_id":"941001735"}},{"type":"Feature","geometry":{"type":"LineString","coordinates":[[1.02326,51.94845],[1.02005,51.94912],[1.01563,51.95095]]},"properties":{"name":"Power lines","category":"minor_line","osm_type":"way","osm_id":"941041391"}},{"type":"Feature","geometry":{"type":"LineString","coordinates":[[1.08238,51.94083],[1.07843,51.93945]]},"properties":{"name":"Power lines","category":"minor_line","osm_type":"way","osm_id":"941075693"}},{"type":"Feature","geometry":{"type":"LineString","coordinates":[[1.06378,51.9362],[1.06344,51.93782]]},"properties":{"name":"Power lines","category":"minor_line","osm_type":"way","osm_id":"941075694"}},{"type":"Feature","geometry":{"type":"LineString","coordinates":[[1.01184,51.90271],[1.0111,51.90296]]},"properties":{"name":"Power lines","category":"minor_line","osm_type":"way","osm_id":"941353068"}},{"type":"Feature","geometry":{"type":"LineString","coordinates":[[1.01282,51.90305],[1.01376,51.90217],[1.01304,51.90131],[1.01388,51.89954],[1.01723,51.89805],[1.02249,51.89681]]},"properties":{"name":"Power lines","category":"minor_line","osm_type":"way","osm_id":"941353069"}},{"type":"Feature","geometry":{"type":"LineString","coordinates":[[1.01388,51.89954],[1.00666,51.89728],[1.00346,51.89552],[0.99829,51.89463]]},"properties":{"name":"Power lines","category":"minor_line","osm_type":"way","osm_id":"941353088"}},{"type":"Feature","geometry":{"type":"LineString","coordinates":[[1.11424,51.86481],[1.10892,51.86485]]},"properties":{"name":"Power lines","category":"minor_line","osm_type":"way","osm_id":"941808676"}},{"type":"Feature","geometry":{"type":"LineString","coordinates":[[1.11499,51.86784],[1.11456,51.86575]]},"properties":{"name":"Power lines","category":"minor_line","osm_type":"way","osm_id":"941808677"}},{"type":"Feature","geometry":{"type":"LineString","coordinates":[[1.12,51.8668],[1.11939,51.86535]]},"properties":{"name":"Power lines","category":"minor_line","osm_type":"way","osm_id":"941808678"}},{"type":"Feature","geometry":{"type":"LineString","coordinates":[[1.20747,51.83658],[1.20791,51.837],[1.21147,51.83744]]},"properties":{"name":"Power lines","category":"minor_line","osm_type":"way","osm_id":"961282274"}},{"type":"Feature","geometry":{"type":"LineString","coordinates":[[1.02888,51.88568],[1.031,51.8865],[1.0312,51.88786]]},"properties":{"name":"Power lines","category":"minor_line","osm_type":"way","osm_id":"991633585"}},{"type":"Feature","geometry":{"type":"LineString","coordinates":[[1.0312,51.88786],[1.0299,51.88751]]},"properties":{"name":"Power lines","category":"minor_line","osm_type":"way","osm_id":"991633586"}},{"type":"Feature","geometry":{"type":"LineString","coordinates":[[1.0299,51.88751],[1.02885,51.88904]]},"properties":{"name":"Power lines","category":"minor_line","osm_type":"way","osm_id":"991633587"}},{"type":"Feature","geometry":{"type":"LineString","coordinates":[[1.02321,51.88419],[1.01969,51.88336]]},"properties":{"name":"Power lines","category":"minor_line","osm_type":"way","osm_id":"991639383"}},{"type":"Feature","geometry":{"type":"LineString","coordinates":[[1.00477,51.87775],[1.00412,51.87766],[1.00272,51.87509]]},"properties":{"name":"Power lines","category":"minor_line","osm_type":"way","osm_id":"991639396"}},{"type":"Feature","geometry":{"type":"LineString","coordinates":[[1.04176,51.86615],[1.0423,51.86707],[1.04034,51.86963]]},"properties":{"name":"Power lines","category":"minor_line","osm_type":"way","osm_id":"1008341197"}},{"type":"Feature","geometry":{"type":"LineString","coordinates":[[1.1799,51.82559],[1.18437,51.82508]]},"properties":{"name":"Power lines","category":"minor_line","osm_type":"way","osm_id":"1026439045"}},{"type":"Feature","geometry":{"type":"LineString","coordinates":[[1.13483,51.81118],[1.1376,51.81129]]},"properties":{"name":"Colchester-Chisbon Heath","category":"line","osm_type":"way","osm_id":"1026446884","operator":"UK Power Networks","ref":"PZA"}},{"type":"Feature","geometry":{"type":"LineString","coordinates":[[1.13756,51.81115],[1.13483,51.81118]]},"properties":{"name":"Colchester-Chisbon Heath","category":"line","osm_type":"way","osm_id":"1026446885","operator":"UK Power Networks","ref":"PZA"}},{"type":"Feature","geometry":{"type":"LineString","coordinates":[[1.02852,51.85875],[1.02997,51.85889]]},"properties":{"name":"Power lines","category":"minor_line","osm_type":"way","osm_id":"1118474521"}},{"type":"Feature","geometry":{"type":"LineString","coordinates":[[1.21468,51.92374],[1.22225,51.92507]]},"properties":{"name":"Power lines","category":"minor_line","osm_type":"way","osm_id":"1236895551"}},{"type":"Feature","geometry":{"type":"LineString","coordinates":[[1.0744,51.93648],[1.07409,51.9336]]},"properties":{"name":"Power lines","category":"minor_line","osm_type":"way","osm_id":"1247595735"}},{"type":"Feature","geometry":{"type":"LineString","coordinates":[[1.07408,51.93726],[1.0744,51.93648]]},"properties":{"name":"Power lines","category":"minor_line","osm_type":"way","osm_id":"1247597886"}},{"type":"Feature","geometry":{"type":"LineString","coordinates":[[1.20331,51.9934],[1.20533,51.99423],[1.20972,51.99448],[1.20958,51.99089]]},"properties":{"name":"Power lines","category":"minor_line","osm_type":"way","osm_id":"1494758070"}},{"type":"Feature","geometry":{"type":"LineString","coordinates":[[1.13599,51.83772],[1.13664,51.83706]]},"properties":{"name":"Power lines","category":"minor_line","osm_type":"way","osm_id":"1549468121"}},{"type":"Feature","geometry":{"type":"LineString","coordinates":[[1.12032,51.85674],[1.11899,51.85833]]},"properties":{"name":"Power lines","category":"minor_line","osm_type":"way","osm_id":"1557264070"}}]}